{"type":"FeatureCollection","features":[{"type":"Feature","id":"592941111","properties":{"name":"INFO_ESTACION","oid":"592941111","speedLimit":5.5555553},"geometry":{"type":"Polygon","coordinates":[[[-68.8203747869297,-21.0085408346972],[-68.8205671193636,-21.0083660556149],[-68.8202272903708,-21.0080526648753],[-68.8198809188041,-21.0077031067106],[-68.8195026040818,-21.0078537440366],[-68.820284922751,-21.0086131695477],[-68.8203747869297,-21.0085408346972]]]}},{"type":"Feature","id":"600880362","properties":{"name":"VEL_15_KPH_RC_002","oid":"600880362","speedLimit":4.1666665},"geometry":{"type":"Polygon","coordinates":[[[-68.8105435110791,-21.0009391652644],[-68.8108583243476,-21.0010379023352],[-68.8107824112458,-21.0012966802627],[-68.8107728860278,-21.0014364673612],[-68.8108246493341,-21.0015434325213],[-68.8109849423981,-21.0015663084177],[-68.811111079377,-21.0015722760429],[-68.8112056580576,-21.001601842913],[-68.8111930539811,-21.0017677609762],[-68.8110197719834,-21.0019449813598],[-68.8103108648435,-21.0017546502845],[-68.8102443807455,-21.0013382728017],[-68.8103678237233,-21.0008505550726],[-68.8105435110791,-21.0009391652644]]]}},{"type":"Feature","id":"604050980","properties":{"name":"VEL_10_KPH_901_002","oid":"604050980","speedLimit":2.7777777},"geometry":{"type":"Polygon","coordinates":[[[-68.8165562328349,-21.001475618599],[-68.8166451348704,-21.001647775543],[-68.8166985338203,-21.0018415425236],[-68.8164703134435,-21.0018721944165],[-68.8161651216075,-21.0020069180755],[-68.8160229168364,-21.0020620733989],[-68.8157188795723,-21.0021089102146],[-68.8153242084149,-21.0021271747643],[-68.8151623759217,-21.0018833158998],[-68.815170169282,-21.0017308702024],[-68.815184120359,-21.0016652263257],[-68.8153407572786,-21.0016704706023],[-68.8155785028734,-21.001683581294],[-68.8158274093299,-21.001683581294],[-68.8159699989582,-21.0016572694921],[-68.8161238456624,-21.0015836687818],[-68.8165562328349,-21.001475618599]]]}},{"type":"Feature","id":"607457029","properties":{"name":"ZD_STK_DIN_21-AutoClean-1","oid":"607457029","speedLimit":5},"geometry":{"type":"Polygon","coordinates":[[[-68.823975319366,-21.0061943825675],[-68.8240292956019,-21.0060842527577],[-68.8240510400391,-21.0059619164419],[-68.8239985070182,-21.0058146246027],[-68.8239171097,-21.0057215839013],[-68.8238219537334,-21.005645089797],[-68.8236004683594,-21.0058189646937],[-68.8236924492532,-21.0061405835225],[-68.823975319366,-21.0061943825675]]]}},{"type":"Feature","id":"607691021","properties":{"name":"VEL_13_KPH_901_001","oid":"607691021","speedLimit":3.6111112},"geometry":{"type":"Polygon","coordinates":[[[-68.8148976903161,-21.0017899135241],[-68.815183543073,-21.0021683152105],[-68.8145288045976,-21.0025755604185],[-68.814322905944,-21.0021480614524],[-68.8148976903161,-21.0017899135241]]]}},{"type":"Feature","id":"608715834","properties":{"name":"INFO_RESTRICCION VELOCIDAD","oid":"608715834","speedLimit":2.7777777},"geometry":{"type":"Polygon","coordinates":[[[-68.8173401871477,-21.0015007549595],[-68.817485470777,-21.0011549943744],[-68.8172345438198,-21.0010786811072],[-68.8167232609016,-21.0012343818727],[-68.816600491424,-21.0014617845588],[-68.8164551115803,-21.0015540114931],[-68.8158041254635,-21.0017366569905],[-68.815843765765,-21.0019707506502],[-68.8165325641112,-21.0018447975919],[-68.8170703059686,-21.0017827704576],[-68.8173930088116,-21.0016444300562],[-68.8173401871477,-21.0015007549595]]]}},{"type":"Feature","id":"610786215","properties":{"name":"VEL_20_KPH_F03_001","oid":"610786215","speedLimit":5.5555553},"geometry":{"type":"Polygon","coordinates":[[[-68.8063690601995,-20.999435052468],[-68.8061909674856,-20.9993860456068],[-68.8061326616052,-20.9996948249997],[-68.8060436633554,-21.0000497178596],[-68.8059177188052,-21.0002314591714],[-68.805690556786,-21.0003613002279],[-68.8053865195218,-21.0005690820858],[-68.8052115056663,-21.0007133901124],[-68.8050733418969,-21.0008951314242],[-68.8049627916385,-21.0011837474774],[-68.8049320992691,-21.0013972257048],[-68.8050334129524,-21.0014895430577],[-68.8051316477773,-21.0014635929301],[-68.8051931287304,-21.0011230766216],[-68.805368142586,-21.000846124563],[-68.8057120125803,-21.0005950322134],[-68.8060405844971,-21.0003382434943],[-68.8062247387134,-21.0001131916909],[-68.8063076754608,-20.9996370475379],[-68.8063690601995,-20.999435052468]]]}},{"type":"Feature","id":"610889233","properties":{"name":"VEL_15_KMH","oid":"610889233","speedLimit":4.1666665},"geometry":{"type":"Polygon","coordinates":[[[-68.8112794544442,-20.9972010810307],[-68.8112637715093,-20.9974177239078],[-68.8099983607188,-20.9973323687842],[-68.8100388669492,-20.9971744075546],[-68.8105398549348,-20.9971338096198],[-68.8112794544442,-20.9972010810307]]]}},{"type":"Feature","id":"611100742","properties":{"name":"TRAC_CAM_CH","oid":"611100742","speedLimit":5.5555553},"geometry":{"type":"Polygon","coordinates":[[[-68.8258410113246,-21.0027038643595],[-68.8249116771682,-21.002001221706],[-68.8222074773751,-21.0045643167128],[-68.8235015600342,-21.0047465101174],[-68.8258410113246,-21.0027038643595]]]}},{"type":"Feature","id":"611101069","properties":{"name":"TRAC_RPA_SUR","oid":"611101069","speedLimit":5.5555553},"geometry":{"type":"Polygon","coordinates":[[[-68.8219104637566,-21.0048560974158],[-68.8221449380644,-21.0056477119353],[-68.8212417742041,-21.0061455565434],[-68.8203367822717,-21.0062022489825],[-68.8203465961327,-21.0053251889209],[-68.8213112409461,-21.0052804317322],[-68.8218670710964,-21.0050029371622],[-68.8219104637566,-21.0048560974158]]]}},{"type":"Feature","id":"611176514","properties":{"name":"TRC_40%_FM_001","oid":"611176514","speedLimit":5.5555553},"geometry":{"type":"Polygon","coordinates":[[[-68.8148144649258,-21.0023582846115],[-68.8141351917977,-21.0029946504582],[-68.8116306367271,-21.0030111066367],[-68.8111056913748,-21.0031468248998],[-68.8109662768192,-21.0032470086677],[-68.8098235392919,-21.002164065538],[-68.8103803315855,-21.0023899311085],[-68.8115013246755,-21.0024342362044],[-68.8122832584874,-21.0025050339393],[-68.8134726599619,-21.0025625401454],[-68.8148144649258,-21.0023582846115]]]}},{"type":"Feature","id":"611187609","properties":{"name":"TR_INT NORTESUR","oid":"611187609","speedLimit":5.5555553},"geometry":{"type":"Polygon","coordinates":[[[-68.8109662768192,-21.0032470086677],[-68.8103049957697,-21.0037222486351],[-68.8097774526307,-21.0036116667325],[-68.8081194873978,-21.0031645469382],[-68.8086234580274,-21.0016773424131],[-68.8098235392919,-21.002164065538],[-68.8109662768192,-21.0032470086677]]]}},{"type":"Feature","id":"611197820","properties":{"name":"TRAC_CAM_CH1","oid":"611197820","speedLimit":5.5555553},"geometry":{"type":"Polygon","coordinates":[[[-68.8222817548333,-21.0076663063554],[-68.8234331516498,-21.01250487492],[-68.8246206288378,-21.0142904607031],[-68.8238170468029,-21.0104464059135],[-68.8232193634216,-21.0088892174207],[-68.8231576900399,-21.0076853846722],[-68.8222817548333,-21.0076663063554]]]}},{"type":"Feature","id":"611225942","properties":{"name":"TRAC_CAM_CH2","oid":"611225942","speedLimit":2.7777777},"geometry":{"type":"Polygon","coordinates":[[[-68.8222074773751,-21.0045643167128],[-68.8216519358678,-21.0049834067525],[-68.8221743796476,-21.0072152985629],[-68.8222817548333,-21.0076663063554],[-68.8231576900399,-21.0076853846722],[-68.8231243998837,-21.0070367219009],[-68.8235015600342,-21.0047465101174],[-68.8222074773751,-21.0045643167128]]]}},{"type":"Feature","id":"611506423","properties":{"name":"TRAC_RPA_SUR1","oid":"611506423","speedLimit":5.5555553},"geometry":{"type":"Polygon","coordinates":[[[-68.8203367822717,-21.0062022489825],[-68.8200693064507,-21.0062189764166],[-68.8186624606037,-21.0056967187965],[-68.8170818516875,-21.0048233658959],[-68.8140769821316,-21.0044805891234],[-68.811350075758,-21.0041133993389],[-68.8103339562812,-21.003631830072],[-68.8098997410366,-21.0033461978314],[-68.8103339562812,-21.0029789176283],[-68.8119579578577,-21.0034604868951],[-68.8136254483086,-21.0037706225663],[-68.8158400134064,-21.0039011869714],[-68.817299007417,-21.0041868192121],[-68.8180979711642,-21.004611243947],[-68.8187840755094,-21.005060081694],[-68.8199042988848,-21.0053457139347],[-68.8203465961327,-21.0053251889209],[-68.8203367822717,-21.0062022489825]]]}},{"type":"Feature","id":"611524503","properties":{"name":"TRC_40%_F03_001","oid":"611524503","speedLimit":8.333333},"geometry":{"type":"Polygon","coordinates":[[[-68.8074319398378,-20.9948643941058],[-68.8064706625258,-20.9956031137659],[-68.8063298047553,-20.9958337715202],[-68.8062292607866,-20.9959774466169],[-68.8060763762256,-20.9960946290746],[-68.8061648934038,-20.9962723919696],[-68.8064545947336,-20.9960795291746],[-68.8066517378837,-20.9957656863423],[-68.8067885546526,-20.9955161311082],[-68.8074858198593,-20.9951939697681],[-68.8074319398378,-20.9948643941058]]]}},{"type":"Feature","id":"611565659","properties":{"name":"INFO_SINGLE_LANE_P2","oid":"611565659","speedLimit":8.333333},"geometry":{"type":"Polygon","coordinates":[[[-68.8213645436817,-21.0006508204668],[-68.8213560768212,-20.9999101115983],[-68.8190507816158,-20.9988189403794],[-68.8156438323995,-20.9966844293614],[-68.8152285713767,-20.9975685420709],[-68.8179745281864,-20.9994003317398],[-68.8211611466005,-21.0007543497215],[-68.8213645436817,-21.0006508204668]]]}},{"type":"Feature","id":"611624297","properties":{"name":"ZD_STK_DIN_13-AutoClean-1","oid":"611624297","speedLimit":5},"geometry":{"type":"Polygon","coordinates":[[[-68.8257790492999,-21.0037262270519],[-68.8259108629239,-21.0037236953321],[-68.8261451448031,-21.0036803848404],[-68.8263084205111,-21.0036316492349],[-68.826402806763,-21.003557958106],[-68.8262725325682,-21.0033159076127],[-68.8257280557081,-21.0034592210352],[-68.8257790492999,-21.0037262270519]]]}},{"type":"Feature","id":"611713611","properties":{"name":"VEL_15_KMH_F03_001","oid":"611713611","speedLimit":4.1666665},"geometry":{"type":"Polygon","coordinates":[[[-68.8046836738843,-20.9995308057263],[-68.8045356962539,-20.9995277314951],[-68.8042594649294,-21.0004734192461],[-68.8044535292211,-21.0005259524312],[-68.804749484482,-20.9995369541886],[-68.8046836738843,-20.9995308057263]]]}}]}