{"type":"FeatureCollection","features":[{"type":"Feature","id":"551760555","properties":{"name":"ZD_BOT_PAD59_01-AutoClean-1","oid":"551760555","speedLimit":5},"geometry":{"type":"Polygon","coordinates":[[[-68.8195541612139,-20.9847239113854],[-68.8195541612139,-20.9847239113854]]]}},{"type":"Feature","id":"553267213","properties":{"name":"ZD_BOT_PAD59_02-AutoClean-1","oid":"553267213","speedLimit":5},"geometry":{"type":"Polygon","coordinates":[[[-68.8183537203217,-20.9849443480255],[-68.8186268013869,-20.984856679497],[-68.8182650339032,-20.98473050912],[-68.8182979306008,-20.9848413149096],[-68.8183537203217,-20.9849443480255]]]}},{"type":"Feature","id":"553508825","properties":{"name":"ZD_STK_HG_02-AutoClean-1","oid":"553508825","speedLimit":5},"geometry":{"type":"Polygon","coordinates":[[[-68.8163742433089,-21.0204834522434],[-68.8164589859712,-21.0202242426149],[-68.8158841594671,-21.0197074501967],[-68.8156058841866,-21.019779302238],[-68.8156409932351,-21.0200163687846],[-68.8157203493037,-21.0201496791758],[-68.8157872969688,-21.0202105952461],[-68.8159818876679,-21.0203627950419],[-68.816125594294,-21.0204330202446],[-68.8163742433089,-21.0204834522434]]]}},{"type":"Feature","id":"558966402","properties":{"name":"ZD_STK_BL_02-AutoClean-1","oid":"558966402","speedLimit":5},"geometry":{"type":"Polygon","coordinates":[[[-68.8233394937804,-20.9923435718273],[-68.8235319683176,-20.9921414823122],[-68.8232699490075,-20.9918865205402],[-68.8231559648363,-20.9917778838689],[-68.8230904600088,-20.9917195888165],[-68.8229898461327,-20.9916462003164],[-68.822959642732,-20.9916291185103],[-68.8228472937768,-20.9915735348557],[-68.8227278268226,-20.991532683129],[-68.82260701322,-20.991778968428],[-68.8232134859624,-20.9922465941664],[-68.8233394937804,-20.9923435718273]]]}},{"type":"Feature","id":"570805601","properties":{"name":"ZD_STK_MAR_02-AutoClean-1-tmp-1","oid":"570805601","speedLimit":5},"geometry":{"type":"Polygon","coordinates":[[[-68.806506292132,-20.9867037740497],[-68.8068584406982,-20.9866981704942],[-68.8068627692111,-20.9864270307155],[-68.80628409514,-20.9862051479966],[-68.8060017799141,-20.9862611835509],[-68.8060098598048,-20.9863758756773],[-68.8060388127461,-20.986498792377],[-68.806061417202,-20.9865265390143],[-68.8061468331886,-20.9866144786825],[-68.8062244578521,-20.9866455693772],[-68.8063399810501,-20.9866797329893],[-68.8063876908804,-20.9866888613618],[-68.806506292132,-20.9867037740497]]]}},{"type":"Feature","id":"592941111","properties":{"name":"INFO_ESTACION","oid":"592941111","speedLimit":5.5555553},"geometry":{"type":"Polygon","coordinates":[[[-68.8219788017242,-21.0107286564239],[-68.8222236031722,-21.0106273405266],[-68.8220198745016,-21.0102229807366],[-68.8218240333432,-21.0097826497359],[-68.8214136903267,-21.0098011776208],[-68.8218677032282,-21.0107673390324],[-68.8219788017242,-21.0107286564239]]]}},{"type":"Feature","id":"600121666","properties":{"name":"ZD_STK_3C_02-AutoClean-1","oid":"600121666","speedLimit":5},"geometry":{"type":"Polygon","coordinates":[[[-68.8050761514922,-20.985313821164],[-68.8049751528595,-20.984712161995],[-68.8048038399405,-20.985028220597],[-68.8047710394321,-20.9851907237044],[-68.8047880649159,-20.9852989988561],[-68.8050761514922,-20.985313821164]]]}},{"type":"Feature","id":"602013008","properties":{"name":"ZD_STK_3C_01-AutoClean-1","oid":"602013008","speedLimit":5},"geometry":{"type":"Polygon","coordinates":[[[-68.8048611686882,-20.9854512890318],[-68.805125785106,-20.98534319464],[-68.8048499145548,-20.9848844261344],[-68.8047549758401,-20.9850898597067],[-68.8047418941124,-20.9852496514163],[-68.8047861411324,-20.9853593726468],[-68.8048611686882,-20.9854512890318]]]}},{"type":"Feature","id":"606156222","properties":{"name":"VEL_30KMH","oid":"606156222","speedLimit":8.333333},"geometry":{"type":"Polygon","coordinates":[[[-68.8182943716013,-21.0229231679725],[-68.818191930131,-21.0230007139492],[-68.8182834060355,-21.0230991376889],[-68.8184137423663,-21.0230220436118],[-68.8182943716013,-21.0229231679725]]]}},{"type":"Feature","id":"606156969","properties":{"name":"VEL_30KMH_2","oid":"606156969","speedLimit":8.333333},"geometry":{"type":"Polygon","coordinates":[[[-68.813191054972,-21.022939707499],[-68.8130287838354,-21.022970346294],[-68.8130911144202,-21.0231182078533],[-68.8132448247203,-21.0230760908077],[-68.813191054972,-21.022939707499]]]}},{"type":"Feature","id":"606157392","properties":{"name":"VEL_20KH","oid":"606157392","speedLimit":5.5555553},"geometry":{"type":"Polygon","coordinates":[[[-68.8236984717779,-21.01475282264],[-68.8235429338835,-21.014663346513],[-68.8233989386899,-21.0148779988378],[-68.8235612098266,-21.0149640405276],[-68.8236984717779,-21.01475282264]]]}},{"type":"Feature","id":"606157536","properties":{"name":"VEL_20KMH_2","oid":"606157536","speedLimit":5.5555553},"geometry":{"type":"Polygon","coordinates":[[[-68.8218532748521,-21.0175107660893],[-68.8216939855799,-21.0174468674815],[-68.8216077038907,-21.0176131665457],[-68.8217518914626,-21.0176844763076],[-68.8218532748521,-21.0175107660893]]]}},{"type":"Feature","id":"606796346","properties":{"name":"ZD_STK_HG_03-AutoClean-1","oid":"606796346","speedLimit":5},"geometry":{"type":"Polygon","coordinates":[[[-68.8156313743177,-21.0198921867659],[-68.8158946440871,-21.0197812002165],[-68.8159538966183,-21.0188816488106],[-68.8157041895224,-21.0187457174015],[-68.8156250258322,-21.0188350127686],[-68.8155694284896,-21.0189391304437],[-68.8155595210047,-21.01898034369],[-68.8155131578228,-21.0191896635992],[-68.8155032503378,-21.0194159749345],[-68.815513254012,-21.0196449072877],[-68.8155649075984,-21.0197949379653],[-68.8156313743177,-21.0198921867659]]]}},{"type":"Feature","id":"607546676","properties":{"name":"ZD_STK_HG_01-AutoClean-1","oid":"607546676","speedLimit":5},"geometry":{"type":"Polygon","coordinates":[[[-68.8167392812244,-21.0205628961986],[-68.8169117484135,-21.0205565696038],[-68.8169733094849,-21.0205541293457],[-68.8171396205668,-21.0205144525581],[-68.8172395611187,-21.0204492886313],[-68.8173277665913,-21.0203768943104],[-68.8171683811299,-21.0201508541148],[-68.816370972877,-21.0202020091531],[-68.8162904625383,-21.0204623937206],[-68.8165085233959,-21.0205375898192],[-68.8166791629906,-21.0205616308796],[-68.8167392812244,-21.0205628961986]]]}},{"type":"Feature","id":"615608482","properties":{"name":"INFO_SINGLE_LANE_903","oid":"615608482","speedLimit":3.6111112},"geometry":{"type":"Polygon","coordinates":[[[-68.8107998882942,-21.0010984945227],[-68.8103734816856,-21.0010070300374],[-68.8103399116639,-21.001360415549],[-68.8103802149278,-21.0015938668985],[-68.8107797847568,-21.0018588608422],[-68.8110248747723,-21.0019188731132],[-68.8113876041477,-21.0020071743012],[-68.8115139967224,-21.0020357343579],[-68.8116063383295,-21.0016502639724],[-68.8110115044771,-21.001486585926],[-68.8107629516514,-21.001360415549],[-68.8108737615799,-21.0010669519285],[-68.8107998882942,-21.0010984945227]]]}},{"type":"Feature","id":"617114544","properties":{"name":"VEL_10_KPH_903_001","oid":"617114544","speedLimit":2.7777777},"geometry":{"type":"Polygon","coordinates":[[[-68.8146105186135,-21.0006468660313],[-68.8142196058101,-21.0009047199608],[-68.8139498913661,-21.0008502208653],[-68.8135836029913,-21.0007850569385],[-68.8130920763119,-21.0007379689969],[-68.8128106267886,-21.0007560449822],[-68.8123942238541,-21.0006908810553],[-68.812160965107,-21.0006147811575],[-68.8117812102479,-21.0005006313106],[-68.811528713666,-21.0005857692011],[-68.811302669107,-21.0003415626404],[-68.8114119400087,-21.0003068567487],[-68.8116431787831,-21.0003228539957],[-68.8117723608439,-21.00031752158],[-68.812077472904,-21.0003402069415],[-68.8125343714807,-21.0003589155863],[-68.8129770340597,-21.0003869333634],[-68.8136284271464,-21.0003816009477],[-68.8138909274024,-21.0004108840438],[-68.8146499561748,-21.0004932201567],[-68.8146105186135,-21.0006468660313]]]}},{"type":"Feature","id":"619354898","properties":{"name":"New Zone11446","oid":"619354898","speedLimit":5.5555553},"geometry":{"type":"Polygon","coordinates":[[[-68.8036918930884,-20.9912026156384],[-68.8035652119462,-20.9909355429563],[-68.8032925156378,-20.9909572341386],[-68.8030236668963,-20.9910113717144],[-68.8026396797135,-20.9910871100926],[-68.8026934494618,-20.9913108004101],[-68.8036918930884,-20.9912026156384]]]}},{"type":"Feature","id":"619355510","properties":{"name":"VEL_10KMH","oid":"619355510","speedLimit":2.7777777},"geometry":{"type":"Polygon","coordinates":[[[-68.8157031314415,-21.0023132007314],[-68.815659172989,-21.0017253696911],[-68.8170914297906,-21.0016635498216],[-68.8170639196868,-21.0022616841735],[-68.8158730015229,-21.0023828836546],[-68.8157031314415,-21.0023132007314]]]}},{"type":"Feature","id":"619524295","properties":{"name":"ZD_STK_DIN_21-AutoClean-1","oid":"619524295","speedLimit":5},"geometry":{"type":"Polygon","coordinates":[[[-68.8240767837995,-21.0063057339733],[-68.8241693177849,-21.0062530424763],[-68.8242744525522,-21.0061797443561],[-68.8242953256029,-21.0061285893179],[-68.8243081187631,-21.00607698238],[-68.8243193728964,-21.0060214891053],[-68.8243144672486,-21.0059111352153],[-68.8242873419015,-21.0057504397064],[-68.8242601203652,-21.0056434298738],[-68.8242456919891,-21.005592907495],[-68.824222991344,-21.005536510421],[-68.8241233393597,-21.0054046461086],[-68.8240344605629,-21.0053313479885],[-68.8238160149486,-21.0055085830238],[-68.8238883492075,-21.0061003907809],[-68.8240767837995,-21.0063057339733]]]}},{"type":"Feature","id":"619770241","properties":{"name":"VEL_10_kmph","oid":"619770241","speedLimit":2.7777777},"geometry":{"type":"Polygon","coordinates":[[[-68.8105591267916,-20.9969855752191],[-68.8103010512376,-20.9972280645612],[-68.8099579444537,-20.9971949855082],[-68.809588385647,-20.9972693681875],[-68.8095737648926,-20.9969663242948],[-68.8105591267916,-20.9969855752191]]]}},{"type":"Feature","id":"619848433","properties":{"name":"ZD_BOT_NRT_02-AutoClean-1","oid":"619848433","speedLimit":5},"geometry":{"type":"Polygon","coordinates":[[[-68.7921046566146,-20.990643073515],[-68.7936972607694,-20.9904071819075],[-68.7938218257498,-20.9901626138271],[-68.7937241937381,-20.990087869628],[-68.7933757003605,-20.9899929707055],[-68.7932074654951,-20.9899570898748],[-68.7931475396396,-20.9899516670792],[-68.7930318240633,-20.9899459731438],[-68.7929748800722,-20.9899449789647],[-68.7926299456941,-20.9899648625484],[-68.7925163462795,-20.9899928803256],[-68.792234223432,-20.9900713301016],[-68.7920878235091,-20.9901571910315],[-68.791967298474,-20.9902819153297],[-68.7918809205957,-20.990423721434],[-68.7918437915745,-20.9905270256897],[-68.7921046566146,-20.990643073515]]]}},{"type":"Feature","id":"619990689","properties":{"name":"ZD_BOT_NRT_03-AutoClean-1","oid":"619990689","speedLimit":5},"geometry":{"type":"Polygon","coordinates":[[[-68.7920215491682,-20.991781408686],[-68.7922524031859,-20.9916187248188],[-68.7921764137384,-20.9904673749383],[-68.7918972727553,-20.9903985958145],[-68.7918563923563,-20.9905013577906],[-68.791824168983,-20.9906608783604],[-68.7917840580975,-20.9909301201607],[-68.7917718420724,-20.9910921713685],[-68.7917908875288,-20.9915256334947],[-68.7918662036521,-20.9916186344388],[-68.7920215491682,-20.991781408686]]]}},{"type":"Feature","id":"620034757","properties":{"name":"VEL_10KPH","oid":"620034757","speedLimit":2.7777777},"geometry":{"type":"Polygon","coordinates":[[[-68.8141394802281,-21.0025088732718],[-68.8141967127867,-21.002852859271],[-68.8147088239494,-21.002801433093],[-68.8148744617071,-21.002792847],[-68.8150765551618,-21.0024502166996],[-68.8152969245595,-21.002291690309],[-68.8154504424813,-21.0022317684179],[-68.8154169686487,-21.0020518219847],[-68.815342518228,-21.0018377119395],[-68.8150811722421,-21.0018862459599],[-68.8149074545938,-21.0020753207656],[-68.8146979545727,-21.0023120257924],[-68.8145932045621,-21.0024261756392],[-68.8141763206818,-21.0024994737594],[-68.8141394802281,-21.0025088732718]]]}},{"type":"Feature","id":"620050007","properties":{"name":"ZD_STK_DIN_22-AutoClean-1","oid":"620050007","speedLimit":5},"geometry":{"type":"Polygon","coordinates":[[[-68.823861512428,-21.0055455484137],[-68.824093616905,-21.0053844010052],[-68.8240266692398,-21.0052927557599],[-68.8238844054514,-21.0051066634918],[-68.8237463739866,-21.0050166450853],[-68.8235500518824,-21.004967930305],[-68.8233810475036,-21.0049516619183],[-68.8232776441414,-21.0050572256722],[-68.82329062968,-21.0052092447081],[-68.8233727752346,-21.0053132720032],[-68.823861512428,-21.0055455484137]]]}},{"type":"Feature","id":"620143635","properties":{"name":"New Zone11591","oid":"620143635","speedLimit":5.5555553},"geometry":{"type":"Polygon","coordinates":[[[-68.806474742083,-21.0000086933721],[-68.8060687275793,-20.9999399142482],[-68.8059155944142,-21.0002087945288],[-68.8057026315828,-21.0003526793713],[-68.8058357573997,-21.0005403080982],[-68.806474742083,-21.0000086933721]]]}},{"type":"Feature","id":"620143794","properties":{"name":"New Zone11592","oid":"620143794","speedLimit":5.5555553},"geometry":{"type":"Polygon","coordinates":[[[-68.807067171206,-20.9983637787144],[-68.8067609048758,-20.9982199842518],[-68.806494653242,-20.9984951007472],[-68.8063948088793,-20.9987203275234],[-68.8065413049914,-20.9989141924652],[-68.807067171206,-20.9983637787144]]]}}]}