{"type":"FeatureCollection","features":[{"type":"Feature","id":"558966402","properties":{"name":"ZD_STK_BL_02-AutoClean-1","oid":"558966402","speedLimit":5},"geometry":{"type":"Polygon","coordinates":[[[-68.8233378070851,-20.9923360770487],[-68.8235302468051,-20.9921338116778],[-68.8232682748924,-20.9918786280413],[-68.8231543113401,-20.9917698968357],[-68.8230888183619,-20.9917115510556],[-68.8229882226862,-20.9916380986938],[-68.8229580247491,-20.9916210020233],[-68.822845696117,-20.9915653700005],[-68.8227262507735,-20.9915244827251],[-68.8226054590252,-20.9917709823386],[-68.823211822061,-20.9922390149991],[-68.8233378070851,-20.9923360770487]]]}},{"type":"Feature","id":"592941111","properties":{"name":"INFO_ESTACION","oid":"592941111","speedLimit":5.5555553},"geometry":{"type":"Polygon","coordinates":[[[-68.8203806212027,-21.008538202649],[-68.8205728685792,-21.008363346226],[-68.820233189873,-21.0080498168094],[-68.8198869714862,-21.0077001039633],[-68.8195088240704,-21.0078508079472],[-68.8202907967657,-21.008610569508],[-68.8203806212027,-21.008538202649]]]}},{"type":"Feature","id":"600880362","properties":{"name":"VEL_15_KPH_RC_002","oid":"600880362","speedLimit":4.1666665},"geometry":{"type":"Polygon","coordinates":[[[-68.8105536931516,-21.0009331694379],[-68.8108683671965,-21.0010319502004],[-68.8107924876667,-21.0012908426385],[-68.8107829666611,-21.0014306915935],[-68.8108347070756,-21.0015377040862],[-68.8109949292512,-21.0015605901053],[-68.8111210104471,-21.0015665603712],[-68.8112155473011,-21.0015961403248],[-68.8112029487987,-21.0017621318076],[-68.8110297434335,-21.0019394306121],[-68.8103211498018,-21.0017490153144],[-68.8102546951058,-21.0013324535824],[-68.810378083492,-21.0008445200357],[-68.8105536931516,-21.0009331694379]]]}},{"type":"Feature","id":"604050980","properties":{"name":"VEL_10_KPH_901_002","oid":"604050980","speedLimit":2.7777777},"geometry":{"type":"Polygon","coordinates":[[[-68.8165637558316,-21.0014698601559],[-68.8166526185508,-21.0016420932803],[-68.8167059938855,-21.0018359460038],[-68.8164778744373,-21.0018666114603],[-68.8161728175698,-21.0020013947352],[-68.8160306756876,-21.0020565744651],[-68.8157267728814,-21.0021034320063],[-68.815332276264,-21.0021217046382],[-68.8151705153399,-21.0018777378649],[-68.8151783052536,-21.0017252247095],[-68.8151922501608,-21.001659551785],[-68.8153488178091,-21.0016647983823],[-68.815586458263,-21.0016779148755],[-68.8158352546426,-21.0016779148755],[-68.8159777812118,-21.0016515914305],[-68.8161315598786,-21.0015779581515],[-68.8165637558316,-21.0014698601559]]]}},{"type":"Feature","id":"607457029","properties":{"name":"ZD_STK_DIN_21-AutoClean-1","oid":"607457029","speedLimit":5},"geometry":{"type":"Polygon","coordinates":[[[-68.8234113784923,-21.0061818472618],[-68.8236974895203,-21.0061469302523],[-68.8236860450792,-21.0059193364808],[-68.8236479610566,-21.0057654664469],[-68.8235958359551,-21.0056615295456],[-68.8233218425706,-21.0057462892292],[-68.8234113784923,-21.0061818472618]]]}},{"type":"Feature","id":"607691021","properties":{"name":"VEL_13_KPH_901_001","oid":"607691021","speedLimit":3.6111112},"geometry":{"type":"Polygon","coordinates":[[[-68.8149059467893,-21.0017842941582],[-68.8151916731302,-21.0021628632893],[-68.8145372242073,-21.0025702887054],[-68.8143314166107,-21.0021426005688],[-68.8149059467893,-21.0017842941582]]]}},{"type":"Feature","id":"608715834","properties":{"name":"INFO_RESTRICCION VELOCIDAD","oid":"608715834","speedLimit":2.7777777},"geometry":{"type":"Polygon","coordinates":[[[-68.817347363447,-21.0014950076394],[-68.817492582826,-21.0011490940534],[-68.8172417668391,-21.0010727470172],[-68.8167307100314,-21.0012285166812],[-68.8166079948476,-21.0014560199941],[-68.816462679297,-21.0015482877393],[-68.8158119810733,-21.0017310140583],[-68.8158516038442,-21.0019652113057],[-68.8165400975751,-21.0018392025124],[-68.8170776016206,-21.0017771479309],[-68.817400161751,-21.001638746313],[-68.817347363447,-21.0014950076394]]]}},{"type":"Feature","id":"610786215","properties":{"name":"VEL_20_KPH_F03_001","oid":"610786215","speedLimit":5.5555553},"geometry":{"type":"Polygon","coordinates":[[[-68.8063810883879,-20.9994283910638],[-68.806203074434,-20.9993793625169],[-68.8061447943389,-20.9996882785462],[-68.8060558354479,-21.0000433284481],[-68.8059299465955,-21.0002251501813],[-68.8057028850368,-21.0003550486932],[-68.8053989822306,-21.0005629224956],[-68.8052240457735,-21.0007072943793],[-68.8050859431059,-21.0008891161125],[-68.8049754417374,-21.0011778598799],[-68.8049447629415,-21.0013914325725],[-68.8050460318196,-21.0014837907762],[-68.805144223201,-21.0014578291656],[-68.8052056769647,-21.0011171621769],[-68.8053806134218,-21.0008400875655],[-68.8057243313425,-21.0005888841063],[-68.8060527579511,-21.0003319817569],[-68.8062368307268,-21.0001068303668],[-68.806319730796,-20.9996304755176],[-68.8063810883879,-20.9994283910638]]]}},{"type":"Feature","id":"610889233","properties":{"name":"VEL_15_KMH","oid":"610889233","speedLimit":4.1666665},"geometry":{"type":"Polygon","coordinates":[[[-68.8123117131825,-20.9973583370625],[-68.8124853994065,-20.9977867488677],[-68.8115537834306,-20.997492125293],[-68.8100472525891,-20.9973021622882],[-68.810087740906,-20.9971441311599],[-68.8105885073338,-20.9971035152603],[-68.8123117131825,-20.9973583370625]]]}},{"type":"Feature","id":"611100742","properties":{"name":"TRAC_CAM_CH","oid":"611100742","speedLimit":5.5555553},"geometry":{"type":"Polygon","coordinates":[[[-68.8258444282057,-21.0026986494215],[-68.8249155050395,-21.001995695845],[-68.8219516833047,-21.004865222721],[-68.8221829764215,-21.0056642433028],[-68.8258444282057,-21.0026986494215]]]}},{"type":"Feature","id":"611101069","properties":{"name":"TRAC_RPA_SUR","oid":"611101069","speedLimit":5.5555553},"geometry":{"type":"Polygon","coordinates":[[[-68.8219156188894,-21.0048518348521],[-68.822149989503,-21.0056437996652],[-68.8212472250593,-21.0061418645722],[-68.820342633352,-21.0061985820979],[-68.8203524428729,-21.0053211339327],[-68.8213166610802,-21.0052763569387],[-68.8218722454193,-21.0049987395759],[-68.8219156188894,-21.0048518348521]]]}},{"type":"Feature","id":"611176514","properties":{"name":"TRC_40%_FM_001","oid":"611176514","speedLimit":5.5555553},"geometry":{"type":"Polygon","coordinates":[[[-68.8148227582047,-21.0023529167527],[-68.8141437854794,-21.0029895641946],[-68.8116403380274,-21.003006027655],[-68.8111156248278,-21.0031418059742],[-68.8109762719271,-21.0032420340739],[-68.8098340397659,-21.0021586117363],[-68.8103905858227,-21.0023845772535],[-68.8115110831629,-21.0024289019546],[-68.8122926711712,-21.0024997310179],[-68.8134815466428,-21.0025572626708],[-68.8148227582047,-21.0023529167527]]]}},{"type":"Feature","id":"611187609","properties":{"name":"TR_INT NORTESUR","oid":"611187609","speedLimit":5.5555553},"geometry":{"type":"Polygon","coordinates":[[[-68.8105703308685,-21.0028887933435],[-68.8087552809756,-21.0038463878051],[-68.8067304804433,-20.9987537510209],[-68.8082295098865,-20.9977331069335],[-68.8088559728231,-20.9979014503392],[-68.808128818039,-20.9996270380917],[-68.8105703308685,-21.0028887933435]]]}},{"type":"Feature","id":"611197820","properties":{"name":"TRAC_CAM_CH1","oid":"611197820","speedLimit":5.5555553},"geometry":{"type":"Polygon","coordinates":[[[-68.8222867457658,-21.0076632873238],[-68.8234376333866,-21.0125039969801],[-68.8246245854228,-21.0142903728942],[-68.8238213587654,-21.0104446170904],[-68.8232239397046,-21.0088867395336],[-68.8231622935973,-21.0076823740829],[-68.8222867457658,-21.0076632873238]]]}},{"type":"Feature","id":"611225942","properties":{"name":"TRAC_CAM_CH2","oid":"611225942","speedLimit":2.7777777},"geometry":{"type":"Polygon","coordinates":[[[-68.8225604506349,-21.0054911055927],[-68.8219045591354,-21.0058728407739],[-68.8221794180658,-21.007212079958],[-68.8222867457658,-21.0076632873238],[-68.8231622935973,-21.0076823740829],[-68.8231290181635,-21.0070334242749],[-68.8228524281411,-21.0057954082348],[-68.8225604506349,-21.0054911055927]]]}},{"type":"Feature","id":"611506423","properties":{"name":"TRAC_RPA_SUR1","oid":"611506423","speedLimit":5.5555553},"geometry":{"type":"Polygon","coordinates":[[[-68.820342633352,-21.0061985820979],[-68.8200752758199,-21.006215316934],[-68.8186690521388,-21.0056928282121],[-68.8170891422336,-21.0048190888484],[-68.8140856015561,-21.0044761603954],[-68.811359901134,-21.0041088081275],[-68.8103442310276,-21.0036270257637],[-68.809910207811,-21.0033412671293],[-68.8103442310276,-21.0029738244028],[-68.8119675144029,-21.0034556067665],[-68.8136342674201,-21.0037658796744],[-68.815847853145,-21.0038965018549],[-68.8173062019277,-21.0041822604893],[-68.81810481234,-21.0046068730344],[-68.8187906132612,-21.0050559093945],[-68.8199103412273,-21.0053416680289],[-68.8203524428729,-21.0053211339327],[-68.820342633352,-21.0061985820979]]]}},{"type":"Feature","id":"611524503","properties":{"name":"TRC_40%_F03_001","oid":"611524503","speedLimit":8.333333},"geometry":{"type":"Polygon","coordinates":[[[-68.8074434979766,-20.9948557101615],[-68.8064826457814,-20.9955947567089],[-68.8063418503041,-20.9958255165305],[-68.8062413508001,-20.9959692552042],[-68.8060885338511,-20.9960864895158],[-68.8061770118832,-20.9962643310717],[-68.8064665850951,-20.9960713829339],[-68.8066636410603,-20.9957574012245],[-68.8068003973231,-20.995507735561],[-68.8074973541701,-20.9951854316628],[-68.8074434979766,-20.9948557101615]]]}},{"type":"Feature","id":"611565659","properties":{"name":"INFO_SINGLE_LANE_P2","oid":"611565659","speedLimit":8.333333},"geometry":{"type":"Polygon","coordinates":[[[-68.8213699402431,-21.0006446970463],[-68.821361477127,-20.9999036604102],[-68.8190572014191,-20.9988120063424],[-68.8156517588976,-20.9966765507922],[-68.8152366815205,-20.9975610547262],[-68.8179814239538,-20.9993936549715],[-68.8211666331126,-21.0007482721132],[-68.8213699402431,-21.0006446970463]]]}},{"type":"Feature","id":"611624297","properties":{"name":"ZD_STK_DIN_13-AutoClean-1","oid":"611624297","speedLimit":5},"geometry":{"type":"Polygon","coordinates":[[[-68.8258574113952,-21.0038291102175],[-68.8260027269459,-21.0038179838129],[-68.8261399640676,-21.0037744732389],[-68.8262470994239,-21.0034021457494],[-68.825846447813,-21.0034519884236],[-68.8257158465437,-21.0036939651083],[-68.8258574113952,-21.0038291102175]]]}},{"type":"Feature","id":"611713611","properties":{"name":"VEL_15_KMH_F03_001","oid":"611713611","speedLimit":4.1666665},"geometry":{"type":"Polygon","coordinates":[[[-68.8046964474207,-20.9995241866934],[-68.8045485352321,-20.9995211111019],[-68.8042724260686,-21.0004672173246],[-68.804466404537,-21.0005197737559],[-68.8047622289142,-20.9995303378764],[-68.8046964474207,-20.9995241866934]]]}},{"type":"Feature","id":"611923346","properties":{"name":"ZD_RELL_PIO3-AutoClean-1","oid":"611923346","speedLimit":5},"geometry":{"type":"Polygon","coordinates":[[[-68.8109486706279,-20.9942714382338],[-68.8110216650044,-20.9940089274528],[-68.8105350358274,-20.9937801577198],[-68.810046867902,-20.9935612479714],[-68.8098727969908,-20.9937776248797],[-68.8099506961279,-20.9938679025363],[-68.8101028398745,-20.9939413548982],[-68.8106695801394,-20.9942028706349],[-68.8108281673949,-20.9942652870507],[-68.8109486706279,-20.9942714382338]]]}}]}