{"type":"FeatureCollection","features":[{"type":"Feature","id":"553508825","properties":{"name":"ZD_STK_HG_02-AutoClean-1","oid":"553508825","speedLimit":5},"geometry":{"type":"Polygon","coordinates":[[[-68.8163729726615,-21.0204830946026],[-68.8164577099062,-21.0202238510161],[-68.8158829201513,-21.0197069908949],[-68.8156046626612,-21.0197788523494],[-68.8156397694651,-21.020015949953],[-68.8157191204604,-21.0201492778087],[-68.8157860638455,-21.0202102018594],[-68.8159806421042,-21.0203624215943],[-68.816124339543,-21.0204326559969],[-68.8163729726615,-21.0204830946026]]]}},{"type":"Feature","id":"558966402","properties":{"name":"ZD_STK_BL_02-AutoClean-1","oid":"558966402","speedLimit":5},"geometry":{"type":"Polygon","coordinates":[[[-68.8233377778375,-20.9923395276919],[-68.8235302400697,-20.9921374117018],[-68.8232682375107,-20.9918824165284],[-68.8231542606266,-20.991773765625],[-68.8230887599868,-20.9917154629355],[-68.8229881525431,-20.9916420648211],[-68.8229579510734,-20.9916249807772],[-68.8228456093007,-20.9915693898408],[-68.8227261499842,-20.9915285327623],[-68.8226053441053,-20.9917748503262],[-68.8232117780753,-20.9922425373264],[-68.8233377778375,-20.9923395276919]]]}},{"type":"Feature","id":"570805601","properties":{"name":"ZD_STK_MAR_02-AutoClean-1-tmp-1","oid":"570805601","speedLimit":5},"geometry":{"type":"Polygon","coordinates":[[[-68.8065056523528,-20.9866989910667],[-68.8068577784058,-20.9866933867771],[-68.8068621066419,-20.9864222114774],[-68.8060382028533,-20.9864939825401],[-68.8060608058641,-20.9865217328124],[-68.8061462163899,-20.9866096840013],[-68.8062238360907,-20.986640778769],[-68.8063393519033,-20.9866749468568],[-68.8063870586834,-20.9866840764252],[-68.8065056523528,-20.9866989910667]]]}},{"type":"Feature","id":"592941111","properties":{"name":"INFO_ESTACION","oid":"592941111","speedLimit":5.5555553},"geometry":{"type":"Polygon","coordinates":[[[-68.8203802460146,-21.0085296873925],[-68.8205725158808,-21.0083549601078],[-68.820232797438,-21.0080416622448],[-68.8198865385494,-21.0076922076753],[-68.8195083468968,-21.0078428003584],[-68.8202904110697,-21.0086020008058],[-68.8203802460146,-21.0085296873925]]]}},{"type":"Feature","id":"600880362","properties":{"name":"VEL_15_KPH_RC_002","oid":"600880362","speedLimit":4.1666665},"geometry":{"type":"Polygon","coordinates":[[[-68.8105521683799,-21.0009302707941],[-68.8108668792364,-21.0010289786032],[-68.81079099083,-21.0012876798391],[-68.8107814687105,-21.0014274255102],[-68.8108332151777,-21.0015343589701],[-68.8109934560967,-21.001557228087],[-68.8111195520419,-21.0015631939436],[-68.8112140999551,-21.0015927520513],[-68.8112014999789,-21.0017586209429],[-68.8110282743516,-21.0019357888054],[-68.8103195978265,-21.0017455141368],[-68.8102531353565,-21.0013292600517],[-68.810376538177,-21.0008416868629],[-68.8105521683799,-21.0009302707941]]]}},{"type":"Feature","id":"603087867","properties":{"name":"ZD_BOT_NRT_04-AutoClean-1","oid":"603087867","speedLimit":5},"geometry":{"type":"Polygon","coordinates":[[[-68.7933716679802,-20.9926137763116],[-68.7935194051059,-20.9926129627857],[-68.7935324859973,-20.9926106125998],[-68.793793719092,-20.9925288984428],[-68.7937042688792,-20.9922711011246],[-68.7925576710431,-20.9917754830685],[-68.79234577984,-20.991959611097],[-68.7926572204736,-20.9923554366428],[-68.7927700431614,-20.992452155833],[-68.7929887633593,-20.992558275767],[-68.7931381355965,-20.9926009406808],[-68.7933716679802,-20.9926137763116]]]}},{"type":"Feature","id":"604050980","properties":{"name":"VEL_10_KPH_901_002","oid":"604050980","speedLimit":2.7777777},"geometry":{"type":"Polygon","coordinates":[[[-68.8165629341351,-21.0014665651452],[-68.8166518072498,-21.0016386710687],[-68.8167051888284,-21.0018323806244],[-68.8164770426941,-21.0018630234333],[-68.8161719501401,-21.0019977071655],[-68.8160297916298,-21.0020528461431],[-68.8157258532721,-21.0020996690782],[-68.8153313105053,-21.002117928215],[-68.815169530658,-21.0018741416206],[-68.815177321483,-21.0017217411022],[-68.8151912680215,-21.0016561166796],[-68.8153478539855,-21.0016613594021],[-68.8155855222393,-21.0016744662082],[-68.8158343477239,-21.0016744662082],[-68.8159768909663,-21.0016481622042],[-68.8161306876226,-21.0015745833062],[-68.8165629341351,-21.0014665651452]]]}},{"type":"Feature","id":"606156222","properties":{"name":"VEL_30KMH","oid":"606156222","speedLimit":8.333333},"geometry":{"type":"Polygon","coordinates":[[[-68.8182929781982,-21.0229231299492],[-68.818190543277,-21.0230006860849],[-68.8182820133334,-21.0230991227187],[-68.8184123413317,-21.0230220185418],[-68.8182929781982,-21.0229231299492]]]}},{"type":"Feature","id":"606156969","properties":{"name":"VEL_30KMH_2","oid":"606156969","speedLimit":8.333333},"geometry":{"type":"Polygon","coordinates":[[[-68.813189987829,-21.0229396716425],[-68.8130277270666,-21.0229703144514],[-68.8130900536665,-21.0231181953814],[-68.8132437541398,-21.0230760728182],[-68.813189987829,-21.0229396716425]]]}},{"type":"Feature","id":"606157392","properties":{"name":"VEL_20KH","oid":"606157392","speedLimit":5.5555553},"geometry":{"type":"Polygon","coordinates":[[[-68.8236967328852,-21.014751714252],[-68.8235412049345,-21.0146622264031],[-68.8233972189467,-21.0148769068487],[-68.8235594797092,-21.0149629598105],[-68.8236967328852,-21.014751714252]]]}},{"type":"Feature","id":"606157536","properties":{"name":"VEL_20KMH_2","oid":"606157536","speedLimit":5.5555553},"geometry":{"type":"Polygon","coordinates":[[[-68.8218516539247,-21.0175100190087],[-68.821692374836,-21.0174461120297],[-68.8216060986629,-21.0176124328802],[-68.8217502770168,-21.017683751984],[-68.8218516539247,-21.0175100190087]]]}},{"type":"Feature","id":"606221546","properties":{"name":"ZD_BOT_NRT_03-AutoClean-1","oid":"606221546","speedLimit":5},"geometry":{"type":"Polygon","coordinates":[[[-68.7920586735116,-20.9914258477155],[-68.7923461645721,-20.9914023458562],[-68.7924461949176,-20.9904002627321],[-68.79221699077,-20.9902354785416],[-68.7921162871433,-20.9903221642458],[-68.7920417452993,-20.9904507917296],[-68.7920426109465,-20.9913046323565],[-68.7920586735116,-20.9914258477155]]]}},{"type":"Feature","id":"606796346","properties":{"name":"ZD_STK_HG_03-AutoClean-1","oid":"606796346","speedLimit":5},"geometry":{"type":"Polygon","coordinates":[[[-68.8156301511627,-21.0198917516658],[-68.815893404101,-21.0197807505765],[-68.8159526528441,-21.0188810813239],[-68.8157029617123,-21.018745132107],[-68.815623803083,-21.0188344391723],[-68.8155682092948,-21.0189385704874],[-68.8155583024433,-21.018979789133],[-68.8155119422254,-21.0191891364643],[-68.8155020353739,-21.0194154774478],[-68.8155120384085,-21.0196444397925],[-68.8155636886927,-21.019794490125],[-68.8156301511627,-21.0198917516658]]]}},{"type":"Feature","id":"607546676","properties":{"name":"ZD_STK_HG_01-AutoClean-1","oid":"607546676","speedLimit":5},"geometry":{"type":"Polygon","coordinates":[[[-68.8167379872398,-21.0205625489654],[-68.8169104434029,-21.0205562215418],[-68.8169720005386,-21.0205537809641],[-68.8171383009881,-21.0205140989786],[-68.8172382351506,-21.0204489265149],[-68.8173264349842,-21.0203765227099],[-68.8171670597125,-21.0201504529017],[-68.8163697024387,-21.0202016146416],[-68.8162891972471,-21.020462033321],[-68.8165072441638,-21.0205372392708],[-68.8166778728494,-21.0205612834807],[-68.8167379872398,-21.0205625489654]]]}},{"type":"Feature","id":"607691021","properties":{"name":"VEL_13_KPH_901_001","oid":"607691021","speedLimit":3.6111112},"geometry":{"type":"Polygon","coordinates":[[[-68.8149049311573,-21.0017807669257],[-68.8151906909234,-21.0021590564688],[-68.8145361654411,-21.0025661809854],[-68.8143303337685,-21.0021388087131],[-68.8149049311573,-21.0017807669257]]]}},{"type":"Feature","id":"608715834","properties":{"name":"INFO_RESTRICCION VELOCIDAD","oid":"608715834","speedLimit":2.7777777},"geometry":{"type":"Polygon","coordinates":[[[-68.8173466334194,-21.0014916940563],[-68.8174918697865,-21.0011460359409],[-68.8172410244584,-21.0010697452899],[-68.8167299078657,-21.001225399912],[-68.8166071783264,-21.0014527352049],[-68.8164618457762,-21.0015449348068],[-68.8158110714319,-21.0017275261752],[-68.815850698838,-21.0019615504588],[-68.816539273111,-21.001835634728],[-68.8170768400354,-21.0017736259762],[-68.8173994378998,-21.0016353265733],[-68.8173466334194,-21.0014916940563]]]}},{"type":"Feature","id":"610258504","properties":{"name":"ZD_STK_MAR_01-AutoClean-1","oid":"610258504","speedLimit":5},"geometry":{"type":"Polygon","coordinates":[[[-68.8067462060972,-20.9870559481528],[-68.8069169309659,-20.9870343445206],[-68.8070260986988,-20.9869899621632],[-68.8069557889078,-20.9867269221225],[-68.8062824115527,-20.9864775312386],[-68.8060004991076,-20.9865355627527],[-68.8060023265851,-20.9866488236362],[-68.8060376257552,-20.9867556667043],[-68.8060622486094,-20.9868004106287],[-68.8060992790739,-20.9868523858945],[-68.8061820926581,-20.9869375349386],[-68.8062269139475,-20.9869603136638],[-68.8063372358767,-20.9870056903306],[-68.8065134431778,-20.9870368754901],[-68.8066849375106,-20.9870557673693],[-68.8067462060972,-20.9870559481528]]]}},{"type":"Feature","id":"610291621","properties":{"name":"ZD_STK_MAR_02-AutoClean-1","oid":"610291621","speedLimit":5},"geometry":{"type":"Polygon","coordinates":[[[-68.8068601829814,-20.9870306384582],[-68.8070901565931,-20.9870136448061],[-68.8072607852787,-20.9869896005962],[-68.8074345880042,-20.9869453990223],[-68.8075852106206,-20.986868837196],[-68.807747182834,-20.9867069455421],[-68.8075557786151,-20.9865040160262],[-68.8068096868935,-20.9867636211798],[-68.8068601829814,-20.9870306384582]]]}},{"type":"Feature","id":"610367080","properties":{"name":"ZD_STK_MAR_03-AutoClean-1","oid":"610367080","speedLimit":5},"geometry":{"type":"Polygon","coordinates":[[[-68.8077181355606,-20.9864232057869],[-68.8077181355606,-20.9864232057869]]]}},{"type":"Feature","id":"610889233","properties":{"name":"VEL_10_KMH_902_001","oid":"610889233","speedLimit":2.7777777},"geometry":{"type":"Polygon","coordinates":[[[-68.8123103940693,-20.9973580785714],[-68.8124841006116,-20.9977861739778],[-68.8115523756525,-20.9974917679941],[-68.8094284621037,-20.9972924541489],[-68.809398356817,-20.9971458387035],[-68.8105869866348,-20.997103444965],[-68.8123103940693,-20.9973580785714]]]}},{"type":"Feature","id":"611100302","properties":{"name":"TRC_70%_007","oid":"611100302","speedLimit":5.5555553},"geometry":{"type":"Polygon","coordinates":[[[-68.8241706266473,-21.0149597057069],[-68.8231295415893,-21.014691694119],[-68.821684584011,-21.0170141297773],[-68.8226948905012,-21.0170282308929],[-68.8237998410876,-21.015241185668],[-68.8241706266473,-21.0149597057069]]]}},{"type":"Feature","id":"611101069","properties":{"name":"TRC_90%-004","oid":"611101069","speedLimit":6.9444447},"geometry":{"type":"Polygon","coordinates":[[[-68.82191542327,-21.0048460421216],[-68.8221498213009,-21.0056374220378],[-68.8212469512491,-21.0061351191045],[-68.8203422537199,-21.0061917947422],[-68.8203520643884,-21.0053149946065],[-68.8213163953929,-21.0052702506821],[-68.8218720447259,-21.0049928383505],[-68.82191542327,-21.0048460421216]]]}},{"type":"Feature","id":"611176514","properties":{"name":"TRC_70%_004","oid":"611176514","speedLimit":6.9444447},"geometry":{"type":"Polygon","coordinates":[[[-68.8148217328411,-21.0023489695703],[-68.8141426806875,-21.0029851468234],[-68.8116389403746,-21.0030015981249],[-68.8111141657926,-21.0031372761665],[-68.8109747965899,-21.0032374302439],[-68.809832430807,-21.0021548080558],[-68.8103890419702,-21.0023806066886],[-68.8115096703896,-21.0024248986542],[-68.8122913498304,-21.0024956754075],[-68.8134803643803,-21.002553164571],[-68.8148217328411,-21.0023489695703]]]}},{"type":"Feature","id":"611187609","properties":{"name":"TRC_90%_003","oid":"611187609","speedLimit":5.5555553},"geometry":{"type":"Polygon","coordinates":[[[-68.8105688080432,-21.0028844503954],[-68.8087535458202,-21.0038413376363],[-68.8067285084207,-20.9987524619624],[-68.8088232785131,-20.9972039606094],[-68.8091132703322,-20.9977454976829],[-68.8081270095981,-20.9996251040768],[-68.8105688080432,-21.0028844503954]]]}},{"type":"Feature","id":"611197820","properties":{"name":"TRC_70%_006","oid":"611197820","speedLimit":8.333333},"geometry":{"type":"Polygon","coordinates":[[[-68.8222745706838,-21.0076554182263],[-68.8234255929389,-21.0124925528304],[-68.8229507373466,-21.0146568932889],[-68.8240665566147,-21.015259354413],[-68.8246126838283,-21.0142776094364],[-68.823809363207,-21.0104346938728],[-68.8232118742583,-21.0088779668691],[-68.8231502209396,-21.0076744908891],[-68.8222745706838,-21.0076554182263]]]}},{"type":"Feature","id":"611200085","properties":{"name":"TRC_70%_008","oid":"611200085","speedLimit":5.5555553},"geometry":{"type":"Polygon","coordinates":[[[-68.8216902588094,-21.0170229881704],[-68.8196411756538,-21.0203163217933],[-68.8181294670564,-21.0225948270531],[-68.8157192166434,-21.023211298901],[-68.8138937590199,-21.023144318602],[-68.8136512816149,-21.0225010003994],[-68.8143358162009,-21.0212544979385],[-68.8147779695649,-21.0200750661684],[-68.8155053055968,-21.018815185726],[-68.8162896781622,-21.0177831829272],[-68.8168316695057,-21.016585220845],[-68.8147031391718,-21.0153188321954],[-68.8137511195944,-21.019056441351],[-68.812923945583,-21.0209462620145],[-68.8125959614692,-21.0227958583419],[-68.8186427958586,-21.0235998931055],[-68.8227005652996,-21.017037089286],[-68.8216902588094,-21.0170229881704]]]}},{"type":"Feature","id":"611225942","properties":{"name":"TRAC_90%_005","oid":"611225942","speedLimit":9.722222},"geometry":{"type":"Polygon","coordinates":[[[-68.8225603304498,-21.0054848407359],[-68.8219043622221,-21.0058662939908],[-68.8221792533064,-21.0072045440947],[-68.8222865935618,-21.0076554182263],[-68.8231622438176,-21.0076744908891],[-68.8231289644911,-21.0070260203558],[-68.8228523421124,-21.0057889186386],[-68.8225603304498,-21.0054848407359]]]}},{"type":"Feature","id":"611506423","properties":{"name":"TRAC_70%_01","oid":"611506423","speedLimit":5.5555553},"geometry":{"type":"Polygon","coordinates":[[[-68.8203422537199,-21.0061917947422],[-68.8200748649116,-21.006208517219],[-68.8186684767262,-21.0056864143753],[-68.8170883819984,-21.0048133203021],[-68.8140844899576,-21.0044706451151],[-68.8136426251427,-21.0044111673327],[-68.813804308807,-21.0037710128419],[-68.8158469477001,-21.0038914146749],[-68.8173054670848,-21.0041769622655],[-68.818104170921,-21.0046012612177],[-68.8187900520692,-21.005049965947],[-68.8199099110244,-21.0053355135375],[-68.8203520643884,-21.0053149946065],[-68.8203422537199,-21.0061917947422]]]}},{"type":"Feature","id":"611524503","properties":{"name":"TRC_40%_F03_001","oid":"611524503","speedLimit":8.333333},"geometry":{"type":"Polygon","coordinates":[[[-68.807441609365,-20.9948572999577],[-68.8064806447664,-20.9955958006905],[-68.8063398328184,-20.995826390087],[-68.8062393215577,-20.9959700226041],[-68.8060864867316,-20.9960871703335],[-68.8061749751142,-20.9962648805466],[-68.8064645822013,-20.9960720749085],[-68.8066616612186,-20.9957583250868],[-68.8067984334796,-20.9955088438111],[-68.8074954718587,-20.9951867779468],[-68.807441609365,-20.9948572999577]]]}},{"type":"Feature","id":"611565659","properties":{"name":"INFO_SINGLE_LANE_P2","oid":"611565659","speedLimit":9.722222},"geometry":{"type":"Polygon","coordinates":[[[-68.8213696807885,-21.0006420114506],[-68.8213612166823,-20.9999015220989],[-68.8190566714134,-20.99881067426],[-68.815650830513,-20.9966767958268],[-68.8152357045789,-20.9975606465202],[-68.8179807681004,-20.999391893319],[-68.8211663498745,-21.0007455100233],[-68.8213696807885,-21.0006420114506]]]}},{"type":"Feature","id":"612399621","properties":{"name":"TRC_90%_002","oid":"612399621","speedLimit":9.722222},"geometry":{"type":"Polygon","coordinates":[[[-68.812180066071,-20.9933812928015],[-68.8111323443842,-20.9948511533176],[-68.8082472383788,-20.9938236701071],[-68.8046179643123,-20.9962924500354],[-68.8025832124273,-21.0038843641171],[-68.8051190778704,-21.0035989069183],[-68.8055897975927,-21.00115878118],[-68.8065920247088,-21.0000314150674],[-68.8066680092982,-20.998789793762],[-68.8075183634186,-20.9979906401538],[-68.8082775360316,-20.996834710243],[-68.8065465301382,-20.9978194381479],[-68.8053468392726,-20.9997459578686],[-68.8058479528307,-20.9977908743497],[-68.8063338694709,-20.9968062368365],[-68.8076246456607,-20.9956645888249],[-68.8088394372612,-20.9951650839228],[-68.8102515964281,-20.9957501898278],[-68.8117093463486,-20.9957644717269],[-68.8122104599067,-20.994094755015],[-68.812180066071,-20.9933812928015]]]}},{"type":"Feature","id":"612548768","properties":{"name":"ZD_STK_DIN_13-AutoClean-1","oid":"612548768","speedLimit":5},"geometry":{"type":"Polygon","coordinates":[[[-68.8263111798594,-21.0039950036394],[-68.8264670925422,-21.0039639992635],[-68.8265856862115,-21.0039114816471],[-68.8264968130968,-21.0036535035453],[-68.8258647944423,-21.0035553380869],[-68.8256979168946,-21.0037766171314],[-68.8257940037362,-21.003856523453],[-68.8259333729388,-21.0039333564546],[-68.8260583146878,-21.00396535514],[-68.8261795052987,-21.0039867779887],[-68.8263111798594,-21.0039950036394]]]}},{"type":"Feature","id":"612609137","properties":{"name":"EX-REDUCCION_901","oid":"612609137","speedLimit":2.7777777},"geometry":{"type":"Polygon","coordinates":[[[-68.8176753869974,-21.0017685640372],[-68.817000855446,-21.0017607903453],[-68.8160211351576,-21.0017735355844],[-68.8159435154568,-21.0020973188922],[-68.817889394227,-21.0021862643905],[-68.8176753869974,-21.0017685640372]]]}},{"type":"Feature","id":"612711005","properties":{"name":"ZD_STK_DIN_22-AutoClean-1","oid":"612711005","speedLimit":5},"geometry":{"type":"Polygon","coordinates":[[[-68.8234784936024,-21.0061216507313],[-68.8237402076123,-21.0060073051466],[-68.823711545071,-21.0058995581609],[-68.8235342797567,-21.005606779229],[-68.8233895243047,-21.0055228052778],[-68.8232618894311,-21.0055172913801],[-68.8231419491994,-21.0055336522898],[-68.8231250209871,-21.0058043756307],[-68.8234784936024,-21.0061216507313]]]}},{"type":"Feature","id":"612786077","properties":{"name":"VEL_10KM_CHANCADO","oid":"612786077","speedLimit":2.7777777},"geometry":{"type":"Polygon","coordinates":[[[-68.825429277707,-21.0011511882716],[-68.8253648350805,-21.0018688085064],[-68.8251013897762,-21.0018432276364],[-68.8251596766891,-21.0011379910737],[-68.825429277707,-21.0011511882716]]]}},{"type":"Feature","id":"612791037","properties":{"name":"VEL_10KM_CHANCADO_001","oid":"612791037","speedLimit":2.7777777},"geometry":{"type":"Polygon","coordinates":[[[-68.825875470758,-21.0020659529492],[-68.8260693757356,-21.002175236595],[-68.8255362332303,-21.0027733589143],[-68.8253843602345,-21.0026427428117],[-68.8258076617257,-21.0020750825176],[-68.825875470758,-21.0020659529492]]]}},{"type":"Feature","id":"612794629","properties":{"name":"TRAC_20%_011","oid":"612794629","speedLimit":11.111111},"geometry":{"type":"Polygon","coordinates":[[[-68.8136426251427,-21.0044103538068],[-68.811358470675,-21.0041027506252],[-68.8103426817524,-21.0036213240765],[-68.8099086077624,-21.0033357764859],[-68.8103426817524,-21.0029686051301],[-68.8119661550243,-21.0034500316788],[-68.8136331030233,-21.0037600754381],[-68.813804308807,-21.003770199316],[-68.8136426251427,-21.0044103538068]]]}},{"type":"Feature","id":"613121451","properties":{"name":"ZD_BOT_NRT_02-AutoClean-1","oid":"613121451","speedLimit":5},"geometry":{"type":"Polygon","coordinates":[[[-68.7924189751217,-20.9920332803868],[-68.7926278846511,-20.9918462598218],[-68.792338085198,-20.9913016494282],[-68.7920505941375,-20.9913246089369],[-68.7920304918854,-20.9914402200064],[-68.7920750246258,-20.9915948803189],[-68.7922198762608,-20.9918369494698],[-68.792318656227,-20.991968921449],[-68.7924189751217,-20.9920332803868]]]}}]}