{"type":"FeatureCollection","features":[{"type":"Feature","id":"558966402","properties":{"name":"ZD_STK_BL_02-AutoClean-1","oid":"558966402","speedLimit":5},"geometry":{"type":"Polygon","coordinates":[[[-68.8233347527611,-20.9923360770487],[-68.8235271681957,-20.9921338116778],[-68.8232652293432,-20.9918786280413],[-68.8231512801727,-20.9917698968357],[-68.8230857954596,-20.9917115510556],[-68.8229852124788,-20.9916380986938],[-68.8229550183526,-20.9916210020233],[-68.822842703896,-20.9915653700005],[-68.8227232736262,-20.9915244827251],[-68.8226024971215,-20.9917709823386],[-68.823208783636,-20.9922390149991],[-68.8233347527611,-20.9923360770487]]]}},{"type":"Feature","id":"592941111","properties":{"name":"INFO_ESTACION","oid":"592941111","speedLimit":5.5555553},"geometry":{"type":"Polygon","coordinates":[[[-68.8203779400674,-21.008538202649],[-68.8205701631828,-21.008363346226],[-68.8202305273431,-21.0080498168094],[-68.8198843526481,-21.0077001039633],[-68.8195062529534,-21.0078508079472],[-68.820288126966,-21.008610569508],[-68.8203779400674,-21.008538202649]]]}},{"type":"Feature","id":"600880362","properties":{"name":"VEL_15_KPH_RC_002","oid":"600880362","speedLimit":4.1666665},"geometry":{"type":"Polygon","coordinates":[[[-68.8105522521474,-21.0009331694379],[-68.8108668864813,-21.0010319502004],[-68.8107910165273,-21.0012908426385],[-68.8107814967232,-21.0014306915935],[-68.8108332306082,-21.0015377040862],[-68.8109934325643,-21.0015605901053],[-68.811119497849,-21.0015665603712],[-68.8112140227727,-21.0015961403248],[-68.8112014258602,-21.0017621318076],[-68.811028242353,-21.0019394306121],[-68.8103197381439,-21.0017490153144],[-68.8102532918344,-21.0013324535824],[-68.8103766646493,-21.0008445200357],[-68.8105522521474,-21.0009331694379]]]}},{"type":"Feature","id":"604050980","properties":{"name":"VEL_10_KPH_901_002","oid":"604050980","speedLimit":2.7777777},"geometry":{"type":"Polygon","coordinates":[[[-68.8165615563741,-21.0014698601559],[-68.8166504078791,-21.0016420932803],[-68.8167037764779,-21.0018359460038],[-68.8164756858178,-21.0018666114603],[-68.8161706674476,-21.0020013947352],[-68.8160285435034,-21.0020565744651],[-68.8157246790489,-21.0021034320063],[-68.8153302322158,-21.0021217046382],[-68.8151684917055,-21.0018777378649],[-68.8151762806362,-21.0017252247095],[-68.8151902237836,-21.001659551785],[-68.8153467716734,-21.0016647983823],[-68.8155843821377,-21.0016779148755],[-68.81583314712,-21.0016779148755],[-68.8159756557027,-21.0016515914305],[-68.8161294149631,-21.0015779581515],[-68.8165615563741,-21.0014698601559]]]}},{"type":"Feature","id":"607691021","properties":{"name":"VEL_13_KPH_901_001","oid":"607691021","speedLimit":3.6111112},"geometry":{"type":"Polygon","coordinates":[[[-68.8149039565427,-21.0017842941582],[-68.8151896468258,-21.0021628632893],[-68.8145352804925,-21.0025702887054],[-68.8143294988683,-21.0021426005688],[-68.8149039565427,-21.0017842941582]]]}},{"type":"Feature","id":"608715834","properties":{"name":"INFO_RESTRICCION VELOCIDAD","oid":"608715834","speedLimit":2.7777777},"geometry":{"type":"Polygon","coordinates":[[[-68.8173450651005,-21.0014950076394],[-68.8174902661531,-21.0011490940534],[-68.8172394818185,-21.0010727470172],[-68.8167284895048,-21.0012285166812],[-68.8166057898073,-21.0014560199941],[-68.816460492595,-21.0015482877393],[-68.8158098764877,-21.0017310140583],[-68.8158494942583,-21.0019652113057],[-68.8165379011032,-21.0018392025124],[-68.8170753373173,-21.0017771479309],[-68.8173978567415,-21.001638746313],[-68.8173450651005,-21.0014950076394]]]}},{"type":"Feature","id":"610786215","properties":{"name":"VEL_20_KPH_F03_001","oid":"610786215","speedLimit":5.5555553},"geometry":{"type":"Polygon","coordinates":[[[-68.8063801739549,-20.9994283910638],[-68.8062021824659,-20.9993793625169],[-68.8061439097256,-20.9996882785462],[-68.8060549620609,-21.0000433284481],[-68.8059290890954,-21.0002251501813],[-68.8057020561912,-21.0003550486932],[-68.8053981917367,-21.0005629224956],[-68.8052232773561,-21.0007072943793],[-68.8050851921166,-21.0008891161125],[-68.8049747046931,-21.0011778598799],[-68.8049440297688,-21.0013914325725],[-68.805045285867,-21.0014837907762],[-68.8051434648569,-21.0014578291656],[-68.8052049108653,-21.0011171621769],[-68.8053798252459,-21.0008400875655],[-68.8057234997904,-21.0005888841063],[-68.8060518849525,-21.0003319817569],[-68.8062359344986,-21.0001068303668],[-68.8063188241062,-20.9996304755176],[-68.8063801739549,-20.9994283910638]]]}},{"type":"Feature","id":"610889233","properties":{"name":"VEL_15_KMH_902_001","oid":"610889233","speedLimit":2.7777777},"geometry":{"type":"Polygon","coordinates":[[[-68.812310050321,-20.9973583370625],[-68.8124837146263,-20.9977867488677],[-68.8115522162178,-20.997492125293],[-68.8100458754963,-20.9973021622882],[-68.8100863587037,-20.9971441311599],[-68.8105870619362,-20.9971035152603],[-68.812310050321,-20.9973583370625]]]}},{"type":"Feature","id":"611101069","properties":{"name":"TRC_70%-004","oid":"611101069","speedLimit":6.9444447},"geometry":{"type":"Polygon","coordinates":[[[-68.8219127440416,-21.0048518348521],[-68.8221470850783,-21.0056437996652],[-68.821244434561,-21.0061418645722],[-68.8203399570106,-21.0061985820979],[-68.8203497652936,-21.0053211339327],[-68.8213138618193,-21.0052763569387],[-68.8218693760451,-21.0049987395759],[-68.8219127440416,-21.0048518348521]]]}},{"type":"Feature","id":"611176514","properties":{"name":"TRC_70%_004","oid":"611176514","speedLimit":6.9444447},"geometry":{"type":"Polygon","coordinates":[[[-68.8148207784563,-21.0023529167527],[-68.8141418914155,-21.0029895641946],[-68.8116387598916,-21.003006027655],[-68.8111141129093,-21.0031418059742],[-68.8109747775946,-21.0032420340739],[-68.8098326895799,-21.0021586117363],[-68.8103891654022,-21.0023845772535],[-68.8115095213388,-21.0024289019546],[-68.8122910107128,-21.0024997310179],[-68.8134797361516,-21.0025572626708],[-68.8148207784563,-21.0023529167527]]]}},{"type":"Feature","id":"611187609","properties":{"name":"TRC_70%_003","oid":"611187609","speedLimit":8.333333},"geometry":{"type":"Polygon","coordinates":[[[-68.8105688877647,-21.0028887933435],[-68.808754066926,-21.0038463878051],[-68.806729521918,-20.9987537510209],[-68.8082283621878,-20.9977331069335],[-68.8088547460665,-20.9979014503392],[-68.8081276830473,-20.9996270380917],[-68.8105688877647,-21.0028887933435]]]}},{"type":"Feature","id":"611197820","properties":{"name":"TRC_70%_006","oid":"611197820","speedLimit":8.333333},"geometry":{"type":"Polygon","coordinates":[[[-68.8222838240828,-21.0076632873238],[-68.8234345664648,-21.0125039969801],[-68.8246213687109,-21.0142903728942],[-68.8238182434185,-21.0104446170904],[-68.8232208997503,-21.0088867395336],[-68.8231592614226,-21.0076823740829],[-68.8222838240828,-21.0076632873238]]]}},{"type":"Feature","id":"611225942","properties":{"name":"TRAC_70%_005","oid":"611225942","speedLimit":8.333333},"geometry":{"type":"Polygon","coordinates":[[[-68.8225574944111,-21.0054911055927],[-68.8219016856833,-21.0058728407739],[-68.8221765099273,-21.007212079958],[-68.8222838240828,-21.0076632873238],[-68.8231592614226,-21.0076823740829],[-68.8231259901881,-21.0070334242749],[-68.8228494350706,-21.0057954082348],[-68.8225574944111,-21.0054911055927]]]}},{"type":"Feature","id":"611506423","properties":{"name":"TRAC_70%_01","oid":"611506423","speedLimit":8.333333},"geometry":{"type":"Polygon","coordinates":[[[-68.8203399570106,-21.0061985820979],[-68.8200726332183,-21.006215316934],[-68.8186665869987,-21.0056928282121],[-68.8170868764738,-21.0048190888484],[-68.8140837148348,-21.0044761603954],[-68.8113583583886,-21.0041088081275],[-68.8103428164569,-21.0036270257637],[-68.8099088480128,-21.0033412671293],[-68.8103428164569,-21.0029738244028],[-68.8119658949784,-21.0034556067665],[-68.813632437656,-21.0037658796744],[-68.8158457440325,-21.0038965018549],[-68.8173039087756,-21.0041822604893],[-68.8181024184055,-21.0046068730344],[-68.8187881327805,-21.0050559093945],[-68.81990771944,-21.0053416680289],[-68.8203497652936,-21.0053211339327],[-68.8203399570106,-21.0061985820979]]]}},{"type":"Feature","id":"611524503","properties":{"name":"TRC_40%_F03_001","oid":"611524503","speedLimit":8.333333},"geometry":{"type":"Polygon","coordinates":[[[-68.8074424494704,-20.9948557101615],[-68.8064817185321,-20.9955947567089],[-68.8063409408228,-20.9958255165305],[-68.8062404540016,-20.9959692552042],[-68.8060876563376,-20.9960864895158],[-68.8061761232041,-20.9962643310717],[-68.8064656598726,-20.9960713829339],[-68.8066626909699,-20.9957574012245],[-68.8067994299744,-20.995507735561],[-68.8074962988674,-20.9951854316628],[-68.8074424494704,-20.9948557101615]]]}},{"type":"Feature","id":"611565659","properties":{"name":"INFO_SINGLE_LANE_P2","oid":"611565659","speedLimit":8.333333},"geometry":{"type":"Polygon","coordinates":[[[-68.8213671342584,-21.0006446970463],[-68.8213586722103,-20.9999036604102],[-68.8190546872957,-20.9988120063424],[-68.8156496745316,-20.9966765507922],[-68.8152346495361,-20.9975610547262],[-68.8179790455906,-20.9993936549715],[-68.8211638527848,-21.0007482721132],[-68.8213671342584,-21.0006446970463]]]}},{"type":"Feature","id":"611624297","properties":{"name":"ZD_STK_DIN_13-AutoClean-1","oid":"611624297","speedLimit":5},"geometry":{"type":"Polygon","coordinates":[[[-68.8260233762258,-21.0038804002288],[-68.8261860783324,-21.0038633940169],[-68.8259500064224,-21.0034884432288],[-68.8257586487437,-21.0035143143809],[-68.8257313394066,-21.0036654706576],[-68.8257332625994,-21.0037846045992],[-68.8259194276576,-21.0038711734543],[-68.8260233762258,-21.0038804002288]]]}},{"type":"Feature","id":"611923346","properties":{"name":"ZD_RELL_PIO3-AutoClean-1","oid":"611923346","speedLimit":5},"geometry":{"type":"Polygon","coordinates":[[[-68.8107981323405,-20.9942658298022],[-68.8109430449142,-20.9940311802619],[-68.8105208079459,-20.9937788912998],[-68.810394261863,-20.9937232592769],[-68.8099462541118,-20.9935417089194],[-68.809831343345,-20.9937906509144],[-68.810592158397,-20.9941662349125],[-68.8107981323405,-20.9942658298022]]]}},{"type":"Feature","id":"612022415","properties":{"name":"INFO_DESCARGA_PIO3","oid":"612022415","speedLimit":2.7777777},"geometry":{"type":"Polygon","coordinates":[[[-68.8120722475375,-20.9934849913937],[-68.8112538328626,-20.994867922069],[-68.8067978914202,-20.99317128106],[-68.8078134333519,-20.9915744158578],[-68.8120722475375,-20.9934849913937]]]}},{"type":"Feature","id":"612399621","properties":{"name":"TRC_70%_002","oid":"612399621","speedLimit":8.333333},"geometry":{"type":"Polygon","coordinates":[[[-68.81218033097,-20.9933791548624],[-68.8111328640386,-20.9948501017299],[-68.808248459552,-20.9938218591223],[-68.80462006795,-20.9962924636881],[-68.8025858108186,-21.0038899888376],[-68.8051210596614,-21.0036043206617],[-68.8055916649274,-21.0011623914638],[-68.8065936483502,-21.0000341921321],[-68.8066696144638,-20.9987916531633],[-68.807519761819,-20.9979919089129],[-68.8082787498378,-20.996835124672],[-68.8065481648416,-20.9978205803743],[-68.805348765683,-20.9997485239563],[-68.8058497573944,-20.997791995465],[-68.8063355558831,-20.9968066302213],[-68.8076260182184,-20.995664138435],[-68.8088405144402,-20.9951642643565],[-68.810252330238,-20.9957498027043],[-68.811709725704,-20.995764095159],[-68.8122107174155,-20.9940931443849],[-68.81218033097,-20.9933791548624]]]}}]}