{"type":"FeatureCollection","features":[{"type":"Feature","id":"553267213","properties":{"name":"ZD_BOT_PAD59_02-AutoClean-1","oid":"553267213","speedLimit":5},"geometry":{"type":"Polygon","coordinates":[[[-68.8183521285647,-20.9849451131575],[-68.8183521285647,-20.9849451131575]]]}},{"type":"Feature","id":"553508825","properties":{"name":"ZD_STK_HG_02-AutoClean-1","oid":"553508825","speedLimit":5},"geometry":{"type":"Polygon","coordinates":[[[-68.8157264058805,-21.020049398608],[-68.815995239717,-21.0199508862665],[-68.8158653915312,-21.018996401093],[-68.8155888629874,-21.0189188565159],[-68.8155450031558,-21.0190273104699],[-68.8155138395912,-21.0191375719898],[-68.8154868119318,-21.0192528946942],[-68.8154832531297,-21.0194072608221],[-68.815488543241,-21.0196069064757],[-68.8154950837422,-21.019640707958],[-68.8155306717634,-21.0197554883927],[-68.8155916523189,-21.0198601464583],[-68.8157264058805,-21.020049398608]]]}},{"type":"Feature","id":"558966402","properties":{"name":"ZD_STK_BL_02-AutoClean-1","oid":"558966402","speedLimit":5},"geometry":{"type":"Polygon","coordinates":[[[-68.8233376256117,-20.9923442034122],[-68.8235300894782,-20.9921421175446],[-68.8232680846944,-20.9918871603744],[-68.8231541068425,-20.9917785256638],[-68.8230886056465,-20.9917202316635],[-68.8229879973485,-20.991646844488],[-68.8229577956224,-20.9916297629902],[-68.8228454528957,-20.9915741803388],[-68.8227259925648,-20.9915333293495],[-68.8226051856601,-20.9917796102033],[-68.8232116247796,-20.9922472275016],[-68.8233376256117,-20.9923442034122]]]}},{"type":"Feature","id":"570805601","properties":{"name":"ZD_STK_MAR_02-AutoClean-1-tmp-1","oid":"570805601","speedLimit":5},"geometry":{"type":"Polygon","coordinates":[[[-68.8065053571972,-20.9867045074262],[-68.8068574862403,-20.9866989039719],[-68.8068618145132,-20.9864277690869],[-68.8062831725238,-20.9862058903727],[-68.8060008729495,-20.9862619249156],[-68.8060089523922,-20.9863766149719],[-68.8060379037284,-20.9864995294531],[-68.8060605069312,-20.9865272755897],[-68.8061459181822,-20.9866152136707],[-68.8062235385422,-20.9866463038042],[-68.8063390553356,-20.9866804667997],[-68.8063867625209,-20.9866895950075],[-68.8065053571972,-20.9867045074262]]]}},{"type":"Feature","id":"592941111","properties":{"name":"INFO_ESTACION","oid":"592941111","speedLimit":5.5555553},"geometry":{"type":"Polygon","coordinates":[[[-68.8219770089924,-21.01072895618],[-68.8222561344999,-21.0106302630819],[-68.8218333103335,-21.0097468152483],[-68.8212844853349,-21.0090452085443],[-68.8208544473804,-21.0093297194169],[-68.8218659166557,-21.0107676380903],[-68.8219770089924,-21.01072895618]]]}},{"type":"Feature","id":"600121666","properties":{"name":"ZD_STK_3C_02-AutoClean-1","oid":"600121666","speedLimit":5},"geometry":{"type":"Polygon","coordinates":[[[-68.8050752958445,-20.9853145796274],[-68.8048029993898,-20.9850289842153],[-68.8047702006999,-20.9851914843897],[-68.8047872252398,-20.9852997575871],[-68.8050752958445,-20.9853145796274]]]}},{"type":"Feature","id":"602013008","properties":{"name":"ZD_STK_3C_01-AutoClean-1","oid":"602013008","speedLimit":5},"geometry":{"type":"Polygon","coordinates":[[[-68.8048603249592,-20.9854520450141],[-68.8051249267066,-20.9853439525733],[-68.8047541379984,-20.9850906222124],[-68.804741056996,-20.985250411038],[-68.804785301563,-20.9853601302881],[-68.8048603249592,-20.9854520450141]]]}},{"type":"Feature","id":"607546676","properties":{"name":"ZD_STK_HG_01-AutoClean-1","oid":"607546676","speedLimit":5},"geometry":{"type":"Polygon","coordinates":[[[-68.8168100130368,-21.0205958257795],[-68.8170910622212,-21.0205347300521],[-68.8173088224379,-21.0203997952577],[-68.8171824368704,-21.0201560449961],[-68.8158415379386,-21.019871082232],[-68.8156205074712,-21.0200453315847],[-68.8156863934026,-21.0201348060968],[-68.8157627633726,-21.020216688832],[-68.8158059499173,-21.0202530209066],[-68.8158951123382,-21.020322069924],[-68.8160448705792,-21.0204074774128],[-68.8160964251181,-21.0204292585819],[-68.8163642971162,-21.0205296688676],[-68.8164746199822,-21.0205660009422],[-68.8165901367756,-21.0205922106477],[-68.8168100130368,-21.0205958257795]]]}},{"type":"Feature","id":"619770241","properties":{"name":"VEL_10_KMH_02","oid":"619770241","speedLimit":2.7777777},"geometry":{"type":"Polygon","coordinates":[[[-68.8105579671673,-20.9969861230214],[-68.8102999059211,-20.9972286079869],[-68.8099568181591,-20.9971955295309],[-68.8095872798408,-20.9972699108677],[-68.8095726598969,-20.9969668724446],[-68.8105579671673,-20.9969861230214]]]}},{"type":"Feature","id":"620970737","properties":{"name":"ZD_BOT_NRT_02-AutoClean-1","oid":"620970737","speedLimit":5},"geometry":{"type":"Polygon","coordinates":[[[-68.7937028069986,-20.9903845308418],[-68.7937896610074,-20.9901259585398],[-68.7936820312889,-20.9900857401985]]]}},{"type":"Feature","id":"621174471","properties":{"name":"ZD_STK_MAR_01-AutoClean-1","oid":"621174471","speedLimit":5},"geometry":{"type":"Polygon","coordinates":[[[-68.806916446935,-20.9870375514432],[-68.8072887745848,-20.9870014001252],[-68.8074482473937,-20.986969767722],[-68.8075354861378,-20.9869392198583],[-68.8076414807309,-20.986870803489],[-68.8076687969418,-20.9868505587509],[-68.8077449745442,-20.9867526790574],[-68.8077655578862,-20.9866260590661],[-68.80750499586,-20.9865095614439],[-68.8068730680226,-20.9867694894203],[-68.806916446935,-20.9870375514432]]]}},{"type":"Feature","id":"621174472","properties":{"name":"ZD_STK_MAR_01-AutoClean-2","oid":"621174472","speedLimit":5},"geometry":{"type":"Polygon","coordinates":[[[-68.8066070235175,-20.9870643034186],[-68.8069554975746,-20.9870618632046],[-68.8069666549002,-20.9867909090762],[-68.8062245965644,-20.9866011146567],[-68.8060443480458,-20.9868128710019],[-68.8061278356201,-20.9868896021743],[-68.8062160362026,-20.986969767722],[-68.8063767594014,-20.9870267964261],[-68.8066070235175,-20.9870643034186]]]}},{"type":"Feature","id":"622898566","properties":{"name":"INFO_RED_VEL_20KPH_902","oid":"622898566","speedLimit":3.6111112},"geometry":{"type":"Polygon","coordinates":[[[-68.8075762680865,-21.0003375309564],[-68.8075991598407,-21.0000148804433],[-68.8076803390028,-21.0000012333207],[-68.8078384652379,-21.0005721530102],[-68.8079508079646,-21.0008204221866],[-68.8078009535398,-21.0008888385559],[-68.8075762680865,-21.0003375309564]]]}},{"type":"Feature","id":"623520976","properties":{"name":"ZD_STK_DIN_22-AutoClean-1","oid":"623520976","speedLimit":5},"geometry":{"type":"Polygon","coordinates":[[[-68.8243736217665,-21.0046324882912],[-68.8245586794772,-21.0044244374561],[-68.8244761537414,-21.0043476159053],[-68.8243013877017,-21.0042000281496],[-68.8241303728318,-21.0041534833277],[-68.8240136056485,-21.0041810487077],[-68.8239899444235,-21.0043903648389],[-68.823993310858,-21.0044514605663],[-68.8243736217665,-21.0046324882912]]]}},{"type":"Feature","id":"623885777","properties":{"name":"VELO_REDUC_15KM_901","oid":"623885777","speedLimit":4.1666665},"geometry":{"type":"Polygon","coordinates":[[[-68.8074052532166,-20.9981613119912],[-68.8091207882104,-20.9979169290816],[-68.8077205438484,-20.9991840327774],[-68.8075822314846,-20.9992060850814],[-68.8074052532166,-20.9981613119912]]]}},{"type":"Feature","id":"624057522","properties":{"name":"VEL_10KPH","oid":"624057522","speedLimit":2.7777777},"geometry":{"type":"Polygon","coordinates":[[[-68.8103164495418,-21.0009236341994],[-68.810724846132,-21.0014405980468],[-68.8106431860507,-21.0016031885995],[-68.8104534153318,-21.0014586737058],[-68.8102395024687,-21.0011742532115],[-68.8101626515795,-21.0009801206338],[-68.8103164495418,-21.0009236341994]]]}},{"type":"Feature","id":"624400171","properties":{"name":"VEL_15KPH","oid":"624400171","speedLimit":4.1666665},"geometry":{"type":"Polygon","coordinates":[[[-68.8092490974547,-21.002578822294],[-68.8091205958427,-21.0027431300343],[-68.809504080818,-21.002994562451],[-68.8096178663023,-21.0028421846456],[-68.8092490974547,-21.002578822294]]]}},{"type":"Feature","id":"624724475","properties":{"name":"TRC_20_01","oid":"624724475","speedLimit":2.7777777},"geometry":{"type":"Polygon","coordinates":[[[-68.8246178325396,-21.0067526727134],[-68.8236411818149,-21.0064503573167],[-68.8232734709896,-21.0066069829019],[-68.8226931938749,-21.006747340394],[-68.82283679635,-21.0073195253797],[-68.8233366637733,-21.0073357030945],[-68.8240949771782,-21.0074221047445],[-68.8247096881081,-21.0072223687125],[-68.8246178325396,-21.0067526727134]]]}},{"type":"Feature","id":"624790435","properties":{"name":"VELO_REDUC_15KM_9011","oid":"624790435","speedLimit":4.1666665},"geometry":{"type":"Polygon","coordinates":[[[-68.8077205438484,-20.9991840327774],[-68.8077034231247,-20.9994473047507],[-68.8077038078601,-20.9997369671862],[-68.8076859176656,-21.0000095481239],[-68.8074770063622,-21.0000426265798],[-68.8075822314846,-20.9992060850814],[-68.8077205438484,-20.9991840327774]]]}},{"type":"Feature","id":"625094199","properties":{"name":"VEL_15_KPH_","oid":"625094199","speedLimit":2.7777777},"geometry":{"type":"Polygon","coordinates":[[[-68.8166739129014,-20.9976619719114],[-68.8163070677306,-20.9974927837431],[-68.8158775106953,-20.997228336852],[-68.8154908516532,-20.9969901900447],[-68.8153039664495,-20.9971476290346],[-68.8166636212304,-20.9981183823011],[-68.8170266190475,-20.9979178328645],[-68.8166739129014,-20.9976619719114]]]}},{"type":"Feature","id":"625102060","properties":{"name":"VEL_15KPH_","oid":"625102060","speedLimit":4.1666665},"geometry":{"type":"Polygon","coordinates":[[[-68.820421908646,-20.9998681964705],[-68.8203233202086,-21.0001518939385],[-68.8202832115468,-21.0002185027419],[-68.8197286155178,-21.0000447956589],[-68.8190106031424,-20.9996394490059],[-68.818434365749,-20.9992369944582],[-68.8178181158777,-20.9988055284779],[-68.8181170552565,-20.9984812511555],[-68.8186470282222,-20.9988228811106],[-68.8195067193959,-20.9993787980031],[-68.8200028356494,-20.9996278805841],[-68.8204712509566,-20.9997986955616],[-68.820421908646,-20.9998681964705]]]}},{"type":"Feature","id":"625227360","properties":{"name":"New Zone1317","oid":"625227360","speedLimit":4.1666665},"geometry":{"type":"Polygon","coordinates":[[[-68.8081725117188,-20.9981490205431],[-68.8082987049186,-20.9983828291923],[-68.8080573796608,-20.998578227066],[-68.8079087756259,-20.9987247302822],[-68.8077544005606,-20.9988987085001],[-68.8077222751576,-20.9991577326935],[-68.8075176921271,-20.9991100129538],[-68.8075968514285,-20.9987701001863],[-68.8081725117188,-20.9981490205431]]]}},{"type":"Feature","id":"625262401","properties":{"name":"VEL_!5_KMPH","oid":"625262401","speedLimit":3.3333333},"geometry":{"type":"Polygon","coordinates":[[[-68.8102995211857,-21.0029146680382],[-68.810280572969,-21.0032505137824],[-68.8100253010541,-21.0034963427448],[-68.8092315919956,-21.002941871905],[-68.8092695846129,-21.0025720439219],[-68.809070676429,-21.0023985175955],[-68.8092909374256,-21.0022315888846],[-68.8102995211857,-21.0029146680382]]]}},{"type":"Feature","id":"625497864","properties":{"name":"ZD_STK_DIN_21-AutoClean-1","oid":"625497864","speedLimit":5},"geometry":{"type":"Polygon","coordinates":[[[-68.8244287351076,-21.0048553611666],[-68.8247124774395,-21.0048060146176],[-68.824712765991,-21.0046933128837],[-68.8246845841255,-21.0045839551468],[-68.8246599610621,-21.0045393986473],[-68.8245965759107,-21.0044451340856],[-68.8245072211221,-21.0043701201008],[-68.8244147884506,-21.0043028786493],[-68.824214533693,-21.0044981861448],[-68.8244287351076,-21.0048553611666]]]}},{"type":"Feature","id":"625542651","properties":{"name":"ZD_STK_DIN_12-AutoClean-1","oid":"625542651","speedLimit":5},"geometry":{"type":"Polygon","coordinates":[[[-68.8260397182658,-21.0057285058746],[-68.8260481824439,-21.0054574613679],[-68.8254484761933,-21.0053349083999],[-68.8253027576737,-21.0055689881839],[-68.8254010575595,-21.0056396640106],[-68.8255117651608,-21.0056920834217],[-68.8255518738227,-21.0057058209225],[-68.8256746044042,-21.005725884904],[-68.8257978159049,-21.0057280539831],[-68.8260397182658,-21.0057285058746]]]}},{"type":"Feature","id":"625562777","properties":{"name":"VEL_15 KPH","oid":"625562777","speedLimit":4.1666665},"geometry":{"type":"Polygon","coordinates":[[[-68.8090394166806,-20.9979316607436],[-68.8090856811083,-20.998006222837],[-68.8087021961329,-20.9982256613373],[-68.8086250566922,-20.9980766275288],[-68.8090394166806,-20.9979316607436]]]}}]}