{"type":"FeatureCollection","features":[{"type":"Feature","id":"553508825","properties":{"name":"ZD_STK_HG_02-AutoClean-1","oid":"553508825","speedLimit":5},"geometry":{"type":"Polygon","coordinates":[[[-68.8163728606081,-21.0204830967462],[-68.8164575982718,-21.0202238539357],[-68.8158828056744,-21.0197069953616],[-68.8156045468082,-21.0197788566009],[-68.8156396537858,-21.0200159534949],[-68.8157190051735,-21.0201492809515],[-68.8157859488897,-21.0202102048198],[-68.8159805281106,-21.0203624240991],[-68.81612422626,-21.0204326582915],[-68.8163728606081,-21.0204830967462]]]}},{"type":"Feature","id":"558966402","properties":{"name":"ZD_STK_BL_02-AutoClean-1","oid":"558966402","speedLimit":5},"geometry":{"type":"Polygon","coordinates":[[[-68.8233377002267,-20.9923396140745],[-68.8235301634106,-20.9921374986894],[-68.823268159556,-20.9918825042792],[-68.8231541821083,-20.991773853701],[-68.8230886811446,-20.9917155511861],[-68.8229880732034,-20.9916421532913],[-68.8229578715843,-20.9916250692986],[-68.822845529256,-20.9915694785286],[-68.8227260693487,-20.9915286215724],[-68.8226052628724,-20.991774938399],[-68.8232116998414,-20.9922426239993],[-68.8233377002267,-20.9923396140745]]]}},{"type":"Feature","id":"570805601","properties":{"name":"ZD_STK_MAR_02-AutoClean-1-tmp-1","oid":"570805601","speedLimit":5},"geometry":{"type":"Polygon","coordinates":[[[-68.806505491503,-20.9866990943325],[-68.8068576192974,-20.9866934900597],[-68.8060606428144,-20.9865218366088],[-68.8061460537626,-20.9866097875344],[-68.8062236738474,-20.986640882209],[-68.8063391902311,-20.9866750501945],[-68.8063868972472,-20.9866841797356],[-68.806505491503,-20.9866990943325]]]}},{"type":"Feature","id":"592941111","properties":{"name":"INFO_ESTACION","oid":"592941111","speedLimit":5.5555553},"geometry":{"type":"Polygon","coordinates":[[[-68.8203801537781,-21.0085297253149],[-68.8205724245951,-21.0083549985531],[-68.8202327044723,-21.008041701628],[-68.8198864438714,-21.0076922481045],[-68.8195082503486,-21.0078428403368],[-68.8202903183889,-21.0086020385117],[-68.8203801537781,-21.0085297253149]]]}},{"type":"Feature","id":"600880362","properties":{"name":"VEL_15_KPH_RC_002","oid":"600880362","speedLimit":4.1666665},"geometry":{"type":"Polygon","coordinates":[[[-68.8105520275412,-21.000930331463],[-68.8108667399539,-21.0010290389767],[-68.8107908511722,-21.0012877394382],[-68.8107813290057,-21.001427484691],[-68.8108330757288,-21.0015344178308],[-68.8109933174402,-21.0015572868793],[-68.811119414009,-21.001563252718],[-68.8112139623897,-21.0015928107372],[-68.8112013623512,-21.0017586791324],[-68.8110281358673,-21.0019358464646],[-68.8103194558376,-21.0017455723655],[-68.810252993039,-21.0013293195264],[-68.8103763964698,-21.000841747797],[-68.8105520275412,-21.000930331463]]]}},{"type":"Feature","id":"603087867","properties":{"name":"ZD_BOT_NRT_04-AutoClean-1","oid":"603087867","speedLimit":5},"geometry":{"type":"Polygon","coordinates":[[[-68.7933714421796,-20.9926138618734],[-68.793519180036,-20.9926130483499],[-68.793532260992,-20.992610698171],[-68.7937934953787,-20.9925289842586],[-68.7937040447234,-20.992271187712],[-68.7925574412172,-20.9917755711394],[-68.7923455489662,-20.9919596986168],[-68.79265699114,-20.9923555229778],[-68.7927698143857,-20.9924522418785],[-68.7929885356652,-20.9925583614948],[-68.7931379086411,-20.9926010262809],[-68.7933714421796,-20.9926138618734]]]}},{"type":"Feature","id":"604050980","properties":{"name":"VEL_10_KPH_901_002","oid":"604050980","speedLimit":2.7777777},"geometry":{"type":"Polygon","coordinates":[[[-68.816562823021,-21.0014666242088],[-68.8166516965752,-21.0016387296172],[-68.8167050784178,-21.0018324385931],[-68.8164769311553,-21.0018630813103],[-68.8161718370926,-21.0019977646393],[-68.8160296778792,-21.0020529034519],[-68.8157257380185,-21.0020997262468],[-68.8153311933006,-21.002117985329],[-68.8151694126532,-21.0018741994643],[-68.8151772035167,-21.001721799402],[-68.8151911501242,-21.0016561751759],[-68.8153477368626,-21.0016614178827],[-68.8155854062917,-21.0016745246496],[-68.8158342330068,-21.0016745246496],[-68.8159767769541,-21.0016482207243],[-68.816130574371,-21.0015746420465],[-68.816562823021,-21.0014666242088]]]}},{"type":"Feature","id":"606156222","properties":{"name":"VEL_30KMH","oid":"606156222","speedLimit":8.333333},"geometry":{"type":"Polygon","coordinates":[[[-68.8182928756396,-21.0229231247893],[-68.8181904402119,-21.0230006806929],[-68.8182819107206,-21.023099117032],[-68.8184122393634,-21.0230220130859],[-68.8182928756396,-21.0229231247893]]]}},{"type":"Feature","id":"606156969","properties":{"name":"VEL_30KMH_2","oid":"606156969","speedLimit":8.333333},"geometry":{"type":"Polygon","coordinates":[[[-68.813189860035,-21.0229396664331],[-68.8130275984701,-21.0229703091502],[-68.8130899253782,-21.0231181896377],[-68.8132436266116,-21.0230760672005],[-68.813189860035,-21.0229396664331]]]}},{"type":"Feature","id":"606157392","properties":{"name":"VEL_20KH","oid":"606157392","speedLimit":5.5555553},"geometry":{"type":"Polygon","coordinates":[[[-68.8236966570496,-21.0147517335507],[-68.8235411283297,-21.0146622459697],[-68.8233971416298,-21.0148769257727],[-68.8235594031947,-21.0149629784769],[-68.8236966570496,-21.0147517335507]]]}},{"type":"Feature","id":"606157536","properties":{"name":"VEL_20KMH_2","oid":"606157536","speedLimit":5.5555553},"geometry":{"type":"Polygon","coordinates":[[[-68.8218515689646,-21.0175100300512],[-68.8216922890883,-21.0174461232636],[-68.8216060124886,-21.0176124436162],[-68.8217501915554,-21.0176837625065],[-68.8218515689646,-21.0175100300512]]]}},{"type":"Feature","id":"606221546","properties":{"name":"ZD_BOT_NRT_03-AutoClean-1","oid":"606221546","speedLimit":5},"geometry":{"type":"Polygon","coordinates":[[[-68.7924215339314,-20.9920427684016],[-68.792661223214,-20.9918917242118],[-68.792482995188,-20.9904056880175],[-68.7922827411406,-20.9902103519947],[-68.7921786705933,-20.990270010382],[-68.7920970108016,-20.9903538032988],[-68.79207498478,-20.9903985470894],[-68.7920730611101,-20.9914783639006],[-68.7922243577559,-20.9917732209606],[-68.7922894739856,-20.9918645163715],[-68.7923546863987,-20.991954275127],[-68.7924215339314,-20.9920427684016]]]}},{"type":"Feature","id":"606796346","properties":{"name":"ZD_STK_HG_03-AutoClean-1","oid":"606796346","speedLimit":5},"geometry":{"type":"Polygon","coordinates":[[[-68.8156300354358,-21.0198917555794],[-68.8158932896759,-21.0197807548223],[-68.8159525387121,-21.0188810882626],[-68.8157028463455,-21.0187451394526],[-68.8156236873248,-21.0188344462506],[-68.8155680932616,-21.018938577254],[-68.8155581863611,-21.0189797957762],[-68.815511825914,-21.019189142481],[-68.8155019190135,-21.0194154827869],[-68.8155119220975,-21.0196444444463],[-68.8155635726371,-21.0197944943297],[-68.8156300354358,-21.0198917555794]]]}},{"type":"Feature","id":"607546676","properties":{"name":"ZD_STK_HG_01-AutoClean-1","oid":"607546676","speedLimit":5},"geometry":{"type":"Polygon","coordinates":[[[-68.8167378769914,-21.0205625508712],[-68.8169103340074,-21.0205562234665],[-68.8169718914475,-21.0205537828961],[-68.8171381927194,-21.0205141010294],[-68.8172381273761,-21.0204489287607],[-68.8173263276458,-21.0203765251724],[-68.817166951586,-21.0201504560409],[-68.816369590369,-21.0202016176277],[-68.8162890847794,-21.0204620355277],[-68.8165071327744,-21.0205372412523],[-68.8166777623038,-21.0205612853903],[-68.8167378769914,-21.0205625508712]]]}},{"type":"Feature","id":"607691021","properties":{"name":"VEL_13_KPH_901_001","oid":"607691021","speedLimit":3.6111112},"geometry":{"type":"Polygon","coordinates":[[[-68.8149048118441,-21.0017808250489],[-68.8151905730232,-21.0021591134597],[-68.8145360443042,-21.0025662367577],[-68.8143302116137,-21.0021388657646],[-68.8149048118441,-21.0017808250489]]]}},{"type":"Feature","id":"608715834","properties":{"name":"INFO_RESTRICCION VELOCIDAD","oid":"608715834","speedLimit":2.7777777},"geometry":{"type":"Polygon","coordinates":[[[-68.8173465261809,-21.0014917530447],[-68.8174917632662,-21.001146095964],[-68.8172409166976,-21.0010698055414],[-68.8167297975774,-21.0012254596975],[-68.8166070674311,-21.0014527943099],[-68.8164617341623,-21.0015449936358],[-68.8158109565997,-21.0017275844578],[-68.8158505842018,-21.0019616080409],[-68.81653916188,-21.001835692687],[-68.8170767314628,-21.0017736841207],[-68.8173993309225,-21.0016353851318],[-68.8173465261809,-21.0014917530447]]]}},{"type":"Feature","id":"610258504","properties":{"name":"ZD_STK_MAR_01-AutoClean-1","oid":"610258504","speedLimit":5},"geometry":{"type":"Polygon","coordinates":[[[-68.8067460464371,-20.9870560503502],[-68.80691677215,-20.9870344467826],[-68.8070259404228,-20.9869900645581],[-68.8069556302841,-20.9867270253047],[-68.8060003357598,-20.9865356665077],[-68.8060021632463,-20.9866489270522],[-68.8060374625909,-20.9867557698005],[-68.806062085567,-20.986800513591],[-68.8060991162145,-20.9868524887012],[-68.8061819302082,-20.9869376374904],[-68.8062267517194,-20.9869604161474],[-68.8063370741941,-20.9870057926784],[-68.8065132823665,-20.9870369777445],[-68.8066847775474,-20.9870558695672],[-68.8067460464371,-20.9870560503502]]]}},{"type":"Feature","id":"610291621","properties":{"name":"ZD_STK_MAR_02-AutoClean-1","oid":"610291621","speedLimit":5},"geometry":{"type":"Polygon","coordinates":[[[-68.8068600238848,-20.9870307407313],[-68.8070899986339,-20.9870137471301],[-68.8072606281633,-20.9869897029921],[-68.8074344317482,-20.9869455015506],[-68.8075850551096,-20.9868689399535],[-68.807747028124,-20.9867070487841],[-68.8075556229585,-20.9865041198756],[-68.8068095275472,-20.9867637242521],[-68.8068600238848,-20.9870307407313]]]}},{"type":"Feature","id":"610889233","properties":{"name":"VEL_10_KMH_902_001","oid":"610889233","speedLimit":2.7777777},"geometry":{"type":"Polygon","coordinates":[[[-68.8123102619254,-20.9973581499325],[-68.8124839693268,-20.9977862440576],[-68.8115522397601,-20.9974918389551],[-68.809428315708,-20.9972925257064],[-68.8093982102724,-20.9971459106999],[-68.8105868459682,-20.9971035170883],[-68.8123102619254,-20.9973581499325]]]}},{"type":"Feature","id":"611100302","properties":{"name":"TRC_70%_007","oid":"611100302","speedLimit":5.5555553},"geometry":{"type":"Polygon","coordinates":[[[-68.8241705531552,-21.014959724383],[-68.8231294629487,-21.0146917135974],[-68.8216844982247,-21.0170141423042],[-68.8226948097112,-21.0170282433775],[-68.8237997657618,-21.0152412035016],[-68.8241705531552,-21.014959724383]]]}},{"type":"Feature","id":"611101069","properties":{"name":"TRC_90%-004","oid":"611101069","speedLimit":6.9444447},"geometry":{"type":"Polygon","coordinates":[[[-68.8219153386253,-21.0048460910698],[-68.8221497378154,-21.0056374686173],[-68.8212468632987,-21.0061351641943],[-68.8203421612955,-21.0061918396623],[-68.8203519720126,-21.0053150421511],[-68.8213163077859,-21.0052702983606],[-68.8218719598667,-21.0049928868593],[-68.8219153386253,-21.0048460910698]]]}},{"type":"Feature","id":"611176514","properties":{"name":"TRC_70%_004","oid":"611176514","speedLimit":6.9444447},"geometry":{"type":"Polygon","coordinates":[[[-68.8148216131164,-21.0023490259928],[-68.8141425576047,-21.0029852013416],[-68.8116388049103,-21.0030016525939],[-68.811114027733,-21.0031373302294],[-68.8109746578412,-21.003237484007],[-68.809832286409,-21.0021548650594],[-68.8103889003248,-21.0023806630164],[-68.811509534286,-21.0024249548494],[-68.8122912175923,-21.0024957313908],[-68.8134802380222,-21.0025532203823],[-68.8148216131164,-21.0023490259928]]]}},{"type":"Feature","id":"611187609","properties":{"name":"TRC_90%_003","oid":"611187609","speedLimit":5.5555553},"geometry":{"type":"Polygon","coordinates":[[[-68.8105686672867,-21.0028845052151],[-68.8087533960869,-21.0038413895918],[-68.806728348673,-20.9987525291498],[-68.8088231291246,-20.9972040324318],[-68.8091131223777,-20.9977455678844],[-68.8081268567664,-20.9996251686523],[-68.8105686672867,-21.0028845052151]]]}},{"type":"Feature","id":"611197820","properties":{"name":"TRC_70%_006","oid":"611197820","speedLimit":8.333333},"geometry":{"type":"Polygon","coordinates":[[[-68.8222744878152,-21.0076554587656],[-68.8234255157624,-21.0124925788911],[-68.8229506578218,-21.0146569128714],[-68.8240664826079,-21.0152593721923],[-68.8246126125222,-21.0142776301542],[-68.8238092879283,-21.0104347260932],[-68.8232117960249,-21.008878003749],[-68.8231501424012,-21.0076745313712],[-68.8222744878152,-21.0076554587656]]]}},{"type":"Feature","id":"611200085","properties":{"name":"TRC_70%_008","oid":"611200085","speedLimit":5.5555553},"geometry":{"type":"Polygon","coordinates":[[[-68.8216901730512,-21.0170230006708],[-68.8196410797624,-21.0203163244361],[-68.8181293636892,-21.0225948228758],[-68.815719101357,-21.0232112928786],[-68.8138936347062,-21.02314431278],[-68.8136511561021,-21.022500996503],[-68.8143356940732,-21.0212544977731],[-68.8147778496238,-21.0200750695333],[-68.8155051892525,-21.018815192862],[-68.8162895656969,-21.0177831931521],[-68.8168315597206,-21.0165852346556],[-68.8147030188606,-21.0153188497966],[-68.8137509945753,-21.0190564477648],[-68.8129238164733,-21.0209462627717],[-68.8125958307376,-21.0227958535629],[-68.81864269503,-21.0235998859199],[-68.8227004845377,-21.0170371017441],[-68.8216901730512,-21.0170230006708]]]}},{"type":"Feature","id":"611225942","properties":{"name":"TRAC_90%_005","oid":"611225942","speedLimit":9.722222},"geometry":{"type":"Polygon","coordinates":[[[-68.8225602489943,-21.0054848877721],[-68.8219042775228,-21.0058663398852],[-68.8221791699664,-21.0072045859835],[-68.8222865107527,-21.0076554587656],[-68.8231621653388,-21.0076745313712],[-68.8231288858477,-21.0070260627789],[-68.822852262101,-21.0057889647646],[-68.8225602489943,-21.0054848877721]]]}},{"type":"Feature","id":"611506423","properties":{"name":"TRAC_70%_01","oid":"611506423","speedLimit":5.5555553},"geometry":{"type":"Polygon","coordinates":[[[-68.8203421612955,-21.0061918396623],[-68.8200747711649,-21.0062085620891],[-68.8186683760246,-21.0056864608082],[-68.8170882734828,-21.0048133693483],[-68.8140843665871,-21.0044706951869],[-68.813642499587,-21.0044112175826],[-68.8138041840509,-21.0037710650079],[-68.8158468330453,-21.0038914664806],[-68.8173053596428,-21.0041770132164],[-68.8181040674287,-21.0046013108987],[-68.8187899519688,-21.0050500142848],[-68.819909816462,-21.0053355610207],[-68.8203519720126,-21.0053150421511],[-68.8203421612955,-21.0061918396623]]]}},{"type":"Feature","id":"611524503","properties":{"name":"TRC_40%_F03_001","oid":"611524503","speedLimit":8.333333},"geometry":{"type":"Polygon","coordinates":[[[-68.8074414531437,-20.9948573788041],[-68.806480483793,-20.9955958773265],[-68.8063396711486,-20.9958264660328],[-68.8062391593909,-20.9959700981199],[-68.806086323809,-20.9960872454987],[-68.8061748126292,-20.9962649551799],[-68.8064644211484,-20.9960721501189],[-68.8066615011404,-20.9957584012363],[-68.8067982740777,-20.9955089207073],[-68.8074953159039,-20.9951868558071],[-68.8074414531437,-20.9948573788041]]]}},{"type":"Feature","id":"611565659","properties":{"name":"INFO_SINGLE_LANE_P2","oid":"611565659","speedLimit":9.722222},"geometry":{"type":"Polygon","coordinates":[[[-68.821369593445,-21.0006420729823],[-68.821361129297,-20.999901585847],[-68.8190565726315,-20.9988107412733],[-68.8156507148883,-20.9966768692272],[-68.8152355869014,-20.9975607172751],[-68.8179806639979,-20.9993919585926],[-68.8211662615255,-21.0007455712452],[-68.821369593445,-21.0006420729823]]]}},{"type":"Feature","id":"612399621","properties":{"name":"TRC_90%_002","oid":"612399621","speedLimit":9.722222},"geometry":{"type":"Polygon","coordinates":[[[-68.8121799332826,-20.9933813760659],[-68.8111322064146,-20.9948512321824],[-68.8082470861417,-20.9938237520474],[-68.8046177941275,-20.9962925245862],[-68.8025830321801,-21.0038844159439],[-68.8051189101637,-21.0035989595995],[-68.8055896322138,-21.0011588411649],[-68.8065918642862,-21.0000314784268],[-68.8066678492514,-20.9987898608377],[-68.8075182075769,-20.9979907096216],[-68.8082773839442,-20.9968347831707],[-68.8065463694906,-20.9978195081281],[-68.8053466726922,-20.9997460220824],[-68.8058477887284,-20.9977909444154],[-68.8063337077716,-20.9968063098494],[-68.8076244903447,-20.9956646652549],[-68.8088392879526,-20.995165161848],[-68.810251454103,-20.9957502660016],[-68.8117092112324,-20.995764547858],[-68.8122103272686,-20.9940948361439],[-68.8121799332826,-20.9933813760659]]]}},{"type":"Feature","id":"612548768","properties":{"name":"ZD_STK_DIN_13-AutoClean-1","oid":"612548768","speedLimit":5},"geometry":{"type":"Polygon","coordinates":[[[-68.8260862399292,-21.0039433511993],[-68.8266331393116,-21.0038886643442],[-68.8266242904295,-21.0036176706392],[-68.8259289799064,-21.0034786485183],[-68.8256835196138,-21.0036211959075],[-68.8257360358049,-21.0037379817204],[-68.8258351048102,-21.0038518750053],[-68.8259589891584,-21.0039100871287],[-68.8260862399292,-21.0039433511993]]]}},{"type":"Feature","id":"612609137","properties":{"name":"EX-REDUCCION_901","oid":"612609137","speedLimit":2.7777777},"geometry":{"type":"Polygon","coordinates":[[[-68.8176752813847,-21.001768622197],[-68.8164269157352,-21.001823309052],[-68.8160139037852,-21.0018520535478],[-68.81591291111,-21.0022459796873],[-68.8180209648845,-21.0022833113752],[-68.8176752813847,-21.001768622197]]]}},{"type":"Feature","id":"612711005","properties":{"name":"ZD_STK_DIN_22-AutoClean-1","oid":"612711005","speedLimit":5},"geometry":{"type":"Polygon","coordinates":[[[-68.8236084567798,-21.0062530347051],[-68.8237962069723,-21.0060471228772],[-68.8235213145286,-21.005668020943],[-68.8233949294093,-21.0055788949279],[-68.8231391774822,-21.0055476194703],[-68.823040877945,-21.0058026138805],[-68.8234323447909,-21.0061214246869],[-68.8236084567798,-21.0062530347051]]]}},{"type":"Feature","id":"612712103","properties":{"name":"VEL_10_KPH_F03_001","oid":"612712103","speedLimit":2.7777777},"geometry":{"type":"Polygon","coordinates":[[[-68.8051004429317,-20.9985051276253],[-68.8047871732714,-20.9984510735107],[-68.8042440250456,-21.0007697057746],[-68.8043356879213,-21.0009117108149],[-68.8051004429317,-20.9985051276253]]]}},{"type":"Feature","id":"612786077","properties":{"name":"VEL_10KM_CHANCADO","oid":"612786077","speedLimit":2.7777777},"geometry":{"type":"Polygon","coordinates":[[[-68.8254292104392,-21.0011512482793],[-68.825364767494,-21.001868866366],[-68.8251013208869,-21.0018432855727],[-68.825159608088,-21.0011380511208],[-68.8254292104392,-21.0011512482793]]]}},{"type":"Feature","id":"612791037","properties":{"name":"VEL_10KM_CHANCADO_001","oid":"612791037","speedLimit":2.7777777},"geometry":{"type":"Polygon","coordinates":[[[-68.8258754056968,-21.0020660102188],[-68.8260693116332,-21.0021752935375],[-68.8255361664914,-21.0027734140665],[-68.8253842927446,-21.0026427983548],[-68.8258075963291,-21.0020751397599],[-68.8258754056968,-21.0020660102188]]]}},{"type":"Feature","id":"612794629","properties":{"name":"TRAC_20%_011","oid":"612794629","speedLimit":11.111111},"geometry":{"type":"Polygon","coordinates":[[[-68.813642499587,-21.0044112175826],[-68.8113583338236,-21.0041036153217],[-68.8103425398777,-21.003622190214],[-68.8099084637411,-21.0033366434781],[-68.8103425398777,-21.0029694732213],[-68.811966021178,-21.003450898329],[-68.8136329774205,-21.0037609411603],[-68.8138041840509,-21.0037710650079],[-68.813642499587,-21.0044112175826]]]}}]}