{"type":"FeatureCollection","features":[{"type":"Feature","id":"551760555","properties":{"name":"ZD_BOT_PAD59_01-AutoClean-1","oid":"551760555","speedLimit":5},"geometry":{"type":"Polygon","coordinates":[[[-68.81953885841,-20.9847267371615],[-68.8197129153172,-20.9845105671156],[-68.8194275619448,-20.9842821013249],[-68.8192906999702,-20.9842199897308],[-68.8190238960086,-20.9842249622747],[-68.8189037573371,-20.9842399703164],[-68.8187851564406,-20.9842623015591],[-68.8185569890758,-20.9843355335696],[-68.8186336856036,-20.98459699897],[-68.81953885841,-20.9847267371615]]]}},{"type":"Feature","id":"553267213","properties":{"name":"ZD_BOT_PAD59_02-AutoClean-1","oid":"553267213","speedLimit":5},"geometry":{"type":"Polygon","coordinates":[[[-68.818339393914,-20.984947246882],[-68.8186122528646,-20.9848595492891],[-68.8187529592767,-20.9845753005965],[-68.8187231648862,-20.9843055174862],[-68.8185953373397,-20.9842916847732],[-68.8184363698496,-20.984333544552],[-68.8183555405514,-20.9843740481825],[-68.8182557773986,-20.9844621074149],[-68.8182157952488,-20.9846112837326],[-68.8182507796299,-20.9847333370834],[-68.8182836495704,-20.9848441796079],[-68.818339393914,-20.984947246882]]]}},{"type":"Feature","id":"553508825","properties":{"name":"ZD_STK_HG_02-AutoClean-1","oid":"553508825","speedLimit":5},"geometry":{"type":"Polygon","coordinates":[[[-68.8157156614399,-21.0200638041146],[-68.8159842915093,-21.019965257335],[-68.8158545417441,-21.0190104384919],[-68.8155782227997,-21.0189328668067],[-68.8155343962124,-21.0190413586741],[-68.8155032562687,-21.0191516587393],[-68.8154762490954,-21.0192670217583],[-68.8154726929907,-21.0194214418496],[-68.8154779790923,-21.0196211572955],[-68.815484514636,-21.0196549705942],[-68.8155200756827,-21.0197697911539],[-68.8155810100169,-21.0198744858059],[-68.8157156614399,-21.0200638041146]]]}},{"type":"Feature","id":"558966402","properties":{"name":"ZD_STK_BL_02-AutoClean-1","oid":"558966402","speedLimit":5},"geometry":{"type":"Polygon","coordinates":[[[-68.8233211121209,-20.9923489237161],[-68.8235134301062,-20.9921467672031],[-68.8232516239133,-20.9918917209048],[-68.8231377324527,-20.9917830482176],[-68.8230722809045,-20.9917247338389],[-68.8229717488642,-20.9916513210086],[-68.82294157003,-20.9916342335395],[-68.8228293124553,-20.9915786314575],[-68.8227099426713,-20.9915377661874],[-68.8225892273342,-20.9917841331363],[-68.8231952067932,-20.9922519139046],[-68.8233211121209,-20.9923489237161]]]}},{"type":"Feature","id":"570805601","properties":{"name":"ZD_STK_MAR_02-AutoClean-1-tmp-1","oid":"570805601","speedLimit":5},"geometry":{"type":"Polygon","coordinates":[[[-68.8065016020034,-20.986707256201],[-68.8068534641444,-20.9867016507878],[-68.8068577891366,-20.9864304211193],[-68.8062795857385,-20.9862084648406],[-68.8059975001378,-20.9862645189721],[-68.8060055734566,-20.9863792491218],[-68.8060345028486,-20.9865022065716],[-68.8060570889189,-20.9865299624077],[-68.8061424354311,-20.9866179312301],[-68.8062199969574,-20.9866490322321],[-68.806335426193,-20.9866832071704],[-68.8063830972178,-20.9866923385692],[-68.8065016020034,-20.986707256201]]]}},{"type":"Feature","id":"592941111","properties":{"name":"INFO_ESTACION","oid":"592941111","speedLimit":5.5555553},"geometry":{"type":"Polygon","coordinates":[[[-68.8219615268035,-21.0107401034394],[-68.8222404407432,-21.0106413758401],[-68.8218179370634,-21.0097576191702],[-68.8212695280558,-21.0090557671979],[-68.8208398160557,-21.0093403775301],[-68.8218505186711,-21.0107787988722],[-68.8219615268035,-21.0107401034394]]]}},{"type":"Feature","id":"602013008","properties":{"name":"ZD_STK_3C_01-AutoClean-1","oid":"602013008","speedLimit":5},"geometry":{"type":"Polygon","coordinates":[[[-68.8048578166448,-20.9854543559522],[-68.8051222178329,-20.9853462257244],[-68.8054187200741,-20.9845734019889],[-68.8051702733015,-20.9844358885469],[-68.8048465716651,-20.9848873051252],[-68.8047517101701,-20.9850928068041],[-68.8047386390826,-20.9852526514887],[-68.8047828501138,-20.9853624090946],[-68.8048578166448,-20.9854543559522]]]}},{"type":"Feature","id":"607546676","properties":{"name":"ZD_STK_HG_01-AutoClean-1","oid":"607546676","speedLimit":5},"geometry":{"type":"Polygon","coordinates":[[[-68.8167984472582,-21.0206104223065],[-68.8170792834166,-21.0205493052212],[-68.8172968785784,-21.0204143232562],[-68.817170588807,-21.0201704877842],[-68.8158307062317,-21.0198854254026],[-68.8156098432981,-21.0200597356695],[-68.81567567929,-21.0201492414601],[-68.8157519913742,-21.02023115282],[-68.815795145185,-21.0202674975956],[-68.8158842400237,-21.0203365707512],[-68.8160338847529,-21.0204220080968],[-68.8160854002152,-21.0204437968802],[-68.8163530691753,-21.0205442422674],[-68.8164633084202,-21.020580587043],[-68.8165787376558,-21.0206068059109],[-68.8167984472582,-21.0206104223065]]]}},{"type":"Feature","id":"621174471","properties":{"name":"ZD_STK_MAR_01-AutoClean-1","oid":"621174471","speedLimit":5},"geometry":{"type":"Polygon","coordinates":[[[-68.806730057701,-20.9870996351214],[-68.8068568280272,-20.9870690765788],[-68.8069782161408,-20.9870381563966],[-68.8069262201238,-20.9867714472225],[-68.8062477730183,-20.9863306990112],[-68.8059594402067,-20.9863298853222],[-68.8059429091255,-20.9864487743269],[-68.8059586713192,-20.9866011149907],[-68.8059748179567,-20.9866859194671],[-68.80601720288,-20.986805441341],[-68.8060325806299,-20.9868281342232],[-68.8061224443562,-20.9869188153424],[-68.8063637789194,-20.9870164580231],[-68.8065690718813,-20.9870849887193],[-68.806730057701,-20.9870996351214]]]}},{"type":"Feature","id":"625872519","properties":{"name":"VEL_15_4_ESQ","oid":"625872519","speedLimit":8.333333},"geometry":{"type":"Polygon","coordinates":[[[-68.8227987491773,-21.0050256559633],[-68.8223601949709,-21.0050778224696],[-68.8224367953879,-21.0049038738421],[-68.8226085456326,-21.0046776682986],[-68.8228013441726,-21.0045509136335],[-68.8229969299298,-21.0044366355332],[-68.8231977056775,-21.0046925859304],[-68.8227987491773,-21.0050256559633]]]}},{"type":"Feature","id":"626412789","properties":{"name":"ZD_STK_DIN_22-AutoClean-1","oid":"626412789","speedLimit":5},"geometry":{"type":"Polygon","coordinates":[[[-68.8246743541164,-21.0059256864133],[-68.8247953577863,-21.0057106916961],[-68.8248190971878,-21.0055623290674],[-68.8248070833206,-21.0054771629515],[-68.8247827672535,-21.0053255455668],[-68.8246838690992,-21.0052319713312],[-68.8245655565355,-21.0051664241613],[-68.824359783019,-21.0053563753391],[-68.8244073579329,-21.0058232520085],[-68.8246743541164,-21.0059256864133]]]}},{"type":"Feature","id":"626617414","properties":{"name":"ZD_STK_DIN_13-AutoClean-1","oid":"626617414","speedLimit":5},"geometry":{"type":"Polygon","coordinates":[[[-68.8251852798584,-21.0061696122952],[-68.825436802181,-21.0060370713972],[-68.8251918154022,-21.0055450607785],[-68.8249194370062,-21.0056341145197],[-68.8249392358592,-21.0057436008959],[-68.8250142023902,-21.0058903361465],[-68.825123288304,-21.0060809201936],[-68.8251852798584,-21.0061696122952]]]}},{"type":"Feature","id":"626734706","properties":{"name":"ZD_STK_MAR_02-AutoClean-1","oid":"626734706","speedLimit":5},"geometry":{"type":"Polygon","coordinates":[[[-68.8067743648431,-20.987095928316],[-68.8068898901896,-20.9870849887193],[-68.807117192556,-20.9870599451799],[-68.8072320451259,-20.9870467453361],[-68.8073493004693,-20.9870330030329],[-68.8075101901781,-20.9869751407036],[-68.8075678567404,-20.9869492834752],[-68.8076590660198,-20.9868795774504],[-68.8076998170572,-20.9868453121023],[-68.8077664219366,-20.9867525515556],[-68.807796408549,-20.9867034589856],[-68.807874546741,-20.9865587127525],[-68.8079105883424,-20.9864544701499],[-68.8076458027105,-20.9863470632012],[-68.806736208801,-20.9868270493046],[-68.8067743648431,-20.987095928316]]]}},{"type":"Feature","id":"627372043","properties":{"name":"INFO_RED_VEL_15KPH","oid":"627372043","speedLimit":4.1666665},"geometry":{"type":"Polygon","coordinates":[[[-68.8087272429756,-21.002353591679],[-68.8088385394409,-21.0022981704167],[-68.8092902608456,-21.0026636071901],[-68.8091310050227,-21.0027230968974],[-68.8088669882783,-21.0025054802933],[-68.8087272429756,-21.002353591679]]]}},{"type":"Feature","id":"627414835","properties":{"name":"INFO_RED_VEL_20KPH_MARGINAL","oid":"627414835","speedLimit":5.5555553},"geometry":{"type":"Polygon","coordinates":[[[-68.8061712687123,-20.9854238878194],[-68.8054287156116,-20.9855021827837],[-68.8055951797548,-20.9861103701105],[-68.8059920218144,-20.9859960016002],[-68.8061712687123,-20.9854238878194]]]}},{"type":"Feature","id":"627775409","properties":{"name":"VEL_10KM_ZIG_ZAG","oid":"627775409","speedLimit":2.7777777},"geometry":{"type":"Polygon","coordinates":[[[-68.8111657696738,-20.999653409919],[-68.8110519743242,-20.9996824314935],[-68.8110162210555,-20.9995616438811],[-68.8108764757529,-20.9994760257157],[-68.8106520567146,-20.9994499876676],[-68.8106536906005,-20.9993307370233],[-68.8108715740951,-20.9993475532628],[-68.8110471687773,-20.9994347083962],[-68.8110488026632,-20.9994347083962],[-68.8111657696738,-20.999653409919]]]}},{"type":"Feature","id":"628576537","properties":{"name":"INFO_RED_VEL_20KPH","oid":"628576537","speedLimit":5.5555553},"geometry":{"type":"Polygon","coordinates":[[[-68.8087026385757,-20.9994625546422],[-68.8085336755482,-20.9993433944078],[-68.8083576003112,-20.9998764511164],[-68.8085231033451,-20.9999460667313],[-68.8087026385757,-20.9994625546422]]]}},{"type":"Feature","id":"628602625","properties":{"name":"INFO_RED_VEL_15_KPH_901","oid":"628602625","speedLimit":4.1666665},"geometry":{"type":"Polygon","coordinates":[[[-68.8147289865588,-21.0016497506891],[-68.8148776701786,-21.0018821041052],[-68.8138288115212,-21.0020593978985],[-68.8137359683559,-21.0018570605658],[-68.8147289865588,-21.0016497506891]]]}},{"type":"Feature","id":"628617966","properties":{"name":"info_red_vel_15_kph_906","oid":"628617966","speedLimit":4.1666665},"geometry":{"type":"Polygon","coordinates":[[[-68.8254692876778,-21.0039415509782],[-68.8253187779502,-21.0038371275559],[-68.825444587167,-21.0036305409583],[-68.8254396855091,-21.0034309159223],[-68.8255827946946,-21.0034424883882],[-68.8254692876778,-21.0039415509782]]]}},{"type":"Feature","id":"628644340","properties":{"name":"INFO_RED_VEL_10KPH_903","oid":"628644340","speedLimit":2.7777777},"geometry":{"type":"Polygon","coordinates":[[[-68.8129021098649,-21.0005604923404],[-68.8127659206669,-21.0006056068752],[-68.8124153079681,-21.000387357402],[-68.8120167359116,-21.0003754232965],[-68.8120621963849,-21.0001880035956],[-68.8127634217825,-21.0003303991716],[-68.8129021098649,-21.0005604923404]]]}},{"type":"Feature","id":"628890401","properties":{"name":"ZD_STK_DIN_21-AutoClean-1","oid":"628890401","speedLimit":5},"geometry":{"type":"Polygon","coordinates":[[[-68.8244173534704,-21.0063639031478],[-68.8246700291242,-21.0060042526073],[-68.8247325973443,-21.0059119441101],[-68.8247586434083,-21.0058651117874],[-68.8247947811206,-21.0057597842661],[-68.8248169827472,-21.005652648547],[-68.8245412404684,-21.005573268664],[-68.8242229210444,-21.0061233224318],[-68.8241659272587,-21.00623118143],[-68.8244173534704,-21.0063639031478]]]}},{"type":"Feature","id":"629088680","properties":{"name":"ZD_BOT_NRT_02-AutoClean-1","oid":"629088680","speedLimit":5},"geometry":{"type":"Polygon","coordinates":[[[-68.791947618897,-20.9912996265385],[-68.7921155247043,-20.9905318657568],[-68.7918627529395,-20.9904014042862],[-68.7917897086272,-20.9904887402395],[-68.7917239687462,-20.9906391822956],[-68.7916591899746,-20.9909059818795],[-68.7916468877746,-20.9910670018928],[-68.7916596705293,-20.9912849801364],[-68.791947618897,-20.9912996265385]]]}},{"type":"Feature","id":"629140516","properties":{"name":"ZD_BOT_NRT_03-AutoClean-1","oid":"629140516","speedLimit":5},"geometry":{"type":"Polygon","coordinates":[[[-68.7923100532412,-20.9920412588621],[-68.7924894923609,-20.9918289764415],[-68.7919486761174,-20.9912008989391],[-68.7916607277496,-20.9911861621271],[-68.7916261278122,-20.9912958293231],[-68.7916451577777,-20.9914570301561],[-68.791713588765,-20.9916217569748],[-68.7917841341929,-20.9917006848083],[-68.791835937988,-20.9917347693366],[-68.7923100532412,-20.9920412588621]]]}},{"type":"Feature","id":"629212052","properties":{"name":"New Zone2523","oid":"629212052","speedLimit":2.7777777},"geometry":{"type":"Polygon","coordinates":[[[-68.8114400702885,-20.9979086798713],[-68.8113297349326,-20.9977293970604],[-68.8110141066149,-20.9977209889406],[-68.8108342830514,-20.9978456641783],[-68.8108035275515,-20.9980087636189],[-68.8109414467464,-20.9979144661042],[-68.8114400702885,-20.9979086798713]]]}},{"type":"Feature","id":"629237286","properties":{"name":"New Zone2524","oid":"629237286","speedLimit":4.1666665},"geometry":{"type":"Polygon","coordinates":[[[-68.8122738326685,-20.9969338804426],[-68.8122617226904,-20.9971278096556],[-68.8112913866687,-20.9970307998442],[-68.811012472729,-20.9970536735462],[-68.8106000606975,-20.9971363081852],[-68.8099966762339,-20.9971505929477],[-68.8099997517839,-20.9970251040211],[-68.8109912322119,-20.9967798219909],[-68.8121191901706,-20.996891026155],[-68.8121222657206,-20.9968939192714],[-68.8122738326685,-20.9969338804426]]]}}]}