{"type":"FeatureCollection","features":[{"type":"Feature","id":"553508825","properties":{"name":"ZD_STK_HG_02-AutoClean-1","oid":"553508825","speedLimit":5},"geometry":{"type":"Polygon","coordinates":[[[-68.816373627274,-21.0204836387539],[-68.8164583616784,-21.0202244375651],[-68.8158835911894,-21.0197076619732],[-68.815605343026,-21.0197795116752],[-68.8156404486533,-21.020016570503],[-68.8157197969889,-21.0201498765537],[-68.8157867381301,-21.0202107906406],[-68.815981309867,-21.0203629854809],[-68.8161250024892,-21.0204332083971],[-68.816373627274,-21.0204836387539]]]}},{"type":"Feature","id":"558966402","properties":{"name":"ZD_STK_BL_02-AutoClean-1","oid":"558966402","speedLimit":5},"geometry":{"type":"Polygon","coordinates":[[[-68.8233381990022,-20.9923446745523],[-68.8235306547834,-20.9921425916171],[-68.8232686610063,-20.9918876381466],[-68.8231546879425,-20.9917790050123],[-68.8230891894982,-20.991720711858],[-68.8229885854267,-20.9916473257473],[-68.8229583849693,-20.9916302444974],[-68.822846046962,-20.9915746626526],[-68.8227265916496,-20.991533812256],[-68.8226057898199,-20.9917800895361],[-68.8232122034633,-20.992247700049],[-68.8233381990022,-20.9923446745523]]]}},{"type":"Feature","id":"570805601","properties":{"name":"ZD_STK_MAR_02-AutoClean-1-tmp-1","oid":"570805601","speedLimit":5},"geometry":{"type":"Polygon","coordinates":[[[-68.8065066377001,-20.9867050604025],[-68.8068587519505,-20.9866994570296],[-68.8068630800415,-20.9864283260789],[-68.8062844623605,-20.9862064505844],[-68.8060021746454,-20.9862624843142],[-68.8060102537487,-20.9863771727063],[-68.8060392038687,-20.9865000854039],[-68.8060618061219,-20.9865278311378],[-68.8061472137849,-20.9866157679428],[-68.8062248308841,-20.9866468576252],[-68.8063403428247,-20.9866810201249],[-68.8063880480058,-20.9866901482003],[-68.8065066377001,-20.9867050604025]]]}},{"type":"Feature","id":"592941111","properties":{"name":"INFO_ESTACION","oid":"592941111","speedLimit":5.5555553},"geometry":{"type":"Polygon","coordinates":[[[-68.8219776395416,-21.0107291605436],[-68.8222224171343,-21.0106278479451],[-68.8220187083164,-21.0102235013207],[-68.8218228862422,-21.0097831846569],[-68.8214125832124,-21.0098017119386],[-68.8218665518717,-21.0107678418926],[-68.8219776395416,-21.0107291605436]]]}},{"type":"Feature","id":"602013008","properties":{"name":"ZD_STK_3C_01-AutoClean-1","oid":"602013008","speedLimit":5},"geometry":{"type":"Polygon","coordinates":[[[-68.8048616745688,-20.9854526161647],[-68.8048616745688,-20.9854526161647]]]}},{"type":"Feature","id":"606796346","properties":{"name":"ZD_STK_HG_03-AutoClean-1","oid":"606796346","speedLimit":5},"geometry":{"type":"Polygon","coordinates":[[[-68.8156438149463,-21.0199038704045],[-68.8159009035536,-21.0197807769529],[-68.8159261988412,-21.0188916481889],[-68.8156614158498,-21.0187839188245],[-68.8155993798784,-21.0188830623754],[-68.8155467695274,-21.0190326362832],[-68.8155109906415,-21.0192135710042],[-68.8155082976071,-21.0192574942182],[-68.8155051236737,-21.0193711884635],[-68.8155128180578,-21.0196623831045],[-68.8155707182978,-21.0198099687186],[-68.8156438149463,-21.0199038704045]]]}},{"type":"Feature","id":"607546676","properties":{"name":"ZD_STK_HG_01-AutoClean-1","oid":"607546676","speedLimit":5},"geometry":{"type":"Polygon","coordinates":[[[-68.8167386296177,-21.0205630801224],[-68.8169110800003,-21.0205567537336],[-68.8169726350728,-21.020554313555],[-68.8171389299482,-21.0205146380592],[-68.8172388607611,-21.0204494762541],[-68.8173270576383,-21.0203770842903],[-68.8171676877086,-21.0201510514545],[-68.8163703571608,-21.0202022048272],[-68.8162898546676,-21.0204625809167],[-68.8165078942758,-21.020537774567],[-68.8166785172422,-21.0205618148447],[-68.8167386296177,-21.0205630801224]]]}},{"type":"Feature","id":"619355510","properties":{"name":"VEL_15_KMH","oid":"619355510","speedLimit":4.1666665},"geometry":{"type":"Polygon","coordinates":[[[-68.817033805426,-21.0020443843105],[-68.8155356126705,-21.0022734899638],[-68.8154066355578,-21.0018198878834],[-68.8168767438115,-21.0015221860997],[-68.8176356986188,-21.0016676026662],[-68.8175693345563,-21.0022458346068],[-68.8171270998327,-21.0022790933368],[-68.817033805426,-21.0020443843105]]]}},{"type":"Feature","id":"619770241","properties":{"name":"VEL_10_KMH_02","oid":"619770241","speedLimit":2.7777777},"geometry":{"type":"Polygon","coordinates":[[[-68.8105590774228,-20.9969865268038],[-68.8103010270175,-20.9972290082506],[-68.8099579536684,-20.9971959302747],[-68.8095884308741,-20.9972703105321],[-68.8095738115444,-20.9969672765063],[-68.8105590774228,-20.9969865268038]]]}},{"type":"Feature","id":"619990689","properties":{"name":"ZD_BOT_NRT_03-AutoClean-1","oid":"619990689","speedLimit":5},"geometry":{"type":"Polygon","coordinates":[[[-68.7922238411165,-20.9903507775415]]]}},{"type":"Feature","id":"620034757","properties":{"name":"VEL_10_KMH_03","oid":"620034757","speedLimit":2.7777777},"geometry":{"type":"Polygon","coordinates":[[[-68.8141390819644,-21.0025096450218],[-68.8141963089458,-21.0028536198211],[-68.8147083702047,-21.0028021953175],[-68.8148739918215,-21.0027936095041],[-68.8150760655828,-21.0024509903595],[-68.8152964135062,-21.0022924691304],[-68.8154499164681,-21.0022325491903],[-68.8154164458974,-21.002052608616],[-68.8153420027317,-21.001838505542],[-68.8150806822132,-21.0018870379822],[-68.8149069814932,-21.0020761066318],[-68.8146975018872,-21.0023128039516],[-68.8145927620843,-21.0024269500819],[-68.814175918828,-21.0025002458155],[-68.8141390819644,-21.0025096450218]]]}},{"type":"Feature","id":"620970737","properties":{"name":"ZD_BOT_NRT_02-AutoClean-1","oid":"620970737","speedLimit":5},"geometry":{"type":"Polygon","coordinates":[[[-68.7937046253281,-20.9903850304182],[-68.7937914756881,-20.9901264618684],[-68.7936838504911,-20.9900862441107],[-68.7932996121873,-20.989974447782],[-68.7932409425089,-20.9899654100837],[-68.7931257191077,-20.9899537514528],[-68.7930679150474,-20.9899517631592],[-68.7926641522441,-20.9899440811156],[-68.7924929521989,-20.9899683021472],[-68.7923833072261,-20.9900064412342],[-68.7922228793185,-20.9900698858767]]]}},{"type":"Feature","id":"621013260","properties":{"name":"ZD_STK_3C_04_-AutoClean-2","oid":"621013260","speedLimit":5},"geometry":{"type":"Polygon","coordinates":[[[-68.8078272825435,-20.9864042858013],[-68.807902302788,-20.98614246368],[-68.8071978819277,-20.9857996637815],[-68.8070035987303,-20.986000029554],[-68.807121515166,-20.986109656835],[-68.8072168293485,-20.9861826814377],[-68.8072751143077,-20.9862219050486],[-68.8073570594979,-20.9862662801475],[-68.8075486496609,-20.9863337013772],[-68.8076658928379,-20.9863724731031],[-68.8078272825435,-20.9864042858013]]]}},{"type":"Feature","id":"621013480","properties":{"name":"ZD_STK_3C_04_-AutoClean-1","oid":"621013480","speedLimit":5},"geometry":{"type":"Polygon","coordinates":[[[-68.8071188221316,-20.986103963085],[-68.8073252239838,-20.9859144425506],[-68.8070530351479,-20.9855630568386],[-68.8069225191583,-20.985456411998],[-68.8064887482572,-20.985555013287],[-68.8069934998512,-20.9859982220143],[-68.8071188221316,-20.986103963085]]]}},{"type":"Feature","id":"621174471","properties":{"name":"ZD_STK_MAR_01-AutoClean-1","oid":"621174471","speedLimit":5},"geometry":{"type":"Polygon","coordinates":[[[-68.8069177101683,-20.9870380995869],[-68.8072900221768,-20.9870019487935],[-68.8074494882864,-20.9869703168492],[-68.8075367233656,-20.9869397694288],[-68.807642713506,-20.9868713540523],[-68.8076700285694,-20.9868511096079],[-68.8077462029715,-20.9867532313348],[-68.8077667854489,-20.9866266131808],[-68.8075062343688,-20.986510117249],[-68.8068743330782,-20.9867700414537],[-68.8069177101683,-20.9870380995869]]]}},{"type":"Feature","id":"621174472","properties":{"name":"ZD_STK_MAR_01-AutoClean-2","oid":"621174472","speedLimit":5},"geometry":{"type":"Polygon","coordinates":[[[-68.8066082997494,-20.987064851174],[-68.8069567591674,-20.9870624109955],[-68.8069679160243,-20.9867914607988],[-68.8062258888619,-20.9866016691334],[-68.8060456479154,-20.9868134224058],[-68.8061291319824,-20.9868901524648],[-68.8062173288596,-20.9869703168492],[-68.8063780453066,-20.9870273447258],[-68.8066082997494,-20.987064851174]]]}},{"type":"Feature","id":"621360195","properties":{"name":"ZD_STK_DIN_21-AutoClean-1","oid":"621360195","speedLimit":5},"geometry":{"type":"Polygon","coordinates":[[[-68.8246903908202,-21.0063401830921],[-68.8247816654511,-21.0062714062076],[-68.8248619755847,-21.0061911514462],[-68.8249228573986,-21.0060967074984],[-68.8249465176295,-21.0060488980741],[-68.8250028789927,-21.0058845927181],[-68.824992587754,-21.0057239928183],[-68.8249422857183,-21.0056194266484],[-68.8246601903628,-21.005676273771],[-68.8244817768325,-21.0061529219822],[-68.8246903908202,-21.0063401830921]]]}},{"type":"Feature","id":"621746744","properties":{"name":"ZD_STK_DIN_13-AutoClean-1","oid":"621746744","speedLimit":5},"geometry":{"type":"Polygon","coordinates":[[[-68.8265586834488,-21.0042021347925],[-68.8266101396422,-21.0039354323141],[-68.8263372775476,-21.0038779525526],[-68.8258762877629,-21.0038232744775],[-68.8257443290763,-21.0038088141602],[-68.8257059533358,-21.0040775953092],[-68.8260446024141,-21.0041451069159],[-68.8265586834488,-21.0042021347925]]]}},{"type":"Feature","id":"622067046","properties":{"name":"ZD_STK_DIN_22-AutoClean-1","oid":"622067046","speedLimit":5},"geometry":{"type":"Polygon","coordinates":[[[-68.8246838505938,-21.0057924081948],[-68.8249710434787,-21.0057661084926],[-68.8249718129171,-21.0056566619656],[-68.8249716205575,-21.0055438714901],[-68.8249196834651,-21.0053900498641],[-68.8247931108474,-21.0052034213931],[-68.8245373687574,-21.0053289550233],[-68.8246838505938,-21.0057924081948]]]}}]}