{"type":"FeatureCollection","features":[{"type":"Feature","id":"551760555","properties":{"name":"ZD_BOT_PAD59_01-AutoClean-1","oid":"551760555","speedLimit":5},"geometry":{"type":"Polygon","coordinates":[[[-68.81953885841,-20.9847267371615],[-68.8197129153172,-20.9845105671156],[-68.8194275619448,-20.9842821013249],[-68.8192906999702,-20.9842199897308],[-68.8190238960086,-20.9842249622747],[-68.8189037573371,-20.9842399703164],[-68.8187851564406,-20.9842623015591],[-68.8185569890758,-20.9843355335696],[-68.8186336856036,-20.98459699897],[-68.81953885841,-20.9847267371615]]]}},{"type":"Feature","id":"553267213","properties":{"name":"ZD_BOT_PAD59_02-AutoClean-1","oid":"553267213","speedLimit":5},"geometry":{"type":"Polygon","coordinates":[[[-68.818339393914,-20.984947246882],[-68.8186122528646,-20.9848595492891],[-68.8187529592767,-20.9845753005965],[-68.8187231648862,-20.9843055174862],[-68.8185953373397,-20.9842916847732],[-68.8184363698496,-20.984333544552],[-68.8183555405514,-20.9843740481825],[-68.8182557773986,-20.9844621074149],[-68.8182157952488,-20.9846112837326],[-68.8182507796299,-20.9847333370834],[-68.8182836495704,-20.9848441796079],[-68.818339393914,-20.984947246882]]]}},{"type":"Feature","id":"553508825","properties":{"name":"ZD_STK_HG_02-AutoClean-1","oid":"553508825","speedLimit":5},"geometry":{"type":"Polygon","coordinates":[[[-68.8163615269378,-21.0204981332238],[-68.8164462006734,-21.0202388376606],[-68.8158718417128,-21.0197218739124],[-68.8155937927716,-21.0197937497746],[-68.8156288732636,-21.0200308949148],[-68.8157081647868,-21.0201642495018],[-68.8157750579991,-21.0202251857673],[-68.815969490425,-21.0203774360213],[-68.8161130801652,-21.0204476845054],[-68.8163615269378,-21.0204981332238]]]}},{"type":"Feature","id":"558966402","properties":{"name":"ZD_STK_BL_02-AutoClean-1","oid":"558966402","speedLimit":5},"geometry":{"type":"Polygon","coordinates":[[[-68.8233211121209,-20.9923489237161],[-68.8235134301062,-20.9921467672031],[-68.8232516239133,-20.9918917209048],[-68.8231377324527,-20.9917830482176],[-68.8230722809045,-20.9917247338389],[-68.8229717488642,-20.9916513210086],[-68.82294157003,-20.9916342335395],[-68.8228293124553,-20.9915786314575],[-68.8227099426713,-20.9915377661874],[-68.8225892273342,-20.9917841331363],[-68.8231952067932,-20.9922519139046],[-68.8233211121209,-20.9923489237161]]]}},{"type":"Feature","id":"570805601","properties":{"name":"ZD_STK_MAR_02-AutoClean-1-tmp-1","oid":"570805601","speedLimit":5},"geometry":{"type":"Polygon","coordinates":[[[-68.8065016020034,-20.986707256201],[-68.8068534641444,-20.9867016507878],[-68.8068577891366,-20.9864304211193],[-68.8062795857385,-20.9862084648406],[-68.8059975001378,-20.9862645189721],[-68.8060055734566,-20.9863792491218],[-68.8060345028486,-20.9865022065716],[-68.8060570889189,-20.9865299624077],[-68.8061424354311,-20.9866179312301],[-68.8062199969574,-20.9866490322321],[-68.806335426193,-20.9866832071704],[-68.8063830972178,-20.9866923385692],[-68.8065016020034,-20.986707256201]]]}},{"type":"Feature","id":"592941111","properties":{"name":"INFO_ESTACION","oid":"592941111","speedLimit":5.5555553},"geometry":{"type":"Polygon","coordinates":[[[-68.8219615268035,-21.0107401034394],[-68.8222061291386,-21.0106387539533],[-68.8220025661737,-21.0102342601076],[-68.8218068843056,-21.009793783126],[-68.8213968750476,-21.0098123171533],[-68.8218505186711,-21.0107787988722],[-68.8219615268035,-21.0107401034394]]]}},{"type":"Feature","id":"600121666","properties":{"name":"ZD_STK_3C_02-AutoClean-1","oid":"600121666","speedLimit":5},"geometry":{"type":"Polygon","coordinates":[[[-68.8050726245894,-20.9853168425103],[-68.805552025944,-20.9844696114357],[-68.8053601885134,-20.9842670932832],[-68.8051449000141,-20.9844475514227],[-68.8049717081053,-20.9847149838758],[-68.8048005345262,-20.9850311472594],[-68.8047677606966,-20.9851937042408],[-68.8047847723325,-20.9853020152884],[-68.8050726245894,-20.9853168425103]]]}},{"type":"Feature","id":"602013008","properties":{"name":"ZD_STK_3C_01-AutoClean-1","oid":"602013008","speedLimit":5},"geometry":{"type":"Polygon","coordinates":[[[-68.8048578166448,-20.9854543559522],[-68.8051222178329,-20.9853462257244],[-68.8054187200741,-20.9845734019889],[-68.8051702733015,-20.9844358885469],[-68.8048465716651,-20.9848873051252],[-68.8047517101701,-20.9850928068041],[-68.8047386390826,-20.9852526514887],[-68.8047828501138,-20.9853624090946],[-68.8048578166448,-20.9854543559522]]]}},{"type":"Feature","id":"606156222","properties":{"name":"VEL_30KMH","oid":"606156222","speedLimit":8.333333},"geometry":{"type":"Polygon","coordinates":[[[-68.8182800934658,-21.0229386577811],[-68.8181777353177,-21.0230162294663],[-68.8182691368189,-21.023114685836],[-68.8183993671388,-21.0230375662002],[-68.8182800934658,-21.0229386577811]]]}},{"type":"Feature","id":"606156969","properties":{"name":"VEL_30KMH_2","oid":"606156969","speedLimit":8.333333},"geometry":{"type":"Polygon","coordinates":[[[-68.8131809276936,-21.0229552027909],[-68.8130187885426,-21.0229858517434],[-68.8130810684299,-21.0231337623226],[-68.8132346537075,-21.0230916313141],[-68.8131809276936,-21.0229552027909]]]}},{"type":"Feature","id":"606157392","properties":{"name":"VEL_20KH","oid":"606157392","speedLimit":5.5555553},"geometry":{"type":"Polygon","coordinates":[[[-68.8236797981384,-21.0147656037697],[-68.823524386753,-21.0146760979791],[-68.8233805086801,-21.0148908214667],[-68.8235426478311,-21.0149768916815],[-68.8236797981384,-21.0147656037697]]]}},{"type":"Feature","id":"606157536","properties":{"name":"VEL_20KMH_2","oid":"606157536","speedLimit":5.5555553},"geometry":{"type":"Polygon","coordinates":[[[-68.8218361020305,-21.017524461548],[-68.8216769423185,-21.0174605417561],[-68.8215907308079,-21.0176268959528],[-68.8217348011027,-21.0176982293556],[-68.8218361020305,-21.017524461548]]]}},{"type":"Feature","id":"606221546","properties":{"name":"ZD_BOT_NRT_03-AutoClean-1","oid":"606221546","speedLimit":5},"geometry":{"type":"Polygon","coordinates":[[[-68.7922685333163,-20.9911484612032],[-68.792698821982,-20.990383593538],[-68.7926066515933,-20.990126648632],[-68.7923605114832,-20.9901784534987],[-68.7922155761899,-20.9902360445983],[-68.7921087008278,-20.9903104519374],[-68.7920434415014,-20.9903943523148],[-68.7919950977,-20.9905042907405],[-68.7919826032782,-20.9905330410853],[-68.791967513861,-20.9906243550737],[-68.7919638616454,-20.9906550944362],[-68.7919610744282,-20.9907737122112],[-68.7919804888376,-20.9911359846384],[-68.7922685333163,-20.9911484612032]]]}},{"type":"Feature","id":"606796346","properties":{"name":"ZD_STK_HG_03-AutoClean-1","oid":"606796346","speedLimit":5},"geometry":{"type":"Polygon","coordinates":[[[-68.8156192621699,-21.0199066717266],[-68.815882317805,-21.0197956483823],[-68.8159415221423,-21.018895798752],[-68.8156920181494,-21.0187598222782],[-68.8156129188481,-21.018849147249],[-68.8155573667264,-21.0189532994418],[-68.8155474672998,-21.0189945263514],[-68.8155011418281,-21.0192039156555],[-68.8154912424016,-21.0194303020188],[-68.8155012379391,-21.0196593102689],[-68.8155528495123,-21.0198093906855],[-68.8156192621699,-21.0199066717266]]]}},{"type":"Feature","id":"607546676","properties":{"name":"ZD_STK_HG_01-AutoClean-1","oid":"607546676","speedLimit":5},"geometry":{"type":"Polygon","coordinates":[[[-68.8167262679444,-21.0205776035166],[-68.8168985948547,-21.0205712748244],[-68.8169601058545,-21.0205688337573],[-68.8171262816649,-21.0205291438158],[-68.8172261409286,-21.0204639582855],[-68.817314274658,-21.020391539964],[-68.8171550188351,-21.0201654248304],[-68.8163582591659,-21.0202165968278],[-68.8162778143115,-21.0204770677195],[-68.8164956978061,-21.0205522887476],[-68.8166661986086,-21.0205763377782],[-68.8167262679444,-21.0205776035166]]]}},{"type":"Feature","id":"614973704","properties":{"name":"REDUCCION POR BACHE CON AGUA","oid":"614973704","speedLimit":5.5555553},"geometry":{"type":"Polygon","coordinates":[[[-68.811876894498,-20.9946714633676],[-68.811659587669,-20.994738185866],[-68.8116174910785,-20.9946714633676],[-68.811570877274,-20.9944670466074],[-68.8115465612069,-20.9942605504198],[-68.8117216753344,-20.9941896690664],[-68.8118724733949,-20.9944670466074],[-68.811876894498,-20.9946568169655],[-68.811876894498,-20.9946714633676]]]}},{"type":"Feature","id":"615241139","properties":{"name":"ZD_BOT_NRT_02-AutoClean-1","oid":"615241139","speedLimit":5},"geometry":{"type":"Polygon","coordinates":[[[-68.792342442627,-20.9920581655114],[-68.7924856479234,-20.9919269807617],[-68.7925438911513,-20.9918641458885],[-68.7925083301046,-20.990429431352],[-68.7923892486534,-20.9901824315338],[-68.7922545972304,-20.9902170585215],[-68.792126673573,-20.990294358977],[-68.7920375787342,-20.9903955276434],[-68.7919777016204,-20.9904975099988],[-68.7919709738548,-20.9905091728745],[-68.791924744494,-20.9906305933561],[-68.7919306072612,-20.9910194462909],[-68.7919409872424,-20.9913907597071],[-68.7919649188657,-20.9915240238842],[-68.7921361885558,-20.991868666383],[-68.7922044273212,-20.9919865608789],[-68.792342442627,-20.9920581655114]]]}},{"type":"Feature","id":"615591613","properties":{"name":"INFO_REDUCC_VEL10KPH","oid":"615591613","speedLimit":2.7777777},"geometry":{"type":"Polygon","coordinates":[[[-68.8165962298464,-21.0017078842481],[-68.816682441357,-21.0018712549184],[-68.8161774744931,-21.0019132051072],[-68.8158236901333,-21.0019171831423],[-68.8158052368334,-21.0019167310929],[-68.8155577511701,-21.0019071476446],[-68.8154349213924,-21.0019227885554],[-68.8150035755063,-21.0021338956474],[-68.8145011075268,-21.0023328878142],[-68.8143256089555,-21.0023806242359],[-68.8140809105094,-21.0025865779642],[-68.8140116145237,-21.0026421800462],[-68.8138693703367,-21.0027038395909],[-68.8136597523827,-21.002743800762],[-68.8136495646233,-21.0026239172486],[-68.8138186237618,-21.0025822382895],[-68.8138785969866,-21.0025587317182],[-68.8139737468144,-21.0024701300265],[-68.8140883110516,-21.0024015089204],[-68.8142480474292,-21.0022842472937],[-68.8144023054834,-21.002224305537],[-68.8148160630679,-21.0020174477098],[-68.8150903636826,-21.0018880711579],[-68.8152353950868,-21.0018193596418],[-68.8155161351343,-21.0017759628949],[-68.8157757307756,-21.0017646616587],[-68.8158441617629,-21.0017672835455],[-68.8165962298464,-21.0017078842481]]]}},{"type":"Feature","id":"615594759","properties":{"name":"INFO_REDUCC_20KPH","oid":"615594759","speedLimit":5.5555553},"geometry":{"type":"Polygon","coordinates":[[[-68.8185379591102,-20.9987899954742],[-68.8182374202096,-20.9991055259885],[-68.8167121396366,-20.9978832746923],[-68.8161961200149,-20.9976269626556],[-68.815671162076,-20.9973012158237],[-68.8148200036163,-20.9966980914508],[-68.8145116797298,-20.9964816501753],[-68.8148154864023,-20.9961370076765],[-68.8154866290766,-20.9966451112555],[-68.8160538758278,-20.9970295341057],[-68.8163895913314,-20.9972453425119],[-68.8167857606145,-20.9974591619006],[-68.8169984541185,-20.99759061788],[-68.8172193170521,-20.9977971140676],[-68.8185379591102,-20.9987899954742]]]}},{"type":"Feature","id":"615608482","properties":{"name":"INFO_SINGLE_LANE_903","oid":"615608482","speedLimit":2.7777777},"geometry":{"type":"Polygon","coordinates":[[[-68.8107917059063,-21.0011067488928],[-68.8103656461218,-21.0010152540846],[-68.8103321034047,-21.0013687567526],[-68.8103723738874,-21.0016022854971],[-68.8107716187204,-21.0018673672932],[-68.8110165093883,-21.0019273994598],[-68.8113789437324,-21.0020157299219],[-68.8118083673998,-21.0021325394991],[-68.8118956361307,-21.0017222594205],[-68.8110031499681,-21.0014949689583],[-68.8107547993064,-21.0013687567526],[-68.810865519106,-21.0010751958413],[-68.8107917059063,-21.0011067488928]]]}},{"type":"Feature","id":"615614034","properties":{"name":"VEL_15_KPH_903_001","oid":"615614034","speedLimit":4.1666665},"geometry":{"type":"Polygon","coordinates":[[[-68.8123300575668,-21.0004034503623],[-68.812242500503,-21.0007133754635],[-68.811896789462,-21.0005946672786],[-68.8117721335764,-21.0005458459383],[-68.8116222966254,-21.000554254058],[-68.8115258012445,-21.0006644637133],[-68.811309167192,-21.0003392593407],[-68.8115836600286,-21.000269462906],[-68.8119635865633,-21.000321086953],[-68.8123300575668,-21.0004034503623]]]}},{"type":"Feature","id":"616187445","properties":{"name":"ZD_STK_DIN_11-AutoClean-1","oid":"616187445","speedLimit":5},"geometry":{"type":"Polygon","coordinates":[[[-68.8258344131282,-21.0047329087411],[-68.8259567623512,-21.0047325471015],[-68.8260252894494,-21.0044690926835],[-68.8257685771362,-21.0042817633924],[-68.8255033109496,-21.0043879950126],[-68.8255201303636,-21.0045029963921],[-68.8255835635821,-21.0045992829244],[-68.8256161451898,-21.0046375263076],[-68.8257204255566,-21.0046981009336],[-68.8258344131282,-21.0047329087411]]]}},{"type":"Feature","id":"616298196","properties":{"name":"VEL_25KMH_RS_001","oid":"616298196","speedLimit":6.9444447},"geometry":{"type":"Polygon","coordinates":[[[-68.812112462405,-21.0035260271261],[-68.8120063559304,-21.0037499724224],[-68.8114177725511,-21.0035805442894],[-68.8115110962711,-21.0033808288435],[-68.812112462405,-21.0035260271261]]]}},{"type":"Feature","id":"616389436","properties":{"name":"ZD_STK_DIN_22-AutoClean-1","oid":"616389436","speedLimit":5},"geometry":{"type":"Polygon","coordinates":[[[-68.8233406226411,-21.0063592018335],[-68.8236065616043,-21.0062545071815],[-68.8235754216606,-21.0061491796602],[-68.8235327484046,-21.0060516273894],[-68.823495265139,-21.0060042526073],[-68.8234176075018,-21.0059220700178],[-68.8233161143521,-21.0058726158082],[-68.8231258146965,-21.0060763996991],[-68.8233406226411,-21.0063592018335]]]}},{"type":"Feature","id":"616529932","properties":{"name":"ZD_STK_DIN_13-AutoClean-1","oid":"616529932","speedLimit":5},"geometry":{"type":"Polygon","coordinates":[[[-68.8260893954445,-21.0048047846032],[-68.826249324044,-21.0047622919552],[-68.8264196326246,-21.0045883433278],[-68.8262444223862,-21.004372986971],[-68.8258271086969,-21.0044110495344],[-68.8257439727363,-21.004670797147],[-68.8258503675437,-21.0047184431588],[-68.8260893954445,-21.0048047846032]]]}}]}