{"type":"FeatureCollection","features":[{"type":"Feature","id":"448294843","properties":{"name":"INFO_TUBERIA_32","oid":"448294843","speedLimit":5.5555553},"geometry":{"type":"Polygon","coordinates":[[[-68.8083284093984,-21.0017294988873],[-68.8083406245148,-21.0017663730323],[-68.8084646031382,-21.0019512860239],[-68.8086150318169,-21.002046453854],[-68.8088423099293,-21.0021398141278],[-68.8090439074424,-21.0021906968328],[-68.8092809961208,-21.002193408167],[-68.8094103609372,-21.0021535515544],[-68.8093792941449,-21.0021437907513],[-68.8093647706599,-21.0021479481304],[-68.8093242780296,-21.0021577089335],[-68.8092804190287,-21.0021657525582],[-68.8092348287514,-21.0021710848488],[-68.8092074168758,-21.0021726212715],[-68.8091625960546,-21.0021718078713],[-68.8091354727251,-21.0021723501381],[-68.8091092150337,-21.0021701810708],[-68.8090743971426,-21.0021680120034],[-68.8090495821816,-21.0021653006692],[-68.8090092819154,-21.0021602395121],[-68.8089718671097,-21.0021530996654],[-68.8089364721265,-21.0021455079296],[-68.8089027122376,-21.0021372835493],[-68.808870395079,-21.002128065013],[-68.8088393282866,-21.0021174908097],[-68.8088204766108,-21.0021121585191],[-68.8087928723712,-21.0020987826038],[-68.8087657490416,-21.0020840510214],[-68.8087373753458,-21.0020699520836],[-68.8087073665557,-21.002056214657],[-68.808689284336,-21.0020477191432],[-68.8086573519055,-21.0020341624723],[-68.8086259003851,-21.0020190693787],[-68.8086077219834,-21.0020098508424],[-68.8085783864674,-21.0019950288822],[-68.8085515516839,-21.0019794838995],[-68.8085235627162,-21.0019623121163],[-68.8084974973889,-21.0019420674877],[-68.8084743175221,-21.0019195634139],[-68.8084616214955,-21.001905554854],[-68.8084438278219,-21.0018821470021],[-68.8084269959685,-21.0018604563286],[-68.8084118953914,-21.0018392175442],[-68.8083984299086,-21.0018193344268],[-68.8083847720619,-21.0017958361971],[-68.8083749614958,-21.0017787547918],[-68.8083623616513,-21.0017520029611],[-68.8083553403638,-21.0017285047315],[-68.8083486076225,-21.0017092542587],[-68.8083284093984,-21.0017294988873]]]}},{"type":"Feature","id":"553267213","properties":{"name":"ZD_BOT_PAD59_02-AutoClean-1","oid":"553267213","speedLimit":5},"geometry":{"type":"Polygon","coordinates":[[[-68.8183522109387,-20.9849452557279],[-68.8183522109387,-20.9849452557279]]]}},{"type":"Feature","id":"553508825","properties":{"name":"ZD_STK_HG_02-AutoClean-1","oid":"553508825","speedLimit":5},"geometry":{"type":"Polygon","coordinates":[[[-68.8163728811566,-21.0204835263346],[-68.8164576175159,-21.0202243227862],[-68.8158828337666,-21.0197075424899],[-68.8156045791838,-21.0197793928459],[-68.8156396856209,-21.0200164538318],[-68.8157190357871,-21.020149761096],[-68.8157859784728,-21.0202106757375],[-68.8159805546985,-21.0203628719632],[-68.8161242506358,-21.0204330955187],[-68.8163728811566,-21.0204835263346]]]}},{"type":"Feature","id":"558966402","properties":{"name":"ZD_STK_BL_02-AutoClean-1","oid":"558966402","speedLimit":5},"geometry":{"type":"Polygon","coordinates":[[[-68.8233376135624,-20.9923443059722],[-68.8235300737837,-20.9921422211974],[-68.8232680739622,-20.9918872654059],[-68.823154098269,-20.9917786312827],[-68.8230885983136,-20.9917203375977],[-68.8229879919211,-20.991646950819],[-68.8229577907669,-20.9916298694136],[-68.822845450168,-20.9915742870627],[-68.8227259920996,-20.9915334362943],[-68.8226051874829,-20.9917797158164],[-68.8232116151167,-20.9922473305861],[-68.8233376135624,-20.9923443059722]]]}},{"type":"Feature","id":"570805601","properties":{"name":"ZD_STK_MAR_02-AutoClean-1-tmp-1","oid":"570805601","speedLimit":5},"geometry":{"type":"Polygon","coordinates":[[[-68.8065056639442,-20.9867046404827],[-68.8068577863181,-20.9866990370587],[-68.806862114509,-20.9864279036399],[-68.8062834834789,-20.9862060261254],[-68.8060011892512,-20.9862620603653],[-68.8060092685409,-20.9863767498015],[-68.8060382193288,-20.986499663618],[-68.8060608221034,-20.9865274096046],[-68.8061462317369,-20.9866153472101],[-68.8062238506267,-20.9866464371754],[-68.8063393652323,-20.9866805999862],[-68.806387071514,-20.9866897281447],[-68.8065056639442,-20.9867046404827]]]}},{"type":"Feature","id":"592941111","properties":{"name":"INFO_ESTACION","oid":"592941111","speedLimit":5.5555553},"geometry":{"type":"Polygon","coordinates":[[[-68.8203801126407,-21.0085319652325],[-68.8205723804979,-21.0083572649329],[-68.8202326656046,-21.0080440154564],[-68.8198864103339,-21.0076946148573],[-68.8195082226327,-21.0078451842825],[-68.8202902786343,-21.0086042674775],[-68.8203801126407,-21.0085319652325]]]}},{"type":"Feature","id":"600121666","properties":{"name":"ZD_STK_3C_02-AutoClean-1","oid":"600121666","speedLimit":5},"geometry":{"type":"Polygon","coordinates":[[[-68.8050756296763,-20.9853147201999],[-68.8048033383787,-20.9850291263321],[-68.80477054031,-20.9851916256278],[-68.8047875645275,-20.9852998982397],[-68.8050756296763,-20.9853147201999]]]}},{"type":"Feature","id":"600880362","properties":{"name":"VEL_15_KPH_RC_002","oid":"600880362","speedLimit":4.1666665},"geometry":{"type":"Polygon","coordinates":[[[-68.8105521376923,-21.0009337223031],[-68.810516550345,-21.001209916879],[-68.8105424233083,-21.0013131283338],[-68.810678136138,-21.0014831289874],[-68.8108331815537,-21.0015377171824],[-68.8109934207984,-21.0015605827674],[-68.8111195154261,-21.0015665477026],[-68.8112140623514,-21.0015961012453],[-68.8112014625069,-21.0017619445198],[-68.8108075009544,-21.0016909075641],[-68.8104514351178,-21.0015162072645],[-68.810378913875,-21.0012496831138],[-68.8103600621991,-21.0010601608541],[-68.8105521376923,-21.0009337223031]]]}},{"type":"Feature","id":"601703267","properties":{"name":"ZD_STK_MAR_02-AutoClean-1","oid":"601703267","speedLimit":5},"geometry":{"type":"Polygon","coordinates":[[[-68.8068911614789,-20.9869579694737],[-68.8072325114666,-20.9869088943249],[-68.8074015032751,-20.9868697607348],[-68.807503744762,-20.9868161666956],[-68.8075957909548,-20.9867467565404],[-68.80767985404,-20.9866702065385],[-68.8077935411872,-20.9865497329227],[-68.8078324949051,-20.9865058996867],[-68.8079671497326,-20.9863422254795],[-68.8079658993663,-20.9863322839208],[-68.8079316585674,-20.9861827990292],[-68.8078576945942,-20.9860913366893],[-68.8077109208323,-20.9859224205694],[-68.807464502498,-20.986063500325],[-68.806832586629,-20.9866924394788],[-68.8068911614789,-20.9869579694737]]]}},{"type":"Feature","id":"603087867","properties":{"name":"ZD_BOT_NRT_04-AutoClean-1","oid":"603087867","speedLimit":5},"geometry":{"type":"Polygon","coordinates":[[[-68.793371816799,-20.9926185122365],[-68.7935195523811,-20.9926176988362],[-68.7935326331358,-20.9926153490133],[-68.7937938635012,-20.9925336474764],[-68.7937044142229,-20.9922758899729],[-68.7925578283668,-20.9917803484611],[-68.7923459393776,-20.9919644480524],[-68.7926573767571,-20.9923602124661],[-68.7927701982662,-20.9924569167188],[-68.7929889161788,-20.9925630202634],[-68.7931382868553,-20.992605678588],[-68.793371816799,-20.9926185122365]]]}},{"type":"Feature","id":"604050980","properties":{"name":"VEL_10_KPH_901_002","oid":"604050980","speedLimit":2.7777777},"geometry":{"type":"Polygon","coordinates":[[[-68.8165628406454,-21.0014699338277],[-68.8166517128315,-21.0016420131709],[-68.8167050938524,-21.0018356928097],[-68.8165836159616,-21.0019276070387],[-68.8161718607356,-21.0020009938174],[-68.8160297037106,-21.0020561242792],[-68.8157257685285,-21.0021029399829],[-68.815331229884,-21.0021211962997],[-68.8151694517269,-21.0018774473562],[-68.8151772424705,-21.0017250703748],[-68.8151911888634,-21.0016594560875],[-68.8153477731913,-21.0016646980002],[-68.8155854389618,-21.0016778027822],[-68.8158342618466,-21.0016778027822],[-68.8159768035998,-21.0016515028405],[-68.8161305986492,-21.0015779353062],[-68.8165628406454,-21.0014699338277]]]}},{"type":"Feature","id":"605222454","properties":{"name":"ZD_STK_MAR_03-AutoClean-2","oid":"605222454","speedLimit":5},"geometry":{"type":"Polygon","coordinates":[[[-68.8067168796594,-20.9869510103826],[-68.806832778993,-20.9869220894846],[-68.8068091182162,-20.9866518598438],[-68.8062347191949,-20.9865331034064],[-68.806112664212,-20.9867788406616],[-68.8062120202383,-20.9868382188804],[-68.8063740869414,-20.98689343972],[-68.8065451947543,-20.9869443224249],[-68.8067168796594,-20.9869510103826]]]}},{"type":"Feature","id":"605559780","properties":{"name":"ZD_BOT_NRT_02-AutoClean-1","oid":"605559780","speedLimit":5},"geometry":{"type":"Polygon","coordinates":[[[-68.7923194893222,-20.9908784683322],[-68.7925360912304,-20.9903988333143],[-68.7923637330512,-20.9901813843124],[-68.792250142086,-20.990227296238],[-68.792132319112,-20.9903433413412],[-68.7923194893222,-20.9908784683322]]]}},{"type":"Feature","id":"606156222","properties":{"name":"VEL_30KMH","oid":"606156222","speedLimit":8.333333},"geometry":{"type":"Polygon","coordinates":[[[-68.8182928666326,-21.0229231848373],[-68.8181904327817,-21.0230007289951],[-68.8182819018823,-21.0230991504261],[-68.8184122285189,-21.0230220581574],[-68.8182928666326,-21.0229231848373]]]}},{"type":"Feature","id":"606156969","properties":{"name":"VEL_30KMH_2","oid":"606156969","speedLimit":8.333333},"geometry":{"type":"Polygon","coordinates":[[[-68.8131899295808,-21.0229397239758],[-68.8130276705137,-21.0229703620522],[-68.8130899964624,-21.0231182201432],[-68.8132436953298,-21.0230761040855],[-68.8131899295808,-21.0229397239758]]]}},{"type":"Feature","id":"606157392","properties":{"name":"VEL_20KH","oid":"606157392","speedLimit":5.5555553},"geometry":{"type":"Polygon","coordinates":[[[-68.8236965648597,-21.0147530311498],[-68.823541038534,-21.0146635571216],[-68.8233970540506,-21.0148782044115],[-68.8235593131177,-21.014964244083],[-68.8236965648597,-21.0147530311498]]]}},{"type":"Feature","id":"606157536","properties":{"name":"VEL_20KMH_2","oid":"606157536","speedLimit":5.5555553},"geometry":{"type":"Polygon","coordinates":[[[-68.8218515051771,-21.0175109099084],[-68.8216922277525,-21.0174470127993],[-68.8216059524809,-21.0176133079629],[-68.8217501293284,-21.017684616052],[-68.8218515051771,-21.0175109099084]]]}},{"type":"Feature","id":"606183924","properties":{"name":"ZD_STK_DIN_12-AutoClean-1","oid":"606183924","speedLimit":5},"geometry":{"type":"Polygon","coordinates":[[[-68.8262201886909,-21.0047118761167],[-68.8262737620759,-21.0047084417601],[-68.8263912965038,-21.004698229068],[-68.8264995012759,-21.0046437312508],[-68.8264269800331,-21.0043812741013],[-68.8260416748625,-21.0042162442271],[-68.8258460406345,-21.0041653615221],[-68.8257564951743,-21.0042577276402],[-68.8257427411454,-21.0044184193797],[-68.8258005465392,-21.004525607458],[-68.825892304186,-21.0045860702104],[-68.8260367695795,-21.0046723810154],[-68.8262201886909,-21.0047118761167]]]}},{"type":"Feature","id":"606221546","properties":{"name":"ZD_BOT_NRT_03-AutoClean-1","oid":"606221546","speedLimit":5},"geometry":{"type":"Polygon","coordinates":[[[-68.792539169055,-20.9920749801095],[-68.7927291285438,-20.9918709070229],[-68.7923035231069,-20.9907228377498],[-68.7921000981354,-20.9914602302712],[-68.7921775246612,-20.9916610497568],[-68.7923219900547,-20.9918963935643],[-68.7924339459255,-20.992022018715],[-68.792539169055,-20.9920749801095]]]}},{"type":"Feature","id":"606796346","properties":{"name":"ZD_STK_HG_03-AutoClean-1","oid":"606796346","speedLimit":5},"geometry":{"type":"Polygon","coordinates":[[[-68.815630067419,-21.019892274726],[-68.8158933176067,-21.0197812907799],[-68.8159525657308,-21.018881760474],[-68.8157028772078,-21.0187458322533],[-68.8156237194057,-21.0188351255259],[-68.8155681261983,-21.0189392407588],[-68.8155582194503,-21.0189804530384],[-68.8155118597168,-21.0191897680378],[-68.8155019529688,-21.0194160740647],[-68.8155119558989,-21.019645001048],[-68.8155636056434,-21.0197950282064],[-68.815630067419,-21.019892274726]]]}},{"type":"Feature","id":"607457029","properties":{"name":"ZD_STK_DIN_22-AutoClean-1","oid":"607457029","speedLimit":5},"geometry":{"type":"Polygon","coordinates":[[[-68.8235734518746,-21.0061834979363],[-68.8238609399313,-21.0061605419735],[-68.823859593383,-21.0059438159941],[-68.8238515140934,-21.0058340069594],[-68.823805539088,-21.0056775629768],[-68.8237409047708,-21.0055836604361],[-68.8234743843944,-21.0056875949133],[-68.8235734518746,-21.0061834979363]]]}},{"type":"Feature","id":"607546676","properties":{"name":"ZD_STK_HG_01-AutoClean-1","oid":"607546676","speedLimit":5},"geometry":{"type":"Polygon","coordinates":[[[-68.8167378919211,-21.0205629684264],[-68.8169103462823,-21.0205566419799],[-68.8169719027749,-21.0205542017791],[-68.8171382014868,-21.0205145259222],[-68.8172381346052,-21.0204493635239],[-68.8173263335173,-21.020376970901],[-68.8171669599107,-21.0201509360075],[-68.8163696109679,-21.0202020898459],[-68.8162891066175,-21.0204624683058],[-68.816507151256,-21.0205376626406],[-68.8166777781588,-21.0205617031371],[-68.8167378919211,-21.0205629684264]]]}},{"type":"Feature","id":"607690893","properties":{"name":"VEL_25KPH_RC_001","oid":"607690893","speedLimit":6.9444447},"geometry":{"type":"Polygon","coordinates":[[[-68.8114032523841,-21.0029763511028],[-68.8113530453698,-21.0027801408853],[-68.8108399142951,-21.0027541120771],[-68.810731901887,-21.0029043199912],[-68.8114032523841,-21.0029763511028]]]}},{"type":"Feature","id":"607691021","properties":{"name":"VEL_13_KPH_901_001","oid":"607691021","speedLimit":3.6111112},"geometry":{"type":"Polygon","coordinates":[[[-68.8149048549909,-21.0017840870823],[-68.8151906117713,-21.0021623182016],[-68.8145360931276,-21.0025693798411],[-68.8143302636056,-21.002142073573],[-68.8149048549909,-21.0017840870823]]]}},{"type":"Feature","id":"608126433","properties":{"name":"VEL_25_KPH_DIN_001","oid":"608126433","speedLimit":6.9444447},"geometry":{"type":"Polygon","coordinates":[[[-68.825627899814,-21.0031913599039],[-68.8254886282496,-21.0031713864087],[-68.8254131253642,-21.0035928181194],[-68.8251699772185,-21.0039830694869],[-68.8254036995262,-21.0040939630552],[-68.8255665356855,-21.0037413088551],[-68.8256350172835,-21.0032534494568],[-68.825627899814,-21.0031913599039]]]}}]}