{"type":"FeatureCollection","features":[{"type":"Feature","id":"551760555","properties":{"name":"ZD_BOT_PAD59_01-AutoClean-1","oid":"551760555","speedLimit":5},"geometry":{"type":"Polygon","coordinates":[[[-68.81953885841,-20.9847267371615],[-68.8197129153172,-20.9845105671156],[-68.8194275619448,-20.9842821013249],[-68.8192906999702,-20.9842199897308],[-68.8190238960086,-20.9842249622747],[-68.8189037573371,-20.9842399703164],[-68.8187851564406,-20.9842623015591],[-68.8185569890758,-20.9843355335696],[-68.8186336856036,-20.98459699897],[-68.81953885841,-20.9847267371615]]]}},{"type":"Feature","id":"553267213","properties":{"name":"ZD_BOT_PAD59_02-AutoClean-1","oid":"553267213","speedLimit":5},"geometry":{"type":"Polygon","coordinates":[[[-68.818339393914,-20.984947246882],[-68.8186122528646,-20.9848595492891],[-68.8187529592767,-20.9845753005965],[-68.8187231648862,-20.9843055174862],[-68.8185953373397,-20.9842916847732],[-68.8184363698496,-20.984333544552],[-68.8183555405514,-20.9843740481825],[-68.8182557773986,-20.9844621074149],[-68.8182157952488,-20.9846112837326],[-68.8182507796299,-20.9847333370834],[-68.8182836495704,-20.9848441796079],[-68.818339393914,-20.984947246882]]]}},{"type":"Feature","id":"553508825","properties":{"name":"ZD_STK_HG_02-AutoClean-1","oid":"553508825","speedLimit":5},"geometry":{"type":"Polygon","coordinates":[[[-68.8163615269378,-21.0204981332238],[-68.8164462006734,-21.0202388376606],[-68.8158718417128,-21.0197218739124],[-68.8155937927716,-21.0197937497746],[-68.8156288732636,-21.0200308949148],[-68.8157081647868,-21.0201642495018],[-68.8157750579991,-21.0202251857673],[-68.815969490425,-21.0203774360213],[-68.8161130801652,-21.0204476845054],[-68.8163615269378,-21.0204981332238]]]}},{"type":"Feature","id":"558966402","properties":{"name":"ZD_STK_BL_02-AutoClean-1","oid":"558966402","speedLimit":5},"geometry":{"type":"Polygon","coordinates":[[[-68.8233211121209,-20.9923489237161],[-68.8235134301062,-20.9921467672031],[-68.8232516239133,-20.9918917209048],[-68.8231377324527,-20.9917830482176],[-68.8230722809045,-20.9917247338389],[-68.8229717488642,-20.9916513210086],[-68.82294157003,-20.9916342335395],[-68.8228293124553,-20.9915786314575],[-68.8227099426713,-20.9915377661874],[-68.8225892273342,-20.9917841331363],[-68.8231952067932,-20.9922519139046],[-68.8233211121209,-20.9923489237161]]]}},{"type":"Feature","id":"570805601","properties":{"name":"ZD_STK_MAR_02-AutoClean-1-tmp-1","oid":"570805601","speedLimit":5},"geometry":{"type":"Polygon","coordinates":[[[-68.8065016020034,-20.986707256201],[-68.8068534641444,-20.9867016507878],[-68.8068577891366,-20.9864304211193],[-68.8062795857385,-20.9862084648406],[-68.8059975001378,-20.9862645189721],[-68.8060055734566,-20.9863792491218],[-68.8060345028486,-20.9865022065716],[-68.8060570889189,-20.9865299624077],[-68.8061424354311,-20.9866179312301],[-68.8062199969574,-20.9866490322321],[-68.806335426193,-20.9866832071704],[-68.8063830972178,-20.9866923385692],[-68.8065016020034,-20.986707256201]]]}},{"type":"Feature","id":"584700662","properties":{"name":"LMP_902","oid":"584700662","speedLimit":1.3888888},"geometry":{"type":"Polygon","coordinates":[[[-68.8090277818762,-20.9975916123888],[-68.8090964050854,-20.9977912374248],[-68.8092027998928,-20.9980656314394],[-68.8087729917817,-20.9982318952262],[-68.8083266525895,-20.9983176942114],[-68.8083116592833,-20.997833639663],[-68.8090277818762,-20.9975916123888]]]}},{"type":"Feature","id":"592941111","properties":{"name":"INFO_ESTACION","oid":"592941111","speedLimit":5.5555553},"geometry":{"type":"Polygon","coordinates":[[[-68.8219615268035,-21.0107401034394],[-68.8222061291386,-21.0106387539533],[-68.8220025661737,-21.0102342601076],[-68.8218068843056,-21.009793783126],[-68.8213968750476,-21.0098123171533],[-68.8218505186711,-21.0107787988722],[-68.8219615268035,-21.0107401034394]]]}},{"type":"Feature","id":"600121666","properties":{"name":"ZD_STK_3C_02-AutoClean-1","oid":"600121666","speedLimit":5},"geometry":{"type":"Polygon","coordinates":[[[-68.8050726245894,-20.9853168425103],[-68.805552025944,-20.9844696114357],[-68.8053601885134,-20.9842670932832],[-68.8051449000141,-20.9844475514227],[-68.8049717081053,-20.9847149838758],[-68.8048005345262,-20.9850311472594],[-68.8047677606966,-20.9851937042408],[-68.8047847723325,-20.9853020152884],[-68.8050726245894,-20.9853168425103]]]}},{"type":"Feature","id":"602013008","properties":{"name":"ZD_STK_3C_01-AutoClean-1","oid":"602013008","speedLimit":5},"geometry":{"type":"Polygon","coordinates":[[[-68.8048578166448,-20.9854543559522],[-68.8051222178329,-20.9853462257244],[-68.8054187200741,-20.9845734019889],[-68.8051702733015,-20.9844358885469],[-68.8048465716651,-20.9848873051252],[-68.8047517101701,-20.9850928068041],[-68.8047386390826,-20.9852526514887],[-68.8047828501138,-20.9853624090946],[-68.8048578166448,-20.9854543559522]]]}},{"type":"Feature","id":"606156222","properties":{"name":"VEL_30KMH","oid":"606156222","speedLimit":8.333333},"geometry":{"type":"Polygon","coordinates":[[[-68.8182800934658,-21.0229386577811],[-68.8181777353177,-21.0230162294663],[-68.8182691368189,-21.023114685836],[-68.8183993671388,-21.0230375662002],[-68.8182800934658,-21.0229386577811]]]}},{"type":"Feature","id":"606156969","properties":{"name":"VEL_30KMH_2","oid":"606156969","speedLimit":8.333333},"geometry":{"type":"Polygon","coordinates":[[[-68.8131809276936,-21.0229552027909],[-68.8130187885426,-21.0229858517434],[-68.8130810684299,-21.0231337623226],[-68.8132346537075,-21.0230916313141],[-68.8131809276936,-21.0229552027909]]]}},{"type":"Feature","id":"606157392","properties":{"name":"VEL_20KH","oid":"606157392","speedLimit":5.5555553},"geometry":{"type":"Polygon","coordinates":[[[-68.8236797981384,-21.0147656037697],[-68.823524386753,-21.0146760979791],[-68.8233805086801,-21.0148908214667],[-68.8235426478311,-21.0149768916815],[-68.8236797981384,-21.0147656037697]]]}},{"type":"Feature","id":"606157536","properties":{"name":"VEL_20KMH_2","oid":"606157536","speedLimit":5.5555553},"geometry":{"type":"Polygon","coordinates":[[[-68.8218361020305,-21.017524461548],[-68.8216769423185,-21.0174605417561],[-68.8215907308079,-21.0176268959528],[-68.8217348011027,-21.0176982293556],[-68.8218361020305,-21.017524461548]]]}},{"type":"Feature","id":"606796346","properties":{"name":"ZD_STK_HG_03-AutoClean-1","oid":"606796346","speedLimit":5},"geometry":{"type":"Polygon","coordinates":[[[-68.8156192621699,-21.0199066717266],[-68.815882317805,-21.0197956483823],[-68.8159415221423,-21.018895798752],[-68.8156920181494,-21.0187598222782],[-68.8156129188481,-21.018849147249],[-68.8155573667264,-21.0189532994418],[-68.8155474672998,-21.0189945263514],[-68.8155011418281,-21.0192039156555],[-68.8154912424016,-21.0194303020188],[-68.8155012379391,-21.0196593102689],[-68.8155528495123,-21.0198093906855],[-68.8156192621699,-21.0199066717266]]]}},{"type":"Feature","id":"607546676","properties":{"name":"ZD_STK_HG_01-AutoClean-1","oid":"607546676","speedLimit":5},"geometry":{"type":"Polygon","coordinates":[[[-68.8167262679444,-21.0205776035166],[-68.8168985948547,-21.0205712748244],[-68.8169601058545,-21.0205688337573],[-68.8171262816649,-21.0205291438158],[-68.8172261409286,-21.0204639582855],[-68.817314274658,-21.020391539964],[-68.8171550188351,-21.0201654248304],[-68.8163582591659,-21.0202165968278],[-68.8162778143115,-21.0204770677195],[-68.8164956978061,-21.0205522887476],[-68.8166661986086,-21.0205763377782],[-68.8167262679444,-21.0205776035166]]]}},{"type":"Feature","id":"615241139","properties":{"name":"ZD_BOT_NRT_02-AutoClean-1","oid":"615241139","speedLimit":5},"geometry":{"type":"Polygon","coordinates":[[[-68.7920904397497,-20.9906720010855],[-68.7930841307292,-20.9902124476171],[-68.7930500113465,-20.9899431165563],[-68.7928002190208,-20.989963820421],[-68.7926410593088,-20.9899979953592],[-68.7923150510099,-20.9900827094257],[-68.7921660790572,-20.9901429224121],[-68.792068622567,-20.9902233872138],[-68.79198587105,-20.9903138875132],[-68.7918541029552,-20.9905165864854],[-68.7920904397497,-20.9906720010855]]]}},{"type":"Feature","id":"615608482","properties":{"name":"INFO_SINGLE_LANE_903","oid":"615608482","speedLimit":3.6111112},"geometry":{"type":"Polygon","coordinates":[[[-68.8107917059063,-21.0011067488928],[-68.8103656461218,-21.0010152540846],[-68.8103321034047,-21.0013687567526],[-68.8103723738874,-21.0016022854971],[-68.8107716187204,-21.0018673672932],[-68.8110165093883,-21.0019273994598],[-68.8113789437324,-21.0020157299219],[-68.8115052335039,-21.0020442994469],[-68.8115975000036,-21.0016587012682],[-68.8110031499681,-21.0014949689583],[-68.8107547993064,-21.0013687567526],[-68.810865519106,-21.0010751958413],[-68.8107917059063,-21.0011067488928]]]}},{"type":"Feature","id":"617114544","properties":{"name":"VEL_10_KPH_903_001","oid":"617114544","speedLimit":2.7777777},"geometry":{"type":"Polygon","coordinates":[[[-68.8145992367936,-21.0006549706749],[-68.8142086419449,-21.0009129100897],[-68.8139391468771,-21.0008583929263],[-68.8135731564283,-21.000793207396],[-68.8130820295393,-21.0007461038435],[-68.8128008089371,-21.0007641858214],[-68.81238474469,-21.0006990002911],[-68.8121516756674,-21.0006228751641],[-68.8117722296874,-21.0005086874737],[-68.8115199384773,-21.0005938535896],[-68.8112940777749,-21.0003495660682],[-68.8114032597996,-21.0003148486706],[-68.8116343104925,-21.000330851221],[-68.8117633874812,-21.0003255170375],[-68.8120682513739,-21.0003482099198],[-68.8125247783255,-21.0003669247669],[-68.8129670808584,-21.0003949518327],[-68.813617944125,-21.0003896176492],[-68.8138802308726,-21.0004189104534],[-68.8146386422779,-21.0005012738627],[-68.8145992367936,-21.0006549706749]]]}},{"type":"Feature","id":"617282785","properties":{"name":"VEL_25_KPH_B0T6","oid":"617282785","speedLimit":6.9444447},"geometry":{"type":"Polygon","coordinates":[[[-68.816586042087,-21.0237967380424],[-68.816567781009,-21.0236352659797],[-68.8170829356322,-21.0235218015684],[-68.8175833852821,-21.0233225381719],[-68.8179742684636,-21.0231712824268],[-68.8182373240987,-21.0229651478787],[-68.8184783703292,-21.022789843103],[-68.8186975993769,-21.0229032171044],[-68.8183980215857,-21.0231025709108],[-68.8181715842177,-21.0232399939428],[-68.8176491251632,-21.0235733352054],[-68.8172472853348,-21.0236764928893],[-68.8167066613132,-21.0237761245876],[-68.816586042087,-21.0237967380424]]]}},{"type":"Feature","id":"618108545","properties":{"name":"ZD_STK_DIN_22-AutoClean-1","oid":"618108545","speedLimit":5},"geometry":{"type":"Polygon","coordinates":[[[-68.8234180880565,-21.0062784658022],[-68.8236790292509,-21.0061630123733],[-68.8236541365182,-21.0060485534532],[-68.8235563916951,-21.0059176399332],[-68.823400499755,-21.0058192739734],[-68.8232899721772,-21.0057557158211],[-68.8231202402622,-21.0057552637716],[-68.8230075982438,-21.0058105042141],[-68.8230522898296,-21.0060188990094],[-68.8230657453608,-21.0060761284695],[-68.8234180880565,-21.0062784658022]]]}},{"type":"Feature","id":"618340854","properties":{"name":"ZD_BOT_NRT_03-AutoClean-1","oid":"618340854","speedLimit":5},"geometry":{"type":"Polygon","coordinates":[[[-68.7920323887436,-20.9917897385495],[-68.7922624783272,-20.9916262774692],[-68.7921821295838,-20.9904766253143],[-68.7919032156441,-20.9904078233884],[-68.7918623684958,-20.9905106194327],[-68.7918301713318,-20.9906701928877],[-68.7917910541804,-20.9909397047683],[-68.7917796169789,-20.9911019001101],[-68.7917632781195,-20.9913781023225],[-68.791799319721,-20.9915353251204],[-68.7918768812473,-20.9916274527978],[-68.7920323887436,-20.9917897385495]]]}},{"type":"Feature","id":"618366337","properties":{"name":"VEL_10%_904","oid":"618366337","speedLimit":2.7777777},"geometry":{"type":"Polygon","coordinates":[[[-68.8132868419464,-21.0168405107339],[-68.8135968958298,-21.0169257672597],[-68.8137781610573,-21.01729373551],[-68.8136875284435,-21.0174417364991],[-68.8132868419464,-21.0168405107339]]]}}]}