{"type":"FeatureCollection","features":[{"type":"Feature","id":"553508825","properties":{"name":"ZD_STK_HG_02-AutoClean-1","oid":"553508825","speedLimit":5},"geometry":{"type":"Polygon","coordinates":[[[-68.815726754521,-21.0200496813045],[-68.8159955840142,-21.0199511690844],[-68.8158657379263,-21.0189966850869],[-68.8155892138502,-21.0189191406054],[-68.8155453547271,-21.0190275944257],[-68.815514191666,-21.0191378558098],[-68.8154871644433,-21.0192531783721],[-68.8154836056986,-21.0194075443098],[-68.8154888957244,-21.0196071897174],[-68.81549543612,-21.0196409911581],[-68.8155310235663,-21.0197557714513],[-68.8155920031365,-21.019860429388],[-68.815726754521,-21.0200496813045]]]}},{"type":"Feature","id":"570805601","properties":{"name":"ZD_STK_MAR_02-AutoClean-1-tmp-1","oid":"570805601","speedLimit":5},"geometry":{"type":"Polygon","coordinates":[[[-68.806505854815,-20.9867048312064],[-68.8068579781689,-20.986699227759],[-68.8068623063719,-20.9864280932081],[-68.8062836737312,-20.9862062147672],[-68.8060013787178,-20.9862622492411],[-68.8060094580299,-20.9863769391561],[-68.8060384088984,-20.9864998534859],[-68.8060610117359,-20.9865275995883],[-68.8061464216071,-20.9866155375609],[-68.806224040713,-20.9866466276561],[-68.8063395556401,-20.9866807906095],[-68.8063872620546,-20.9866899188061],[-68.806505854815,-20.9867048312064]]]}},{"type":"Feature","id":"592941111","properties":{"name":"INFO_ESTACION CAMINO 9","oid":"592941111","speedLimit":5.5555553},"geometry":{"type":"Polygon","coordinates":[[[-68.8219772566469,-21.0107292503601],[-68.8222563776448,-21.0106305573836],[-68.8218335603096,-21.0097471106385],[-68.821284744178,-21.0090455047989],[-68.8208547131712,-21.009330015321],[-68.821866166105,-21.0107679322227],[-68.8219772566469,-21.0107292503601]]]}},{"type":"Feature","id":"605133231","properties":{"name":"LIMP_903.","oid":"605133231","speedLimit":2.7777777},"geometry":{"type":"Polygon","coordinates":[[[-68.8164545658894,-21.0016196717182],[-68.8160446369808,-21.0015679753971],[-68.8160285745388,-21.0016153335654],[-68.8159461463185,-21.0020565598579],[-68.8165393024846,-21.0020500526287],[-68.8167110840498,-21.0017251430585],[-68.8164545658894,-21.0016196717182]]]}},{"type":"Feature","id":"607546676","properties":{"name":"ZD_STK_HG_01-AutoClean-1","oid":"607546676","speedLimit":5},"geometry":{"type":"Polygon","coordinates":[[[-68.8168103441704,-21.0205961078028],[-68.817091388814,-21.0205350121507],[-68.8173091455126,-21.0204000775225],[-68.817182761987,-21.0201563275612],[-68.815841884719,-21.0198713651482],[-68.8156208578227,-21.0200456142863],[-68.8156867426895,-21.0201350886881],[-68.8157631114257,-21.0202169713225],[-68.8158062972727,-21.0202533033523],[-68.8158954582531,-21.0203223522846],[-68.8160452140745,-21.0204077596681],[-68.8160967677805,-21.0204295408104],[-68.8163646354508,-21.0205299509724],[-68.8164749565344,-21.0205662830022],[-68.8165904714615,-21.0205924926755],[-68.8168103441704,-21.0205961078028]]]}},{"type":"Feature","id":"625872519","properties":{"name":"VEL_15_4_ESQ","oid":"625872519","speedLimit":8.333333},"geometry":{"type":"Polygon","coordinates":[[[-68.822815100552,-21.0050168068849],[-68.8223762207748,-21.0050689550969],[-68.8224528780578,-21.0048950674715],[-68.8226247558053,-21.0046689412561],[-68.8228176974738,-21.0045422310426],[-68.8230134284285,-21.0044279930185],[-68.8232143532268,-21.0046838536564],[-68.822815100552,-21.0050168068849]]]}},{"type":"Feature","id":"627372043","properties":{"name":"INFO_RED_VEL_15KPH","oid":"627372043","speedLimit":4.1666665},"geometry":{"type":"Polygon","coordinates":[[[-68.8087331480432,-21.0023456796674],[-68.8088445271319,-21.0022902778408],[-68.8092965838824,-21.0026555864591],[-68.8091372098323,-21.0027150553039],[-68.808872997089,-21.0024975150159],[-68.8087331480432,-21.0023456796674]]]}},{"type":"Feature","id":"627775409","properties":{"name":"VEL_10KM_ZIG_ZAG","oid":"627775409","speedLimit":2.7777777},"geometry":{"type":"Polygon","coordinates":[[[-68.8111734850378,-20.9996464448347],[-68.8110596052096,-20.9996754562317],[-68.8110238253987,-20.9995547109783],[-68.8108839763529,-20.9994691228384],[-68.8106593907119,-20.9994430939216],[-68.8106610258108,-20.9993238850973],[-68.8108790710562,-20.9993406954395],[-68.8110547960952,-20.9994278200085],[-68.8110564311941,-20.9994278200085],[-68.8111734850378,-20.9996464448347]]]}},{"type":"Feature","id":"628576537","properties":{"name":"INFO_RED_VEL_20KPH","oid":"628576537","speedLimit":5.5555553},"geometry":{"type":"Polygon","coordinates":[[[-68.8087085253776,-20.9994556564891],[-68.8085394369164,-20.999336538043],[-68.808363230966,-20.9998694078138],[-68.8085288568648,-20.9999389990152],[-68.8087085253776,-20.9994556564891]]]}},{"type":"Feature","id":"628602625","properties":{"name":"INFO_RED_VEL_15_KPH_901","oid":"628602625","speedLimit":4.1666665},"geometry":{"type":"Polygon","coordinates":[[[-68.814112046281,-21.0018917100509],[-68.8154789889488,-21.0016102723871],[-68.8158904567741,-21.0015568588806],[-68.8157269468856,-21.0019434967502],[-68.8148908342617,-21.0021877889806],[-68.8134515625138,-21.0023895130864],[-68.814112046281,-21.0018917100509]]]}},{"type":"Feature","id":"628617966","properties":{"name":"info_red_vel_15_kph_906","oid":"628617966","speedLimit":4.1666665},"geometry":{"type":"Polygon","coordinates":[[[-68.8254876215884,-21.0039330820849],[-68.8253370001264,-21.0038286952828],[-68.8254629027405,-21.0036221811331],[-68.8254579974438,-21.0034226261036],[-68.8256012128697,-21.0034341945112],[-68.8254876215884,-21.0039330820849]]]}},{"type":"Feature","id":"629088680","properties":{"name":"ZD_BOT_NRT_02-AutoClean-1","oid":"629088680","speedLimit":5},"geometry":{"type":"Polygon","coordinates":[[[-68.7934258331934,-20.9902780230748],[-68.7935101850594,-20.990018728066],[-68.7934034227205,-20.9899738101087],[-68.7932906970797,-20.9899440756863],[-68.7932343342593,-20.9899393760207],[-68.7931187231499,-20.9899298863114],[-68.7926007815325,-20.9899180467694],[-68.7924290961496,-20.9899389241298],[-68.7921523797089,-20.9900380689973]]]}},{"type":"Feature","id":"629237286","properties":{"name":"REDU_VELO_15","oid":"629237286","speedLimit":9.722222},"geometry":{"type":"Polygon","coordinates":[[[-68.8122823706287,-20.9969278690708],[-68.8122702516605,-20.9971217302747],[-68.8118837912299,-20.9972972447073],[-68.8108472347191,-20.9972148198039],[-68.8106073560945,-20.997130225824],[-68.8089815868914,-20.9974245875681],[-68.8091570233835,-20.9970499699969],[-68.810998818004,-20.9967738646459],[-68.8121276133284,-20.9968850298118],[-68.8121306911616,-20.9968879219136],[-68.8122823706287,-20.9969278690708]]]}},{"type":"Feature","id":"629873883","properties":{"name":"ZD_BOT_NRT_03-AutoClean-1","oid":"629873883","speedLimit":5},"geometry":{"type":"Polygon","coordinates":[[[-68.7921178502677,-20.9905463559021]]]}},{"type":"Feature","id":"630010528","properties":{"name":"VEL_15_KMPH","oid":"630010528","speedLimit":4.1666665},"geometry":{"type":"Polygon","coordinates":[[[-68.8100407462397,-20.9990601615575],[-68.8099297518801,-20.9988814838884],[-68.8092127129279,-20.9993840769676],[-68.8090779615433,-20.9999089934582],[-68.8092641704516,-21.0002104950789],[-68.809306490658,-21.0002320050866],[-68.8094861591708,-21.0000068730311],[-68.8093355377088,-20.9998940810579],[-68.8094068087838,-20.9995329298361],[-68.8095098200135,-20.9993951934842],[-68.8099495654313,-20.9991123097694],[-68.8100407462397,-20.9990601615575]]]}},{"type":"Feature","id":"630216104","properties":{"name":"REDU_VELO_15_904","oid":"630216104","speedLimit":4.1666665},"geometry":{"type":"Polygon","coordinates":[[[-68.8136587391607,-21.0161322389346],[-68.8137744464524,-21.0166793884584],[-68.8140710726266,-21.0171484512315],[-68.8143423066769,-21.017664962551],[-68.8142120758598,-21.0176921663842],[-68.8138106109924,-21.0172673889211],[-68.813561114139,-21.0167405744887],[-68.8134345382489,-21.0163055842908],[-68.8136587391607,-21.0161322389346]]]}},{"type":"Feature","id":"630611948","properties":{"name":"TR_60","oid":"630611948","speedLimit":2.7777777},"geometry":{"type":"Polygon","coordinates":[[[-68.8265863118568,-21.0003145203682],[-68.8265849653048,-21.0006331034656],[-68.8262945909792,-21.0006405144766],[-68.8262183184254,-21.0004639155058],[-68.826353743086,-21.000229293741],[-68.8265863118568,-21.0003145203682]]]}},{"type":"Feature","id":"630795558","properties":{"name":"INFO_RED_VEL_15","oid":"630795558","speedLimit":4.1666665},"geometry":{"type":"Polygon","coordinates":[[[-68.8107989512109,-20.9997220913744],[-68.8107071933087,-20.9998082217835],[-68.8099161901776,-21.0000955340293],[-68.809874158518,-20.9999231828331],[-68.8103632454492,-20.9997077212432],[-68.8106155315889,-20.9996466255911],[-68.8107263335839,-20.9996646108497],[-68.8107874093364,-20.999693351112],[-68.8107989512109,-20.9997220913744]]]}},{"type":"Feature","id":"631033311","properties":{"name":"INFO_SL","oid":"631033311","speedLimit":4.1666665},"geometry":{"type":"Polygon","coordinates":[[[-68.8159708651664,-21.0040346671633],[-68.8158171658712,-21.0045845280325],[-68.8185173874063,-21.0056080609623],[-68.8187976625916,-21.0050268388633],[-68.8184980547665,-21.0047634768362],[-68.8176572292105,-21.0043186354163],[-68.8167777383749,-21.0041188092522],[-68.8159708651664,-21.0040346671633]]]}},{"type":"Feature","id":"631627204","properties":{"name":"INFO_RED_VEL_15KPH_RPACONECCION","oid":"631627204","speedLimit":5.5555553},"geometry":{"type":"Polygon","coordinates":[[[-68.8144599376144,-21.0027416264899],[-68.8133968347922,-21.0027517488465],[-68.8146353741065,-21.0021025623534],[-68.8147928245109,-21.0022841321243],[-68.8144599376144,-21.0027416264899]]]}},{"type":"Feature","id":"631678552","properties":{"name":"New Zone3205","oid":"631678552","speedLimit":4.1666665},"geometry":{"type":"Polygon","coordinates":[[[-68.8101589542708,-21.0026605572592],[-68.8101138447781,-21.0026040708944],[-68.8099258084063,-21.0027153264385],[-68.8099013781053,-21.0027948592401],[-68.809863770831,-21.0029344031556],[-68.809863770831,-21.0030951859443],[-68.8099183061879,-21.0031800510588],[-68.8099878459816,-21.0032294879252],[-68.8100348791202,-21.0031765263096],[-68.8099634156806,-21.0030192682701],[-68.8099614920349,-21.0028867738528],[-68.810019778501,-21.0027400900608],[-68.8101006678047,-21.0026923703798],[-68.8101589542708,-21.0026605572592]]]}},{"type":"Feature","id":"631941986","properties":{"name":"ZD_STK_DIN_21-AutoClean-1","oid":"631941986","speedLimit":5},"geometry":{"type":"Polygon","coordinates":[[[-68.823953129376,-21.0055823935581],[-68.8240370003305,-21.0053230081711],[-68.8238231871057,-21.0052436561258],[-68.8237126736576,-21.0052098546852],[-68.823654579556,-21.0052030763214],[-68.8235386798998,-21.0051979247649],[-68.8233134209828,-21.0052410351585],[-68.82320271517,-21.0052755596247],[-68.823259270355,-21.0055414522409],[-68.823953129376,-21.0055823935581]]]}},{"type":"Feature","id":"631961248","properties":{"name":"ZD_STK_DIN_11-AutoClean-1","oid":"631961248","speedLimit":5},"geometry":{"type":"Polygon","coordinates":[[[-68.8262042758114,-21.0053127954363],[-68.8263778848401,-21.0050962493083],[-68.8259511240311,-21.0047553427996],[-68.8257306742285,-21.0049303149632],[-68.8257948278142,-21.0050159031031],[-68.8259168831368,-21.0051374617601],[-68.8262042758114,-21.0053127954363]]]}},{"type":"Feature","id":"632322690","properties":{"name":"ZD_BOT_NRT_04-AutoClean-1","oid":"632322690","speedLimit":5},"geometry":{"type":"Polygon","coordinates":[[[-68.792311753759,-20.9920889307405],[-68.7924713201738,-20.9918629852814],[-68.7922138401905,-20.9920351557212],[-68.792311753759,-20.9920889307405]]]}}]}