{"type":"FeatureCollection","features":[{"type":"Feature","id":"551760555","properties":{"name":"ZD_BOT_PAD59_01-AutoClean-1","oid":"551760555","speedLimit":5},"geometry":{"type":"Polygon","coordinates":[[[-68.8195527367071,-20.9847242844998],[-68.8186468907431,-20.9845945896509],[-68.8195527367071,-20.9847242844998]]]}},{"type":"Feature","id":"553267213","properties":{"name":"ZD_BOT_PAD59_02-AutoClean-1","oid":"553267213","speedLimit":5},"geometry":{"type":"Polygon","coordinates":[[[-68.8183523801951,-20.9849447205532],[-68.8186254420651,-20.9848570522581],[-68.8187662531174,-20.9845728985263],[-68.8182286896122,-20.9846088696412],[-68.8182637000105,-20.9847308822169],[-68.8182965943956,-20.9848416877115],[-68.8183523801951,-20.9849447205532]]]}},{"type":"Feature","id":"553508825","properties":{"name":"ZD_STK_HG_02-AutoClean-1","oid":"553508825","speedLimit":5},"geometry":{"type":"Polygon","coordinates":[[[-68.8163730423216,-21.0204837301703],[-68.8164577790274,-21.0202245212318],[-68.8158829929283,-21.0197077301892],[-68.815604737208,-21.0197795820393],[-68.8156398437887,-21.0200166479548],[-68.8157191942793,-21.0201499579912],[-68.8157861372386,-21.0202108738993],[-68.8159807142598,-21.02036307329],[-68.8161244107845,-21.0204332983057],[-68.8163730423216,-21.0204837301703]]]}},{"type":"Feature","id":"558966402","properties":{"name":"ZD_STK_BL_02-AutoClean-1","oid":"558966402","speedLimit":5},"geometry":{"type":"Polygon","coordinates":[[[-68.8233378031988,-20.9923439246591],[-68.8235302642068,-20.992141835682],[-68.8232682633143,-20.9918868745887],[-68.8231542871551,-20.9917782382065],[-68.823088786932,-20.9917199433093],[-68.8229881801282,-20.9916465550045],[-68.8229579788506,-20.9916294732439],[-68.8228456377924,-20.9915738897373],[-68.8227261792356,-20.9915330381193],[-68.8226053741252,-20.9917793227628],[-68.823211804238,-20.9922469472564],[-68.8233378031988,-20.9923439246591]]]}},{"type":"Feature","id":"570805601","properties":{"name":"ZD_STK_MAR_02-AutoClean-1-tmp-1","oid":"570805601","speedLimit":5},"geometry":{"type":"Polygon","coordinates":[[[-68.8065057847729,-20.986704141894],[-68.8068579085862,-20.9866985383535],[-68.8068622367948,-20.9864273992965],[-68.8062836033992,-20.9862055171682],[-68.8060013080176,-20.9862615525733],[-68.8060093873403,-20.9863762443944],[-68.8060383382466,-20.9864991607669],[-68.8060609411136,-20.9865269073304],[-68.8061463510962,-20.9866148467646],[-68.8062239703033,-20.9866459373764],[-68.8063394853811,-20.9866801008976],[-68.8063871918578,-20.9866892292459],[-68.8065057847729,-20.986704141894]]]}},{"type":"Feature","id":"592941111","properties":{"name":"INFO_ESTACION","oid":"592941111","speedLimit":5.5555553},"geometry":{"type":"Polygon","coordinates":[[[-68.821977206787,-21.0107289603169],[-68.8222219910277,-21.0106276446893],[-68.8220182766773,-21.0102232859756],[-68.8218224492848,-21.0097829561471],[-68.8214121351117,-21.0098014839826],[-68.8218661161002,-21.0107676428224],[-68.821977206787,-21.0107289603169]]]}},{"type":"Feature","id":"600121666","properties":{"name":"ZD_STK_3C_02-AutoClean-1","oid":"600121666","speedLimit":5},"geometry":{"type":"Polygon","coordinates":[[[-68.805075744659,-20.9853141927082],[-68.8049747531256,-20.9847125351407],[-68.8048034522484,-20.9850285929015],[-68.8047706540456,-20.9851910955763],[-68.8047876783326,-20.9852993704397],[-68.805075744659,-20.9853141927082]]]}},{"type":"Feature","id":"602013008","properties":{"name":"ZD_STK_3C_01-AutoClean-1","oid":"602013008","speedLimit":5},"geometry":{"type":"Polygon","coordinates":[[[-68.8048607769664,-20.9854516602101],[-68.8051253747841,-20.985343566106],[-68.8054220975276,-20.9845710005529],[-68.8048495236241,-20.9848847988216],[-68.8047545915826,-20.9850902318471],[-68.8047415107745,-20.9852500231313],[-68.8047857546844,-20.9853597440697],[-68.8048607769664,-20.9854516602101]]]}},{"type":"Feature","id":"606156222","properties":{"name":"VEL_30KMH","oid":"606156222","speedLimit":8.333333},"geometry":{"type":"Polygon","coordinates":[[[-68.8182930356464,-21.0229234394051],[-68.8181906013767,-21.0230009851754],[-68.8182820708513,-21.0230994086531],[-68.8184123980207,-21.0230223147812],[-68.8182930356464,-21.0229234394051]]]}},{"type":"Feature","id":"606156969","properties":{"name":"VEL_30KMH_2","oid":"606156969","speedLimit":8.333333},"geometry":{"type":"Polygon","coordinates":[[[-68.8131900777342,-21.0229399788876],[-68.8130278180038,-21.022970617601],[-68.8130901442073,-21.0231184787668],[-68.813243843703,-21.0230763618333],[-68.8131900777342,-21.0229399788876]]]}},{"type":"Feature","id":"606157392","properties":{"name":"VEL_20KH","oid":"606157392","speedLimit":5.5555553},"geometry":{"type":"Polygon","coordinates":[[[-68.8236967559634,-21.0147531158211],[-68.8235412290019,-21.0146636399323],[-68.8233972439299,-21.0148782916857],[-68.8235595036603,-21.0149643331465],[-68.8236967559634,-21.0147531158211]]]}},{"type":"Feature","id":"606157536","properties":{"name":"VEL_20KMH_2","oid":"606157536","speedLimit":5.5555553},"geometry":{"type":"Polygon","coordinates":[[[-68.8218516887383,-21.0175110519291],[-68.8216924106627,-21.0174471534914],[-68.8216061350384,-21.017613452113],[-68.8217503124752,-21.017684761685],[-68.8218516887383,-21.0175110519291]]]}},{"type":"Feature","id":"606221546","properties":{"name":"ZD_BOT_NRT_03-AutoClean-1","oid":"606221546","speedLimit":5},"geometry":{"type":"Polygon","coordinates":[[[-68.7921263216914,-20.991780407319],[-68.7923881302191,-20.9916663481557],[-68.7922360658245,-20.9906922359036],[-68.791963581049,-20.9914443756477],[-68.7920097486071,-20.9915607846828],[-68.7920681313317,-20.991671138279],[-68.7921263216914,-20.991780407319]]]}},{"type":"Feature","id":"606796346","properties":{"name":"ZD_STK_HG_03-AutoClean-1","oid":"606796346","speedLimit":5},"geometry":{"type":"Polygon","coordinates":[[[-68.8156302255474,-21.0198924662667],[-68.8158934768113,-21.0197814800127],[-68.8159527251776,-21.0188819310013],[-68.815703035634,-21.018745999954],[-68.8156238775082,-21.0188352950835],[-68.8155682840736,-21.0189394124814],[-68.8155583772851,-21.018980625618],[-68.8155120173621,-21.01918994497],[-68.8155021105736,-21.0194162557029],[-68.8155121135445,-21.0196451874467],[-68.8155637635002,-21.0197952177249],[-68.8156302255474,-21.0198924662667]]]}},{"type":"Feature","id":"607546676","properties":{"name":"ZD_STK_HG_01-AutoClean-1","oid":"607546676","speedLimit":5},"geometry":{"type":"Polygon","coordinates":[[[-68.8167380545783,-21.020563173914],[-68.8169105096445,-21.020556847336],[-68.8169720663887,-21.0205544070845],[-68.8171383657805,-21.0205147304025],[-68.8172382993074,-21.0204495666491],[-68.81732649858,-21.0203771725209],[-68.8171671243219,-21.0201511329271],[-68.8163697721196,-21.0202022878292],[-68.8162892674401,-21.0204626717036],[-68.81650731297,-21.020537867602],[-68.8166779405703,-21.0205619085984],[-68.8167380545783,-21.020563173914]]]}},{"type":"Feature","id":"614973704","properties":{"name":"REDUCCION POR BACHE CON AGUA","oid":"614973704","speedLimit":5.5555553},"geometry":{"type":"Polygon","coordinates":[[[-68.811885074757,-20.9946656884041],[-68.8116676063217,-20.9947323886122],[-68.8116254784249,-20.9946656884041],[-68.8115788299546,-20.9944613399348],[-68.8115544958042,-20.9942549127328],[-68.8117297401604,-20.9941840550592],[-68.8118806503661,-20.9944613399348],[-68.811885074757,-20.9946510468951],[-68.811885074757,-20.9946656884041]]]}},{"type":"Feature","id":"615241139","properties":{"name":"ZD_BOT_NRT_02-AutoClean-1","oid":"615241139","speedLimit":5},"geometry":{"type":"Polygon","coordinates":[[[-68.7922320261631,-20.9908435314974],[-68.7927454478828,-20.9903638865056],[-68.7927094756604,-20.9900948261814],[-68.792569818797,-20.9900958203579],[-68.7924232367998,-20.9901286281838],[-68.7923020469597,-20.9901970456058],[-68.7921981699538,-20.990259407589],[-68.7920807312278,-20.9903348746265],[-68.7919879151994,-20.9904452282227],[-68.7922320261631,-20.9908435314974]]]}},{"type":"Feature","id":"615591613","properties":{"name":"INFO_REDUCC_VEL10KPH","oid":"615591613","speedLimit":2.7777777},"geometry":{"type":"Polygon","coordinates":[[[-68.8166079197738,-21.00169975858],[-68.8166941953981,-21.001863074672],[-68.8161888530011,-21.0019050108462],[-68.8158348055395,-21.0019089875523],[-68.8158163385163,-21.0019085356539],[-68.8155686688032,-21.0018989554072],[-68.8154457476797,-21.0019145910928],[-68.8150140810109,-21.0021256276588],[-68.8145112393567,-21.002324553347],[-68.8143356102709,-21.002372273821],[-68.8140907298478,-21.002578158745],[-68.8140213823282,-21.0026337422517],[-68.8138790323572,-21.0026953811973],[-68.8136692585149,-21.0027353290183],[-68.8136590631791,-21.0026154855552],[-68.8138282480433,-21.0025738205201],[-68.8138882658689,-21.0025503218018],[-68.8139834864576,-21.0024617497098],[-68.8140981358936,-21.0023931515284],[-68.8142579910637,-21.0022759290761],[-68.8144123638363,-21.0022160073445],[-68.8148264291235,-21.0020092186237],[-68.8151009337297,-21.0018798852935],[-68.8152460729906,-21.0018111967324],[-68.8155270218185,-21.0017678144833],[-68.8157868105155,-21.0017565170226],[-68.8158552923934,-21.0017591380335],[-68.8166079197738,-21.00169975858]]]}},{"type":"Feature","id":"615594759","properties":{"name":"INFO_REDUCC_20KPH","oid":"615594759","speedLimit":5.5555553},"geometry":{"type":"Polygon","coordinates":[[[-68.81855109306,-20.9987828446049],[-68.8182503306551,-20.9990982697078],[-68.8167239157636,-20.9978764267374],[-68.8162075123892,-20.9976202003285],[-68.8156821640504,-20.9972945623211],[-68.8148303726024,-20.996691639438],[-68.8145218194221,-20.9964752704705],[-68.814825852029,-20.9961307431088],[-68.8154974938178,-20.9966386769422],[-68.8160651624182,-20.9970229713656],[-68.8164011275862,-20.9972387076753],[-68.8167975914918,-20.9974524556319],[-68.8170104431714,-20.9975838676949],[-68.8172314703561,-20.9977902948969],[-68.81855109306,-20.9987828446049]]]}},{"type":"Feature","id":"615608482","properties":{"name":"INFO_SINGLE_LANE_903","oid":"615608482","speedLimit":2.7777777},"geometry":{"type":"Polygon","coordinates":[[[-68.8107990791339,-21.00109882405],[-68.8103727024979,-21.0010073598081],[-68.8103391348358,-21.0013607443791],[-68.8103794352668,-21.0015941951071],[-68.8107789770096,-21.0018591883455],[-68.8110240497975,-21.0019192004568],[-68.8113867536762,-21.0020075014097],[-68.8115131373667,-21.0020360613904],[-68.811605472483,-21.001650592031],[-68.8110106804421,-21.0014869144203],[-68.8107621450874,-21.0013607443791],[-68.810872947227,-21.0010672815397],[-68.8107990791339,-21.00109882405]]]}},{"type":"Feature","id":"615614034","properties":{"name":"VEL_15_KPH_903_001","oid":"615614034","speedLimit":4.1666665},"geometry":{"type":"Polygon","coordinates":[[[-68.8141945106713,-21.0003996468017],[-68.8141216044024,-21.0007467951744],[-68.8120722457324,-21.0006989843206],[-68.811761576539,-21.0005748930122],[-68.8116468309205,-21.0005891730026],[-68.811533720403,-21.0006566866278],[-68.8113169252445,-21.0003315908984],[-68.8115916222156,-21.0002618177811],[-68.8119718312934,-21.0003134245816],[-68.8141945106713,-21.0003996468017]]]}},{"type":"Feature","id":"616187445","properties":{"name":"ZD_STK_DIN_11-AutoClean-1","oid":"616187445","speedLimit":5},"geometry":{"type":"Polygon","coordinates":[[[-68.8259687769191,-21.0048515693582],[-68.826086888922,-21.0048402718975],[-68.826106702499,-21.0045697654983],[-68.8257623694612,-21.0044156681342],[-68.8254854602946,-21.0044918582092],[-68.8255128722823,-21.0046381829203],[-68.8255666382511,-21.0047521517039],[-68.8257302445353,-21.0048165924198],[-68.8259687769191,-21.0048515693582]]]}},{"type":"Feature","id":"616636732","properties":{"name":"ZD_STK_DIN_22-AutoClean-1","oid":"616636732","speedLimit":5},"geometry":{"type":"Polygon","coordinates":[[[-68.8234064774415,-21.0061852119998],[-68.8234523564524,-21.0059175977506],[-68.8230392529894,-21.005800465678],[-68.8229362416253,-21.0060537095572],[-68.8231215851348,-21.0061421008898],[-68.8234064774415,-21.0061852119998]]]}},{"type":"Feature","id":"616888749","properties":{"name":"ZD_STK_DIN_13-AutoClean-1","oid":"616888749","speedLimit":5},"geometry":{"type":"Polygon","coordinates":[[[-68.8261595066437,-21.0048609688455],[-68.8263241709344,-21.0048210210244],[-68.8264207380769,-21.0047460058853],[-68.8262983940478,-21.0045004442794],[-68.8259373252701,-21.0045582872782],[-68.8259220322664,-21.0048289744368],[-68.8261595066437,-21.0048609688455]]]}},{"type":"Feature","id":"616984054","properties":{"name":"ZD_STK_DIN_22-AutoClean-2","oid":"616984054","speedLimit":5},"geometry":{"type":"Polygon","coordinates":[[[-68.8235953797003,-21.0062950233179],[-68.8236061521306,-21.0061711127689],[-68.8236137505412,-21.0060479252573],[-68.8235685448072,-21.0059184111677],[-68.8234183078783,-21.0058485476707],[-68.8232830754059,-21.0058793671435],[-68.8232060332932,-21.006032199192],[-68.8232415246036,-21.0061477044303],[-68.8233068324618,-21.0062914081305],[-68.8235953797003,-21.0062950233179]]]}}]}