{"type":"FeatureCollection","features":[{"type":"Feature","id":"448294843","properties":{"name":"INFO_TUBERIA_32","oid":"448294843","speedLimit":5.5555553},"geometry":{"type":"Polygon","coordinates":[[[-68.8083285674557,-21.001723274021],[-68.8083407825996,-21.0017601589367],[-68.8084647615008,-21.0019451259404],[-68.8086151905167,-21.0020403215684],[-68.8088424691385,-21.0021337091124],[-68.8090440671036,-21.0021846066798],[-68.8092811563135,-21.002187318806],[-68.8094105214199,-21.0021474505515],[-68.8093794545579,-21.0021376868974],[-68.8093649310404,-21.0021418454908],[-68.8093244383193,-21.002151609145],[-68.80928057922,-21.0021596551192],[-68.8092349888406,-21.0021649889673],[-68.8092075769035,-21.0021665258388],[-68.8091627559819,-21.002165712201],[-68.8091356325916,-21.0021662546262],[-68.8091093748413,-21.0021640849253],[-68.8090745568722,-21.0021619152244],[-68.8090497418555,-21.0021592030982],[-68.8090094414989,-21.0021541404627],[-68.8089720266094,-21.0021469985305],[-68.8089366315468,-21.0021394045773],[-68.8089028715823,-21.0021311777946],[-68.8088705543512,-21.0021219565657],[-68.8088394874892,-21.0021113792737],[-68.8088206357711,-21.0021060454256],[-68.8087930314696,-21.0020926656032],[-68.8087659080793,-21.0020779297178],[-68.8087375343199,-21.0020638266618],[-68.8087075254625,-21.0020500852226],[-68.8086894432023,-21.0020415872273],[-68.8086575107002,-21.0020280265965],[-68.8086260591093,-21.0020129290943],[-68.8086078806668,-21.0020037078653],[-68.808578545085,-21.0019888815757],[-68.8085517102414,-21.0019733320524],[-68.808523721211,-21.0019561552534],[-68.8084976558252,-21.0019359047115],[-68.8084744759065,-21.0019133940644],[-68.8084617798515,-21.0018993814126],[-68.808443986138,-21.0018759667235],[-68.8084271542468,-21.0018542697142],[-68.8084120536358,-21.001833024726],[-68.8083985881229,-21.0018131358009],[-68.8083849302455,-21.0017896307076],[-68.8083751196575,-21.0017725443128],[-68.8083625197847,-21.0017457846681],[-68.8083554984815,-21.0017222795747],[-68.808348765725,-21.001703023479],[-68.8083285674557,-21.001723274021]]]}},{"type":"Feature","id":"553508825","properties":{"name":"ZD_STK_HG_02-AutoClean-1","oid":"553508825","speedLimit":5},"geometry":{"type":"Polygon","coordinates":[[[-68.816327851596,-21.0204207621336],[-68.8165061734601,-21.0202074986136],[-68.8159482203135,-21.0196130005606],[-68.8156769864101,-21.0197055744666],[-68.815698627413,-21.019824727209],[-68.815775477019,-21.0199605143252],[-68.8158854133139,-21.0201368929294],[-68.8159033032096,-21.0201622061068],[-68.8159933297818,-21.0202426658494],[-68.816327851596,-21.0204207621336]]]}},{"type":"Feature","id":"558966402","properties":{"name":"ZD_STK_BL_02-AutoClean-1","oid":"558966402","speedLimit":5},"geometry":{"type":"Polygon","coordinates":[[[-68.8233378052646,-20.9923353397418],[-68.8235302659174,-20.9921331959391],[-68.8232682655086,-20.9918781656763],[-68.8231542895598,-20.9917694998218],[-68.8230887894576,-20.9917111891094],[-68.8229881828396,-20.9916377808949],[-68.8229579816177,-20.9916206945001],[-68.822845640767,-20.9915650959139],[-68.8227261824308,-20.9915242332132],[-68.8226053775433,-20.9917705846722],[-68.8232118065365,-20.9922383360296],[-68.8233378052646,-20.9923353397418]]]}},{"type":"Feature","id":"561631924","properties":{"name":"ZD_STK_HG_01-AutoClean-1","oid":"561631924","speedLimit":5},"geometry":{"type":"Polygon","coordinates":[[[-68.8169046564607,-21.0205494073175],[-68.817098175118,-21.0204937183271],[-68.8172439873866,-21.0204273616405],[-68.8173921080289,-21.0202276587514],[-68.8171807956581,-21.020042872556],[-68.8163658435789,-21.0201109469225],[-68.8161918499154,-21.0203273745896],[-68.8162727391752,-21.0204226606219],[-68.8164221101865,-21.0204908253925],[-68.8167387421049,-21.020548322467],[-68.8169046564607,-21.0205494073175]]]}},{"type":"Feature","id":"589203394","properties":{"name":"VEL_20_KPH_RC","oid":"589203394","speedLimit":5.5555553},"geometry":{"type":"Polygon","coordinates":[[[-68.8102865492184,-21.0026486514649],[-68.8102706791496,-21.0025888942853],[-68.809984633182,-21.0026113145281],[-68.8098615199209,-21.002745655177],[-68.8097780337407,-21.0028987999005],[-68.8098217966577,-21.0030630643412],[-68.809901243184,-21.0031750751514],[-68.8099488533905,-21.0032124120882],[-68.8100044467225,-21.0031452417637],[-68.8099091301273,-21.0030294339769],[-68.8099051866557,-21.0028614629638],[-68.8099965597792,-21.0027195283617],[-68.81006802318,-21.0026486514649],[-68.8101991195666,-21.0026523580373],[-68.8102865492184,-21.0026486514649]]]}},{"type":"Feature","id":"592941111","properties":{"name":"INFO_ESTACION","oid":"592941111","speedLimit":5.5555553},"geometry":{"type":"Polygon","coordinates":[[[-68.8203802977133,-21.0085277273297],[-68.8205725660016,-21.0083529760012],[-68.8202328503467,-21.0080396350261],[-68.8198865942998,-21.007690132369],[-68.8195084057509,-21.0078407457748],[-68.8202904635056,-21.0086000506938],[-68.8203802977133,-21.0085277273297]]]}},{"type":"Feature","id":"600880362","properties":{"name":"VEL_15_KPH_901","oid":"600880362","speedLimit":4.1666665},"geometry":{"type":"Polygon","coordinates":[[[-68.8105523007344,-21.0009272649947],[-68.8105167133073,-21.0012035402456],[-68.8105425863286,-21.0013067818479],[-68.8106782994625,-21.0014768321578],[-68.8108333452257,-21.0015314362977],[-68.8109935848296,-21.0015543085616],[-68.8111196797401,-21.0015602752391],[-68.8112142268773,-21.0015898374142],[-68.8112016270045,-21.0017557291306],[-68.8108076645689,-21.0016846714254],[-68.8104515979341,-21.0015099200968],[-68.8103790765287,-21.0012433180959],[-68.8103602248106,-21.0010537404777],[-68.8105523007344,-21.0009272649947]]]}},{"type":"Feature","id":"601703267","properties":{"name":"ZD_STK_MAR_02-AutoClean-1","oid":"601703267","speedLimit":5},"geometry":{"type":"Polygon","coordinates":[[[-68.8067072235162,-20.9869284450404],[-68.8068824675488,-20.9869166924937],[-68.8069392150676,-20.9869041263092],[-68.8065373656888,-20.9869033126713],[-68.8067072235162,-20.9869284450404]]]}},{"type":"Feature","id":"601713851","properties":{"name":"INFO_RED_VEL_10KPH","oid":"601713851","speedLimit":4.7222223},"geometry":{"type":"Polygon","coordinates":[[[-68.8136376344764,-21.002405012132],[-68.8136777424684,-21.0023139750974],[-68.8139799470516,-21.0023672231742],[-68.8140648759653,-21.0025647563625],[-68.8138004710006,-21.0026623024998],[-68.8137957580711,-21.0026601327989],[-68.8136376344764,-21.002405012132]]]}},{"type":"Feature","id":"602494019","properties":{"name":"VEL_10_KPH_001","oid":"602494019","speedLimit":2.7777777},"geometry":{"type":"Polygon","coordinates":[[[-68.8124583440901,-21.0006752180707],[-68.8121828781684,-21.0006222412065],[-68.8117359193212,-21.0004739783101],[-68.8114770929262,-21.0004671075905],[-68.8113610009683,-21.0005058005903],[-68.8111747921608,-21.0005876163959],[-68.8111094844231,-21.000644480641],[-68.8109860826153,-21.0007012544818],[-68.8108869187308,-21.0005830961857],[-68.8111264124965,-21.0003330381542],[-68.811397261671,-21.0002352208043],[-68.8117238003596,-21.0002716536989],[-68.8126194493341,-21.0004248888267],[-68.8124583440901,-21.0006752180707]]]}},{"type":"Feature","id":"602533131","properties":{"name":"ZD_STK_DIN_22-AutoClean-1","oid":"602533131","speedLimit":5},"geometry":{"type":"Polygon","coordinates":[[[-68.8243119389432,-21.0050079300066],[-68.8244248568873,-21.0047583239962],[-68.8240152167474,-21.0045855615601],[-68.8239016255276,-21.0045412634996],[-68.8237303249667,-21.0045427099669],[-68.8236176955692,-21.0045897201536],[-68.8236692492473,-21.0048565933671],[-68.8243119389432,-21.0050079300066]]]}},{"type":"Feature","id":"602768383","properties":{"name":"REDUCCION VELOCIDAD_903","oid":"602768383","speedLimit":2.7777777},"geometry":{"type":"Polygon","coordinates":[[[-68.8140042811571,-21.0006631943114],[-68.8140712239928,-21.0012497367944],[-68.8129724381374,-21.0011011122812],[-68.8125289418508,-21.0009856661112],[-68.8122217357914,-21.0008210400536],[-68.8124893147698,-21.0004567111069],[-68.812849613423,-21.0003673917522],[-68.8140042811571,-21.0006631943114]]]}},{"type":"Feature","id":"603078516","properties":{"name":"ZD_BOT_NRT_03-AutoClean-1","oid":"603078516","speedLimit":5},"geometry":{"type":"Polygon","coordinates":[[[-68.7926162375071,-20.992040170012],[-68.7928579434642,-20.9918919975197],[-68.7924122349861,-20.9908857083122],[-68.7921243615561,-20.9909046931953],[-68.7921201295377,-20.9910146247088],[-68.7921445598255,-20.9911751825771],[-68.7922091942875,-20.9914422365991],[-68.7924805243732,-20.9918731934451],[-68.7926162375071,-20.992040170012]]]}},{"type":"Feature","id":"603087867","properties":{"name":"ZD_BOT_NRT_04-AutoClean-1","oid":"603087867","speedLimit":5},"geometry":{"type":"Polygon","coordinates":[[[-68.7935817147844,-20.9924339707296],[-68.7937009807561,-20.992403323704],[-68.7936789550242,-20.9921328343222],[-68.7927455064312,-20.9917384007752],[-68.7925213056409,-20.9919090839145],[-68.7925900759391,-20.9920028330752],[-68.7926681759141,-20.9920909771753],[-68.792702897701,-20.9921199065209],[-68.7927995608474,-20.9921894273547],[-68.7929605699092,-20.9922910416812],[-68.7929999084434,-20.9923149083914],[-68.7931138843922,-20.9923557710921],[-68.7931790959477,-20.9923743039542],[-68.7932308419902,-20.9923861469051],[-68.7933479919528,-20.9924118216993],[-68.7934132035082,-20.9924239358628],[-68.7935817147844,-20.9924339707296]]]}},{"type":"Feature","id":"603501779","properties":{"name":"ZD_BOT_NRT_02-AutoClean-1","oid":"603501779","speedLimit":5},"geometry":{"type":"Polygon","coordinates":[[[-68.7921242653738,-20.9910613636828],[-68.7924092533368,-20.9910188737064],[-68.7926323961226,-20.9903278239623],[-68.7924449369461,-20.9901217023746],[-68.7923465425194,-20.9901883302737],[-68.7922443969856,-20.9902581223201],[-68.7921524467688,-20.9903890276092],[-68.7921242653738,-20.9910613636828]]]}},{"type":"Feature","id":"603853045","properties":{"name":"New Zone6774","oid":"603853045","speedLimit":5.5555553},"geometry":{"type":"Polygon","coordinates":[[[-68.8147278601128,-21.0185434284095],[-68.8145253003254,-21.0183992337023],[-68.8141572109111,-21.0187048903199],[-68.8141510552481,-21.0191086355001],[-68.8143780453232,-21.0191374744415],[-68.8145253003254,-21.0187914071442],[-68.8147278601128,-21.0185434284095]]]}},{"type":"Feature","id":"603892412","properties":{"name":"ZD_STK_DIN_21-AutoClean-1","oid":"603892412","speedLimit":5},"geometry":{"type":"Polygon","coordinates":[[[-68.8246227037452,-21.0052309571807],[-68.8248065079968,-21.0050219426584],[-68.8247251378257,-21.0049432005957],[-68.824634053249,-21.0048734989535],[-68.8245841346689,-21.0048490898181],[-68.8244806425838,-21.0047990962927],[-68.8242596158072,-21.004731383543],[-68.824156508451,-21.0049846961258],[-68.8246227037452,-21.0052309571807]]]}}]}