{"type":"FeatureCollection","features":[{"type":"Feature","id":"553508825","properties":{"name":"ZD_STK_HG_02-AutoClean-1","oid":"553508825","speedLimit":5},"geometry":{"type":"Polygon","coordinates":[[[-68.8163740578705,-21.0204826284128],[-68.8164587971938,-21.0202233483599],[-68.8158839933386,-21.0197064155346],[-68.8156057290224,-21.0197782870974],[-68.8156408366876,-21.0200154180524],[-68.8157201896295,-21.0201487646626],[-68.8157871346568,-21.0202096972832],[-68.8159817176888,-21.02036193843],[-68.8161254186526,-21.0204321827121],[-68.8163740578705,-21.0204826284128]]]}},{"type":"Feature","id":"558966402","properties":{"name":"ZD_STK_BL_02-AutoClean-1","oid":"558966402","speedLimit":5},"geometry":{"type":"Polygon","coordinates":[[[-68.8233390339024,-20.9923351026924],[-68.823531500856,-20.9921329582717],[-68.8232694918697,-20.9918779272294],[-68.8231555121896,-20.9917692610426],[-68.823090009943,-20.9917109501521],[-68.8229894000313,-20.9916375417131],[-68.8229591978207,-20.9916204552661],[-68.8228468532921,-20.99156485651],[-68.822727391045,-20.9915239936843],[-68.8226065822026,-20.9917703458964],[-68.8232130310493,-20.9922380986837],[-68.8233390339024,-20.9923351026924]]]}},{"type":"Feature","id":"592941111","properties":{"name":"INFO_ESTACION","oid":"592941111","speedLimit":5.5555553},"geometry":{"type":"Polygon","coordinates":[[[-68.8203814295274,-21.0085275397788],[-68.8205737041101,-21.0083527879161],[-68.8202339773336,-21.0080394459832],[-68.8198877099509,-21.0076899422577],[-68.8195095090207,-21.0078405561239],[-68.8202915923786,-21.008599863364],[-68.8203814295274,-21.0085275397788]]]}},{"type":"Feature","id":"603087867","properties":{"name":"ZD_BOT_NRT_04-AutoClean-1","oid":"603087867","speedLimit":5},"geometry":{"type":"Polygon","coordinates":[[[-68.7934018140346,-20.9927479799594],[-68.7935456111839,-20.9926680623977],[-68.7936480486179,-20.9925853422972],[-68.7934999231264,-20.9923525507573],[-68.7926354088943,-20.9918714181067],[-68.7924167795163,-20.992048520486],[-68.7926594552403,-20.9924876150527],[-68.7927756471843,-20.9925806412641],[-68.793150481626,-20.9927038625724],[-68.7934018140346,-20.9927479799594]]]}},{"type":"Feature","id":"606156222","properties":{"name":"VEL_30KMH","oid":"606156222","speedLimit":8.333333},"geometry":{"type":"Polygon","coordinates":[[[-68.8182941105074,-21.0229230069865],[-68.8181916730734,-21.0230005740316],[-68.8182831453737,-21.023099024512],[-68.8184134765691,-21.0230219094893],[-68.8182941105074,-21.0229230069865]]]}},{"type":"Feature","id":"606156969","properties":{"name":"VEL_30KMH_2","oid":"606156969","speedLimit":8.333333},"geometry":{"type":"Polygon","coordinates":[[[-68.8131909949551,-21.0229395510066],[-68.8130287302122,-21.0229701981258],[-68.8130910583411,-21.0231180998576],[-68.8132447625848,-21.0230759713692],[-68.8131909949551,-21.0229395510066]]]}},{"type":"Feature","id":"606157392","properties":{"name":"VEL_20KH","oid":"606157392","speedLimit":5.5555553},"geometry":{"type":"Polygon","coordinates":[[[-68.8236979977558,-21.0147504418586],[-68.8235424659897,-21.0146609414219],[-68.8233984764698,-21.0148756520655],[-68.8235607412127,-21.0149617171319],[-68.8236979977558,-21.0147504418586]]]}},{"type":"Feature","id":"606157536","properties":{"name":"VEL_20KMH_2","oid":"606157536","speedLimit":5.5555553},"geometry":{"type":"Polygon","coordinates":[[[-68.821852873533,-21.0175091346117],[-68.821693590537,-21.0174452186433],[-68.8216073122474,-21.0176115628892],[-68.8217514941382,-21.0176828920251],[-68.821852873533,-21.0175091346117]]]}},{"type":"Feature","id":"606221546","properties":{"name":"ZD_BOT_NRT_03-AutoClean-1","oid":"606221546","speedLimit":5},"geometry":{"type":"Polygon","coordinates":[[[-68.7922624019748,-20.991134711987],[-68.7926930239394,-20.9903698900734],[-68.792600782156,-20.990112960537],[-68.7923544513874,-20.9901647623049],[-68.7922094038282,-20.9902223499596],[-68.7921024456811,-20.9902967528479],[-68.7920371358054,-20.9903806482068],[-68.7919887545572,-20.9904905800563],[-68.7919762504572,-20.9905193286814],[-68.7919741343788,-20.9911222361685],[-68.7922624019748,-20.991134711987]]]}},{"type":"Feature","id":"606796346","properties":{"name":"ZD_STK_HG_03-AutoClean-1","oid":"606796346","speedLimit":5},"geometry":{"type":"Polygon","coordinates":[[[-68.8156312181492,-21.0198912022948],[-68.8158944775454,-21.0197801855915],[-68.815953727742,-21.0188803897871],[-68.815704030485,-21.0187444214469],[-68.8156248699139,-21.0188337410747],[-68.8155692747619,-21.0189378870374],[-68.8155593676673,-21.0189791114809],[-68.8155130063122,-21.0191884882601],[-68.8155030992176,-21.0194148610818],[-68.8155131024976,-21.0196438556334],[-68.8155647540488,-21.0197939270727],[-68.8156312181492,-21.0198912022948]]]}},{"type":"Feature","id":"607546676","properties":{"name":"ZD_STK_HG_01-AutoClean-1","oid":"607546676","speedLimit":5},"geometry":{"type":"Polygon","coordinates":[[[-68.816739081403,-21.020562093952],[-68.8169115417967,-21.0205557656383],[-68.8169731004425,-21.0205533247173],[-68.8171394049716,-21.02051363715],[-68.8172393415856,-21.0204484555188],[-68.8173275435828,-21.0203760415291],[-68.8171681644014,-21.0201499399209],[-68.8163707875674,-21.0202011088574],[-68.8162902804009,-21.0204615641686],[-68.8165083326666,-21.0205367806972],[-68.816678965538,-21.0205608282893],[-68.816739081403,-21.020562093952]]]}},{"type":"Feature","id":"608715834","properties":{"name":"INFO_RESTRICCION VELOCIDAD","oid":"608715834","speedLimit":2.7777777},"geometry":{"type":"Polygon","coordinates":[[[-68.8173477425135,-21.0014885564445],[-68.8174929824434,-21.0011428497073],[-68.8172421309618,-21.0010665483249],[-68.8167310018308,-21.001222224842],[-68.8166082692807,-21.001449592113],[-68.8164629331654,-21.0015418046841],[-68.8158121428567,-21.0017244217368],[-68.8158517712349,-21.0019584789394],[-68.8165403623995,-21.0018325454967],[-68.8170779425112,-21.0017705280224],[-68.8174005482894,-21.0016322091657],[-68.8173477425135,-21.0014885564445]]]}},{"type":"Feature","id":"610889233","properties":{"name":"VEL_15_KMH_902_001","oid":"610889233","speedLimit":2.7777777},"geometry":{"type":"Polygon","coordinates":[[[-68.8123113796177,-20.9973543595054],[-68.8124850904214,-20.9977825151298],[-68.8115533426058,-20.9974880677336],[-68.8094293769546,-20.9972887258518],[-68.8093992709293,-20.9971420897828],[-68.8105879299058,-20.997099690081],[-68.8123113796177,-20.9973543595054]]]}},{"type":"Feature","id":"611100302","properties":{"name":"TRC_70%_007","oid":"611100302","speedLimit":5.5555553},"geometry":{"type":"Polygon","coordinates":[[[-68.8241719031432,-21.0149584625706],[-68.8231307925459,-21.0146904132829],[-68.8216857995208,-21.0170131756262],[-68.8226961307952,-21.0170272787253],[-68.8238011084875,-21.015239982126],[-68.8241719031432,-21.0149584625706]]]}},{"type":"Feature","id":"611524503","properties":{"name":"TRC_40%_F03_001","oid":"611524503","speedLimit":8.333333},"geometry":{"type":"Polygon","coordinates":[[[-68.8074424754756,-20.9948532291201],[-68.8064814873033,-20.995591833734],[-68.806340671901,-20.9958224555663],[-68.8062401581746,-20.9959661082874],[-68.8060873195993,-20.9960832724955],[-68.8061758101527,-20.9962610077061],[-68.8064654243442,-20.9960681749471],[-68.8066625081961,-20.9957543809918],[-68.8067992838123,-20.9955048646228],[-68.8074963392907,-20.9951827534552],[-68.8074424754756,-20.9948532291201]]]}},{"type":"Feature","id":"611565659","properties":{"name":"INFO_SINGLE_LANE_P2","oid":"611565659","speedLimit":9.722222},"geometry":{"type":"Polygon","coordinates":[[[-68.8213708885734,-21.0006387543184],[-68.8213624242596,-20.9998981608059],[-68.819057822457,-20.9988071595232],[-68.8156518980068,-20.9966729809283],[-68.8152367618891,-20.9975569559485],[-68.8179818927507,-20.9993884603392],[-68.8211675526714,-21.0007422674497],[-68.8213708885734,-21.0006387543184]]]}},{"type":"Feature","id":"612786077","properties":{"name":"VEL_10KM_CHANCADO","oid":"612786077","speedLimit":2.7777777},"geometry":{"type":"Polygon","coordinates":[[[-68.8254305850792,-21.0011480027627],[-68.8253661408719,-21.0018657239414],[-68.8251026891049,-21.0018401394731],[-68.8251609774476,-21.0011348037084],[-68.8254305850792,-21.0011480027627]]]}},{"type":"Feature","id":"612791037","properties":{"name":"VEL_15KM_CHANCADO_001","oid":"612791037","speedLimit":4.1666665},"geometry":{"type":"Polygon","coordinates":[[[-68.825876789076,-21.0020628961155],[-68.8260706988103,-21.0021721951337],[-68.8255375432263,-21.0027704015878],[-68.8253856665048,-21.002639767112],[-68.8258089783802,-21.0020720269682],[-68.825876789076,-21.0020628961155]]]}}]}