{"type":"FeatureCollection","features":[{"type":"Feature","id":"553508825","properties":{"name":"ZD_STK_HG_02-AutoClean-1","oid":"553508825","speedLimit":5},"geometry":{"type":"Polygon","coordinates":[[[-68.8163728496789,-21.0204834123016],[-68.8164575875499,-21.0202242057761],[-68.8158827935465,-21.0197074195443],[-68.8156045339997,-21.0197792707256],[-68.8156396410632,-21.0200163344342],[-68.815718992645,-21.0201496432296],[-68.8157859365249,-21.0202105585706],[-68.8159805162218,-21.0203627565445],[-68.8161242147226,-21.0204329809065],[-68.8163728496789,-21.0204834123016]]]}},{"type":"Feature","id":"558966402","properties":{"name":"ZD_STK_BL_02-AutoClean-1","oid":"558966402","speedLimit":5},"geometry":{"type":"Polygon","coordinates":[[[-68.8233377063342,-20.9923438687443],[-68.823530169989,-20.9921417816484],[-68.8232681654935,-20.9918868229286],[-68.8231541877669,-20.9917781875577],[-68.823088686643,-20.9917198932031],[-68.8229880784557,-20.9916465055815],[-68.8229578767627,-20.9916294239799],[-68.8228455341597,-20.9915738409907],[-68.8227260739602,-20.9915329897531],[-68.8226052671884,-20.9917792721038],[-68.8232117056407,-20.9922468922443],[-68.8233377063342,-20.9923438687443]]]}},{"type":"Feature","id":"570805601","properties":{"name":"ZD_STK_MAR_02-AutoClean-1-tmp-1","oid":"570805601","speedLimit":5},"geometry":{"type":"Polygon","coordinates":[[[-68.8065054564373,-20.98670413848],[-68.806857585093,-20.9866985349916],[-68.8068619133611,-20.9864273984587],[-68.8062832720083,-20.9862055183959],[-68.8060009727446,-20.9862615532793],[-68.8060090521784,-20.9863762440328],[-68.8060380034828,-20.9864991592611],[-68.8060606066606,-20.9865269055663],[-68.8061460178178,-20.9866148441818],[-68.8062236380923,-20.9866459345042],[-68.8063391547586,-20.9866800977074],[-68.8063868618914,-20.9866892259707],[-68.8065054564373,-20.98670413848]]]}},{"type":"Feature","id":"592941111","properties":{"name":"INFO_ESTACION","oid":"592941111","speedLimit":5.5555553},"geometry":{"type":"Polygon","coordinates":[[[-68.8203801526512,-21.008531713929],[-68.8205724239385,-21.0083570116229],[-68.8202327029847,-21.0080437585485],[-68.8198864415369,-21.0076943539364],[-68.8195082470889,-21.007844925091],[-68.8202903170423,-21.0086040170044],[-68.8203801526512,-21.008531713929]]]}},{"type":"Feature","id":"600880362","properties":{"name":"VEL_15_KPH_RC_002","oid":"600880362","speedLimit":4.1666665},"geometry":{"type":"Polygon","coordinates":[[[-68.8105520023737,-21.0009333837294],[-68.8108667155563,-21.0010320774274],[-68.810790826589,-21.0012907416799],[-68.8107813043991,-21.0014304673732],[-68.8108330512488,-21.001537385546],[-68.8109932933522,-21.0015602513936],[-68.8111193902294,-21.0015662163974],[-68.8112139388414,-21.0015957702795],[-68.8112013387721,-21.0017616154588],[-68.8110281118644,-21.0019387579936],[-68.8103194301013,-21.0017485105264],[-68.81025296714,-21.0013323159483],[-68.8103763708727,-21.000844812462],[-68.8105520023737,-21.0009333837294]]]}},{"type":"Feature","id":"603087867","properties":{"name":"ZD_BOT_NRT_04-AutoClean-1","oid":"603087867","speedLimit":5},"geometry":{"type":"Polygon","coordinates":[[[-68.7933713749868,-20.9926180781579],[-68.7935191132045,-20.9926172647483],[-68.7935321941926,-20.9926149148984],[-68.7937934292182,-20.9925332124231],[-68.7937039783442,-20.9922754519591],[-68.7925573720332,-20.9917799047557],[-68.7923454792639,-20.9919640064616],[-68.7926569221995,-20.9923597754209],[-68.7927697457212,-20.9924564807843],[-68.7929884675358,-20.9925625855475],[-68.793137840877,-20.992605244362],[-68.7933713749868,-20.9926180781579]]]}},{"type":"Feature","id":"604050980","properties":{"name":"VEL_10_KPH_901_002","oid":"604050980","speedLimit":2.7777777},"geometry":{"type":"Polygon","coordinates":[[[-68.8165628125566,-21.0014696014128],[-68.8166516863282,-21.0016416827324],[-68.8167050683014,-21.0018353645957],[-68.8164769204807,-21.001866003024],[-68.8161718256717,-21.002000667502],[-68.8160296661106,-21.002055798597],[-68.8157257255064,-21.0021026148384],[-68.8153311798234,-21.0021208713649],[-68.8151693987803,-21.0018771196218],[-68.8151771896629,-21.0017247408903],[-68.8151911363045,-21.0016591258493],[-68.8153477234259,-21.0016643678223],[-68.8155853934364,-21.0016774727547],[-68.8158342207601,-21.0016774727547],[-68.8159767650561,-21.001651172511],[-68.8161305628492,-21.0015776041317],[-68.8165628125566,-21.0014696014128]]]}},{"type":"Feature","id":"606156222","properties":{"name":"VEL_30KMH","oid":"606156222","speedLimit":8.333333},"geometry":{"type":"Polygon","coordinates":[[[-68.8182928694071,-21.0229230988252],[-68.8181904337287,-21.0230006438736],[-68.8182819044612,-21.023099066435],[-68.8184122334228,-21.0230219732808],[-68.8182928694071,-21.0229230988252]]]}},{"type":"Feature","id":"606156969","properties":{"name":"VEL_30KMH_2","oid":"606156969","speedLimit":8.333333},"geometry":{"type":"Polygon","coordinates":[[[-68.8131898413199,-21.0229396381537],[-68.8130275793581,-21.0229702765819],[-68.8130899064187,-21.0231181363712],[-68.813243608028,-21.0230760198297],[-68.8131898413199,-21.0229396381537]]]}},{"type":"Feature","id":"606157392","properties":{"name":"VEL_20KH","oid":"606157392","speedLimit":5.5555553},"geometry":{"type":"Polygon","coordinates":[[[-68.8236966640351,-21.0147528512988],[-68.8235411349348,-21.0146633762429],[-68.8233971478828,-21.0148780259982],[-68.8235594098446,-21.014964066658],[-68.8236966640351,-21.0147528512988]]]}},{"type":"Feature","id":"606157536","properties":{"name":"VEL_20KMH_2","oid":"606157536","speedLimit":5.5555553},"geometry":{"type":"Polygon","coordinates":[[[-68.821851571437,-21.0175107617332],[-68.821692291171,-21.0174468638902],[-68.8216060143602,-21.0176131609638],[-68.8217501937798,-21.0176844698719],[-68.821851571437,-21.0175107617332]]]}},{"type":"Feature","id":"606221546","properties":{"name":"ZD_BOT_NRT_03-AutoClean-1","oid":"606221546","speedLimit":5},"geometry":{"type":"Polygon","coordinates":[[[-68.792421464415,-20.9920470646195],[-68.7926611542838,-20.9918960415707],[-68.792482925822,-20.9904102133701],[-68.7922826712846,-20.9902149046875],[-68.7921786004828,-20.9902745547248],[-68.7920969404914,-20.9903583359135],[-68.792074914416,-20.9904030734414],[-68.7920729907412,-20.9914827391156],[-68.7922242877572,-20.9917775549058],[-68.7922894041461,-20.9918688375385],[-68.7923546167188,-20.9919585837309],[-68.792421464415,-20.9920470646195]]]}},{"type":"Feature","id":"606796346","properties":{"name":"ZD_STK_HG_03-AutoClean-1","oid":"606796346","speedLimit":5},"geometry":{"type":"Polygon","coordinates":[[[-68.8156300226896,-21.0198921539021],[-68.8158932775737,-21.0197811686813],[-68.8159525267548,-21.0188816280438],[-68.8157028337774,-21.0187456982619],[-68.8156236745631,-21.0188349925601],[-68.815568080364,-21.0189391089888],[-68.8155581734392,-21.0189803217418],[-68.8155118128787,-21.0191896391452],[-68.8155019059539,-21.0194159477714],[-68.8155119090624,-21.019644877384],[-68.8155635597284,-21.0197949062656],[-68.8156300226896,-21.0198921539021]]]}},{"type":"Feature","id":"607457029","properties":{"name":"ZD_STK_DIN_21-AutoClean-1","oid":"607457029","speedLimit":5},"geometry":{"type":"Polygon","coordinates":[[[-68.8239234652834,-21.0062191904394],[-68.8239791556663,-21.0061120915089],[-68.8240171482418,-21.0059879109768],[-68.8239741541121,-21.0058409549759],[-68.8238428633131,-21.0056885762444],[-68.8237257115232,-21.0055723490506],[-68.823627988848,-21.0055076377981],[-68.8234353328258,-21.0057094537575],[-68.8236451095529,-21.0061478815312],[-68.8239234652834,-21.0062191904394]]]}},{"type":"Feature","id":"607546676","properties":{"name":"ZD_STK_HG_01-AutoClean-1","oid":"607546676","speedLimit":5},"geometry":{"type":"Polygon","coordinates":[[[-68.8167378669552,-21.0205628553058],[-68.8169103243929,-21.0205565287867],[-68.8169718819836,-21.0205540885579],[-68.8171381836623,-21.0205144122452],[-68.8172381185635,-21.0204492490985],[-68.817326319049,-21.0203768556442],[-68.8171669425992,-21.0201508181545],[-68.8163695794319,-21.0202019725804],[-68.8162890736453,-21.0204623540309],[-68.8165071221737,-21.0205375492294],[-68.8166777521205,-21.020561590002],[-68.8167378669552,-21.0205628553058]]]}},{"type":"Feature","id":"607691021","properties":{"name":"VEL_13_KPH_901_001","oid":"607691021","speedLimit":3.6111112},"geometry":{"type":"Polygon","coordinates":[[[-68.8149047973239,-21.0017837582756],[-68.8151905592021,-21.0021619937391],[-68.814536028882,-21.0025690600539],[-68.814330195688,-21.002141748878],[-68.8149047973239,-21.0017837582756]]]}},{"type":"Feature","id":"608715834","properties":{"name":"INFO_RESTRICCION VELOCIDAD","oid":"608715834","speedLimit":2.7777777},"geometry":{"type":"Polygon","coordinates":[[[-68.8173465176334,-21.0014947267315],[-68.817491755074,-21.0011491180308],[-68.8172409078919,-21.0010728382862],[-68.8167297875214,-21.0012284706561],[-68.8166070570749,-21.0014557734496],[-68.8164617234505,-21.0015479598708],[-68.8158109442961,-21.0017305251363],[-68.8158505719951,-21.0019645159643],[-68.8165391513576,-21.0018386182341],[-68.8170767222554,-21.0017766183469],[-68.8173993225042,-21.0016383387151],[-68.8173465176334,-21.0014947267315]]]}},{"type":"Feature","id":"610258504","properties":{"name":"ZD_STK_MAR_01-AutoClean-1","oid":"610258504","speedLimit":5},"geometry":{"type":"Polygon","coordinates":[[[-68.8067460119598,-20.9870610445362],[-68.8069167380903,-20.9870394439924],[-68.8070259066301,-20.9869950679798],[-68.8069555963195,-20.9867320655429],[-68.8062822139872,-20.9864827103114],[-68.8060002994585,-20.9865407335294],[-68.8060021269494,-20.9866539782214],[-68.8060374263804,-20.9867608060154],[-68.8060620494166,-20.9868055435433],[-68.8060990801548,-20.9868575113788],[-68.8061818943511,-20.9869426482501],[-68.8062267159718,-20.9869654237189],[-68.8063370387164,-20.9870107938987],[-68.8065132473199,-20.9870419746],[-68.8066847429203,-20.9870608637785],[-68.8067460119598,-20.9870610445362]]]}},{"type":"Feature","id":"610291621","properties":{"name":"ZD_STK_MAR_02-AutoClean-1","oid":"610291621","speedLimit":5},"geometry":{"type":"Polygon","coordinates":[[[-68.8068599896864,-20.9870357384598],[-68.807089964998,-20.987018747237],[-68.8072605949448,-20.9869947064645],[-68.8074343989548,-20.9869505112096],[-68.8075850226846,-20.9868739603284],[-68.8077469960952,-20.9867120918183],[-68.8075555904616,-20.9865091913128],[-68.8068094932252,-20.9867687593537],[-68.8068599896864,-20.9870357384598]]]}},{"type":"Feature","id":"610367080","properties":{"name":"ZD_STK_MAR_03-AutoClean-1","oid":"610367080","speedLimit":5},"geometry":{"type":"Polygon","coordinates":[[[-68.8077179486071,-20.986428392626],[-68.8080034219341,-20.9863889874498],[-68.8079830309821,-20.9861707225408],[-68.8079346505632,-20.9860150901709],[-68.8078446225867,-20.9858165278499],[-68.8075712684104,-20.9859033819193],[-68.8077179486071,-20.986428392626]]]}},{"type":"Feature","id":"610544737","properties":{"name":"ZD_STK_DIN_22.-AutoClean-1","oid":"610544737","speedLimit":5},"geometry":{"type":"Polygon","coordinates":[[[-68.8236473217788,-21.0058808120463],[-68.8238322831022,-21.0056726695678],[-68.8236615569717,-21.0055242675054],[-68.8235648923175,-21.0054595562529],[-68.8235145882238,-21.0054390402552],[-68.8233252986324,-21.0053704427124],[-68.8231662107338,-21.0054179819845],[-68.8230861858659,-21.0055220984132],[-68.8231664031013,-21.0056891185175],[-68.8232475821741,-21.005746870599],[-68.8236473217788,-21.0058808120463]]]}},{"type":"Feature","id":"610786215","properties":{"name":"VELO_20KH_","oid":"610786215","speedLimit":5.5555553},"geometry":{"type":"Polygon","coordinates":[[[-68.8063788786414,-20.9994299316542],[-68.806200842547,-20.9993809463206],[-68.8061425552033,-20.9996895900739],[-68.8060535852479,-21.0000443270379],[-68.8059276807382,-21.000225988515],[-68.8057005909386,-21.0003557725354],[-68.8053966503344,-21.0005634631196],[-68.8052216921196,-21.0007077077552],[-68.8050835722754,-21.0008893692323],[-68.8049730571633,-21.0011778585033],[-68.8049423745516,-21.0013912429548],[-68.8050436560251,-21.0014835197548],[-68.8051418596191,-21.0014575810265],[-68.8052033210261,-21.0011172142988],[-68.805378279241,-21.0008403838986],[-68.8057220399116,-21.000589401848],[-68.8060505073684,-21.0003327259301],[-68.8062346030382,-21.0001077729866],[-68.8063175134182,-20.9996318379924],[-68.8063788786414,-20.9994299316542]]]}},{"type":"Feature","id":"610889233","properties":{"name":"VEL_15_KMH","oid":"610889233","speedLimit":4.1666665},"geometry":{"type":"Polygon","coordinates":[[[-68.8112877117666,-20.9971969415476],[-68.8112720338177,-20.9974134892586],[-68.8100070253284,-20.9973281716296],[-68.810047518681,-20.9971702797886],[-68.8105483473918,-20.9971296996875],[-68.8112877117666,-20.9971969415476]]]}},{"type":"Feature","id":"611100302","properties":{"name":"TRAC_BOT6","oid":"611100302","speedLimit":5.5555553},"geometry":{"type":"Polygon","coordinates":[[[-68.8241705613,-21.0149696701463],[-68.8231294685469,-21.0147016968729],[-68.8216845002884,-21.01702380052],[-68.8226948142461,-21.0170378996197],[-68.8237997729996,-21.0152511098675],[-68.8241705613,-21.0149696701463]]]}},{"type":"Feature","id":"611100742","properties":{"name":"TRAC_CAM_CH","oid":"611100742","speedLimit":5.5555553},"geometry":{"type":"Polygon","coordinates":[[[-68.8258446392164,-21.002697307634],[-68.8249156005152,-21.0019949736348],[-68.8222122604451,-21.0045569427347],[-68.8235059316876,-21.004739056106],[-68.8258446392164,-21.002697307634]]]}},{"type":"Feature","id":"611101069","properties":{"name":"TRAC_RPA_SUR","oid":"611101069","speedLimit":2.7777777},"geometry":{"type":"Polygon","coordinates":[[[-68.8219153412536,-21.0048485952653],[-68.822149741017,-21.0056398620473],[-68.8212468642918,-21.0061374879641],[-68.820074769291,-21.0062108755857],[-68.8186683707105,-21.005688847381],[-68.8170882643036,-21.0048158781237],[-68.8140843500601,-21.0044732519249],[-68.8113583106284,-21.0041062234381],[-68.8103425141978,-21.0036248657132],[-68.8099084369994,-21.003339358944],[-68.8103425141978,-21.0029722400784],[-68.8119659994694,-21.0034535978033],[-68.8136329597894,-21.0037635972393],[-68.8158468208295,-21.0038941042905],[-68.8173053509946,-21.0041796110597],[-68.8181040607343,-21.0046038493549],[-68.8187899469521,-21.0050524899381],[-68.8199098141846,-21.0053379967073],[-68.8213163089489,-21.0052727431817],[-68.8218719623889,-21.0049953705085],[-68.8219153412536,-21.0048485952653]]]}},{"type":"Feature","id":"611176514","properties":{"name":"TRC_40%_FM_001","oid":"611176514","speedLimit":5.5555553},"geometry":{"type":"Polygon","coordinates":[[[-68.8148215983927,-21.002351879691],[-68.8141425412201,-21.0029879659973],[-68.8116387824012,-21.003004414947],[-68.8111140039403,-21.0031400735923],[-68.8109746337075,-21.0032402133518],[-68.8098322594809,-21.0021577459334],[-68.8103888747583,-21.0023835122865],[-68.8115095114606,-21.0024277979203],[-68.8122911966791,-21.0024985645554],[-68.8134802200174,-21.0025560455003],[-68.8148215983927,-21.002351879691]]]}},{"type":"Feature","id":"611187609","properties":{"name":"TR_INT NORTESUR","oid":"611187609","speedLimit":5.5555553},"geometry":{"type":"Polygon","coordinates":[[[-68.8109746337075,-21.0032402133518],[-68.8103135628934,-21.0037152445576],[-68.8097861874716,-21.003604711231],[-68.8081287493414,-21.0031577878458],[-68.808632559748,-21.0016712366145],[-68.8098322594809,-21.0021577459334],[-68.8109746337075,-21.0032402133518]]]}},{"type":"Feature","id":"611197820","properties":{"name":"TRAC_CAM_CH1","oid":"611197820","speedLimit":5.5555553},"geometry":{"type":"Polygon","coordinates":[[[-68.8222865142889,-21.0076575697467],[-68.8234375450517,-21.0124940128427],[-68.8229626859495,-21.0146580438911],[-68.8240785134651,-21.0152604188885],[-68.8246246447153,-21.0142788142603],[-68.8238213181564,-21.010436448073],[-68.8232238247914,-21.0088799436161],[-68.823162171017,-21.0076766396829],[-68.8222865142889,-21.0076575697467]]]}},{"type":"Feature","id":"611200085","properties":{"name":"TRAC_BOT61","oid":"611200085","speedLimit":5.5555553},"geometry":{"type":"Polygon","coordinates":[[[-68.8216845002884,-21.01702380052],[-68.8196354019872,-21.0203166633339],[-68.8181236822163,-21.0225948428626],[-68.8157134139883,-21.0232112265808],[-68.8138879428722,-21.0231442558572],[-68.813645463675,-21.0225010296222],[-68.8143300033206,-21.021254705359],[-68.8147721599527,-21.0200754421984],[-68.8154995013606,-21.0188157418663],[-68.8162838797236,-21.0177838866007],[-68.8165548293065,-21.017073689642],[-68.8155279717463,-21.0167922499208],[-68.8137453023924,-21.0190569630018],[-68.8129181222671,-21.0209465134999],[-68.812590135729,-21.0227958454124],[-68.8186370148127,-21.0235997652326],[-68.8226948142461,-21.0170378996197],[-68.8216845002884,-21.01702380052]]]}},{"type":"Feature","id":"611225942","properties":{"name":"TRAC_CAM_CH2","oid":"611225942","speedLimit":2.7777777},"geometry":{"type":"Polygon","coordinates":[[[-68.8222122604451,-21.0045569427347],[-68.8216568955563,-21.0049758486781],[-68.8221791732401,-21.0072067600713],[-68.8222865142889,-21.0076575697467],[-68.823162171017,-21.0076766396829],[-68.8231288914444,-21.0070282618537],[-68.8235059316876,-21.004739056106],[-68.8222122604451,-21.0045569427347]]]}}]}