{"type":"FeatureCollection","features":[{"type":"Feature","id":"553508825","properties":{"name":"ZD_STK_HG_02-AutoClean-1","oid":"553508825","speedLimit":5},"geometry":{"type":"Polygon","coordinates":[[[-68.8163740578705,-21.0204826284128],[-68.8164587971938,-21.0202233483599],[-68.8158839933386,-21.0197064155346],[-68.8156057290224,-21.0197782870974],[-68.8156408366876,-21.0200154180524],[-68.8157201896295,-21.0201487646626],[-68.8157871346568,-21.0202096972832],[-68.8159817176888,-21.02036193843],[-68.8161254186526,-21.0204321827121],[-68.8163740578705,-21.0204826284128]]]}},{"type":"Feature","id":"558966402","properties":{"name":"ZD_STK_BL_02-AutoClean-1","oid":"558966402","speedLimit":5},"geometry":{"type":"Polygon","coordinates":[[[-68.8233390339024,-20.9923351026924],[-68.823531500856,-20.9921329582717],[-68.8232694918697,-20.9918779272294],[-68.8231555121896,-20.9917692610426],[-68.823090009943,-20.9917109501521],[-68.8229894000313,-20.9916375417131],[-68.8229591978207,-20.9916204552661],[-68.8228468532921,-20.99156485651],[-68.822727391045,-20.9915239936843],[-68.8226065822026,-20.9917703458964],[-68.8232130310493,-20.9922380986837],[-68.8233390339024,-20.9923351026924]]]}},{"type":"Feature","id":"592941111","properties":{"name":"INFO_ESTACION","oid":"592941111","speedLimit":5.5555553},"geometry":{"type":"Polygon","coordinates":[[[-68.8203814295274,-21.0085275397788],[-68.8205737041101,-21.0083527879161],[-68.8202339773336,-21.0080394459832],[-68.8198877099509,-21.0076899422577],[-68.8195095090207,-21.0078405561239],[-68.8202915923786,-21.008599863364],[-68.8203814295274,-21.0085275397788]]]}},{"type":"Feature","id":"600880362","properties":{"name":"VEL_15_KPH_RC_002","oid":"600880362","speedLimit":4.1666665},"geometry":{"type":"Polygon","coordinates":[[[-68.8105531107968,-21.0009270542099],[-68.8108678293735,-21.0010257759037],[-68.8107919391054,-21.0012845135298],[-68.8107824167524,-21.0014242788582],[-68.810834164489,-21.0015312273598],[-68.8109944093389,-21.0015540996936],[-68.8111205083774,-21.0015600663894],[-68.81121505861,-21.0015896286549],[-68.8112024583247,-21.0017555208784],[-68.811029228448,-21.0019327136622],[-68.810320534538,-21.0017424122286],[-68.8102540704376,-21.0013260995913],[-68.8103774762854,-21.0008384578181],[-68.8105531107968,-21.0009270542099]]]}},{"type":"Feature","id":"603087867","properties":{"name":"ZD_BOT_NRT_04-AutoClean-1","oid":"603087867","speedLimit":5},"geometry":{"type":"Polygon","coordinates":[[[-68.7934018140346,-20.9927479799594],[-68.7935456111839,-20.9926680623977],[-68.7936480486179,-20.9925853422972],[-68.7934999231264,-20.9923525507573],[-68.7926354088943,-20.9918714181067],[-68.7924167795163,-20.992048520486],[-68.7926594552403,-20.9924876150527],[-68.7927756471843,-20.9925806412641],[-68.793150481626,-20.9927038625724],[-68.7934018140346,-20.9927479799594]]]}},{"type":"Feature","id":"604050980","properties":{"name":"VEL_10_KPH_901_002","oid":"604050980","speedLimit":2.7777777},"geometry":{"type":"Polygon","coordinates":[[[-68.816564024004,-21.0014634239987],[-68.8166528992989,-21.0016355541315],[-68.8167062821871,-21.0018292909353],[-68.816478130456,-21.0018599380546],[-68.8161730304177,-21.001994640732],[-68.8160308684201,-21.0020497874657],[-68.8157269226064,-21.0020966169871],[-68.8151845332256,-21.002143717722],[-68.8149133866278,-21.0017720648985],[-68.8150734391069,-21.0016922377414],[-68.8151923242417,-21.0016530021964],[-68.815348914047,-21.0016582456563],[-68.815586588131,-21.0016713543061],[-68.8158354197196,-21.0016713543061],[-68.8159779664588,-21.001645046602],[-68.816131766888,-21.0015714573541],[-68.816564024004,-21.0014634239987]]]}},{"type":"Feature","id":"606156222","properties":{"name":"VEL_30KMH","oid":"606156222","speedLimit":8.333333},"geometry":{"type":"Polygon","coordinates":[[[-68.8182941105074,-21.0229230069865],[-68.8181916730734,-21.0230005740316],[-68.8182831453737,-21.023099024512],[-68.8184134765691,-21.0230219094893],[-68.8182941105074,-21.0229230069865]]]}},{"type":"Feature","id":"606156969","properties":{"name":"VEL_30KMH_2","oid":"606156969","speedLimit":8.333333},"geometry":{"type":"Polygon","coordinates":[[[-68.8131909949551,-21.0229395510066],[-68.8130287302122,-21.0229701981258],[-68.8130910583411,-21.0231180998576],[-68.8132447625848,-21.0230759713692],[-68.8131909949551,-21.0229395510066]]]}},{"type":"Feature","id":"606157392","properties":{"name":"VEL_20KH","oid":"606157392","speedLimit":5.5555553},"geometry":{"type":"Polygon","coordinates":[[[-68.8236979977558,-21.0147504418586],[-68.8235424659897,-21.0146609414219],[-68.8233984764698,-21.0148756520655],[-68.8235607412127,-21.0149617171319],[-68.8236979977558,-21.0147504418586]]]}},{"type":"Feature","id":"606157536","properties":{"name":"VEL_20KMH_2","oid":"606157536","speedLimit":5.5555553},"geometry":{"type":"Polygon","coordinates":[[[-68.821852873533,-21.0175091346117],[-68.821693590537,-21.0174452186433],[-68.8216073122474,-21.0176115628892],[-68.8217514941382,-21.0176828920251],[-68.821852873533,-21.0175091346117]]]}},{"type":"Feature","id":"606221546","properties":{"name":"ZD_BOT_NRT_03-AutoClean-1","oid":"606221546","speedLimit":5},"geometry":{"type":"Polygon","coordinates":[[[-68.7922624019748,-20.991134711987],[-68.7926930239394,-20.9903698900734],[-68.792600782156,-20.990112960537],[-68.7923544513874,-20.9901647623049],[-68.7922094038282,-20.9902223499596],[-68.7921024456811,-20.9902967528479],[-68.7920371358054,-20.9903806482068],[-68.7919887545572,-20.9904905800563],[-68.7919762504572,-20.9905193286814],[-68.7919741343788,-20.9911222361685],[-68.7922624019748,-20.991134711987]]]}},{"type":"Feature","id":"606796346","properties":{"name":"ZD_STK_HG_03-AutoClean-1","oid":"606796346","speedLimit":5},"geometry":{"type":"Polygon","coordinates":[[[-68.8156312181492,-21.0198912022948],[-68.8158944775454,-21.0197801855915],[-68.815953727742,-21.0188803897871],[-68.815704030485,-21.0187444214469],[-68.8156248699139,-21.0188337410747],[-68.8155692747619,-21.0189378870374],[-68.8155593676673,-21.0189791114809],[-68.8155130063122,-21.0191884882601],[-68.8155030992176,-21.0194148610818],[-68.8155131024976,-21.0196438556334],[-68.8155647540488,-21.0197939270727],[-68.8156312181492,-21.0198912022948]]]}},{"type":"Feature","id":"607546676","properties":{"name":"ZD_STK_HG_01-AutoClean-1","oid":"607546676","speedLimit":5},"geometry":{"type":"Polygon","coordinates":[[[-68.816739081403,-21.020562093952],[-68.8169115417967,-21.0205557656383],[-68.8169731004425,-21.0205533247173],[-68.8171394049716,-21.02051363715],[-68.8172393415856,-21.0204484555188],[-68.8173275435828,-21.0203760415291],[-68.8171681644014,-21.0201499399209],[-68.8163707875674,-21.0202011088574],[-68.8162902804009,-21.0204615641686],[-68.8165083326666,-21.0205367806972],[-68.816678965538,-21.0205608282893],[-68.816739081403,-21.020562093952]]]}},{"type":"Feature","id":"607691021","properties":{"name":"VEL_13_KPH_901_001","oid":"607691021","speedLimit":2.7777777},"geometry":{"type":"Polygon","coordinates":[[[-68.8149059803533,-21.0017776699764],[-68.8151917471294,-21.0021560127315],[-68.8145372055907,-21.0025631945162],[-68.8143313688688,-21.0021357621276],[-68.8149059803533,-21.0017776699764]]]}},{"type":"Feature","id":"608715834","properties":{"name":"INFO_RESTRICCION VELOCIDAD","oid":"608715834","speedLimit":2.7777777},"geometry":{"type":"Polygon","coordinates":[[[-68.8173477425135,-21.0014885564445],[-68.8174929824434,-21.0011428497073],[-68.8172421309618,-21.0010665483249],[-68.8167310018308,-21.001222224842],[-68.8166082692807,-21.001449592113],[-68.8164629331654,-21.0015418046841],[-68.8158121428567,-21.0017244217368],[-68.8158517712349,-21.0019584789394],[-68.8165403623995,-21.0018325454967],[-68.8170779425112,-21.0017705280224],[-68.8174005482894,-21.0016322091657],[-68.8173477425135,-21.0014885564445]]]}},{"type":"Feature","id":"610258504","properties":{"name":"ZD_STK_MAR_01-AutoClean-1","oid":"610258504","speedLimit":5},"geometry":{"type":"Polygon","coordinates":[[[-68.8067470551487,-20.9870507799395],[-68.8069177842055,-20.9870291732685],[-68.8070269546164,-20.9869847846681],[-68.8061829278711,-20.9869323500688],[-68.8062277502601,-20.9869551319981],[-68.8063380748956,-20.9870005150478],[-68.8065142865193,-20.987031704594],[-68.8066857850591,-20.9870505991306],[-68.8067470551487,-20.9870507799395]]]}},{"type":"Feature","id":"610291621","properties":{"name":"ZD_STK_MAR_02-AutoClean-1","oid":"610291621","speedLimit":5},"geometry":{"type":"Polygon","coordinates":[[[-68.8068610348289,-20.9870254666847],[-68.8070910140822,-20.9870084706422],[-68.8072616469536,-20.9869844230501],[-68.8074354539426,-20.9869402152587],[-68.8068610348289,-20.9870254666847]]]}},{"type":"Feature","id":"610889233","properties":{"name":"VEL_15_KMH_902_001","oid":"610889233","speedLimit":2.7777777},"geometry":{"type":"Polygon","coordinates":[[[-68.8123113796177,-20.9973543595054],[-68.8124850904214,-20.9977825151298],[-68.8115533426058,-20.9974880677336],[-68.8094293769546,-20.9972887258518],[-68.8093992709293,-20.9971420897828],[-68.8105879299058,-20.997099690081],[-68.8123113796177,-20.9973543595054]]]}},{"type":"Feature","id":"611100302","properties":{"name":"TRC_70%_007","oid":"611100302","speedLimit":5.5555553},"geometry":{"type":"Polygon","coordinates":[[[-68.8241719031432,-21.0149584625706],[-68.8231307925459,-21.0146904132829],[-68.8216857995208,-21.0170131756262],[-68.8226961307952,-21.0170272787253],[-68.8238011084875,-21.015239982126],[-68.8241719031432,-21.0149584625706]]]}},{"type":"Feature","id":"611200085","properties":{"name":"TRC_70%_008","oid":"611200085","speedLimit":5.5555553},"geometry":{"type":"Polygon","coordinates":[[[-68.8216914744585,-21.0170220352654],[-68.8196423410361,-21.0203158321444],[-68.8181305953545,-21.0225946579097],[-68.8157202858149,-21.0232112164735],[-68.8138947834104,-21.0231442267527],[-68.8136523000572,-21.0225008180579],[-68.8143368514356,-21.021254140258],[-68.8147790156463,-21.0200745425833],[-68.8155063695207,-21.0188144849201],[-68.8162907613278,-21.0177823369548],[-68.8168327659671,-21.0165842063614],[-68.8147041834175,-21.0153176395756],[-68.8137521404858,-21.0190557744812],[-68.8129249461828,-21.020945860976],[-68.812596954023,-21.0227957174765],[-68.8186439367494,-21.0235998653395],[-68.8227018057329,-21.0170361383645],[-68.8216914744585,-21.0170220352654]]]}},{"type":"Feature","id":"611524503","properties":{"name":"TRC_40%_F03_001","oid":"611524503","speedLimit":8.333333},"geometry":{"type":"Polygon","coordinates":[[[-68.8074424754756,-20.9948532291201],[-68.8064814873033,-20.995591833734],[-68.806340671901,-20.9958224555663],[-68.8062401581746,-20.9959661082874],[-68.8060873195993,-20.9960832724955],[-68.8061758101527,-20.9962610077061],[-68.8064654243442,-20.9960681749471],[-68.8066625081961,-20.9957543809918],[-68.8067992838123,-20.9955048646228],[-68.8074963392907,-20.9951827534552],[-68.8074424754756,-20.9948532291201]]]}},{"type":"Feature","id":"611565659","properties":{"name":"INFO_SINGLE_LANE_P2","oid":"611565659","speedLimit":9.722222},"geometry":{"type":"Polygon","coordinates":[[[-68.8213708885734,-21.0006387543184],[-68.8213624242596,-20.9998981608059],[-68.819057822457,-20.9988071595232],[-68.8156518980068,-20.9966729809283],[-68.8152367618891,-20.9975569559485],[-68.8179818927507,-20.9993884603392],[-68.8211675526714,-21.0007422674497],[-68.8213708885734,-21.0006387543184]]]}},{"type":"Feature","id":"612609137","properties":{"name":"EX-REDUCCION_901","oid":"612609137","speedLimit":2.7777777},"geometry":{"type":"Polygon","coordinates":[[[-68.8176765041563,-21.0017654653714],[-68.8170019560577,-21.001757690586],[-68.8160222117355,-21.0017704376179],[-68.8159445901305,-21.0020942664706],[-68.8178905166359,-21.0021832244804],[-68.8176765041563,-21.0017654653714]]]}},{"type":"Feature","id":"612786077","properties":{"name":"VEL_10KM_CHANCADO","oid":"612786077","speedLimit":2.7777777},"geometry":{"type":"Polygon","coordinates":[[[-68.8254305850792,-21.0011480027627],[-68.8253661408719,-21.0018657239414],[-68.8251026891049,-21.0018401394731],[-68.8251609774476,-21.0011348037084],[-68.8254305850792,-21.0011480027627]]]}},{"type":"Feature","id":"612791037","properties":{"name":"VEL_10KM_CHANCADO_001","oid":"612791037","speedLimit":2.7777777},"geometry":{"type":"Polygon","coordinates":[[[-68.825876789076,-21.0020628961155],[-68.8260706988103,-21.0021721951337],[-68.8255375432263,-21.0027704015878],[-68.8253856665048,-21.002639767112],[-68.8258089783802,-21.0020720269682],[-68.825876789076,-21.0020628961155]]]}},{"type":"Feature","id":"613763456","properties":{"name":"ZD_STK_DIN_22-AutoClean-1","oid":"613763456","speedLimit":5},"geometry":{"type":"Polygon","coordinates":[[[-68.823823519682,-21.0061242270426],[-68.8238399673827,-21.0059743364122],[-68.8238489126234,-21.0058540984518],[-68.8237810057422,-21.0057470595457],[-68.8236780873813,-21.005623386215],[-68.823416078395,-21.0054357969159],[-68.823257276326,-21.0053922219558],[-68.8231284840966,-21.0054140998404],[-68.8230972238468,-21.0056179619462],[-68.8231054957899,-21.0056844996445],[-68.8235361177544,-21.0061004506639],[-68.823823519682,-21.0061242270426]]]}}]}