{"type":"FeatureCollection","features":[{"type":"Feature","id":"558966402","properties":{"name":"ZD_STK_BL_02-AutoClean-1","oid":"558966402","speedLimit":5},"geometry":{"type":"Polygon","coordinates":[[[-68.8233390361941,-20.9923436279574],[-68.8235315031617,-20.992141431573],[-68.8232694941563,-20.9918863349718],[-68.8231555144679,-20.991777640851],[-68.8230900122165,-20.9917193149708],[-68.8229894022974,-20.9916458876613],[-68.8229592000846,-20.991628796822],[-68.8228468555478,-20.9915731837735],[-68.822727393292,-20.9915323104436],[-68.8226065844408,-20.9917787259836],[-68.8232130333317,-20.9922465990127],[-68.8233390361941,-20.9923436279574]]]}},{"type":"Feature","id":"592941111","properties":{"name":"INFO_ESTACION","oid":"592941111","speedLimit":5.5555553},"geometry":{"type":"Polygon","coordinates":[[[-68.8203814316029,-21.0085402275133],[-68.8205737061998,-21.0083654307284],[-68.8202339793984,-21.008052008247],[-68.8198877119904,-21.0077024146772],[-68.8195095110326,-21.0078530672606],[-68.8202915944476,-21.0086125696902],[-68.8203814316029,-21.0085402275133]]]}},{"type":"Feature","id":"600880362","properties":{"name":"VEL_15_KPH_RC_002","oid":"600880362","speedLimit":4.1666665},"geometry":{"type":"Polygon","coordinates":[[[-68.8105531121542,-21.0009377881441],[-68.8108678307539,-21.0010365352155],[-68.8107919404804,-21.0012953393533],[-68.8107824181266,-21.0014351406102],[-68.810834165867,-21.0015421166043],[-68.8109944107286,-21.0015649948177],[-68.8111205097764,-21.0015709630473],[-68.8112150600158,-21.0016005329121],[-68.8112024597296,-21.0017664677803],[-68.8110292298402,-21.0019437061137],[-68.8103205358785,-21.0017533557608],[-68.8102540717733,-21.001336936105],[-68.8103774776301,-21.0008491689774],[-68.8105531121542,-21.0009377881441]]]}},{"type":"Feature","id":"603087867","properties":{"name":"ZD_BOT_NRT_04-AutoClean-1","oid":"603087867","speedLimit":5},"geometry":{"type":"Polygon","coordinates":[[[-68.793401814139,-20.9927566113597],[-68.7935456112987,-20.9926766732543],[-68.7936480487402,-20.9925939318894],[-68.7934999232379,-20.9923610805076],[-68.7926354089426,-20.9918798241758],[-68.7924167795486,-20.9920569720815],[-68.7926594552904,-20.9924961795229],[-68.7927756472429,-20.9925892296479],[-68.793150481712,-20.9927124826318],[-68.793401814139,-20.9927566113597]]]}},{"type":"Feature","id":"604050980","properties":{"name":"VEL_10_KPH_901_002","oid":"604050980","speedLimit":2.7777777},"geometry":{"type":"Polygon","coordinates":[[[-68.8165640258007,-21.0014742958134],[-68.8166529011021,-21.0016464701944],[-68.8167062839941,-21.0018402568008],[-68.8164781322464,-21.0018709117982],[-68.8161730321858,-21.0020056491027],[-68.8160308701778,-21.0020608100125],[-68.8157269243419,-21.0021076515721],[-68.8151845349214,-21.0021547644148],[-68.8149133883039,-21.0017830160533],[-68.8150734407947,-21.0017031683756],[-68.8151923259381,-21.0016639227446],[-68.8153489157548,-21.0016691675524],[-68.8155865898562,-21.001682279572],[-68.815835421463,-21.001682279572],[-68.8159779682127,-21.0016559651051],[-68.816131768653,-21.0015823569401],[-68.8165640258007,-21.0014742958134]]]}},{"type":"Feature","id":"606221546","properties":{"name":"ZD_BOT_NRT_03-AutoClean-1","oid":"606221546","speedLimit":5},"geometry":{"type":"Polygon","coordinates":[[[-68.7922624019959,-20.9911429286765],[-68.7926930239919,-20.9903779101559],[-68.7926007822018,-20.9901209145725],[-68.7923544514152,-20.9901727296567],[-68.7922094038454,-20.990230332115],[-68.7921024456905,-20.9903047541295],[-68.79203713581,-20.9903886710547],[-68.7919887545582,-20.9904986311636],[-68.7919762504574,-20.9905273871789],[-68.7919741343788,-20.991130449651],[-68.7922624019959,-20.9911429286765]]]}},{"type":"Feature","id":"607691021","properties":{"name":"VEL_13_KPH_901_001","oid":"607691021","speedLimit":2.7777777},"geometry":{"type":"Polygon","coordinates":[[[-68.8149059820288,-21.001788622572],[-68.8151917488258,-21.0021670625848],[-68.8145372072393,-21.0025743490407],[-68.8143313705023,-21.0021468067753],[-68.8149059820288,-21.001788622572]]]}},{"type":"Feature","id":"608715834","properties":{"name":"INFO_RESTRICCION VELOCIDAD","oid":"608715834","speedLimit":2.7777777},"geometry":{"type":"Polygon","coordinates":[[[-68.8173477443674,-21.0014994347199],[-68.817492984308,-21.0011536391144],[-68.817242132808,-21.0010773181177],[-68.8167310036396,-21.0012330346535],[-68.8166082710806,-21.0014604603721],[-68.8164629349546,-21.0015526966476],[-68.8158121445984,-21.0017353606443],[-68.8158517729795,-21.0019694780142],[-68.8165403641945,-21.0018435121987],[-68.8170779443454,-21.001781478782],[-68.8174005501471,-21.0016431243687],[-68.8173477443674,-21.0014994347199]]]}},{"type":"Feature","id":"610258504","properties":{"name":"ZD_STK_MAR_01-AutoClean-1","oid":"610258504","speedLimit":5},"geometry":{"type":"Polygon","coordinates":[[[-68.8067470562281,-20.987057946803],[-68.8069177852974,-20.9870363345777],[-68.8070269557162,-20.9869919345666],[-68.8060384584518,-20.9867575459135],[-68.806063081912,-20.9868023076354],[-68.8061001132875,-20.9868543035751],[-68.8061829289093,-20.9869394864884],[-68.8062277513016,-20.9869622742741],[-68.8063380759452,-20.9870076689901],[-68.8065142875816,-20.9870388665539],[-68.806685786134,-20.9870577659476],[-68.8067470562281,-20.987057946803]]]}},{"type":"Feature","id":"610291621","properties":{"name":"ZD_STK_MAR_02-AutoClean-1","oid":"610291621","speedLimit":5},"geometry":{"type":"Polygon","coordinates":[[[-68.8068610359166,-20.9870326270411],[-68.8070910151867,-20.9870156266296],[-68.8072616480706,-20.9869915728557],[-68.8074354550723,-20.9869473537001],[-68.8075860813948,-20.9868707614203],[-68.8068105385863,-20.986765503553],[-68.8068610359166,-20.9870326270411]]]}},{"type":"Feature","id":"610889233","properties":{"name":"VEL_10_KMH_902_001","oid":"610889233","speedLimit":2.7777777},"geometry":{"type":"Polygon","coordinates":[[[-68.8123113811037,-20.9973641750335],[-68.81248509192,-20.9977924407207],[-68.8115533440364,-20.997497917633],[-68.8094293782299,-20.997298524508],[-68.8093992722025,-20.9971518507443],[-68.8105879312658,-20.9971094401431],[-68.8123113811037,-20.9973641750335]]]}},{"type":"Feature","id":"611101069","properties":{"name":"TRC_90%-004","oid":"611101069","speedLimit":6.9444447},"geometry":{"type":"Polygon","coordinates":[[[-68.8219663744776,-21.0049450021774],[-68.8221510504285,-21.0056468117209],[-68.8212481581622,-21.0061447067534],[-68.8203434383734,-21.0062014049345],[-68.8203532492834,-21.0053242560397],[-68.8213176040146,-21.0052794943178],[-68.8217302393424,-21.0050795586264],[-68.8219663744776,-21.0049450021774]]]}},{"type":"Feature","id":"611187609","properties":{"name":"TRC_90%_003","oid":"611187609","speedLimit":5.5555553},"geometry":{"type":"Polygon","coordinates":[[[-68.8105697522269,-21.0028927450468],[-68.8087544453405,-21.0038500129024],[-68.8067293581162,-20.9987591130593],[-68.8088241797491,-20.997209995769],[-68.8091141787033,-20.9977517482462],[-68.8081278937029,-20.9996321022789],[-68.8105697522269,-21.0028927450468]]]}},{"type":"Feature","id":"611197820","properties":{"name":"TRC_70%_006","oid":"611197820","speedLimit":8.333333},"geometry":{"type":"Polygon","coordinates":[[[-68.8222758028808,-21.0076656105947],[-68.8234268534562,-21.0125046692345],[-68.8246139735532,-21.014290435871],[-68.8238106331667,-21.0104459917357],[-68.8232131295171,-21.0088886455227],[-68.8231514746814,-21.0076846908439],[-68.8222758028808,-21.0076656105947]]]}},{"type":"Feature","id":"611225942","properties":{"name":"TRAC_90%_005","oid":"611225942","speedLimit":9.722222},"geometry":{"type":"Polygon","coordinates":[[[-68.8225615696778,-21.0054941697277],[-68.8219055853104,-21.0058757747108],[-68.8221804831582,-21.0072145571218],[-68.8222878260547,-21.0076656105947],[-68.8231634978553,-21.0076846908439],[-68.82313021771,-21.0070359623726],[-68.8228535885252,-21.0057983685815],[-68.8225615696778,-21.0054941697277]]]}},{"type":"Feature","id":"611506423","properties":{"name":"TRAC_70%_01","oid":"611506423","speedLimit":6.9444447},"geometry":{"type":"Polygon","coordinates":[[[-68.8203434383734,-21.0062014049345],[-68.8200760429862,-21.0062181340629],[-68.8186696201974,-21.0056958235458],[-68.8170894865923,-21.0048223821876],[-68.8140855206426,-21.0044795706968],[-68.8136436449559,-21.0044200692563],[-68.8138053325984,-21.0037796601354],[-68.8158480217493,-21.0039001098599],[-68.81730657702,-21.0041857710309],[-68.8181053005078,-21.0046102387538],[-68.8187911985318,-21.0050591219614],[-68.8199110850404,-21.0053447831324],[-68.8203532492834,-21.0053242560397],[-68.8203434383734,-21.0062014049345]]]}},{"type":"Feature","id":"611524503","properties":{"name":"TRC_40%_F03_001","oid":"611524503","speedLimit":8.333333},"geometry":{"type":"Polygon","coordinates":[[[-68.8074424766058,-20.9948624017012],[-68.8064814883633,-20.9956011961827],[-68.8063406729507,-20.9958318772993],[-68.806240159217,-20.9959755669481],[-68.8060873206305,-20.9960927612747],[-68.8061758111904,-20.9962705421744],[-68.806465425403,-20.9960776598452],[-68.8066625092694,-20.9957637852253],[-68.8067992848955,-20.995514204715],[-68.8074963404248,-20.9951920107447],[-68.8074424766058,-20.9948624017012]]]}},{"type":"Feature","id":"611565659","properties":{"name":"INFO_SINGLE_LANE_P2","oid":"611565659","speedLimit":9.722222},"geometry":{"type":"Polygon","coordinates":[[[-68.8213708907213,-21.0006494141414],[-68.8213624264068,-20.9999086302501],[-68.8190578244359,-20.9988173485117],[-68.8156518997368,-20.9966826212995],[-68.8152367635888,-20.9975668235565],[-68.817981894651,-20.9993987987585],[-68.8211675548045,-21.0007529538821],[-68.8213708907213,-21.0006494141414]]]}},{"type":"Feature","id":"612399621","properties":{"name":"TRC_90%_002","oid":"612399621","speedLimit":9.722222},"geometry":{"type":"Polygon","coordinates":[[[-68.8121810498987,-20.9933858074432],[-68.8111333024334,-20.9948562526162],[-68.8082481254418,-20.9938283607103],[-68.8046187620791,-20.9962981226293],[-68.8025839601302,-21.0038930564977],[-68.8051198879668,-21.0036074857544],[-68.8055906192708,-21.001166389423],[-68.8065928710462,-21.0000385748853],[-68.8066688575052,-20.9987964597082],[-68.8075192325479,-20.9979969882258],[-68.80827842384,-20.9968405985283],[-68.8065473753562,-20.997825718122],[-68.8053476549729,-20.9997530041421],[-68.8058487808606,-20.9977971429622],[-68.8063347094564,-20.9968121137961],[-68.8076255174051,-20.9956700116785],[-68.8088403388948,-20.9951703080916],[-68.810252532807,-20.9957556467304],[-68.8117103185946,-20.9957699343103],[-68.8122114444823,-20.9940995534459],[-68.8121810498987,-20.9933858074432]]]}},{"type":"Feature","id":"612548768","properties":{"name":"ZD_STK_DIN_13-AutoClean-1","oid":"612548768","speedLimit":5},"geometry":{"type":"Polygon","coordinates":[[[-68.8262954865606,-21.0040925400505],[-68.8264547695682,-21.0040600764986],[-68.8265511473301,-21.0039668455181],[-68.8264574627592,-21.0037887933352],[-68.8264174496365,-21.0037263982077],[-68.825943928956,-21.0036445611201],[-68.8257514619884,-21.0038467575045],[-68.8258206192846,-21.0039563559025],[-68.825966532523,-21.0040276129467],[-68.8262954865606,-21.0040925400505]]]}},{"type":"Feature","id":"612609137","properties":{"name":"EX-REDUCCION_901","oid":"612609137","speedLimit":2.7777777},"geometry":{"type":"Polygon","coordinates":[[[-68.8176765060342,-21.0017764148297],[-68.8170019578864,-21.0017686380456],[-68.8160222134926,-21.0017813883543],[-68.815944591882,-21.0021053004513],[-68.8178905185294,-21.0021942813289],[-68.8176765060342,-21.0017764148297]]]}},{"type":"Feature","id":"612786077","properties":{"name":"VEL_10KM_CHANCADO","oid":"612786077","speedLimit":2.7777777},"geometry":{"type":"Polygon","coordinates":[[[-68.8254305875237,-21.0011587934945],[-68.8253661433117,-21.0018766991724],[-68.8251026915254,-21.0018511081273],[-68.8251609798724,-21.0011455910472],[-68.8254305875237,-21.0011587934945]]]}},{"type":"Feature","id":"612791037","properties":{"name":"VEL_10KM_CHANCADO_001","oid":"612791037","speedLimit":2.7777777},"geometry":{"type":"Polygon","coordinates":[[[-68.825876791553,-21.0020739220321],[-68.8260707013015,-21.0021832491469],[-68.8255375456786,-21.0027816093775],[-68.8253856689461,-21.0026509413205],[-68.8258089808523,-21.0020830552319],[-68.825876791553,-21.0020739220321]]]}},{"type":"Feature","id":"612794629","properties":{"name":"TRAC_20%_011","oid":"612794629","speedLimit":6.9444447},"geometry":{"type":"Polygon","coordinates":[[[-68.8136436449559,-21.0044192554068],[-68.8113594342879,-21.0041115298719],[-68.8103436203724,-21.0036299118293],[-68.8099095357023,-21.0033442506583],[-68.8103436203724,-21.0029769332551],[-68.8119671335889,-21.0034585512978],[-68.8136341226022,-21.0037687183812],[-68.8138053325984,-21.0037788462859],[-68.8136436449559,-21.0044192554068]]]}},{"type":"Feature","id":"613763456","properties":{"name":"ZD_STK_DIN_22-AutoClean-1","oid":"613763456","speedLimit":5},"geometry":{"type":"Polygon","coordinates":[[[-68.8238235220091,-21.0061362969753],[-68.823839969711,-21.0059863678137],[-68.8238489149524,-21.0058660989446],[-68.8237810080662,-21.0057590325228],[-68.8236780896978,-21.0056353274003],[-68.8234160806924,-21.005447689879],[-68.8232572786116,-21.0054041037175],[-68.823128486373,-21.005425987226],[-68.8230972261208,-21.0056299017371],[-68.8231054980645,-21.0056964565398],[-68.8235361200605,-21.0061125144846],[-68.8238235220091,-21.0061362969753]]]}}]}