{"type":"FeatureCollection","features":[{"type":"Feature","id":"553508825","properties":{"name":"ZD_STK_HG_02-AutoClean-1","oid":"553508825","speedLimit":5},"geometry":{"type":"Polygon","coordinates":[[[-68.8163688382586,-21.0204838959555],[-68.8164535921872,-21.0202247226197],[-68.8158786892618,-21.0197080025591],[-68.8156003769855,-21.0197798445402],[-68.8156354907017,-21.0200168778944],[-68.8157148573204,-21.0201501696204],[-68.815781813886,-21.0202110771616],[-68.8159764304553,-21.0203632556475],[-68.8161201561866,-21.0204334710178],[-68.8163688382586,-21.0204838959555]]]}},{"type":"Feature","id":"592941111","properties":{"name":"INFO_ESTACION","oid":"592941111","speedLimit":5.5555553},"geometry":{"type":"Polygon","coordinates":[[[-68.8219741417813,-21.0107304659339],[-68.8222189757748,-21.0106291642221],[-68.8220152200191,-21.0102248610477],[-68.8218193528243,-21.0097845916991],[-68.8214089552541,-21.0098031169898],[-68.8218630285151,-21.0107691431262],[-68.8219741417813,-21.0107304659339]]]}},{"type":"Feature","id":"606796346","properties":{"name":"ZD_STK_HG_03-AutoClean-1","oid":"606796346","speedLimit":5},"geometry":{"type":"Polygon","coordinates":[[[-68.8156388577703,-21.0199041899063],[-68.815896005615,-21.019781109682],[-68.815921306731,-21.0188920764612],[-68.8156564627294,-21.0187843586732],[-68.8155944124638,-21.0188834915704],[-68.8155417899906,-21.0190330494054],[-68.8155060028607,-21.0192139646837],[-68.8155033092058,-21.0192578831778],[-68.815500134541,-21.0193715652059],[-68.815507830698,-21.0196627285559],[-68.8155657442792,-21.0198102983109],[-68.8156388577703,-21.0199041899063]]]}},{"type":"Feature","id":"607546676","properties":{"name":"ZD_STK_HG_01-AutoClean-1","oid":"607546676","speedLimit":5},"geometry":{"type":"Polygon","coordinates":[[[-68.8167339247047,-21.0205633287875],[-68.8169064148227,-21.0205570030784],[-68.8169679840785,-21.0205545631621],[-68.8171343172709,-21.0205148919297],[-68.8172342711095,-21.0204497371267],[-68.8173224883088,-21.0203773529419],[-68.8171630816576,-21.0201513443949],[-68.8163655673919,-21.0202024922708],[-68.8162850463496,-21.0204628403811],[-68.8165031361977,-21.0205380259513],[-68.8166737984784,-21.0205620636456],[-68.8167339247047,-21.0205633287875]]]}},{"type":"Feature","id":"619770241","properties":{"name":"VEL_10_KMH_02","oid":"619770241","speedLimit":2.7777777},"geometry":{"type":"Polygon","coordinates":[[[-68.8105529486409,-20.9969893089386],[-68.8102948387767,-20.9972317643291],[-68.8099516863779,-20.9971986899076],[-68.8095820784396,-20.9972730621724],[-68.8095674557414,-20.9969700607097],[-68.8105529486409,-20.9969893089386]]]}},{"type":"Feature","id":"620034757","properties":{"name":"VEL_10_KMH_03","oid":"620034757","speedLimit":2.7777777},"geometry":{"type":"Polygon","coordinates":[[[-68.8141337780736,-21.0025118336579],[-68.814191018241,-21.0028557714947],[-68.8147031974871,-21.002804352517],[-68.8148688572658,-21.0027957676262],[-68.8150709775882,-21.0024531852985],[-68.8152913762833,-21.0022946811036],[-68.8154449146148,-21.0022347676024],[-68.815411436332,-21.002054846364],[-68.8153369760133,-21.0018407662969],[-68.8150755952824,-21.0018892935219],[-68.8149018545388,-21.0020783418547],[-68.8146923266654,-21.0023150137398],[-68.8145875627287,-21.0024291476042],[-68.814170623425,-21.0025024354617],[-68.8141337780736,-21.0025118336579]]]}},{"type":"Feature","id":"621746744","properties":{"name":"ZD_STK_DIN_13-AutoClean-1","oid":"621746744","speedLimit":5},"geometry":{"type":"Polygon","coordinates":[[[-68.8263015946417,-21.004408371593],[-68.8264736999518,-21.0044009614767],[-68.8265853904298,-21.0043586695934],[-68.8265323831487,-21.0040921765086],[-68.8257740230816,-21.0038855969251],[-68.8255793103104,-21.0040857604323],[-68.8256472288956,-21.0041842607587],[-68.8257924938583,-21.0042686637906],[-68.825960654888,-21.0043256855392],[-68.8260144317849,-21.0043421323827],[-68.8261272766864,-21.0043683388915],[-68.8263015946417,-21.004408371593]]]}},{"type":"Feature","id":"622067046","properties":{"name":"ZD_STK_DIN_22-AutoClean-1","oid":"622067046","speedLimit":5},"geometry":{"type":"Polygon","coordinates":[[[-68.8242239208666,-21.0053497274642],[-68.8243473479839,-21.0051046514228],[-68.8238191030101,-21.0047317056918],[-68.8235811955579,-21.0048851493194],[-68.8237025062321,-21.005062178805],[-68.8237444502876,-21.0051086275828],[-68.8238506572537,-21.0051877893129],[-68.8239252137743,-21.0052345995598],[-68.8242239208666,-21.0053497274642]]]}},{"type":"Feature","id":"622898566","properties":{"name":"INFO_RED_VEL_20KPH_902","oid":"622898566","speedLimit":5.5555553},"geometry":{"type":"Polygon","coordinates":[[[-68.8075706878164,-21.0003440131727],[-68.8075935838834,-21.0000214020121],[-68.8076747783394,-21.0000077565541],[-68.807832934365,-21.0005786066106],[-68.8079452982567,-21.0008268455064],[-68.8077954155998,-21.0008952535312],[-68.8075706878164,-21.0003440131727]]]}}]}