{"type":"FeatureCollection","features":[{"type":"Feature","id":"553267213","properties":{"name":"ZD_BOT_PAD59_02-AutoClean-1","oid":"553267213","speedLimit":5},"geometry":{"type":"Polygon","coordinates":[[[-68.8183528155188,-20.9849455471947],[-68.8183528155188,-20.9849455471947]]]}},{"type":"Feature","id":"553508825","properties":{"name":"ZD_STK_HG_02-AutoClean-1","oid":"553508825","speedLimit":5},"geometry":{"type":"Polygon","coordinates":[[[-68.8157271929385,-21.0200493499653],[-68.8159960165259,-21.0199508389783],[-68.8158661732905,-21.0189963669289],[-68.8155896552892,-21.018918823418],[-68.8155457971296,-21.0190272758808],[-68.8155146347531,-21.0191375358846],[-68.8154876081241,-21.0192528570034],[-68.8154840494577,-21.0194072210087],[-68.8154893393673,-21.0196068639172],[-68.8154958796191,-21.0196406649348],[-68.8155314662836,-21.0197554437912],[-68.8155924445142,-21.0198601004178],[-68.8157271929385,-21.0200493499653]]]}},{"type":"Feature","id":"558966402","properties":{"name":"ZD_STK_BL_02-AutoClean-1","oid":"558966402","speedLimit":5},"geometry":{"type":"Polygon","coordinates":[[[-68.8233381224972,-20.9923445357127],[-68.8235305790261,-20.9921424526238],[-68.8232685842311,-20.9918874989592],[-68.8231546107245,-20.9917788657424],[-68.8230891120258,-20.9917205725436],[-68.8229885075634,-20.9916471863772],[-68.8229583069886,-20.9916301051143],[-68.8228459685449,-20.9915745232271],[-68.8227265127684,-20.9915336727995],[-68.8226057104694,-20.991779950267],[-68.8232121264688,-20.9922475611356],[-68.8233381224972,-20.9923445357127]]]}},{"type":"Feature","id":"570805601","properties":{"name":"ZD_STK_MAR_02-AutoClean-1-tmp-1","oid":"570805601","speedLimit":5},"geometry":{"type":"Polygon","coordinates":[[[-68.8065064958013,-20.9867049172719],[-68.8068586114197,-20.9866993138947],[-68.8068629395275,-20.9864281827378],[-68.8062843195985,-20.9862063070744],[-68.8060020307867,-20.9862623408468],[-68.8060101099213,-20.9863770293262],[-68.8060390601538,-20.9864999421173],[-68.8060616624948,-20.9865276878724],[-68.8061470704896,-20.9866156247443],[-68.8062246878904,-20.9866467144503],[-68.8063402002798,-20.986680876976],[-68.8063879056463,-20.9866900050583],[-68.8065064958013,-20.9867049172719]]]}},{"type":"Feature","id":"592941111","properties":{"name":"INFO_ESTACION","oid":"592941111","speedLimit":5.5555553},"geometry":{"type":"Polygon","coordinates":[[[-68.8219775577505,-21.0107290356924],[-68.8222566726165,-21.0106303439513],[-68.82183386457,-21.009746908265],[-68.821285060495,-21.009045311208],[-68.8208550389354,-21.0093298181686],[-68.8218664696491,-21.0107677170708],[-68.8219775577505,-21.0107290356924]]]}},{"type":"Feature","id":"602013008","properties":{"name":"ZD_STK_3C_01-AutoClean-1","oid":"602013008","speedLimit":5},"geometry":{"type":"Polygon","coordinates":[[[-68.8048615262789,-20.9854524720811],[-68.8051261179386,-20.9853443811266],[-68.8047553433664,-20.9850910542489],[-68.8047422628627,-20.9852508408774],[-68.8047865057429,-20.9853605586189],[-68.8048615262789,-20.9854524720811]]]}},{"type":"Feature","id":"607546676","properties":{"name":"ZD_STK_HG_01-AutoClean-1","oid":"607546676","speedLimit":5},"geometry":{"type":"Polygon","coordinates":[[[-68.816810758783,-21.0205957696235],[-68.8170917972526,-21.0205346747362],[-68.8173095491674,-21.0203997417971],[-68.8171831684182,-21.020155994887],[-68.8158423206072,-21.0198710360411],[-68.8156212985665,-21.020045282998],[-68.815687181986,-21.0201347562797],[-68.8157635490444,-21.0202166378891],[-68.8158067339427,-21.0202529694642],[-68.8158958929644,-21.0203220175321],[-68.8160456454959,-21.0204074238465],[-68.8160971980693,-21.0204292047161],[-68.816365059855,-21.0205296136213],[-68.816475378515,-21.0205659451963],[-68.8165908909044,-21.0205921545414],[-68.816810758783,-21.0205957696235]]]}},{"type":"Feature","id":"620970737","properties":{"name":"ZD_BOT_NRT_02-AutoClean-1","oid":"620970737","speedLimit":5},"geometry":{"type":"Polygon","coordinates":[[[-68.793704433691,-20.9903848900876],[-68.7937912843884,-20.990126321341],[-68.7936836587733,-20.9900861035527],[-68.7932994189767,-20.989974307139],[-68.7932407490703,-20.9899652694338],[-68.7931255252214,-20.989953610794],[-68.7930677209366,-20.9899516224989],[-68.7926639565646,-20.9899439404495]]]}},{"type":"Feature","id":"621174471","properties":{"name":"ZD_STK_MAR_01-AutoClean-1","oid":"621174471","speedLimit":5},"geometry":{"type":"Polygon","coordinates":[[[-68.8069175698666,-20.9870379567097],[-68.8072898833216,-20.9870018058888],[-68.8074493500507,-20.9869701739205],[-68.8075365854688,-20.9869396264768],[-68.807642576021,-20.9868712110482],[-68.8076698911905,-20.9868509665885],[-68.8077460658886,-20.9867530882408],[-68.807766648446,-20.9866264699905],[-68.8075060963536,-20.9865099739701],[-68.8068741926079,-20.9867698983725],[-68.8069175698666,-20.9870379567097]]]}},{"type":"Feature","id":"621174472","properties":{"name":"ZD_STK_MAR_01-AutoClean-2","oid":"621174472","speedLimit":5},"geometry":{"type":"Polygon","coordinates":[[[-68.8066081582456,-20.9870647083172],[-68.8069566190174,-20.9870622681367],[-68.8069677759176,-20.9867913177339],[-68.8062257458723,-20.9866015259241],[-68.8060455042255,-20.9868132793576],[-68.8061289886168,-20.9868900094751],[-68.8062171858368,-20.9869701739205],[-68.8063779029081,-20.9870272018405],[-68.8066081582456,-20.9870647083172]]]}},{"type":"Feature","id":"622898566","properties":{"name":"INFO_RED_VEL_20KPH_902","oid":"622898566","speedLimit":3.6111112},"geometry":{"type":"Polygon","coordinates":[[[-68.8075773658628,-21.0003377533496],[-68.8076002567443,-21.0000151072729],[-68.8076814328114,-21.000001460338],[-68.8078395530181,-21.0005723721774],[-68.8079518914618,-21.0008206379401],[-68.8078020427501,-21.0008890533687],[-68.8075773658628,-21.0003377533496]]]}},{"type":"Feature","id":"623885777","properties":{"name":"VELO_REDUC_15KM_901","oid":"623885777","speedLimit":4.1666665},"geometry":{"type":"Polygon","coordinates":[[[-68.8074063575127,-20.9981615643072],[-68.8099706171418,-20.9974713547588],[-68.8094225825082,-20.9981522554708],[-68.8075833290336,-20.9992063230319],[-68.8074063575127,-20.9981615643072]]]}},{"type":"Feature","id":"624057522","properties":{"name":"VEL_10KPH","oid":"624057522","speedLimit":2.7777777},"geometry":{"type":"Polygon","coordinates":[[[-68.8103164810488,-21.0005566465703],[-68.8104420923566,-21.0009715676175],[-68.810847203251,-21.0014283332398],[-68.8105190364961,-21.0017366093652],[-68.8100653546135,-21.0013179828589],[-68.8098465447168,-21.0004728670428],[-68.8103164810488,-21.0005566465703]]]}},{"type":"Feature","id":"624400171","properties":{"name":"VEL_15KPH","oid":"624400171","speedLimit":4.1666665},"geometry":{"type":"Polygon","coordinates":[[[-68.8092501314555,-21.0025790138697],[-68.8091216347426,-21.0027433193508],[-68.8095051050978,-21.0029947483103],[-68.8096188862441,-21.0028423726001],[-68.8092501314555,-21.0025790138697]]]}},{"type":"Feature","id":"624790435","properties":{"name":"VELO_REDUC_15KM_9011","oid":"624790435","speedLimit":4.1666665},"geometry":{"type":"Polygon","coordinates":[[[-68.8077216361244,-20.9991842710311],[-68.8077045160533,-20.9994475393845],[-68.807704900774,-20.9997371978371],[-68.8076870112616,-21.0000097750268],[-68.8074781079228,-21.000042853028],[-68.8075833290336,-20.9992063230319],[-68.8077216361244,-20.9991842710311]]]}},{"type":"Feature","id":"625094199","properties":{"name":"VEL_20_KPH_PI02","oid":"625094199","speedLimit":5.5555553},"geometry":{"type":"Polygon","coordinates":[[[-68.8168395166552,-20.9975049750222],[-68.8164726854701,-20.9973357891803],[-68.8160148678401,-20.997133073452],[-68.813804166532,-20.9958472791289],[-68.813685576377,-20.9960472835456],[-68.8179544372365,-20.9991484817184],[-68.8183405044565,-20.9985328332381],[-68.8168395166552,-20.9975049750222]]]}},{"type":"Feature","id":"625102060","properties":{"name":"VEL_15KPH_","oid":"625102060","speedLimit":4.1666665},"geometry":{"type":"Polygon","coordinates":[[[-68.8204225166912,-20.999868425317],[-68.8203239320124,-21.0001521188842],[-68.8202838248797,-21.0002187267718],[-68.8197292499943,-21.0000450220772],[-68.8190112649926,-20.9996396809977],[-68.8184350495679,-20.9992372319837],[-68.8178188231907,-20.998805771936],[-68.8181177511726,-20.9984814990724],[-68.8186477039334,-20.9988231243301],[-68.819507362332,-20.9993790335788],[-68.8200034596714,-20.999628112735],[-68.8204718571206,-20.9997989253638],[-68.8204225166912,-20.999868425317]]]}},{"type":"Feature","id":"625497864","properties":{"name":"ZD_STK_DIN_21-AutoClean-1","oid":"625497864","speedLimit":5},"geometry":{"type":"Polygon","coordinates":[[[-68.8245121938858,-21.0045659533646],[-68.8247917896527,-21.004499164723],[-68.8247724574377,-21.0043914352766],[-68.8247505283579,-21.0042805426335],[-68.8247003223069,-21.0041804048595],[-68.8246371319323,-21.0040714101344],[-68.8244939196527,-21.0039907938038],[-68.8243564781835,-21.0040086884601],[-68.824292229827,-21.004184652581],[-68.8242896329623,-21.0042724086987],[-68.8245121938858,-21.0045659533646]]]}},{"type":"Feature","id":"625542651","properties":{"name":"ZD_STK_DIN_12-AutoClean-1","oid":"625542651","speedLimit":5},"geometry":{"type":"Polygon","coordinates":[[[-68.826040112136,-21.0057286541425],[-68.8260485759913,-21.0054576133627],[-68.8254488926041,-21.0053350620797],[-68.8253031796399,-21.0055691386452],[-68.8254014757781,-21.0056398135001],[-68.8255121791588,-21.0056922321904],[-68.8255522862915,-21.0057059695024],[-68.825675012194,-21.005726033208],[-68.8257982189974,-21.0057282022573],[-68.826040112136,-21.0057286541425]]]}},{"type":"Feature","id":"625562777","properties":{"name":"VEL_15 KPH","oid":"625562777","speedLimit":4.1666665},"geometry":{"type":"Polygon","coordinates":[[[-68.8090404586754,-20.9979319162173],[-68.8090867213393,-20.9980064772855],[-68.808703250984,-20.9982259127685],[-68.8086261144842,-20.9980768810092],[-68.8090404586754,-20.9979319162173]]]}},{"type":"Feature","id":"625872519","properties":{"name":"VEL_15_4_ESQ","oid":"625872519","speedLimit":4.1666665},"geometry":{"type":"Polygon","coordinates":[[[-68.8228153832495,-21.0050166637245],[-68.8223765131138,-21.0050688112836],[-68.8224531687128,-21.004894925835],[-68.8226250426844,-21.0046688024502],[-68.8228179801142,-21.0045420938228],[-68.823013706769,-21.0044278572287],[-68.8232146271533,-21.0046837146638],[-68.8228153832495,-21.0050166637245]]]}},{"type":"Feature","id":"626412337","properties":{"name":"ZD_STK_DIN_22-AutoClean-2","oid":"626412337","speedLimit":5},"geometry":{"type":"Polygon","coordinates":[[[-68.8239611776668,-21.0061785511089],[-68.8242090339762,-21.0055167199549],[-68.8242413505148,-21.0054121537053],[-68.8239706033239,-21.0053183423251],[-68.8238221973148,-21.0056388193525],[-68.8237683364172,-21.0057591112091],[-68.8237365007795,-21.0058678348031],[-68.8236830246025,-21.0061063398441],[-68.8239611776668,-21.0061785511089]]]}},{"type":"Feature","id":"626412789","properties":{"name":"ZD_STK_DIN_22-AutoClean-1","oid":"626412789","speedLimit":5},"geometry":{"type":"Polygon","coordinates":[[[-68.8241741205729,-21.005501355856],[-68.8243257967079,-21.0053396713094],[-68.8244275553324,-21.0052079015671],[-68.8244669892039,-21.0051032449406],[-68.8242152856875,-21.0049705714278],[-68.8240195590327,-21.0052116070263],[-68.8239335739568,-21.0053516010803],[-68.8241741205729,-21.005501355856]]]}}]}