{"type":"FeatureCollection","features":[{"type":"Feature","id":"553508825","properties":{"name":"ZD_STK_HG_02-AutoClean-1","oid":"553508825","speedLimit":5},"geometry":{"type":"Polygon","coordinates":[[[-68.8157228215527,-21.0200500419679],[-68.815991699644,-21.019951547456],[-68.8158618300829,-21.018997235034],[-68.8155852560176,-21.0189197044916],[-68.8155413889659,-21.0190281388166],[-68.8155102202712,-21.0191383803804],[-68.8154831881626,-21.0192536822126],[-68.8154796287746,-21.0194080204019],[-68.8154849197567,-21.0196076299218],[-68.8154914613346,-21.0196414252865],[-68.8155270552143,-21.0197561849471],[-68.8155880458082,-21.0198608240707],[-68.8157228215527,-21.0200500419679]]]}},{"type":"Feature","id":"592941111","properties":{"name":"INFO_ESTACION","oid":"592941111","speedLimit":5.5555553},"geometry":{"type":"Polygon","coordinates":[[[-68.8219744536247,-21.0107312864387],[-68.8222536250812,-21.0106326112029],[-68.8218307313104,-21.0097493232638],[-68.8212818159655,-21.009047843543],[-68.8208517072191,-21.0093323029222],[-68.8218633430002,-21.010769961348],[-68.8219744536247,-21.0107312864387]]]}},{"type":"Feature","id":"607546676","properties":{"name":"ZD_STK_HG_01-AutoClean-1","oid":"607546676","speedLimit":5},"geometry":{"type":"Polygon","coordinates":[[[-68.81680660709,-21.020596370242],[-68.81708770254,-21.0205352855723],[-68.8173054986039,-21.0204003751996],[-68.8171790922311,-21.0201566690541],[-68.8158379725635,-21.0198717578652],[-68.8156169057107,-21.0200459756807],[-68.815682802488,-21.0201354339988],[-68.8157591850298,-21.0202173019142],[-68.8158023786838,-21.0202536274131],[-68.8158915557825,-21.0203226639333],[-68.8160413386763,-21.0204080559643],[-68.816092901702,-21.0204298331912],[-68.8163608177965,-21.0205302253038],[-68.8164711588236,-21.0205665508027],[-68.8165866946332,-21.0205927557645],[-68.81680660709,-21.020596370242]]]}},{"type":"Feature","id":"619770241","properties":{"name":"VEL_10_KMH_02","oid":"619770241","speedLimit":2.7777777},"geometry":{"type":"Polygon","coordinates":[[[-68.8105535320229,-20.9969909405835],[-68.8102954282952,-20.9972333816618],[-68.8099522840548,-20.9972003091927],[-68.809582684904,-20.9972746770672],[-68.8095680625534,-20.9969716934908],[-68.8105535320229,-20.9969909405835]]]}},{"type":"Feature","id":"620034757","properties":{"name":"VEL_10_KMH_03","oid":"620034757","speedLimit":2.7777777},"geometry":{"type":"Polygon","coordinates":[[[-68.8141342763214,-21.0025131393083],[-68.8141915151279,-21.0028570568425],[-68.814703682197,-21.0028056409],[-68.8148693380372,-21.002797056516],[-68.8150714535541,-21.0024544944109],[-68.8152918470092,-21.0022959995725],[-68.8154453816904,-21.0022360896079],[-68.8154119042035,-21.0020561789904],[-68.8153374456551,-21.0018421115604],[-68.8150760711385,-21.0018906359209],[-68.8149023345256,-21.0020796730941],[-68.8146928116337,-21.0023163310085],[-68.8145880501878,-21.0024304581355],[-68.8141711207968,-21.0025037416668],[-68.8141342763214,-21.0025131393083]]]}},{"type":"Feature","id":"622898566","properties":{"name":"INFO_RED_VEL_20KPH_902","oid":"622898566","speedLimit":3.6111112},"geometry":{"type":"Polygon","coordinates":[[[-68.8075942376241,-21.0000228546726],[-68.8076754301497,-21.0000092100201],[-68.8078335824152,-21.0005800263793],[-68.8079459436355,-21.0008282506216],[-68.807796064542,-21.0008966546083]]]}},{"type":"Feature","id":"623314189","properties":{"name":"ZD_STK_DIN_13-AutoClean-1","oid":"623314189","speedLimit":5},"geometry":{"type":"Polygon","coordinates":[[[-68.8262903558386,-21.0046380906307],[-68.826329028108,-21.0046201086052],[-68.8264406197308,-21.004566885424],[-68.8265064203084,-21.0044582703751],[-68.8263787633399,-21.0043021249471],[-68.8263149829554,-21.0042554078254],[-68.8259328778468,-21.0040982684161],[-68.8258404299592,-21.0040744128646],[-68.8256445674212,-21.0041096540202],[-68.8256057027525,-21.0042321848075],[-68.8256566885802,-21.0043805591088],[-68.8257736673848,-21.004452667935],[-68.8260444694696,-21.0045745661887],[-68.8261587546834,-21.0046250785117],[-68.8262903558386,-21.0046380906307]]]}},{"type":"Feature","id":"623520976","properties":{"name":"ZD_STK_DIN_22-AutoClean-1","oid":"623520976","speedLimit":5},"geometry":{"type":"Polygon","coordinates":[[[-68.824144141092,-21.00522616612],[-68.8242010912995,-21.0052072804751],[-68.8244144621784,-21.0051313764476],[-68.82440214862,-21.0050128215856],[-68.8243136449191,-21.0048774594032],[-68.8238912321467,-21.0045506202752],[-68.8237252877076,-21.0045154694815],[-68.8236026331221,-21.004548090141],[-68.8235901271643,-21.0047550189779],[-68.8235999395312,-21.0048191759535],[-68.824144141092,-21.00522616612]]]}}]}