{"type":"FeatureCollection","features":[{"type":"Feature","id":"570805601","properties":{"name":"ZD_STK_MAR_02-AutoClean-1-tmp-1","oid":"570805601","speedLimit":5},"geometry":{"type":"Polygon","coordinates":[[[-68.8065058462264,-20.9867046883219],[-68.8068579693702,-20.9866990848939],[-68.8068622975706,-20.9864279512811],[-68.8062836652752,-20.9862060736079],[-68.8060013704304,-20.9862621078879],[-68.8060094497377,-20.9863767974061],[-68.8060384005889,-20.9864997113106],[-68.8060610034129,-20.986527457317],[-68.8061464132331,-20.9866153949854],[-68.8062240322927,-20.986646484973],[-68.8063395471508,-20.9866806478082],[-68.8063872535369,-20.9866897759732],[-68.8065058462264,-20.9867046883219]]]}},{"type":"Feature","id":"558966402","properties":{"name":"ZD_STK_BL_02-AutoClean-1","oid":"558966402","speedLimit":5},"geometry":{"type":"Polygon","coordinates":[[[-68.8233378326482,-20.9923443578465],[-68.8235302932903,-20.9921422729271],[-68.823268292896,-20.9918873169531],[-68.8231543169535,-20.9917786827523],[-68.8230888168549,-20.9917203890255],[-68.8229882102424,-20.9916470021943],[-68.8229580090222,-20.9916299207767],[-68.8228456681776,-20.9915743383861],[-68.822726209848,-20.9915334875884],[-68.8226054049672,-20.9917797672867],[-68.823211833927,-20.992247382391],[-68.8233378326482,-20.9923443578465]]]}},{"type":"Feature","id":"553508825","properties":{"name":"ZD_STK_HG_02-AutoClean-1","oid":"553508825","speedLimit":5},"geometry":{"type":"Polygon","coordinates":[[[-68.8157267404286,-21.0200494230498],[-68.8159955697613,-21.0199509111705],[-68.8158657237508,-21.0189964304755],[-68.8155891998398,-21.0189188862622],[-68.8155453407429,-21.0190273397073],[-68.8155141777004,-21.0191376007099],[-68.8154871504938,-21.0192529228732],[-68.8154835917513,-21.0194072882768],[-68.8154888817739,-21.0196069329937],[-68.8154954221656,-21.0196407343174],[-68.8155310095906,-21.0197555142135],[-68.8155919891244,-21.0198601717881],[-68.8157267404286,-21.0200494230498]]]}},{"type":"Feature","id":"553267213","properties":{"name":"ZD_BOT_PAD59_02-AutoClean-1","oid":"553267213","speedLimit":5},"geometry":{"type":"Polygon","coordinates":[[[-68.8183524191237,-20.9849453023083],[-68.8186254804745,-20.9848576357735],[-68.8182966334304,-20.9848422715354],[-68.8183524191237,-20.9849453023083]]]}},{"type":"Feature","id":"607546676","properties":{"name":"ZD_STK_HG_01-AutoClean-1","oid":"607546676","speedLimit":5},"geometry":{"type":"Polygon","coordinates":[[[-68.8168103294311,-21.0205958476575],[-68.817091373907,-21.0205347522168],[-68.8173091304756,-21.0203998180554],[-68.8171827470254,-21.0201560689375],[-68.8158418705578,-21.0198711075104],[-68.8156208437934,-21.0200453560456],[-68.8156867286209,-21.0201348301378],[-68.8157630973115,-21.0202167124889],[-68.8158062831327,-21.020253044393],[-68.8158954440599,-21.0203220930864],[-68.8160451997919,-21.0204075001745],[-68.8160967534672,-21.0204292812414],[-68.8163646209775,-21.020529691056],[-68.8164749419953,-21.0205660229601],[-68.8165904568534,-21.0205922325427],[-68.8168103294311,-21.0205958476575]]]}},{"type":"Feature","id":"605133231","properties":{"name":"LIMP_903.","oid":"605133231","speedLimit":2.7777777},"geometry":{"type":"Polygon","coordinates":[[[-68.8161160860954,-21.0015953463381],[-68.8158074373195,-21.0014934904776],[-68.8157255862418,-21.0016356548686],[-68.8157010597732,-21.0021179111879],[-68.8165290925907,-21.0021255933069],[-68.8165945926893,-21.0018143319194],[-68.8161160860954,-21.0015953463381]]]}},{"type":"Feature","id":"602013008","properties":{"name":"ZD_STK_3C_01-AutoClean-1","oid":"602013008","speedLimit":5},"geometry":{"type":"Polygon","coordinates":[[[-68.8048608415477,-20.9854522317864],[-68.8051254388623,-20.9853441398528],[-68.8048495882268,-20.9848853817799],[-68.8047546563659,-20.9850908106805],[-68.8047415755826,-20.9852505987563],[-68.8047858194084,-20.9853603174916],[-68.8048608415477,-20.9854522317864]]]}},{"type":"Feature","id":"592941111","properties":{"name":"INFO_ESTACION CAMINO 9","oid":"592941111","speedLimit":5.5555553},"geometry":{"type":"Polygon","coordinates":[[[-68.8219772388235,-21.0107290243533],[-68.8222563596548,-21.0106303317182],[-68.821833542572,-21.0097468880298],[-68.8212847267679,-21.0090452846177],[-68.8208546960178,-21.0093297941554],[-68.8218661483479,-21.010767706082],[-68.8219772388235,-21.0107290243533]]]}},{"type":"Feature","id":"621174471","properties":{"name":"ZD_STK_MAR_01-AutoClean-1","oid":"621174471","speedLimit":5},"geometry":{"type":"Polygon","coordinates":[[[-68.806734471387,-20.9870969282818],[-68.8068613357483,-20.9870663805614],[-68.8069828139047,-20.9870354713295],[-68.8069307793183,-20.9867688566103],[-68.8062518289571,-20.9863282644894],[-68.8059632822673,-20.9863274510886],[-68.8059467389238,-20.9864462979889],[-68.8059625128095,-20.9865985847014],[-68.8059786714241,-20.9866833591444],[-68.8060210877875,-20.9868028386897],[-68.8060364769443,-20.9868255235353],[-68.8061264073293,-20.9869161725399],[-68.8063679209087,-20.9870137806405],[-68.8065733661518,-20.9870822870667],[-68.806734471387,-20.9870969282818]]]}},{"type":"Feature","id":"625872519","properties":{"name":"VEL_15_4_ESQ","oid":"625872519","speedLimit":8.333333},"geometry":{"type":"Polygon","coordinates":[[[-68.8228150822285,-21.0050166006426],[-68.8223762027133,-21.0050687486741],[-68.8224528599506,-21.0048948616504],[-68.8226247375954,-21.0046687362173],[-68.8228176791487,-21.0045420264423],[-68.8230134099866,-21.0044277888134],[-68.823214334665,-21.004683648566],[-68.8228150822285,-21.0050166006426]]]}},{"type":"Feature","id":"626734706","properties":{"name":"ZD_STK_MAR_02-AutoClean-1","oid":"626734706","speedLimit":5},"geometry":{"type":"Polygon","coordinates":[[[-68.806778811395,-20.9870932227891],[-68.8068944224354,-20.9870822870667],[-68.8071218934092,-20.9870572523964],[-68.807236831174,-20.9870440572273],[-68.8073541734945,-20.9870303197909],[-68.8075151825474,-20.9869724779535],[-68.8075728918854,-20.9869466298824],[-68.8076641688216,-20.9868769485439],[-68.8077049500871,-20.9868426953308],[-68.8077716043724,-20.9867499676352],[-68.8078016132282,-20.9867008924513],[-68.8078798093811,-20.9865561974799],[-68.8079158777173,-20.9864519917947],[-68.8076508956738,-20.9863446228841],[-68.8067406270497,-20.9868244390009],[-68.806778811395,-20.9870932227891]]]}},{"type":"Feature","id":"627372043","properties":{"name":"INFO_RED_VEL_15KPH","oid":"627372043","speedLimit":4.1666665},"geometry":{"type":"Polygon","coordinates":[[[-68.8087331381251,-21.0023454826669],[-68.8088445171474,-21.002290081032],[-68.8092965736281,-21.0026553883864],[-68.8091371996731,-21.0027148570255],[-68.8088729870875,-21.0024973174901],[-68.8087331381251,-21.0023454826669]]]}},{"type":"Feature","id":"627775409","properties":{"name":"VEL_10KM_ZIG_ZAG","oid":"627775409","speedLimit":2.7777777},"geometry":{"type":"Polygon","coordinates":[[[-68.8111734736632,-20.9996462571734],[-68.8110595939029,-20.99967526847],[-68.8110238141134,-20.9995545236344],[-68.8108839651511,-20.9994689357906],[-68.8106593796442,-20.9994429069638],[-68.8106610147421,-20.999323698552],[-68.8108790598574,-20.999340508836],[-68.8110547847914,-20.9994276331036],[-68.8110564198894,-20.9994276331036],[-68.8111734736632,-20.9996462571734]]]}},{"type":"Feature","id":"629873883","properties":{"name":"ZD_BOT_NRT_03-AutoClean-1","oid":"629873883","speedLimit":5},"geometry":{"type":"Polygon","coordinates":[[[-68.792319736768,-20.9921089234927],[-68.7924928647819,-20.9918921069803],[-68.792319736768,-20.9921089234927]]]}},{"type":"Feature","id":"628617966","properties":{"name":"info_red_vel_15_kph_906","oid":"628617966","speedLimit":4.1666665},"geometry":{"type":"Polygon","coordinates":[[[-68.8254876016696,-21.0039328795921],[-68.8253369802975,-21.0038284931512],[-68.8254628828365,-21.0036219797161],[-68.8254579775428,-21.0034224253771],[-68.8256011928832,-21.0034339937445],[-68.8254876016696,-21.0039328795921]]]}},{"type":"Feature","id":"628576537","properties":{"name":"INFO_RED_VEL_20KPH","oid":"628576537","speedLimit":5.5555553},"geometry":{"type":"Polygon","coordinates":[[[-68.8087085154743,-20.9994554694879],[-68.808539427114,-20.999336351454],[-68.8083632212688,-20.999869219381],[-68.8085288470687,-20.9999388103416],[-68.8087085154743,-20.9994554694879]]]}},{"type":"Feature","id":"628602625","properties":{"name":"INFO_RED_VEL_15_KPH_901","oid":"628602625","speedLimit":4.1666665},"geometry":{"type":"Polygon","coordinates":[[[-68.8141132835213,-21.0018903397089],[-68.8154802253732,-21.0016089030188],[-68.8158916929529,-21.001555489697],[-68.815728183162,-21.0019421262289],[-68.8148920710372,-21.0021864176141],[-68.8134528001483,-21.002388141022],[-68.8141132835213,-21.0018903397089]]]}},{"type":"Feature","id":"629237286","properties":{"name":"REDU_VELO_15","oid":"629237286","speedLimit":9.722222},"geometry":{"type":"Polygon","coordinates":[[[-68.8122823585922,-20.9969276908155],[-68.8122702396312,-20.9971215513487],[-68.8118837794313,-20.997297065174],[-68.8108472235392,-20.9972146405558],[-68.8106073450578,-20.9971300468686],[-68.8089815768251,-20.9974244075942],[-68.8091570132125,-20.9970497913192],[-68.8109988067336,-20.9967736869234],[-68.8121276013842,-20.9968848517047],[-68.8121306792156,-20.9968877437966],[-68.8122823585922,-20.9969276908155]]]}},{"type":"Feature","id":"630768411","properties":{"name":"REDU_VELO_15KM_902","oid":"630768411","speedLimit":9.722222},"geometry":{"type":"Polygon","coordinates":[[[-68.8114309534927,-20.9979148882998],[-68.8116153348275,-20.9973371929487],[-68.8103724680522,-20.9973124294121],[-68.8098454856144,-20.9974617336549],[-68.8101089287422,-20.9980846179414],[-68.8114309534927,-20.9979148882998]]]}},{"type":"Feature","id":"630795558","properties":{"name":"INFO_RED_VEL_15","oid":"630795558","speedLimit":4.1666665},"geometry":{"type":"Polygon","coordinates":[[[-68.8107989400598,-20.9997219034514],[-68.8107071822124,-20.9998080335624],[-68.8099161795534,-21.0000953448141],[-68.8098741479189,-20.9999229942142],[-68.8103632345582,-20.9997075333699],[-68.8106155205473,-20.9996464379292],[-68.8107263224762,-20.9996644231255],[-68.8107873981922,-20.9996931632884],[-68.8107989400598,-20.9997219034514]]]}},{"type":"Feature","id":"630010528","properties":{"name":"VEL_15_KMPH","oid":"630010528","speedLimit":4.1666665},"geometry":{"type":"Polygon","coordinates":[[[-68.8100407355412,-20.9990599759246],[-68.8099297412478,-20.9988812988738],[-68.8092127027236,-20.9993838902141],[-68.8090779514195,-20.9999088048885],[-68.8092641602166,-21.000210305466],[-68.8093064803978,-21.0002318153992],[-68.8094861488034,-21.0000066841227],[-68.8093355274313,-20.9998938925398],[-68.8094067984636,-20.9995327425675],[-68.8095098096319,-20.9993950066922],[-68.8099495547872,-20.9991121239562],[-68.8100407355412,-20.9990599759246]]]}},{"type":"Feature","id":"630216104","properties":{"name":"REDU_VELO_15_904","oid":"630216104","speedLimit":4.1666665},"geometry":{"type":"Polygon","coordinates":[[[-68.8136587263026,-21.0161319942339],[-68.8137744335252,-21.0166791418646],[-68.8140710595224,-21.0171482030147],[-68.8143422934108,-21.0176647125472],[-68.8142120626715,-21.0176919162863],[-68.8138105980437,-21.0172671402929],[-68.8135611013392,-21.0167403276832],[-68.8134345255246,-21.0163053389903],[-68.8136587263026,-21.0161319942339]]]}},{"type":"Feature","id":"630611948","properties":{"name":"TR_60","oid":"630611948","speedLimit":2.7777777},"geometry":{"type":"Polygon","coordinates":[[[-68.8265862912822,-21.0003143303954],[-68.826584944731,-21.0006329123905],[-68.8262945705788,-21.0006403233759],[-68.8262182980705,-21.0004637250161],[-68.8263537226502,-21.0002291040631],[-68.8265862912822,-21.0003143303954]]]}},{"type":"Feature","id":"631033311","properties":{"name":"INFO_SL","oid":"631033311","speedLimit":4.1666665},"geometry":{"type":"Polygon","coordinates":[[[-68.8159708509282,-21.0040344643191],[-68.8158171517247,-21.0045843232859],[-68.8185173716481,-21.0056078526743],[-68.8187976466661,-21.0050266325863],[-68.8184980390199,-21.0047632714703],[-68.8176572139657,-21.0043184315896],[-68.8167777236551,-21.0041186061169],[-68.8159708509282,-21.0040344643191]]]}},{"type":"Feature","id":"631627204","properties":{"name":"INFO_RED_VEL_15KPH_RPACONECCION","oid":"631627204","speedLimit":5.5555553},"geometry":{"type":"Polygon","coordinates":[[[-68.8140850059457,-21.0027943895519],[-68.8140522078053,-21.0026964199398],[-68.8143859601432,-21.0026359571441],[-68.8144421305655,-21.002761401629],[-68.8140850059457,-21.0027943895519]]]}},{"type":"Feature","id":"631678552","properties":{"name":"New Zone3205","oid":"631678552","speedLimit":4.1666665},"geometry":{"type":"Polygon","coordinates":[[[-68.8101589435018,-21.0026603591693],[-68.8101138340359,-21.002603873],[-68.8099257977764,-21.0027151281591],[-68.80990136749,-21.0027946606855],[-68.8098637602381,-21.0029342041182],[-68.8098637602381,-21.0030949863506],[-68.8099182955625,-21.0031798511715],[-68.8099878353147,-21.0032292878669],[-68.8100348684252,-21.0031763264345],[-68.8099634050283,-21.0030190689391],[-68.8099614813837,-21.0028865749803],[-68.810019767815,-21.0027398916957],[-68.8101006570704,-21.0026921721799],[-68.8101589435018,-21.0026603591693]]]}}]}