{"type":"FeatureCollection","features":[{"type":"Feature","id":"553508825","properties":{"name":"ZD_STK_HG_02-AutoClean-1","oid":"553508825","speedLimit":5},"geometry":{"type":"Polygon","coordinates":[[[-68.8157266959655,-21.0200482089426],[-68.8159955260343,-21.0199496630681],[-68.8158656796683,-21.0189948529942],[-68.8155891550001,-21.0189172820214],[-68.8155452957831,-21.0190257728924],[-68.8155141326553,-21.0191360719446],[-68.8154871053746,-21.0192514339041],[-68.8154835466224,-21.0194058525772],[-68.8154888366595,-21.0196055661889],[-68.8154953770691,-21.019639379177],[-68.8155309645916,-21.0197541986822],[-68.8155919442924,-21.0198588923727],[-68.8157266959655,-21.0200482089426]]]}},{"type":"Feature","id":"558966402","properties":{"name":"ZD_STK_BL_02-AutoClean-1","oid":"558966402","speedLimit":5},"geometry":{"type":"Polygon","coordinates":[[[-68.8233378090263,-20.992333583079],[-68.8235302701954,-20.9921314284227],[-68.8232682690836,-20.9918763844668],[-68.823154292829,-20.9917677127777],[-68.8230887925511,-20.9917093989345],[-68.8229881856631,-20.9916359867784],[-68.8229579843602,-20.9916188994663],[-68.822845643208,-20.9915632978949],[-68.8227261845513,-20.9915224330001],[-68.8226053793397,-20.9917687976864],[-68.82321180996,-20.9922365741586],[-68.8233378090263,-20.992333583079]]]}},{"type":"Feature","id":"592941111","properties":{"name":"INFO_ESTACION","oid":"592941111","speedLimit":5.5555553},"geometry":{"type":"Polygon","coordinates":[[[-68.8219772114759,-21.0107245938969],[-68.8222563330715,-21.0106258672043],[-68.8218335148309,-21.0097421186508],[-68.821284697524,-21.0090402731244],[-68.8208546655964,-21.0093248808427],[-68.8218661206961,-21.0107632889742],[-68.8219772114759,-21.0107245938969]]]}},{"type":"Feature","id":"607546676","properties":{"name":"ZD_STK_HG_01-AutoClean-1","oid":"607546676","speedLimit":5},"geometry":{"type":"Polygon","coordinates":[[[-68.8168102879352,-21.0205948221144],[-68.8170913331806,-21.0205337055904],[-68.8173090903455,-21.0203987248651],[-68.8171827065493,-21.0201548916325],[-68.81584182641,-21.0198698318689],[-68.8156207990404,-21.020044140535],[-68.8156866840483,-21.0201336455036],[-68.815763052948,-21.0202155561112],[-68.8158062388875,-21.020251900553],[-68.8158954000588,-21.0203209730742],[-68.8160451562009,-21.0204064096351],[-68.8160967100173,-21.0204281982184],[-68.8163645782611,-21.0205286426831],[-68.816474899581,-21.0205649871249],[-68.8165904147554,-21.0205912057521],[-68.8168102879352,-21.0205948221144]]]}},{"type":"Feature","id":"619770241","properties":{"name":"VEL_10_KMH_02","oid":"619770241","speedLimit":2.7777777},"geometry":{"type":"Polygon","coordinates":[[[-68.8105583296874,-20.9969770827675],[-68.8103002720578,-20.9972196502732],[-68.8099571891042,-20.9971865605576],[-68.8095876559649,-20.9972609672133],[-68.8095730362259,-20.9969578256378],[-68.8105583296874,-20.9969770827675]]]}},{"type":"Feature","id":"620034757","properties":{"name":"VEL_10_KMH_03","oid":"620034757","speedLimit":2.7777777},"geometry":{"type":"Polygon","coordinates":[[[-68.8141384344534,-21.0025021611919],[-68.814195663037,-21.0028462580711],[-68.8147077386314,-21.0027948153164],[-68.8148733648848,-21.0027862264558],[-68.8150754443033,-21.0024434857125],[-68.8152957983955,-21.0022849082227],[-68.8154493056548,-21.0022249670165],[-68.8154158341471,-21.0020449625796],[-68.8153413888973,-21.0018307835184],[-68.815080061063,-21.0018793331832],[-68.81490635548,-21.002068468935],[-68.8146968700096,-21.002305250261],[-68.8145921272744,-21.0024194369027],[-68.8141752723484,-21.0024927586497],[-68.8141384344534,-21.0025021611919]]]}},{"type":"Feature","id":"620970737","properties":{"name":"ZD_BOT_NRT_02-AutoClean-1","oid":"620970737","speedLimit":5},"geometry":{"type":"Polygon","coordinates":[[[-68.7937034057418,-20.9903732434489],[-68.7937902585333,-20.9901145831306],[-68.7936826303233,-20.9900743510993]]]}},{"type":"Feature","id":"622898566","properties":{"name":"INFO_RED_VEL_20KPH_902","oid":"622898566","speedLimit":3.6111112},"geometry":{"type":"Polygon","coordinates":[[[-68.8075766723947,-21.0003333382713],[-68.8075995638281,-21.00001057793],[-68.8076807418524,-20.9999969261621],[-68.8078388658715,-21.0005680401889],[-68.8079512070236,-21.0008163938745],[-68.8078013546991,-21.0008848335323],[-68.8075766723947,-21.0003333382713]]]}},{"type":"Feature","id":"623314189","properties":{"name":"ZD_STK_DIN_13-AutoClean-1","oid":"623314189","speedLimit":5},"geometry":{"type":"Polygon","coordinates":[[[-68.8260101434205,-21.0046690855222],[-68.826175000214,-21.0044464080095],[-68.8258533659564,-21.0041708411971],[-68.8257302523649,-21.0041734630598],[-68.8255827084202,-21.0042648666187],[-68.8255759756457,-21.0044026500249],[-68.8256827382132,-21.0045192777112],[-68.8260101434205,-21.0046690855222]]]}},{"type":"Feature","id":"623520976","properties":{"name":"ZD_STK_DIN_22-AutoClean-1","oid":"623520976","speedLimit":5},"geometry":{"type":"Polygon","coordinates":[[[-68.8240754325675,-21.004911653028],[-68.8243123300485,-21.0047568727187],[-68.8242599105897,-21.0046572419355],[-68.82414766562,-21.0045341047969],[-68.8241064995128,-21.0044992973091],[-68.8240107017495,-21.0044358301496],[-68.8239591479331,-21.0044078937503],[-68.8238425747512,-21.0043897215294],[-68.8237246550144,-21.0044000281621],[-68.823686566747,-21.0046688142951],[-68.8240754325675,-21.004911653028]]]}},{"type":"Feature","id":"623816501","properties":{"name":"ZD_STK_DIN_21-AutoClean-1","oid":"623816501","speedLimit":5},"geometry":{"type":"Polygon","coordinates":[[[-68.8242470221356,-21.0051649792118],[-68.824527682651,-21.0051021449157],[-68.8245185453142,-21.0050025141325],[-68.8244975775306,-21.0048976396239],[-68.8244540068612,-21.0047901432525],[-68.8244215933609,-21.0047470181313],[-68.8243363756718,-21.0046727018846],[-68.8242274009069,-21.0046223440387],[-68.8240487900168,-21.0048353477821],[-68.8242470221356,-21.0051649792118]]]}},{"type":"Feature","id":"623885777","properties":{"name":"VELO_REDUC_15KM_901","oid":"623885777","speedLimit":4.1666665},"geometry":{"type":"Polygon","coordinates":[[[-68.8075906188562,-20.9991330676016],[-68.807723927792,-20.9991298128755],[-68.8077038256508,-20.999439102267],[-68.8077042103808,-20.9997288633016],[-68.8077193110323,-20.9998534469852],[-68.8075043431597,-20.9998314775838],[-68.8075906188562,-20.9991330676016]]]}},{"type":"Feature","id":"624057522","properties":{"name":"VEL_10KPH","oid":"624057522","speedLimit":2.7777777},"geometry":{"type":"Polygon","coordinates":[[[-68.8103168154467,-21.0009159342486],[-68.8107252063133,-21.0014330740671],[-68.8106435473764,-21.0015957199646],[-68.8104537793171,-21.001451155879],[-68.810239869452,-21.0011666385697],[-68.8101630196399,-21.0009724399106],[-68.8103168154467,-21.0009159342486]]]}},{"type":"Feature","id":"624293930","properties":{"name":"ZD_STK_DIN_12-AutoClean-1","oid":"624293930","speedLimit":5},"geometry":{"type":"Polygon","coordinates":[[[-68.8263472630595,-21.0047433113598],[-68.826427286894,-21.0044826620422],[-68.8258598101834,-21.0041837696926],[-68.8255886717348,-21.0042766197964],[-68.8255898259247,-21.0043966830269],[-68.8256550376552,-21.0044917933572],[-68.8256873549729,-21.0045313925251],[-68.825786230576,-21.004595402139],[-68.8260077388581,-21.0046761374289],[-68.8261215227477,-21.0046995533752],[-68.8263472630595,-21.0047433113598]]]}}]}