{"type":"FeatureCollection","features":[{"type":"Feature","id":"553508825","properties":{"name":"ZD_STK_HG_02-AutoClean-1","oid":"553508825","speedLimit":5},"geometry":{"type":"Polygon","coordinates":[[[-68.8157262731668,-21.0200482535489],[-68.815995108012,-21.0199497081217],[-68.815865259339,-21.0189949023816],[-68.8155887297577,-21.0189173317609],[-68.8155448697615,-21.0190258221395],[-68.81551370608,-21.019136120691],[-68.8154866783191,-21.0192514821269],[-68.8154831195036,-21.0194059000991],[-68.8154884096348,-21.0196056128043],[-68.8154949501605,-21.019639425639],[-68.8155305383154,-21.0197542446229],[-68.8155915190995,-21.0198589378383],[-68.8157262731668,-21.0200482535489]]]}},{"type":"Feature","id":"558966402","properties":{"name":"ZD_STK_BL_02-AutoClean-1","oid":"558966402","speedLimit":5},"geometry":{"type":"Polygon","coordinates":[[[-68.8233375214564,-20.992333753483],[-68.8235299860451,-20.9921315997443],[-68.8232679802783,-20.991876556946],[-68.8231540019986,-20.9917678857501],[-68.8230885005569,-20.9917095721716],[-68.8229878918814,-20.9916361603488],[-68.8229576900419,-20.9916190731142],[-68.8228453468937,-20.9915634717952],[-68.8227258861146,-20.9915226070859],[-68.8226050787566,-20.9917689706539],[-68.8232115201516,-20.9922367450028],[-68.8233375214564,-20.992333753483]]]}},{"type":"Feature","id":"592941111","properties":{"name":"INFO_ESTACION","oid":"592941111","speedLimit":5.5555553},"geometry":{"type":"Polygon","coordinates":[[[-68.8219768997319,-21.0107246808233],[-68.8222560262868,-21.0106259545788],[-68.8218332005338,-21.0097422100367],[-68.821284373476,-21.0090403676961],[-68.8208543339079,-21.0093249741225],[-68.8218658069784,-21.010763375725],[-68.8219768997319,-21.0107246808233]]]}},{"type":"Feature","id":"607546676","properties":{"name":"ZD_STK_HG_01-AutoClean-1","oid":"607546676","speedLimit":5},"geometry":{"type":"Polygon","coordinates":[[[-68.816809884389,-21.0205948642395],[-68.8170909346279,-21.020533747993],[-68.8173086956617,-21.0203987678803],[-68.81718230962,-21.0201549357544],[-68.8158414056569,-21.0198698772848],[-68.8156203743602,-21.0200441851597],[-68.8156862605387,-21.020133689722],[-68.8157626307953,-21.0202155999578],[-68.8158058175021,-21.0202519442346],[-68.8158949802575,-21.0203210164423],[-68.8160447390604,-21.0204064526154],[-68.8160962937928,-21.0204282410998],[-68.8163641667959,-21.0205286851086],[-68.8164744900759,-21.0205650293854],[-68.8165900073027,-21.0205912478936],[-68.816809884389,-21.0205948642395]]]}},{"type":"Feature","id":"619770241","properties":{"name":"VEL_10_KMH_02","oid":"619770241","speedLimit":2.7777777},"geometry":{"type":"Polygon","coordinates":[[[-68.8105578150609,-20.9969772320944],[-68.8102997528463,-20.9972197984991],[-68.809956663797,-20.9971867089337],[-68.8095871240921,-20.9972611152516],[-68.8095725040934,-20.9969579750522],[-68.8105578150609,-20.9969772320944]]]}},{"type":"Feature","id":"620970737","properties":{"name":"ZD_BOT_NRT_02-AutoClean-1","oid":"620970737","speedLimit":5},"geometry":{"type":"Polygon","coordinates":[[[-68.793702591649,-20.9903734227509],[-68.7937894459836,-20.9901147636067],[-68.7936818158614,-20.990074531758],[-68.7932975599735,-20.9899626962594],[-68.7932388876102,-20.9899536553945]]]}},{"type":"Feature","id":"621174471","properties":{"name":"ZD_STK_MAR_01-AutoClean-1","oid":"621174471","speedLimit":5},"geometry":{"type":"Polygon","coordinates":[[[-68.806916281165,-20.9870253192596],[-68.806916281165,-20.9870253192596]]]}},{"type":"Feature","id":"621174472","properties":{"name":"ZD_STK_MAR_01-AutoClean-2","oid":"621174472","speedLimit":5},"geometry":{"type":"Polygon","coordinates":[[[-68.8066068565865,-20.9870520802197],[-68.8069553319511,-20.9870496391862],[-68.8063765916064,-20.9870145606304],[-68.8066068565865,-20.9870520802197]]]}},{"type":"Feature","id":"622898566","properties":{"name":"INFO_RED_VEL_20KPH_902","oid":"622898566","speedLimit":3.6111112},"geometry":{"type":"Polygon","coordinates":[[[-68.8075761047922,-21.000333472364],[-68.8075989966324,-21.0000107134878],[-68.807680176099,-20.9999970617818],[-68.8078383029275,-21.0005681732164],[-68.8079506460756,-21.0008165257746],[-68.8078007910886,-21.0008849651218],[-68.8075761047922,-21.000333472364]]]}},{"type":"Feature","id":"623520976","properties":{"name":"ZD_STK_DIN_22-AutoClean-1","oid":"623520976","speedLimit":5},"geometry":{"type":"Polygon","coordinates":[[[-68.8241970234874,-21.0047795888951],[-68.8244009339961,-21.0045876513337],[-68.8242510790091,-21.0044176830739],[-68.8240334141595,-21.0042791770239],[-68.8238756720678,-21.0042870425764],[-68.8237692923402,-21.0043882098544],[-68.8238001674691,-21.0045488660233],[-68.8238851943038,-21.0046365624127],[-68.8241970234874,-21.0047795888951]]]}},{"type":"Feature","id":"623816501","properties":{"name":"ZD_STK_DIN_21-AutoClean-1","oid":"623816501","speedLimit":5},"geometry":{"type":"Polygon","coordinates":[[[-68.8243074429516,-21.0050217032566],[-68.8245915710849,-21.0049745099419],[-68.8245989772685,-21.0048580636022],[-68.8245413629314,-21.0047074427933],[-68.8243760222878,-21.0045421757833],[-68.8242790686119,-21.0044790705464],[-68.8240847765235,-21.0046795969295],[-68.8243074429516,-21.0050217032566]]]}},{"type":"Feature","id":"623885777","properties":{"name":"VELO_REDUC_15KM_901","oid":"623885777","speedLimit":4.1666665},"geometry":{"type":"Polygon","coordinates":[[[-68.8075900515016,-20.9991332071425],[-68.8077233628058,-20.9991299524311],[-68.8077032603076,-20.9994392404187],[-68.8077036450444,-20.9997290001381],[-68.8077187459641,-20.9998535832562],[-68.8075037742722,-20.9998316139545],[-68.8075900515016,-20.9991332071425]]]}},{"type":"Feature","id":"624057522","properties":{"name":"VEL_10KPH","oid":"624057522","speedLimit":2.7777777},"geometry":{"type":"Polygon","coordinates":[[[-68.8103162965291,-21.000916065697],[-68.8107246946517,-21.0014332031681],[-68.810643034264,-21.0015958483273],[-68.810453262833,-21.0014512848979],[-68.8102393491673,-21.0011667688801],[-68.8101624979898,-21.0009725711025],[-68.8103162965291,-21.000916065697]]]}},{"type":"Feature","id":"624400171","properties":{"name":"VEL_15KPH","oid":"624400171","speedLimit":4.1666665},"geometry":{"type":"Polygon","coordinates":[[[-68.8092489404371,-21.0025718096912],[-68.809120438343,-21.0027361726147],[-68.8095039247572,-21.0029876894757],[-68.8096177106684,-21.0028352604938],[-68.8092489404371,-21.0025718096912]]]}},{"type":"Feature","id":"624681300","properties":{"name":"ZD_STK_DIN_13-AutoClean-1","oid":"624681300","speedLimit":5},"geometry":{"type":"Polygon","coordinates":[[[-68.8258860180783,-21.0051044271702],[-68.8259981688581,-21.0048545376649],[-68.8256318032319,-21.0046597974354],[-68.8254419356167,-21.0048640305731],[-68.8255124386369,-21.0049604061927],[-68.8256591195453,-21.0050424972458],[-68.8258860180783,-21.0051044271702]]]}},{"type":"Feature","id":"624692864","properties":{"name":"New Zone1105","oid":"624692864","speedLimit":2.7777777},"geometry":{"type":"Polygon","coordinates":[[[-68.8240751581032,-21.0150399760395],[-68.8227920608457,-21.014656281734],[-68.819875948203,-21.0195900625167],[-68.8180387337565,-21.0223311623399],[-68.8152975801776,-21.0232357008712],[-68.8143061134212,-21.0230437633098],[-68.8137812362297,-21.0225777971338],[-68.8143061134212,-21.0215910771407],[-68.815239292551,-21.0193982153639],[-68.8160558002436,-21.0179454387863],[-68.816843164123,-21.0171231721254],[-68.8170764108133,-21.0163008150558],[-68.816376574558,-21.0156430017271],[-68.8159391288064,-21.0158623331091],[-68.8152101487378,-21.0170957783048],[-68.8134020781046,-21.0198641815399],[-68.8123523237216,-21.0224956156721],[-68.8188844814466,-21.023427548024],[-68.8207798873354,-21.0210428390944],[-68.822908732283,-21.0169861126138],[-68.8233460818504,-21.0158074550593],[-68.8240751581032,-21.0150399760395]]]}},{"type":"Feature","id":"624708321","properties":{"name":"ZD_STK_DIN_12-AutoClean-1","oid":"624708321","speedLimit":5},"geometry":{"type":"Polygon","coordinates":[[[-68.8264596606603,-21.0051998987034],[-68.8264736073696,-21.0049290343916],[-68.8259200672859,-21.0048452255741],[-68.8258229212417,-21.005100630007],[-68.825932475048,-21.005154694379],[-68.8260510701693,-21.0051820881996],[-68.8260945454287,-21.0051919427423],[-68.8262171802866,-21.0051982713477],[-68.8264596606603,-21.0051998987034]]]}}]}