{"type":"FeatureCollection","features":[{"type":"Feature","id":"553508825","properties":{"name":"ZD_STK_HG_02-AutoClean-1","oid":"553508825","speedLimit":5},"geometry":{"type":"Polygon","coordinates":[[[-68.8163762747887,-21.0204826379287],[-68.8164609986206,-21.0202233588937],[-68.8158862998472,-21.0197064280981],[-68.8156080864015,-21.0197782993787],[-68.8156431876485,-21.0200154294026],[-68.8157225260836,-21.0201487754893],[-68.8157894588725,-21.0202097078706],[-68.8159840063321,-21.0203619484197],[-68.8161276810255,-21.0204321924261],[-68.8163762747887,-21.0204826379287]]]}},{"type":"Feature","id":"558966402","properties":{"name":"ZD_STK_BL_02-AutoClean-1","oid":"558966402","speedLimit":5},"geometry":{"type":"Polygon","coordinates":[[[-68.8233399775299,-20.992335222721],[-68.8235324092979,-20.992133079094],[-68.8232704482104,-20.991878049053],[-68.8231564893673,-20.9917693832929],[-68.8230909990954,-20.9917110726313],[-68.8229904075765,-20.9916376644805],[-68.8229602108873,-20.9916205781006],[-68.8228478868968,-20.9915649795628],[-68.822728446489,-20.9915241168975],[-68.8226076597321,-20.9917704681424],[-68.8232139977118,-20.9922382190932],[-68.8233399775299,-20.992335222721]]]}},{"type":"Feature","id":"592941111","properties":{"name":"INFO_ESTACION","oid":"592941111","speedLimit":5.5555553},"geometry":{"type":"Polygon","coordinates":[[[-68.8203829138445,-21.0085275962328],[-68.8205751532769,-21.0083528450561],[-68.8202354886069,-21.0080395043535],[-68.8198892845265,-21.0076900020002],[-68.8195111527365,-21.0078406152751],[-68.8202930931192,-21.008599919534],[-68.8203829138445,-21.0085275962328]]]}},{"type":"Feature","id":"600880362","properties":{"name":"VEL_15_KPH_RC_002","oid":"600880362","speedLimit":4.1666665},"geometry":{"type":"Polygon","coordinates":[[[-68.810556391862,-21.0009271405049],[-68.810871052904,-21.0010258618111],[-68.8107951765097,-21.0012845984213],[-68.8107856558975,-21.0014243632009],[-68.8108373941739,-21.0015313112827],[-68.8109976097289,-21.0015541835267],[-68.8111236857148,-21.001560150199],[-68.8112182186624,-21.0015897123484],[-68.8112056206805,-21.0017556039206],[-68.8110324224725,-21.0019327960087],[-68.8103238581214,-21.0017424953223],[-68.8102574061715,-21.0013261843195],[-68.810380789459,-21.0008385444609],[-68.810556391862,-21.0009271405049]]]}},{"type":"Feature","id":"604050980","properties":{"name":"VEL_10_KPH_901_002","oid":"604050980","speedLimit":2.7777777},"geometry":{"type":"Polygon","coordinates":[[[-68.8165662061939,-21.0014635081877],[-68.8166550652412,-21.0016356376447],[-68.8167084383703,-21.0018293736879],[-68.8164803283484,-21.0018600206868],[-68.8161752840865,-21.0019947228354],[-68.816033148078,-21.0020498693526],[-68.8157292578296,-21.0020966986902],[-68.8153347775136,-21.0021149603237],[-68.8151730232738,-21.0018711403944],[-68.8151808128656,-21.001718719037],[-68.8151947571966,-21.0016530856411],[-68.8153513183752,-21.0016583290805],[-68.8155889490093,-21.0016714376788],[-68.8158377351082,-21.0016714376788],[-68.8159802557879,-21.001645130078],[-68.8161340281003,-21.001571541119],[-68.8165662061939,-21.0014635081877]]]}},{"type":"Feature","id":"606156222","properties":{"name":"VEL_30KMH","oid":"606156222","speedLimit":8.333333},"geometry":{"type":"Polygon","coordinates":[[[-68.8182959764144,-21.022923006921],[-68.8181935577073,-21.0230005736616],[-68.8182850132852,-21.0230990237554],[-68.8184153206543,-21.0230219090354],[-68.8182959764144,-21.022923006921]]]}},{"type":"Feature","id":"606156969","properties":{"name":"VEL_30KMH_2","oid":"606156969","speedLimit":8.333333},"geometry":{"type":"Polygon","coordinates":[[[-68.8131937937799,-21.0229395508761],[-68.8130315587011,-21.022970197875],[-68.8130938754356,-21.0231180990261],[-68.8132475515802,-21.0230759707031],[-68.8131937937799,-21.0229395508761]]]}},{"type":"Feature","id":"606157392","properties":{"name":"VEL_20KH","oid":"606157392","speedLimit":5.5555553},"geometry":{"type":"Polygon","coordinates":[[[-68.8236988757599,-21.0147504738802],[-68.8235433724271,-21.0146609737949],[-68.8233994092304,-21.0148756835955],[-68.8235616443091,-21.014961748324],[-68.8236988757599,-21.0147504738802]]]}},{"type":"Feature","id":"606157536","properties":{"name":"VEL_20KMH_2","oid":"606157536","speedLimit":5.5555553},"geometry":{"type":"Polygon","coordinates":[[[-68.8218540888505,-21.0175091558021],[-68.8216948349735,-21.0174452400846],[-68.8216085724568,-21.0176115836775],[-68.8217527279892,-21.0176829125333],[-68.8218540888505,-21.0175091558021]]]}},{"type":"Feature","id":"606796346","properties":{"name":"ZD_STK_HG_03-AutoClean-1","oid":"606796346","speedLimit":5},"geometry":{"type":"Polygon","coordinates":[[[-68.8156335708685,-21.0198912141328],[-68.8158967821374,-21.0197801978653],[-68.8159560215023,-21.0188804055937],[-68.8157063698932,-21.0187444377874],[-68.8156272237937,-21.0188337570644],[-68.8155716388053,-21.0189379026182],[-68.8155617335218,-21.0189791268999],[-68.8155153806422,-21.019188502857],[-68.8155054753588,-21.0194148747899],[-68.81551547681,-21.0196438684425],[-68.8155671189186,-21.0197939392926],[-68.8156335708685,-21.0198912141328]]]}},{"type":"Feature","id":"607546676","properties":{"name":"ZD_STK_HG_01-AutoClean-1","oid":"607546676","speedLimit":5},"geometry":{"type":"Polygon","coordinates":[[[-68.8167412315901,-21.0205621031559],[-68.8169136604557,-21.0205557748671],[-68.8169752078478,-21.0205533339556],[-68.8171414819742,-21.0205136465441],[-68.8172414003185,-21.0204484651688],[-68.8173295861912,-21.0203760514635],[-68.8171702361464,-21.020149950743],[-68.8163730050835,-21.0202011194786],[-68.8162925126348,-21.0204615737672],[-68.8165105250377,-21.0205367900005],[-68.8166811267151,-21.0205608374982],[-68.8167412315901,-21.0205621031559]]]}},{"type":"Feature","id":"607691021","properties":{"name":"VEL_13_KPH_901_001","oid":"607691021","speedLimit":3.6111112},"geometry":{"type":"Polygon","coordinates":[[[-68.8149084656558,-21.0017777529317],[-68.8151941801898,-21.0021560942013],[-68.8145397583102,-21.0025632743873],[-68.8143339592179,-21.0021358436769],[-68.8149084656558,-21.0017777529317]]]}},{"type":"Feature","id":"608715834","properties":{"name":"INFO_RESTRICCION VELOCIDAD","oid":"608715834","speedLimit":2.7777777},"geometry":{"type":"Polygon","coordinates":[[[-68.8173497814292,-21.0014886405349],[-68.8174949948074,-21.001142935155],[-68.8172441891847,-21.0010666340722],[-68.8167331534949,-21.0012223099781],[-68.816610443382,-21.0014496763564],[-68.816465133836,-21.0015418885655],[-68.8158144625005,-21.0017245049011],[-68.8158540836342,-21.0019585611848],[-68.8165425489151,-21.0018326282365],[-68.8170800307499,-21.0017706110057],[-68.8174025775514,-21.001632292692],[-68.8173497814292,-21.0014886405349]]]}},{"type":"Feature","id":"610258504","properties":{"name":"ZD_STK_MAR_01-AutoClean-1","oid":"610258504","speedLimit":5},"geometry":{"type":"Polygon","coordinates":[[[-68.8067510320119,-20.9870509207155],[-68.8069217298571,-20.9870293141293],[-68.8070308803102,-20.9869849257031],[-68.8063421265259,-20.9870006560211],[-68.8065183059356,-20.9870318454448],[-68.8066897731232,-20.9870507399072],[-68.8067510320119,-20.9870509207155]]]}},{"type":"Feature","id":"610291621","properties":{"name":"ZD_STK_MAR_02-AutoClean-1","oid":"610291621","speedLimit":5},"geometry":{"type":"Polygon","coordinates":[[[-68.806864990855,-20.9870256075601],[-68.8070949280651,-20.9870086115843],[-68.8072655297424,-20.9869845640866],[-68.806864990855,-20.9870256075601]]]}},{"type":"Feature","id":"610889233","properties":{"name":"VEL_10_KMH_902_001","oid":"610889233","speedLimit":2.7777777},"geometry":{"type":"Polygon","coordinates":[[[-68.8123143392479,-20.9973544598275],[-68.8124880182949,-20.9977826137708],[-68.8115564408153,-20.9974881675306],[-68.8094328634534,-20.9972888264316],[-68.809402762932,-20.9971421909383],[-68.8105912046056,-20.997099791403],[-68.8123143392479,-20.9973544598275]]]}},{"type":"Feature","id":"611100302","properties":{"name":"TRC_70%_007","oid":"611100302","speedLimit":5.5555553},"geometry":{"type":"Polygon","coordinates":[[[-68.824172694511,-21.0149584937754],[-68.8231317742426,-21.0146904455402],[-68.8216870453817,-21.0170131987638],[-68.822697191954,-21.0170273018076],[-68.8238019676416,-21.0152400122255],[-68.824172694511,-21.0149584937754]]]}},{"type":"Feature","id":"611101069","properties":{"name":"TRC_90%-004","oid":"611101069","speedLimit":6.9444447},"geometry":{"type":"Polygon","coordinates":[[[-68.8219178481019,-21.0048434472673],[-68.8221522090308,-21.0056349353953],[-68.8212494818912,-21.0061327005162],[-68.8203449275634,-21.0061893839035],[-68.820354736679,-21.0053124638759],[-68.8213189150429,-21.0052677138333],[-68.8218744764241,-21.0049902635689],[-68.8219178481019,-21.0048434472673]]]}},{"type":"Feature","id":"611176514","properties":{"name":"TRC_70%_004","oid":"611176514","speedLimit":6.9444447},"geometry":{"type":"Polygon","coordinates":[[[-68.8148252805086,-21.0023460332712],[-68.8141463358399,-21.0029822975139],[-68.8116429918354,-21.0029987510649],[-68.811118300318,-21.0031344476589],[-68.8109789531757,-21.0032346154311],[-68.8098367682138,-21.0021518452073],[-68.810393291273,-21.0023776747155],[-68.8115137423121,-21.0024219727375],[-68.8122952980235,-21.0024927591686],[-68.8134841243684,-21.0025502561931],[-68.8148252805086,-21.0023460332712]]]}},{"type":"Feature","id":"611187609","properties":{"name":"TRC_90%_003","oid":"611187609","speedLimit":5.5555553},"geometry":{"type":"Polygon","coordinates":[[[-68.8105730288914,-21.0028815873169],[-68.8087580540001,-21.0038386054006],[-68.8067333371367,-20.9987490338837],[-68.8088277756552,-20.9972003207917],[-68.8091177215725,-20.9977419319139],[-68.8081316169502,-20.9996217953215],[-68.8105730288914,-21.0028815873169]]]}},{"type":"Feature","id":"611197820","properties":{"name":"TRC_70%_006","oid":"611197820","speedLimit":8.333333},"geometry":{"type":"Polygon","coordinates":[[[-68.8222769386675,-21.0076532075207],[-68.8234277787314,-21.0124910035452],[-68.8229529983023,-21.0146556399514],[-68.8240686409513,-21.015258183455],[-68.8246146817203,-21.0142763042364],[-68.8238114882538,-21.0104328632],[-68.8232140938795,-21.0088759233324],[-68.8231524503197,-21.0076722827914],[-68.8222769386675,-21.0076532075207]]]}},{"type":"Feature","id":"611200085","properties":{"name":"TRC_70%_008","oid":"611200085","speedLimit":5.5555553},"geometry":{"type":"Polygon","coordinates":[[[-68.8216927192819,-21.0170220583682],[-68.8196439604685,-21.0203158423152],[-68.8181324911542,-21.0225946591333],[-68.8157226222514,-21.0232112152764],[-68.8138974535732,-21.0231442258186],[-68.8136550145492,-21.0225008196499],[-68.8143394407825,-21.0212541467447],[-68.8147815241596,-21.0200745537014],[-68.815508745064,-21.0188145009855],[-68.8162929934738,-21.0177823570726],[-68.8168348990274,-21.0165842311833],[-68.8147067056111,-21.0153176693702],[-68.8137548367257,-21.0190557895992],[-68.8129277936448,-21.0209458686732],[-68.8125998614464,-21.0227957179108],[-68.8186457387034,-21.0235998626165],[-68.8227028658542,-21.017036161412],[-68.8216927192819,-21.0170220583682]]]}},{"type":"Feature","id":"611225942","properties":{"name":"TRAC_90%_005","oid":"611225942","speedLimit":9.722222},"geometry":{"type":"Polygon","coordinates":[[[-68.8225626532016,-21.0054823332297],[-68.8219067888049,-21.0058638386438],[-68.8221816363776,-21.0072022717375],[-68.8222889596425,-21.0076532075207],[-68.8231644712947,-21.0076722827914],[-68.8231311972358,-21.0070237235875],[-68.8228546186428,-21.0057864527114],[-68.8225626532016,-21.0054823332297]]]}},{"type":"Feature","id":"611506423","properties":{"name":"TRAC_90%_01","oid":"611506423","speedLimit":5.5555553},"geometry":{"type":"Polygon","coordinates":[[[-68.8203449275634,-21.0061893839035],[-68.8200775810792,-21.0062061086669],[-68.818671415506,-21.0056839344319],[-68.8170915708859,-21.0048107209735],[-68.8140881543209,-21.0044679989297],[-68.8136463594472,-21.0044085130145],[-68.8138080175192,-21.0037682709902],[-68.81585033309,-21.0038886892868],[-68.8173086216108,-21.0041742759226],[-68.8181071990228,-21.0045986328926],[-68.8187929716054,-21.0050473989768],[-68.819912653302,-21.0053329856126],[-68.820354736679,-21.0053124638759],[-68.8203449275634,-21.0061893839035]]]}},{"type":"Feature","id":"611524503","properties":{"name":"TRC_40%_F03_001","oid":"611524503","speedLimit":8.333333},"geometry":{"type":"Polygon","coordinates":[[[-68.8074463252066,-20.9948533392621],[-68.8064855127158,-20.9955919409761],[-68.8063447230564,-20.995822561903],[-68.8062442277054,-20.9959662140601],[-68.806091417071,-20.9960833778081],[-68.8061798914471,-20.9962611123209],[-68.8064694526932,-20.9960682803189],[-68.8066665005156,-20.9957544875957],[-68.8068032511274,-20.9955049722064],[-68.8075001791747,-20.9951828623034],[-68.8074463252066,-20.9948533392621]]]}},{"type":"Feature","id":"611565659","properties":{"name":"INFO_SINGLE_LANE_P2","oid":"611565659","speedLimit":9.722222},"geometry":{"type":"Polygon","coordinates":[[[-68.8213721920042,-21.0006388417453],[-68.8213637292377,-20.9998982511405],[-68.8190595487472,-20.9988072541412],[-68.8156542469456,-20.9966730839256],[-68.8152391867203,-20.9975570554751],[-68.8179838157353,-20.999388552675],[-68.8211688932747,-21.0007423544702],[-68.8213721920042,-21.0006388417453]]]}},{"type":"Feature","id":"612022415","properties":{"name":"INFO_DESCARGA_PIO3","oid":"612022415","speedLimit":2.7777777},"geometry":{"type":"Polygon","coordinates":[[[-68.8120765162783,-20.9934834455324],[-68.8112580321316,-20.9948655438192],[-68.8068017124426,-20.9931699240215],[-68.8078173405795,-20.9915740199754],[-68.8120765162783,-20.9934834455324]]]}},{"type":"Feature","id":"612399621","properties":{"name":"TRC_90%_002","oid":"612399621","speedLimit":9.722222},"geometry":{"type":"Polygon","coordinates":[[[-68.8121840318788,-20.9933771302796],[-68.8111364760323,-20.9948471917815],[-68.8082518267003,-20.993819568075],[-68.804623127099,-20.9962886855795],[-68.8025886972878,-21.0038816377649],[-68.8051241613375,-21.0035961415332],[-68.8055948065512,-21.0011556821368],[-68.8065968750283,-21.0000281618704],[-68.8066728475904,-20.998786370788],[-68.8075230671111,-20.9979871079051],[-68.8082821195574,-20.9968310199347],[-68.8065513876589,-20.9978158824894],[-68.8053518866882,-20.9997426656387],[-68.8058529209267,-20.9977873147854],[-68.8063387606528,-20.9968025426348],[-68.8076293325303,-20.9956607385164],[-68.8088439318456,-20.9951611653131],[-68.8102558674867,-20.9957463512243],[-68.8117133866651,-20.9957606350763],[-68.8122144209036,-20.9940906900505],[-68.8121840318788,-20.9933771302796]]]}},{"type":"Feature","id":"612548768","properties":{"name":"ZD_STK_DIN_13-AutoClean-1","oid":"612548768","speedLimit":5},"geometry":{"type":"Polygon","coordinates":[[[-68.8260880685857,-21.0039405812554],[-68.826634878697,-21.0038858867588],[-68.8266260312594,-21.0036148551874],[-68.8259308342325,-21.0034758136408],[-68.8256854140066,-21.0036183809484],[-68.8257379216255,-21.0037351830799],[-68.8258369744596,-21.0038490922793],[-68.8259608385861,-21.0039073125368],[-68.8260880685857,-21.0039405812554]]]}},{"type":"Feature","id":"612609137","properties":{"name":"EX-REDUCCION_901","oid":"612609137","speedLimit":2.7777777},"geometry":{"type":"Polygon","coordinates":[[[-68.8176784829699,-21.0017655483746],[-68.8164303210924,-21.0018202428711],[-68.8160173765588,-21.0018489913834],[-68.8159164003686,-21.0022429725669],[-68.8180241100435,-21.0022803094712],[-68.8176784829699,-21.0017655483746]]]}},{"type":"Feature","id":"612711005","properties":{"name":"ZD_STK_DIN_22-AutoClean-1","oid":"612711005","speedLimit":5},"geometry":{"type":"Polygon","coordinates":[[[-68.8236106898872,-21.0062505874972],[-68.823798409433,-21.0060446468969],[-68.8235235618603,-21.0056654919901],[-68.8233971973709,-21.0055763535213],[-68.8231414871905,-21.0055450736935],[-68.8230432036988,-21.0058001037346],[-68.8234346066452,-21.0061189590889],[-68.8236106898872,-21.0062505874972]]]}},{"type":"Feature","id":"612712103","properties":{"name":"VEL_10_KPH_F03_001","oid":"612712103","speedLimit":2.7777777},"geometry":{"type":"Polygon","coordinates":[[[-68.8051056971199,-20.9985015977894],[-68.804792478595,-20.9984475361217],[-68.8042494190278,-21.000766492372],[-68.8043410669413,-21.0009085172548],[-68.8051056971199,-20.9985015977894]]]}},{"type":"Feature","id":"612786077","properties":{"name":"VEL_10KM_CHANCADO","oid":"612786077","speedLimit":2.7777777},"geometry":{"type":"Polygon","coordinates":[[[-68.8254311463432,-21.0011480881902],[-68.8253667139171,-21.0018658065509],[-68.8251033103126,-21.0018402221831],[-68.8251615879994,-21.0011348891877],[-68.8254311463432,-21.0011480881902]]]}},{"type":"Feature","id":"612791037","properties":{"name":"VEL_10KM_CHANCADO_001","oid":"612791037","speedLimit":2.7777777},"geometry":{"type":"Polygon","coordinates":[[[-68.8258772687678,-21.0020629779509],[-68.8260711430528,-21.0021722765399],[-68.8255380849369,-21.0027704806454],[-68.8253862359805,-21.0026398466825],[-68.8258094704688,-21.0020721087677],[-68.8258772687678,-21.0020629779509]]]}},{"type":"Feature","id":"612794629","properties":{"name":"TRAC_90%_011","oid":"612794629","speedLimit":2.7777777},"geometry":{"type":"Polygon","coordinates":[[[-68.8136463594472,-21.0044085130145],[-68.8113625665303,-21.0041008677718],[-68.8103469383934,-21.0036193753937],[-68.8099129331115,-21.003333788758],[-68.8103469383934,-21.0029665671959],[-68.8119701546914,-21.0034480595739],[-68.813636838835,-21.003758145728],[-68.8138080175192,-21.0037682709902],[-68.8136463594472,-21.0044085130145]]]}}]}