{"type":"FeatureCollection","features":[{"type":"Feature","id":"553267213","properties":{"name":"ZD_BOT_PAD59_02-AutoClean-1","oid":"553267213","speedLimit":5},"geometry":{"type":"Polygon","coordinates":[[[-68.8183529493549,-20.9849451293391],[-68.8183529493549,-20.9849451293391]]]}},{"type":"Feature","id":"553508825","properties":{"name":"ZD_STK_HG_02-AutoClean-1","oid":"553508825","speedLimit":5},"geometry":{"type":"Polygon","coordinates":[[[-68.8157273444158,-21.0200493648837],[-68.815996166197,-21.0199508526822],[-68.815866323834,-21.0189963688657],[-68.8155898076906,-21.0189188243988],[-68.8155459498257,-21.0190272781986],[-68.8155147876586,-21.0191375395617],[-68.8154877612112,-21.0192528621022],[-68.8154842025686,-21.0194072280106],[-68.8154894924427,-21.0196068733804],[-68.8154960326506,-21.0196406748147],[-68.815531619076,-21.0197554550862],[-68.8155925968969,-21.019860113003],[-68.8157273444158,-21.0200493648837]]]}},{"type":"Feature","id":"558966402","properties":{"name":"ZD_STK_BL_02-AutoClean-1","oid":"558966402","speedLimit":5},"geometry":{"type":"Polygon","coordinates":[[[-68.8233382228376,-20.9923442090748],[-68.8235306780735,-20.9921421234945],[-68.8232686850388,-20.9918871666868],[-68.8231547122979,-20.9917785321306],[-68.8230892140393,-20.9917202382132],[-68.8229886102528,-20.991646851142],[-68.822958409881,-20.9916297696686],[-68.8228460721921,-20.9915741870962],[-68.8227266172181,-20.9915333361649],[-68.8226058157308,-20.9917796166686],[-68.8232122276558,-20.9922472333022],[-68.8233382228376,-20.9923442090748]]]}},{"type":"Feature","id":"570805601","properties":{"name":"ZD_STK_MAR_02-AutoClean-1-tmp-1","oid":"570805601","speedLimit":5},"geometry":{"type":"Polygon","coordinates":[[[-68.8065067092313,-20.9867045211065],[-68.8068588224839,-20.9866989176602],[-68.8068631505626,-20.9864277831606],[-68.8062845345213,-20.9862059047619],[-68.8060022476061,-20.9862619392251],[-68.8060103266865,-20.9863766291184],[-68.8060392767245,-20.9864995434248],[-68.8060618789136,-20.986527289522],[-68.8061472863346,-20.986615227478],[-68.8062249032138,-20.9866463175673],[-68.8063404148271,-20.9866804805142],[-68.8063881198731,-20.986689608709],[-68.8065067092313,-20.9867045211065]]]}},{"type":"Feature","id":"592941111","properties":{"name":"INFO_ESTACION CAMINO 9","oid":"592941111","speedLimit":5.5555553},"geometry":{"type":"Polygon","coordinates":[[[-68.8219776672324,-21.0107289357061],[-68.8222567802231,-21.0106302427483],[-68.8218339750173,-21.0097467961706],[-68.8212851746297,-21.009045190464],[-68.8208551559593,-21.0093297009322],[-68.8218665798774,-21.0107676175614],[-68.8219776672324,-21.0107289357061]]]}},{"type":"Feature","id":"602013008","properties":{"name":"ZD_STK_3C_01-AutoClean-1","oid":"602013008","speedLimit":5},"geometry":{"type":"Polygon","coordinates":[[[-68.8048617507613,-20.985452060475],[-68.8051263406432,-20.9853439681879],[-68.8048504977565,-20.9848852086147],[-68.8047555685622,-20.9850906381871],[-68.8047424881464,-20.9852504267855],[-68.8047867307293,-20.9853601458797],[-68.8048617507613,-20.985452060475]]]}},{"type":"Feature","id":"605133231","properties":{"name":"LIMP_903.","oid":"605133231","speedLimit":2.7777777},"geometry":{"type":"Polygon","coordinates":[[[-68.8159805851134,-21.0016168282023],[-68.8156243361412,-21.0016420437108],[-68.8155247903295,-21.0017241974641],[-68.8155202698917,-21.0021097507224],[-68.8160095351514,-21.002101345553],[-68.8162383462489,-21.0019282713641],[-68.8159805851134,-21.0016168282023]]]}},{"type":"Feature","id":"607546676","properties":{"name":"ZD_STK_HG_01-AutoClean-1","oid":"607546676","speedLimit":5},"geometry":{"type":"Polygon","coordinates":[[[-68.81681090298,-21.0205957912784],[-68.8170919395613,-21.0205346956378],[-68.817309690013,-21.0203997610352],[-68.817183310113,-21.0201560111201],[-68.815842471311,-21.0198710487611],[-68.8156214507553,-21.0200452978662],[-68.8156873337321,-21.020134772251],[-68.8157637002775,-21.0202166548699],[-68.8158068848856,-21.0202529868928],[-68.8158960433082,-21.020322035812],[-68.8160457948335,-21.0204074431794],[-68.8160973470606,-21.0204292243175],[-68.8163652070465,-21.0205296344605],[-68.8164755249653,-21.0205659664834],[-68.8165910365786,-21.0205921761517],[-68.81681090298,-21.0205957912784]]]}},{"type":"Feature","id":"621174471","properties":{"name":"ZD_STK_MAR_01-AutoClean-1","oid":"621174471","speedLimit":5},"geometry":{"type":"Polygon","coordinates":[[[-68.8067353279697,-20.9870967623491],[-68.8068621887674,-20.9870662145289],[-68.8069836635114,-20.9870353051959],[-68.8069316303867,-20.9867686896047],[-68.8062526990974,-20.986328096043],[-68.805964160513,-20.9863272826395],[-68.8059476176342,-20.9864461299284],[-68.8059633910768,-20.986598417139],[-68.8059795492375,-20.9866831918592],[-68.8060219644094,-20.9868026717953],[-68.8060373531339,-20.9868253567151],[-68.8061272809927,-20.9869160060161],[-68.8063687877879,-20.987013614436],[-68.8065742272601,-20.9870821210862],[-68.8067353279697,-20.9870967623491]]]}},{"type":"Feature","id":"625872519","properties":{"name":"VEL_15_4_ESQ","oid":"625872519","speedLimit":8.333333},"geometry":{"type":"Polygon","coordinates":[[[-68.8228154871021,-21.0050164933137],[-68.8223766199152,-21.0050686415158],[-68.8224532749991,-21.0048947539234],[-68.8226251478159,-21.0046686277508],[-68.8228180839494,-21.0045419175614],[-68.8230138092892,-21.0044276795589],[-68.8232147283235,-21.0046835401483],[-68.8228154871021,-21.0050164933137]]]}},{"type":"Feature","id":"626734706","properties":{"name":"ZD_STK_MAR_02-AutoClean-1","oid":"626734706","speedLimit":5},"geometry":{"type":"Polygon","coordinates":[[[-68.8067796667322,-20.9870930568443],[-68.806895274525,-20.9870821210862],[-68.8071227391091,-20.987057086334],[-68.8072376736453,-20.9870438911217],[-68.8073550126696,-20.9870301536404],[-68.8075160171997,-20.9869723116138],[-68.8075737249166,-20.9869464634582],[-68.8076649992888,-20.9868767818919],[-68.8077057794088,-20.9868425285668],[-68.8077724318218,-20.9867498005679],[-68.8078024398346,-20.9867007252235],[-68.807880633791,-20.9865560297789],[-68.807916701114,-20.9864518237529],[-68.807651726514,-20.9863444544911],[-68.8067414834595,-20.9868242721771],[-68.8067796667322,-20.9870930568443]]]}},{"type":"Feature","id":"627372043","properties":{"name":"INFO_RED_VEL_15KPH","oid":"627372043","speedLimit":4.1666665},"geometry":{"type":"Polygon","coordinates":[[[-68.8087339385647,-21.0023453666025],[-68.8088453144584,-21.0022899647865],[-68.8092973582407,-21.0026552733355],[-68.8091379887625,-21.0027147421691],[-68.8088737835987,-21.0024972019223],[-68.8087339385647,-21.0023453666025]]]}},{"type":"Feature","id":"627414835","properties":{"name":"INFO_RED_VEL_20KPH_MARGINAL","oid":"627414835","speedLimit":5.5555553},"geometry":{"type":"Polygon","coordinates":[[[-68.806176140193,-20.9854216030329],[-68.8054330571585,-20.9854998705251],[-68.8055996401013,-20.9861078444512],[-68.805996765373,-20.9859935160706],[-68.806176140193,-20.9854216030329]]]}},{"type":"Feature","id":"627775409","properties":{"name":"VEL_10KM_ZIG_ZAG","oid":"627775409","speedLimit":2.7777777},"geometry":{"type":"Polygon","coordinates":[[[-68.811174205553,-20.9996461322816],[-68.8110603289917,-20.999675143673],[-68.8110245502072,-20.9995543984426],[-68.8108847051733,-20.9994688103189],[-68.8106601259751,-20.9994427814069],[-68.810661761027,-20.9993235726053],[-68.8108798000174,-20.9993403829443],[-68.8110555200153,-20.9994275074968],[-68.8110571550673,-20.9994275074968],[-68.811174205553,-20.9996461322816]]]}},{"type":"Feature","id":"628576537","properties":{"name":"INFO_RED_VEL_20KPH","oid":"628576537","speedLimit":5.5555553},"geometry":{"type":"Polygon","coordinates":[[[-68.8087093166056,-20.9994553439721],[-68.808540232995,-20.9993362255486],[-68.8083640320995,-20.9998690952184],[-68.808529653247,-20.9999386864066],[-68.8087093166056,-20.9994553439721]]]}},{"type":"Feature","id":"628602625","properties":{"name":"INFO_RED_VEL_15_KPH_901","oid":"628602625","speedLimit":4.1666665},"geometry":{"type":"Polygon","coordinates":[[[-68.814113932831,-21.001890222156],[-68.8154808362852,-21.0016087845455],[-68.8158922923066,-21.0015553710491],[-68.8157287871087,-21.0019420088454],[-68.8148926984705,-21.0021863010295],[-68.8134534680112,-21.0023880250971],[-68.814113932831,-21.001890222156]]]}},{"type":"Feature","id":"628617966","properties":{"name":"info_red_vel_15_kph_906","oid":"628617966","speedLimit":4.1666665},"geometry":{"type":"Polygon","coordinates":[[[-68.8254879314714,-21.0039327687191],[-68.8253373143303,-21.0038283819368],[-68.8254632133327,-21.0036218678263],[-68.8254583081767,-21.0034223128347],[-68.8256015194941,-21.00343388124],[-68.8254879314714,-21.0039327687191]]]}},{"type":"Feature","id":"628644340","properties":{"name":"INFO_RED_VEL_10KPH_903","oid":"628644340","speedLimit":2.7777777},"geometry":{"type":"Polygon","coordinates":[[[-68.8129117849087,-21.0005528964262],[-68.8127754985173,-21.0005979951312],[-68.8124246355986,-21.0003798222373],[-68.8120257790953,-21.0003678923193],[-68.8120712720121,-21.0001805383802],[-68.8127729978495,-21.0003228839924],[-68.8129117849087,-21.0005528964262]]]}},{"type":"Feature","id":"629237286","properties":{"name":"REDU_VELO_15","oid":"629237286","speedLimit":4.1666665},"geometry":{"type":"Polygon","coordinates":[[[-68.8122830593331,-20.996927557033],[-68.8122709407126,-20.9971214182001],[-68.8112999121964,-20.9970244424275],[-68.8110207992056,-20.9970473081036],[-68.8106080928504,-20.9971299137478],[-68.8100042777726,-20.9971441934981],[-68.8100073555175,-20.997018748603],[-68.8109995435299,-20.9967735526373],[-68.8121283064723,-20.9968847177821],[-68.8121313842172,-20.9968876098834],[-68.8122830593331,-20.996927557033]]]}},{"type":"Feature","id":"630010528","properties":{"name":"VEL_15_KMPH","oid":"630010528","speedLimit":4.1666665},"geometry":{"type":"Polygon","coordinates":[[[-68.81004149925,-20.9990598491154],[-68.8099305080745,-20.9988811714802],[-68.8092134896921,-20.9993837644642],[-68.8090787421732,-20.9999086808553],[-68.8092649457397,-21.0002101824188],[-68.8093072647321,-21.0002316924224],[-68.8094869280907,-21.0000065604096],[-68.8093363109496,-20.9998937684578],[-68.8094075799799,-20.9995326173044],[-68.8095105882546,-20.9993948809787],[-68.8099503210573,-20.9991119973175],[-68.81004149925,-20.9990598491154]]]}},{"type":"Feature","id":"630216104","properties":{"name":"REDU_VELO_15_904","oid":"630216104","speedLimit":4.1666665},"geometry":{"type":"Polygon","coordinates":[[[-68.813659388381,-21.0161319232563],[-68.8137750923534,-21.0166790726764],[-68.8140717100182,-21.0171481353606],[-68.8143429362876,-21.0176646465822],[-68.8142127092065,-21.0176918504103],[-68.813811255856,-21.0172670730277],[-68.8135617661599,-21.0167402586951],[-68.8134351939009,-21.0163052685797],[-68.813659388381,-21.0161319232563]]]}},{"type":"Feature","id":"630611948","properties":{"name":"TR_60","oid":"630611948","speedLimit":2.7777777},"geometry":{"type":"Polygon","coordinates":[[[-68.8265865902215,-21.0003142076884],[-68.8265852437081,-21.0006327907254],[-68.8262948777126,-21.000640201735],[-68.8262186073468,-21.0004636027977],[-68.8263540281224,-21.0002289810774],[-68.8265865902215,-21.0003142076884]]]}},{"type":"Feature","id":"630768411","properties":{"name":"REDU_VELO_15KM_902","oid":"630768411","speedLimit":4.1666665},"geometry":{"type":"Polygon","coordinates":[[[-68.8114316781499,-20.9979147577458],[-68.8116160543054,-20.9973370605054],[-68.8103732224426,-20.9973122968878],[-68.8098462548078,-20.9974616016189],[-68.8101096905354,-20.9980844879425],[-68.8114316781499,-20.9979147577458]]]}},{"type":"Feature","id":"630795558","properties":{"name":"INFO_RED_VEL_15","oid":"630795558","speedLimit":4.1666665},"geometry":{"type":"Polygon","coordinates":[[[-68.8107996824704,-20.999721778807],[-68.8107079272006,-20.9998079091996],[-68.809916946761,-21.000095221391],[-68.8098749163072,-20.9999228702274],[-68.8103639892079,-20.9997074086785],[-68.8106162681102,-20.9996463130379],[-68.8107270669266,-20.999664298293],[-68.810788140927,-20.99969303855],[-68.8107996824704,-20.999721778807]]]}},{"type":"Feature","id":"630912563","properties":{"name":"ZD_STK_DIN_22-AutoClean-1","oid":"630912563","speedLimit":5},"geometry":{"type":"Polygon","coordinates":[[[-68.8249847201801,-21.0055775609714],[-68.8252395959297,-21.0054504892693],[-68.8251962189625,-21.0053364320232],[-68.8251337022692,-21.0052262610382],[-68.8250123237047,-21.0051274777022],[-68.8249232614616,-21.0050920494609],[-68.8248029408719,-21.0050460469742],[-68.8247718748843,-21.0050385455863],[-68.8246756953562,-21.0050289655007],[-68.8246424172394,-21.0050295077697],[-68.8245442179412,-21.005041076175],[-68.8245144022874,-21.0050493005882],[-68.8243977365198,-21.0051018103029],[-68.8243085780972,-21.0051976111594],[-68.82447516104,-21.0054190376673],[-68.8249847201801,-21.0055775609714]]]}},{"type":"Feature","id":"631033311","properties":{"name":"INFO_SL","oid":"631033311","speedLimit":4.1666665},"geometry":{"type":"Polygon","coordinates":[[[-68.8159714480583,-21.0040343537783],[-68.8158177531723,-21.0045842145433],[-68.8185178972456,-21.005607747279],[-68.8187981643907,-21.0050265252902],[-68.8184985651605,-21.004763163313],[-68.8176577637254,-21.0043183219774],[-68.81677829812,-21.0041184958513],[-68.8159714480583,-21.0040343537783]]]}}]}