{"type":"FeatureCollection","features":[{"type":"Feature","id":"553508825","properties":{"name":"ZD_STK_HG_02-AutoClean-1","oid":"553508825","speedLimit":5},"geometry":{"type":"Polygon","coordinates":[[[-68.8163728606081,-21.0204830875932],[-68.8164575982718,-21.0202238440601],[-68.8158828056744,-21.0197069840452],[-68.8156045468082,-21.0197788454848],[-68.8156396537858,-21.0200159430397],[-68.8157190051735,-21.020149270868],[-68.8157859488897,-21.0202101949061],[-68.8159805281106,-21.0203624146097],[-68.81612422626,-21.0204326489979],[-68.8163728606081,-21.0204830875932]]]}},{"type":"Feature","id":"558966402","properties":{"name":"ZD_STK_BL_02-AutoClean-1","oid":"558966402","speedLimit":5},"geometry":{"type":"Polygon","coordinates":[[[-68.8233377002267,-20.992339526471],[-68.8235301634106,-20.9921374105225],[-68.823268159556,-20.9918824154015],[-68.8231541821083,-20.9917737645204],[-68.8230886811446,-20.991715461843],[-68.8229880732034,-20.9916420637436],[-68.8229578715843,-20.9916249797032],[-68.822845529256,-20.9915693887783],[-68.8227260693487,-20.9915285317082],[-68.8226052628724,-20.9917748492214],[-68.8232116998414,-20.9922425361254],[-68.8233377002267,-20.992339526471]]]}},{"type":"Feature","id":"570805601","properties":{"name":"ZD_STK_MAR_02-AutoClean-1-tmp-1","oid":"570805601","speedLimit":5},"geometry":{"type":"Polygon","coordinates":[[[-68.806505491503,-20.9866989910059],[-68.8068576192974,-20.9866933867175],[-68.8068619475549,-20.9864222114736],[-68.8060380396919,-20.9864939825215],[-68.8060606428144,-20.9865217327881],[-68.8061460537626,-20.9866096839589],[-68.8062236738474,-20.9866407787202],[-68.8063391902311,-20.9866749468009],[-68.8063868972472,-20.9866840763675],[-68.806505491503,-20.9866989910059]]]}},{"type":"Feature","id":"592941111","properties":{"name":"INFO_ESTACION","oid":"592941111","speedLimit":5.5555553},"geometry":{"type":"Polygon","coordinates":[[[-68.8203801537781,-21.0085296828416],[-68.8205724245951,-21.0083549555928],[-68.8202327044723,-21.0080416577944],[-68.8198864438714,-21.0076922032967],[-68.8195082503486,-21.0078427959488],[-68.8202903183889,-21.00860199624],[-68.8203801537781,-21.0085296828416]]]}},{"type":"Feature","id":"600880362","properties":{"name":"VEL_15_KPH_RC_002","oid":"600880362","speedLimit":4.1666665},"geometry":{"type":"Polygon","coordinates":[[[-68.8105520275412,-21.0009302678063],[-68.8108667399539,-21.0010289755951],[-68.8107908511722,-21.0012876767778],[-68.8107813290057,-21.0014274224201],[-68.8108330757288,-21.001534355858],[-68.8109933174402,-21.0015572249702],[-68.811119414009,-21.0015631908256],[-68.8112139623897,-21.0015927489272],[-68.8112013623512,-21.0017586177847],[-68.8110281358673,-21.0019357856107],[-68.8103194558376,-21.0017455109812],[-68.810252993039,-21.0013292569818],[-68.8103763964698,-21.0008416838933],[-68.8105520275412,-21.0009302678063]]]}},{"type":"Feature","id":"603087867","properties":{"name":"ZD_BOT_NRT_04-AutoClean-1","oid":"603087867","speedLimit":5},"geometry":{"type":"Polygon","coordinates":[[[-68.7933714421796,-20.9926137750343],[-68.793519180036,-20.9926129615086],[-68.793532260992,-20.9926106113231],[-68.7937934953787,-20.992528897183],[-68.7937040447234,-20.9922710999177],[-68.7925574412172,-20.9917754819636],[-68.7923455489662,-20.9919596099542],[-68.79265699114,-20.9923554354186],[-68.7927698143857,-20.9924521545889],[-68.7929885356652,-20.992558274501],[-68.7931379086411,-20.9926009394061],[-68.7933714421796,-20.9926137750343]]]}},{"type":"Feature","id":"604050980","properties":{"name":"VEL_10_KPH_901_002","oid":"604050980","speedLimit":2.7777777},"geometry":{"type":"Polygon","coordinates":[[[-68.816562823021,-21.001466562047],[-68.8166516965752,-21.0016386679351],[-68.8167050784178,-21.001832377451],[-68.8164769311553,-21.0018630202536],[-68.8161718370926,-21.0019977039581],[-68.8160296778792,-21.0020528429243],[-68.8157257380185,-21.0020996658498],[-68.8153311933006,-21.0021179249829],[-68.8151694126532,-21.0018741384386],[-68.8151772035167,-21.0017217379515],[-68.8151911501242,-21.0016561135425],[-68.8153477368626,-21.0016613562639],[-68.8155854062917,-21.0016744630673],[-68.8158342330068,-21.0016744630673],[-68.8159767769541,-21.0016481590687],[-68.816130574371,-21.0015745801858],[-68.816562823021,-21.001466562047]]]}},{"type":"Feature","id":"606156222","properties":{"name":"VEL_30KMH","oid":"606156222","speedLimit":8.333333},"geometry":{"type":"Polygon","coordinates":[[[-68.8182928756396,-21.0229231224379],[-68.8181904402119,-21.0230006785577],[-68.8182819107206,-21.0230991151712],[-68.8184122393634,-21.0230220110102],[-68.8182928756396,-21.0229231224379]]]}},{"type":"Feature","id":"606156969","properties":{"name":"VEL_30KMH_2","oid":"606156969","speedLimit":8.333333},"geometry":{"type":"Polygon","coordinates":[[[-68.813189860035,-21.0229396641278],[-68.8130275984701,-21.0229703069304],[-68.8130899253782,-21.0231181878301],[-68.8132436266116,-21.0230760652755],[-68.813189860035,-21.0229396641278]]]}},{"type":"Feature","id":"606157392","properties":{"name":"VEL_20KH","oid":"606157392","speedLimit":5.5555553},"geometry":{"type":"Polygon","coordinates":[[[-68.8236966570496,-21.0147517084214],[-68.8235411283297,-21.0146622205909],[-68.8233971416298,-21.0148769009924],[-68.8235594031947,-21.0149629539364],[-68.8236966570496,-21.0147517084214]]]}},{"type":"Feature","id":"606157536","properties":{"name":"VEL_20KMH_2","oid":"606157536","speedLimit":5.5555553},"geometry":{"type":"Polygon","coordinates":[[[-68.8218515689646,-21.0175100126107],[-68.8216922890883,-21.0174461056449],[-68.8216060124886,-21.0176124264612],[-68.8217501915554,-21.0176837455503],[-68.8218515689646,-21.0175100126107]]]}},{"type":"Feature","id":"606221546","properties":{"name":"ZD_BOT_NRT_03-AutoClean-1","oid":"606221546","speedLimit":5},"geometry":{"type":"Polygon","coordinates":[[[-68.792058441218,-20.9914258466825],[-68.7923459337002,-20.991402344828],[-68.7924459645404,-20.99040026191],[-68.7922167592594,-20.9902354777535],[-68.7921160551346,-20.9903221634398],[-68.792058441218,-20.9914258466825]]]}},{"type":"Feature","id":"606796346","properties":{"name":"ZD_STK_HG_03-AutoClean-1","oid":"606796346","speedLimit":5},"geometry":{"type":"Polygon","coordinates":[[[-68.8156300354358,-21.019891744778],[-68.8158932896759,-21.0197807437115],[-68.8159525387121,-21.018881074644],[-68.8157028463455,-21.018745125455],[-68.8156236873248,-21.018834432502],[-68.8155680932616,-21.0189385637957],[-68.8155581863611,-21.0189797824327],[-68.815511825914,-21.019189129721],[-68.8155019190135,-21.019415470658],[-68.8155119220975,-21.0196444329556],[-68.8155635726371,-21.0197944832572],[-68.8156300354358,-21.019891744778]]]}},{"type":"Feature","id":"607546676","properties":{"name":"ZD_STK_HG_01-AutoClean-1","oid":"607546676","speedLimit":5},"geometry":{"type":"Polygon","coordinates":[[[-68.8167378769914,-21.0205625419397],[-68.8169103340074,-21.0205562145173],[-68.8169718914475,-21.0205537739401],[-68.8171381927194,-21.0205140919628],[-68.8172381273761,-21.0204489195125],[-68.8173263276458,-21.0203765157224],[-68.817166951586,-21.0201504459607],[-68.816369590369,-21.02020160769],[-68.8162890847794,-21.020462026316],[-68.8165071327744,-21.0205372322503],[-68.8166777623038,-21.0205612764552],[-68.8167378769914,-21.0205625419397]]]}},{"type":"Feature","id":"607691021","properties":{"name":"VEL_13_KPH_901_001","oid":"607691021","speedLimit":3.6111112},"geometry":{"type":"Polygon","coordinates":[[[-68.8149048118441,-21.0017807637629],[-68.8151905730232,-21.0021590532282],[-68.8145360443042,-21.0025661776611],[-68.8143302116137,-21.0021388054767],[-68.8149048118441,-21.0017807637629]]]}},{"type":"Feature","id":"608715834","properties":{"name":"INFO_RESTRICCION VELOCIDAD","oid":"608715834","speedLimit":2.7777777},"geometry":{"type":"Polygon","coordinates":[[[-68.8173465261809,-21.0014916909529],[-68.8174917632662,-21.0011460329087],[-68.8172409166976,-21.0010697422734],[-68.8167297975774,-21.0012253968634],[-68.8166070674311,-21.0014527321096],[-68.8164617341623,-21.0015449316925],[-68.8158109565997,-21.0017275230234],[-68.8158505842018,-21.0019615472589],[-68.81653916188,-21.001835631554],[-68.8170767314628,-21.0017736228149],[-68.8173993309225,-21.0016353234405],[-68.8173465261809,-21.0014916909529]]]}},{"type":"Feature","id":"610258504","properties":{"name":"ZD_STK_MAR_01-AutoClean-1","oid":"610258504","speedLimit":5},"geometry":{"type":"Polygon","coordinates":[[[-68.8067460464371,-20.9870559480186],[-68.80691677215,-20.9870343443908],[-68.8070259404228,-20.9869899620426],[-68.8069556302841,-20.986726922056],[-68.806282249599,-20.9864775312233],[-68.8060003357598,-20.9865355627255],[-68.8060021632463,-20.9866488235857],[-68.8060374625909,-20.9867556666318],[-68.806062085567,-20.9868004105471],[-68.8060991162145,-20.9868523858022],[-68.8061819302082,-20.9869375348288],[-68.8062267517194,-20.9869603135492],[-68.8063370741941,-20.9870056902067],[-68.8065132823665,-20.9870368753598],[-68.8066847775474,-20.9870557672351],[-68.8067460464371,-20.9870559480186]]]}},{"type":"Feature","id":"610291621","properties":{"name":"ZD_STK_MAR_02-AutoClean-1","oid":"610291621","speedLimit":5},"geometry":{"type":"Polygon","coordinates":[[[-68.8068600238848,-20.9870306383292],[-68.8070899986339,-20.9870136446806],[-68.8072606281633,-20.9869896004756],[-68.8074344317482,-20.9869453989108],[-68.8075850551096,-20.9868688371003],[-68.807747028124,-20.9867069454797],[-68.8075556229585,-20.9865040160055],[-68.8068095275472,-20.9867636211057],[-68.8068600238848,-20.9870306383292]]]}},{"type":"Feature","id":"610367080","properties":{"name":"ZD_STK_MAR_03-AutoClean-1","oid":"610367080","speedLimit":5},"geometry":{"type":"Polygon","coordinates":[[[-68.8077179807069,-20.9864232057828],[-68.8077179807069,-20.9864232057828]]]}},{"type":"Feature","id":"610889233","properties":{"name":"VEL_10_KMH_902_001","oid":"610889233","speedLimit":2.7777777},"geometry":{"type":"Polygon","coordinates":[[[-68.8123102619254,-20.9973580763183],[-68.8124839693268,-20.9977861716366],[-68.8115522397601,-20.9974917657135],[-68.809428315708,-20.9972924519092],[-68.8093982102724,-20.997145836494],[-68.8105868459682,-20.9971034427642],[-68.8123102619254,-20.9973580763183]]]}},{"type":"Feature","id":"611100302","properties":{"name":"TRC_70%_007","oid":"611100302","speedLimit":5.5555553},"geometry":{"type":"Polygon","coordinates":[[[-68.8241705531552,-21.0149596998335],[-68.8231294629487,-21.0146916883008],[-68.8216844982247,-21.0170141234814],[-68.8226948097112,-21.0170282245941],[-68.8237997657618,-21.0152411797367],[-68.8241705531552,-21.0149596998335]]]}},{"type":"Feature","id":"611101069","properties":{"name":"TRC_90%-004","oid":"611101069","speedLimit":6.9444447},"geometry":{"type":"Polygon","coordinates":[[[-68.8219153386253,-21.0048460383284],[-68.8221497378154,-21.0056374180818],[-68.8212468632987,-21.0061351150462],[-68.8203421612955,-21.0061917906722],[-68.8203519720126,-21.0053149907168],[-68.8213163077859,-21.0052702468016],[-68.8218719598667,-21.0049928345271],[-68.8219153386253,-21.0048460383284]]]}},{"type":"Feature","id":"611176514","properties":{"name":"TRC_70%_004","oid":"611176514","speedLimit":6.9444447},"geometry":{"type":"Polygon","coordinates":[[[-68.8148216131164,-21.0023489662907],[-68.8141425576047,-21.0029851434129],[-68.8116388049103,-21.003001594711],[-68.811114027733,-21.0031372727247],[-68.8109746578412,-21.0032374267815],[-68.809832286409,-21.002154804816],[-68.8103889003248,-21.0023806034025],[-68.811509534286,-21.002424895359],[-68.8122912175923,-21.0024956720976],[-68.8134802380222,-21.0025531612494],[-68.8148216131164,-21.0023489662907]]]}},{"type":"Feature","id":"611187609","properties":{"name":"TRC_90%_003","oid":"611187609","speedLimit":5.5555553},"geometry":{"type":"Polygon","coordinates":[[[-68.8105686672867,-21.0028844470057],[-68.8087533960869,-21.0038413340497],[-68.806728348673,-20.9987524594224],[-68.8088231291246,-20.997203958388],[-68.8091131223777,-20.9977454953501],[-68.8081268567664,-20.9996251013574],[-68.8105686672867,-21.0028844470057]]]}},{"type":"Feature","id":"611197820","properties":{"name":"TRC_70%_006","oid":"611197820","speedLimit":8.333333},"geometry":{"type":"Polygon","coordinates":[[[-68.8222744878152,-21.0076554138553],[-68.8234255157624,-21.0124925474644],[-68.8229506578218,-21.0146568874778],[-68.8240664826079,-21.015259348478],[-68.8246126125222,-21.0142776037033],[-68.8238092879283,-21.0104346889301],[-68.8232117960249,-21.0088779622466],[-68.8231501424012,-21.0076744865141],[-68.8222744878152,-21.0076554138553]]]}},{"type":"Feature","id":"611200085","properties":{"name":"TRC_70%_008","oid":"611200085","speedLimit":5.5555553},"geometry":{"type":"Polygon","coordinates":[[[-68.8216901730512,-21.0170229818727],[-68.8196410797624,-21.0203163148182],[-68.8181293636892,-21.0225948196093],[-68.815719101357,-21.0232112913305],[-68.8138936347062,-21.0231443110452],[-68.8136511561021,-21.0225009929749],[-68.8143356940732,-21.0212544907704],[-68.8147778496238,-21.0200750592429],[-68.8155051892525,-21.0188151790597],[-68.8162895656969,-21.0177831764731],[-68.8168315597206,-21.0165852146373],[-68.8147030188606,-21.0153188262482],[-68.8137509945753,-21.019056434635],[-68.8129238164733,-21.0209462549098],[-68.8125958307376,-21.0227958508568],[-68.81864269503,-21.023599885455],[-68.8227004845377,-21.0170370829854],[-68.8216901730512,-21.0170229818727]]]}},{"type":"Feature","id":"611225942","properties":{"name":"TRAC_90%_005","oid":"611225942","speedLimit":9.722222},"geometry":{"type":"Polygon","coordinates":[[[-68.8225602489943,-21.0054848368113],[-68.8219042775228,-21.0058662899877],[-68.8221791699664,-21.0072045398164],[-68.8222865107527,-21.0076554138553],[-68.8231621653388,-21.0076744865141],[-68.8231288858477,-21.0070260161142],[-68.822852262101,-21.0057889146514],[-68.8225602489943,-21.0054848368113]]]}},{"type":"Feature","id":"611506423","properties":{"name":"TRAC_70%_01","oid":"611506423","speedLimit":5.5555553},"geometry":{"type":"Polygon","coordinates":[[[-68.8203421612955,-21.0061917906722],[-68.8200747711649,-21.0062085131455],[-68.8186683760246,-21.0056864104092],[-68.8170882734828,-21.0048133165156],[-68.8140843665871,-21.004470641399],[-68.813642499587,-21.0044111636289],[-68.8138041840509,-21.0037710092698],[-68.8158468330453,-21.0038914110781],[-68.8173053596428,-21.0041769586099],[-68.8181040674287,-21.0046012574749],[-68.8187899519688,-21.0050499621118],[-68.819909816462,-21.0053355096436],[-68.8203519720126,-21.0053149907168],[-68.8203421612955,-21.0061917906722]]]}},{"type":"Feature","id":"611524503","properties":{"name":"TRC_40%_F03_001","oid":"611524503","speedLimit":8.333333},"geometry":{"type":"Polygon","coordinates":[[[-68.8074414531437,-20.9948572982189],[-68.806480483793,-20.9955957987998],[-68.8063396711486,-20.9958263881489],[-68.8062391593909,-20.9959700206364],[-68.806086323809,-20.9960871683418],[-68.8061748126292,-20.9962648785183],[-68.8064644211484,-20.9960720729199],[-68.8066615011404,-20.9957583231627],[-68.8067982740777,-20.9955088419383],[-68.8074953159039,-20.9951867761403],[-68.8074414531437,-20.9948572982189]]]}},{"type":"Feature","id":"611565659","properties":{"name":"INFO_SINGLE_LANE_P2","oid":"611565659","speedLimit":9.722222},"geometry":{"type":"Polygon","coordinates":[[[-68.821369593445,-21.000642008522],[-68.821361129297,-20.9999015193226],[-68.8190565726315,-20.9988106717081],[-68.8156507148883,-20.9966767937138],[-68.8152355869014,-20.9975606442255],[-68.8179806639979,-20.9993918906476],[-68.8211662615255,-21.0007455070734],[-68.821369593445,-21.000642008522]]]}},{"type":"Feature","id":"612399621","properties":{"name":"TRC_90%_002","oid":"612399621","speedLimit":9.722222},"geometry":{"type":"Polygon","coordinates":[[[-68.8121799332826,-20.9933812913663],[-68.8111322064146,-20.9948511515801],[-68.8082470861417,-20.9938236685809],[-68.8046177941275,-20.9962924480014],[-68.8025830321801,-21.0038843605217],[-68.8051189101637,-21.0035989033816],[-68.8055896322138,-21.0011587781452],[-68.8065918642862,-21.0000314122645],[-68.8066678492514,-20.9987897912144],[-68.8075182075769,-20.9979906377706],[-68.8082773839442,-20.9968347080975],[-68.8065463694906,-20.9978194357999],[-68.8053466726922,-20.9997459551244],[-68.8058477887284,-20.9977908720075],[-68.8063337077716,-20.9968062346969],[-68.8076244903447,-20.99566458692],[-68.8088392879526,-20.9951650821208],[-68.810251454103,-20.9957501879054],[-68.8117092112324,-20.9957644698015],[-68.8122103272686,-20.994094753433],[-68.8121799332826,-20.9933812913663]]]}},{"type":"Feature","id":"612548768","properties":{"name":"ZD_STK_DIN_13-AutoClean-1","oid":"612548768","speedLimit":5},"geometry":{"type":"Polygon","coordinates":[[[-68.8263111169528,-21.0039950000212],[-68.8264670304067,-21.0039639956517],[-68.8265856246624,-21.0039114780461],[-68.8264967511082,-21.0036534999974],[-68.8258647293282,-21.0035553345591],[-68.8256978509553,-21.0037766135581],[-68.825793938272,-21.0038565198633],[-68.8259333081639,-21.0039333528491],[-68.8260582505307,-21.0039653515279],[-68.826179441741,-21.0039867743722],[-68.8263111169528,-21.0039950000212]]]}},{"type":"Feature","id":"612609137","properties":{"name":"EX-REDUCCION_901","oid":"612609137","speedLimit":2.7777777},"geometry":{"type":"Polygon","coordinates":[[[-68.8176752813847,-21.001768560877],[-68.8170007464976,-21.0017607871866],[-68.8160210213642,-21.0017735324231],[-68.8159434012795,-21.0020973156643],[-68.8178892896727,-21.0021862611444],[-68.8176752813847,-21.001768560877]]]}},{"type":"Feature","id":"612711005","properties":{"name":"ZD_STK_DIN_22-AutoClean-1","oid":"612711005","speedLimit":5},"geometry":{"type":"Polygon","coordinates":[[[-68.8234784166875,-21.0061216466757],[-68.8237401319916,-21.0060073011145],[-68.8237114693086,-21.005899554151],[-68.8235342031176,-21.0056067752793],[-68.8233894469498,-21.0055228013454],[-68.823261811445,-21.0055172874488],[-68.8231418706202,-21.0055336483552],[-68.8231249423242,-21.0058043716403],[-68.8234784166875,-21.0061216466757]]]}},{"type":"Feature","id":"612712103","properties":{"name":"VEL_10_KPH_F03_001","oid":"612712103","speedLimit":2.7777777},"geometry":{"type":"Polygon","coordinates":[[[-68.8051004429317,-20.9985050572083],[-68.8047871732714,-20.998451002943],[-68.8042440250456,-21.0007696416702],[-68.8043356879213,-21.0009116471062],[-68.8051004429317,-20.9985050572083]]]}},{"type":"Feature","id":"612786077","properties":{"name":"VEL_10KM_CHANCADO","oid":"612786077","speedLimit":2.7777777},"geometry":{"type":"Polygon","coordinates":[[[-68.8254292104392,-21.0011511852383],[-68.825364767494,-21.0018688053255],[-68.8251013208869,-21.0018432244608],[-68.825159608088,-21.0011379880431],[-68.8254292104392,-21.0011511852383]]]}},{"type":"Feature","id":"612791037","properties":{"name":"VEL_10KM_CHANCADO_001","oid":"612791037","speedLimit":2.7777777},"geometry":{"type":"Polygon","coordinates":[[[-68.8258754056968,-21.0020659497278],[-68.8260693116332,-21.0021752333511],[-68.8255361664914,-21.0027733555474],[-68.8253842927446,-21.0026427394716],[-68.8258075963291,-21.0020750792943],[-68.8258754056968,-21.0020659497278]]]}},{"type":"Feature","id":"612794629","properties":{"name":"TRAC_20%_011","oid":"612794629","speedLimit":11.111111},"geometry":{"type":"Polygon","coordinates":[[[-68.813642499587,-21.0044103501032],[-68.8113583338236,-21.0041027469848],[-68.8103425398777,-21.0036213205351],[-68.8099084637411,-21.0033357730033],[-68.8103425398777,-21.002968601723],[-68.811966021178,-21.0034500281727],[-68.8136329774205,-21.0037600718682],[-68.8138041840509,-21.003770195744],[-68.813642499587,-21.0044103501032]]]}},{"type":"Feature","id":"613121451","properties":{"name":"ZD_BOT_NRT_02-AutoClean-1","oid":"613121451","speedLimit":5},"geometry":{"type":"Polygon","coordinates":[[[-68.7924187446099,-20.9920332792288],[-68.7926276551724,-20.9918462587023],[-68.7923378542862,-20.9913016484208],[-68.792050361804,-20.9913246079248],[-68.7920747924131,-20.9915948792512],[-68.7922196447644,-20.9918369483522],[-68.7923184252191,-20.9919689203043],[-68.7924187446099,-20.9920332792288]]]}},{"type":"Feature","id":"613135069","properties":{"name":"ZD_RELL_PIO3-AutoClean-1","oid":"613135069","speedLimit":5},"geometry":{"type":"Polygon","coordinates":[[[-68.8113315948105,-20.9938732936505],[-68.811527424417,-20.993674070238],[-68.8113690101921,-20.9935132633184],[-68.8112225227213,-20.9934256737146],[-68.8105856917662,-20.9931705882018],[-68.8104553631234,-20.9934124765194],[-68.8105733802782,-20.9934748468255],[-68.8113315948105,-20.9938732936505]]]}}]}