{"type":"FeatureCollection","features":[{"type":"Feature","id":"551760555","properties":{"name":"ZD_BOT_PAD59_01-AutoClean-1","oid":"551760555","speedLimit":5},"geometry":{"type":"Polygon","coordinates":[[[-68.81953885841,-20.9847267371615],[-68.8197129153172,-20.9845105671156],[-68.8194275619448,-20.9842821013249],[-68.8192906999702,-20.9842199897308],[-68.8190238960086,-20.9842249622747],[-68.8189037573371,-20.9842399703164],[-68.8187851564406,-20.9842623015591],[-68.8185569890758,-20.9843355335696],[-68.8186336856036,-20.98459699897],[-68.81953885841,-20.9847267371615]]]}},{"type":"Feature","id":"553267213","properties":{"name":"ZD_BOT_PAD59_02-AutoClean-1","oid":"553267213","speedLimit":5},"geometry":{"type":"Polygon","coordinates":[[[-68.818339393914,-20.984947246882],[-68.8186122528646,-20.9848595492891],[-68.8187529592767,-20.9845753005965],[-68.8187231648862,-20.9843055174862],[-68.8185953373397,-20.9842916847732],[-68.8184363698496,-20.984333544552],[-68.8183555405514,-20.9843740481825],[-68.8182557773986,-20.9844621074149],[-68.8182157952488,-20.9846112837326],[-68.8182507796299,-20.9847333370834],[-68.8182836495704,-20.9848441796079],[-68.818339393914,-20.984947246882]]]}},{"type":"Feature","id":"553508825","properties":{"name":"ZD_STK_HG_02-AutoClean-1","oid":"553508825","speedLimit":5},"geometry":{"type":"Polygon","coordinates":[[[-68.8163615269378,-21.0204981332238],[-68.8164462006734,-21.0202388376606],[-68.8158718417128,-21.0197218739124],[-68.8155937927716,-21.0197937497746],[-68.8156288732636,-21.0200308949148],[-68.8157081647868,-21.0201642495018],[-68.8157750579991,-21.0202251857673],[-68.815969490425,-21.0203774360213],[-68.8161130801652,-21.0204476845054],[-68.8163615269378,-21.0204981332238]]]}},{"type":"Feature","id":"558966402","properties":{"name":"ZD_STK_BL_02-AutoClean-1","oid":"558966402","speedLimit":5},"geometry":{"type":"Polygon","coordinates":[[[-68.8233211121209,-20.9923489237161],[-68.8235134301062,-20.9921467672031],[-68.8232516239133,-20.9918917209048],[-68.8231377324527,-20.9917830482176],[-68.8230722809045,-20.9917247338389],[-68.8229717488642,-20.9916513210086],[-68.82294157003,-20.9916342335395],[-68.8228293124553,-20.9915786314575],[-68.8227099426713,-20.9915377661874],[-68.8225892273342,-20.9917841331363],[-68.8231952067932,-20.9922519139046],[-68.8233211121209,-20.9923489237161]]]}},{"type":"Feature","id":"570805601","properties":{"name":"ZD_STK_MAR_02-AutoClean-1-tmp-1","oid":"570805601","speedLimit":5},"geometry":{"type":"Polygon","coordinates":[[[-68.8065016020034,-20.986707256201],[-68.8068534641444,-20.9867016507878],[-68.8068577891366,-20.9864304211193],[-68.8062795857385,-20.9862084648406],[-68.8059975001378,-20.9862645189721],[-68.8060055734566,-20.9863792491218],[-68.8060345028486,-20.9865022065716],[-68.8060570889189,-20.9865299624077],[-68.8061424354311,-20.9866179312301],[-68.8062199969574,-20.9866490322321],[-68.806335426193,-20.9866832071704],[-68.8063830972178,-20.9866923385692],[-68.8065016020034,-20.986707256201]]]}},{"type":"Feature","id":"592941111","properties":{"name":"INFO_ESTACION","oid":"592941111","speedLimit":5.5555553},"geometry":{"type":"Polygon","coordinates":[[[-68.8219615268035,-21.0107401034394],[-68.8222061291386,-21.0106387539533],[-68.8220025661737,-21.0102342601076],[-68.8218068843056,-21.009793783126],[-68.8213968750476,-21.0098123171533],[-68.8218505186711,-21.0107787988722],[-68.8219615268035,-21.0107401034394]]]}},{"type":"Feature","id":"600121666","properties":{"name":"ZD_STK_3C_02-AutoClean-1","oid":"600121666","speedLimit":5},"geometry":{"type":"Polygon","coordinates":[[[-68.8050726245894,-20.9853168425103],[-68.805552025944,-20.9844696114357],[-68.8053601885134,-20.9842670932832],[-68.8051449000141,-20.9844475514227],[-68.8049717081053,-20.9847149838758],[-68.8048005345262,-20.9850311472594],[-68.8047677606966,-20.9851937042408],[-68.8047847723325,-20.9853020152884],[-68.8050726245894,-20.9853168425103]]]}},{"type":"Feature","id":"602013008","properties":{"name":"ZD_STK_3C_01-AutoClean-1","oid":"602013008","speedLimit":5},"geometry":{"type":"Polygon","coordinates":[[[-68.8048578166448,-20.9854543559522],[-68.8051222178329,-20.9853462257244],[-68.8054187200741,-20.9845734019889],[-68.8051702733015,-20.9844358885469],[-68.8048465716651,-20.9848873051252],[-68.8047517101701,-20.9850928068041],[-68.8047386390826,-20.9852526514887],[-68.8047828501138,-20.9853624090946],[-68.8048578166448,-20.9854543559522]]]}},{"type":"Feature","id":"606796346","properties":{"name":"ZD_STK_HG_03-AutoClean-1","oid":"606796346","speedLimit":5},"geometry":{"type":"Polygon","coordinates":[[[-68.8156322371464,-21.0199181537826],[-68.8158891416815,-21.0197950155131],[-68.815914418858,-21.0189055630201],[-68.8156498254479,-21.0187977944318],[-68.8155878338935,-21.0188969740806],[-68.8155352612108,-21.0190466024477],[-68.8154995079422,-21.0192276030465],[-68.815496816836,-21.0192715422528],[-68.815493645175,-21.0193852778938],[-68.81550133405,-21.0196765785578],[-68.8155591928342,-21.0198242179074],[-68.8156322371464,-21.0199181537826]]]}},{"type":"Feature","id":"607546676","properties":{"name":"ZD_STK_HG_01-AutoClean-1","oid":"607546676","speedLimit":5},"geometry":{"type":"Polygon","coordinates":[[[-68.8167262679444,-21.0205776035166],[-68.8168985948547,-21.0205712748244],[-68.8169601058545,-21.0205688337573],[-68.8171262816649,-21.0205291438158],[-68.8172261409286,-21.0204639582855],[-68.817314274658,-21.020391539964],[-68.8171550188351,-21.0201654248304],[-68.8163582591659,-21.0202165968278],[-68.8162778143115,-21.0204770677195],[-68.8164956978061,-21.0205522887476],[-68.8166661986086,-21.0205763377782],[-68.8167262679444,-21.0205776035166]]]}},{"type":"Feature","id":"619355510","properties":{"name":"VEL_15_KMH","oid":"619355510","speedLimit":4.1666665},"geometry":{"type":"Polygon","coordinates":[[[-68.8170212324106,-21.0020521651073],[-68.8155241123421,-21.0022813541772],[-68.8153952275754,-21.0018275869418],[-68.8168642832502,-21.0015297767658],[-68.8176226946554,-21.001675246278],[-68.8175563781088,-21.002253688751],[-68.8171144600196,-21.0022869595904],[-68.8170212324106,-21.0020521651073]]]}},{"type":"Feature","id":"619770241","properties":{"name":"VEL_10_KMH_02","oid":"619770241","speedLimit":2.7777777},"geometry":{"type":"Polygon","coordinates":[[[-68.8105511402305,-20.996992466051],[-68.810293274586,-20.9972350357845],[-68.8099504468731,-20.997201945765],[-68.8095811886525,-20.9972763531041],[-68.80956657979,-20.9969732087445],[-68.8105511402305,-20.996992466051]]]}},{"type":"Feature","id":"619990689","properties":{"name":"ZD_BOT_NRT_03-AutoClean-1","oid":"619990689","speedLimit":5},"geometry":{"type":"Polygon","coordinates":[[[-68.7920073999,-20.9917569197596],[-68.7921668479448,-20.9915309854457],[-68.7922290317211,-20.9903543007338],[-68.7919698205235,-20.990235502139],[-68.7918577551708,-20.990426086186],[-68.7918136402506,-20.9905266219832],[-68.7917940336194,-20.9905770707015],[-68.7917750036539,-20.9906293276177],[-68.7917414609368,-20.990734564729],[-68.791735021504,-20.9907875449243],[-68.7917219504166,-20.9908958559719],[-68.7916971537947,-20.9912748542287],[-68.7916959043526,-20.9913874145412],[-68.7917430948227,-20.9915426483214],[-68.791767122557,-20.991606839343],[-68.7918866845629,-20.9917207558038],[-68.7920073999,-20.9917569197596]]]}},{"type":"Feature","id":"620034757","properties":{"name":"VEL_10_KMH_03","oid":"620034757","speedLimit":2.7777777},"geometry":{"type":"Polygon","coordinates":[[[-68.8141285815342,-21.0025175952185],[-68.8141857675419,-21.002861695258],[-68.8146974621714,-21.0028102520308],[-68.8148629652052,-21.0028016630913],[-68.8150648942843,-21.0024589192002],[-68.8152850844414,-21.002300340254],[-68.8154384774971,-21.0022403984973],[-68.815405030891,-21.0020603924073],[-68.8153306410256,-21.001846211379],[-68.8150695076092,-21.0018947614897],[-68.8148959312567,-21.0020838989786],[-68.8146866016355,-21.0023206824792],[-68.8145819368249,-21.0024348701696],[-68.8141653920232,-21.00250819259],[-68.8141285815342,-21.0025175952185]]]}},{"type":"Feature","id":"620970737","properties":{"name":"ZD_BOT_NRT_02-AutoClean-1","oid":"620970737","speedLimit":5},"geometry":{"type":"Polygon","coordinates":[[[-68.7921060097215,-20.9906520204999],[-68.79370875571,-20.9903885660819],[-68.7937955438862,-20.990129903388],[-68.7936879957475,-20.9900896709872],[-68.7933040325535,-20.9899778339539],[-68.7932454048818,-20.9899687929649],[-68.793130263979,-20.9899571300892],[-68.7930725013058,-20.9899551410716],[-68.7926690275915,-20.989947456231],[-68.7924979501233,-20.9899716860814],[-68.792388383655,-20.9900098390548],[-68.7922280706117,-20.9900733067972],[-68.7921191769199,-20.9901214952683],[-68.7919927910375,-20.9902302583654],[-68.7918901445566,-20.9904316011893],[-68.7918470868568,-20.9905327698557],[-68.7921060097215,-20.9906520204999]]]}},{"type":"Feature","id":"621013260","properties":{"name":"ZD_STK_3C_04_-AutoClean-2","oid":"621013260","speedLimit":5},"geometry":{"type":"Polygon","coordinates":[[[-68.8078213012818,-20.9864063720887],[-68.8078962678128,-20.9861444546388],[-68.8071923513089,-20.9858015299279],[-68.8069982072158,-20.9860019686529],[-68.8071160392247,-20.9861116358489],[-68.8072112851635,-20.9861846870396],[-68.8072695283914,-20.9862239249317],[-68.8073514149099,-20.9862683161874],[-68.8075428678968,-20.986335761965],[-68.8076600271292,-20.9863745478076],[-68.8078213012818,-20.9864063720887]]]}},{"type":"Feature","id":"621013480","properties":{"name":"ZD_STK_3C_04_-AutoClean-1","oid":"621013480","speedLimit":5},"geometry":{"type":"Polygon","coordinates":[[[-68.8071133481185,-20.9861059400259],[-68.8073196021897,-20.9859163504876],[-68.8070476082375,-20.9855648368372],[-68.8069171856957,-20.9854581531676],[-68.8067168905026,-20.985347310643],[-68.8066113606936,-20.9853134973443],[-68.806483725369,-20.985556790357],[-68.8069881155674,-20.9860001604552],[-68.8071133481185,-20.9861059400259]]]}},{"type":"Feature","id":"621174471","properties":{"name":"ZD_STK_MAR_01-AutoClean-1","oid":"621174471","speedLimit":5},"geometry":{"type":"Polygon","coordinates":[[[-68.8069123801489,-20.9870404166438],[-68.8072844255867,-20.987004252688],[-68.8074437775205,-20.9869726092267],[-68.8075309501406,-20.986942050684],[-68.8076368643933,-20.9868736103977],[-68.8076641598995,-20.9868533585824],[-68.8077402797617,-20.9867554446721],[-68.8077608475023,-20.9866287804169],[-68.8075004829735,-20.9865122420693],[-68.8068690341162,-20.9867722609115],[-68.8069123801489,-20.9870404166438]]]}},{"type":"Feature","id":"621174472","properties":{"name":"ZD_STK_MAR_01-AutoClean-2","oid":"621174472","speedLimit":5},"geometry":{"type":"Polygon","coordinates":[[[-68.806603191264,-20.9870671779711],[-68.8069514011894,-20.9870647369041],[-68.8069625500581,-20.9867936880554],[-68.8062210541777,-20.9866038272874],[-68.8060409422814,-20.9868156576585],[-68.8061243665749,-20.9868924156547],[-68.8062125003043,-20.9869726092267],[-68.8063731016803,-20.987029657867],[-68.806603191264,-20.9870671779711]]]}},{"type":"Feature","id":"621360195","properties":{"name":"ZD_STK_DIN_21-AutoClean-1","oid":"621360195","speedLimit":5},"geometry":{"type":"Polygon","coordinates":[[[-68.8246723357867,-21.0063495279753],[-68.8247635450661,-21.0062807260494],[-68.8248437976986,-21.0062004420676],[-68.8249046359219,-21.006105963733],[-68.8249282792124,-21.0060581369015],[-68.8249846002216,-21.0058937717223],[-68.8249743163513,-21.0057331133487],[-68.8249240503312,-21.0056285091065],[-68.8246421569524,-21.005685376927],[-68.824463871164,-21.0061621986843],[-68.8246723357867,-21.0063495279753]]]}},{"type":"Feature","id":"621746744","properties":{"name":"ZD_STK_DIN_13-AutoClean-1","oid":"621746744","speedLimit":5},"geometry":{"type":"Polygon","coordinates":[[[-68.8265392907414,-21.0042107012193],[-68.8265907100928,-21.0039439016354],[-68.826318043364,-21.0038864009456],[-68.8258573836421,-21.0038317029625],[-68.8257255194363,-21.0038172373802],[-68.8256871711724,-21.0040861163916],[-68.8260255777822,-21.004153652579],[-68.8265392907414,-21.0042107012193]]]}},{"type":"Feature","id":"622067046","properties":{"name":"ZD_STK_DIN_22-AutoClean-1","oid":"622067046","speedLimit":5},"geometry":{"type":"Polygon","coordinates":[[[-68.824665800243,-21.005801553635],[-68.8249527875014,-21.0057752443572],[-68.8249535563889,-21.005665757981],[-68.824953364167,-21.0055529264389],[-68.8249014642609,-21.005399048807],[-68.8247749822676,-21.0052123523851],[-68.8245194232856,-21.0053379317217],[-68.824665800243,-21.005801553635]]]}}]}