{"type":"FeatureCollection","features":[{"type":"Feature","id":"553508825","properties":{"name":"ZD_STK_HG_02-AutoClean-1","oid":"553508825","speedLimit":5},"geometry":{"type":"Polygon","coordinates":[[[-68.8157266959655,-21.0200480865797],[-68.8159955260343,-21.0199495410707],[-68.8158656796683,-21.0189947345382],[-68.8155891550001,-21.0189171638532],[-68.8155452957831,-21.0190256543218],[-68.8155141326553,-21.0191359529649],[-68.8154871053746,-21.0192513144965],[-68.8154835466224,-21.0194057325968],[-68.8154888366595,-21.0196054454678],[-68.8154953770691,-21.0196392583305],[-68.8155309645916,-21.0197540774098],[-68.8155919442924,-21.019858770712],[-68.8157266959655,-21.0200480865797]]]}},{"type":"Feature","id":"558966402","properties":{"name":"ZD_STK_BL_02-AutoClean-1","oid":"558966402","speedLimit":5},"geometry":{"type":"Polygon","coordinates":[[[-68.8233378090263,-20.9923335635119],[-68.8235302701954,-20.9921314096054],[-68.8232682690836,-20.9918763665955],[-68.823154292829,-20.9917676953094],[-68.8230887925511,-20.9917093816825],[-68.8229881856631,-20.9916359697988],[-68.8229579843602,-20.99161888255],[-68.822845643208,-20.9915632811848],[-68.8227261845513,-20.9915224164416],[-68.8226053793397,-20.9917687802141],[-68.82321180996,-20.9922365549513],[-68.8233378090263,-20.9923335635119]]]}},{"type":"Feature","id":"592941111","properties":{"name":"INFO_ESTACION","oid":"592941111","speedLimit":5.5555553},"geometry":{"type":"Polygon","coordinates":[[[-68.8219772114759,-21.010724506116],[-68.8222563330715,-21.0106257797896],[-68.8218335148309,-21.009742034514],[-68.821284697524,-21.0090401915908],[-68.8208546655964,-21.0093247982535],[-68.8218661206961,-21.0107632010498],[-68.8219772114759,-21.010724506116]]]}},{"type":"Feature","id":"607546676","properties":{"name":"ZD_STK_HG_01-AutoClean-1","oid":"607546676","speedLimit":5},"geometry":{"type":"Polygon","coordinates":[[[-68.8168102879352,-21.0205946977241],[-68.8170913331806,-21.0205335814268],[-68.8173090903455,-21.0203986012021],[-68.8171827065493,-21.0201547688739],[-68.81584182641,-21.0198697101676],[-68.8156207990404,-21.0200440181872],[-68.8156866840483,-21.0201335228238],[-68.815763052948,-21.0202154331276],[-68.8158062388875,-21.0202517774345],[-68.8158954000588,-21.0203208496996],[-68.8160451562009,-21.0204062859436],[-68.8160967100173,-21.020428074446],[-68.8163645782611,-21.0205285185382],[-68.816474899581,-21.0205648628452],[-68.8165904147554,-21.0205910813751],[-68.8168102879352,-21.0205946977241]]]}},{"type":"Feature","id":"619770241","properties":{"name":"VEL_10_KMH_02","oid":"619770241","speedLimit":2.7777777},"geometry":{"type":"Polygon","coordinates":[[[-68.8105583296874,-20.9969770459772],[-68.8103002720578,-20.9972196125833],[-68.8099571891042,-20.9971865229904],[-68.8095876559649,-20.9972609293701],[-68.8095730362259,-20.996957788919],[-68.8105583296874,-20.9969770459772]]]}},{"type":"Feature","id":"620034757","properties":{"name":"VEL_10_KMH_03","oid":"620034757","speedLimit":2.7777777},"geometry":{"type":"Polygon","coordinates":[[[-68.8141384344534,-21.0025021039087],[-68.814195663037,-21.0028461995116],[-68.8147077386314,-21.0027947569478],[-68.8148733648848,-21.002786168119],[-68.8150754443033,-21.0024434286469],[-68.8152957983955,-21.0022848517453],[-68.8154493056548,-21.0022249107614],[-68.8154158341471,-21.0020449069922],[-68.8153413888973,-21.0018307287254],[-68.815080061063,-21.0018792782101],[-68.81490635548,-21.0020684132604],[-68.8146968700096,-21.0023051937082],[-68.8145921272744,-21.0024193799264],[-68.8141752723484,-21.0024927014014],[-68.8141384344534,-21.0025021039087]]]}},{"type":"Feature","id":"620970737","properties":{"name":"ZD_BOT_NRT_02-AutoClean-1","oid":"620970737","speedLimit":5},"geometry":{"type":"Polygon","coordinates":[[[-68.7937034057418,-20.9903732311529],[-68.7937902585333,-20.990114571794],[-68.7936826303233,-20.9900743399118]]]}},{"type":"Feature","id":"622898566","properties":{"name":"INFO_RED_VEL_20KPH_902","oid":"622898566","speedLimit":3.6111112},"geometry":{"type":"Polygon","coordinates":[[[-68.8075766723947,-21.0003332890324],[-68.8075995638281,-21.0000105298883],[-68.8076807418524,-20.999996878171],[-68.8078388658715,-21.0005679900795],[-68.8079512070236,-21.0008163428439],[-68.8078013546991,-21.0008847822479],[-68.8075766723947,-21.0003332890324]]]}},{"type":"Feature","id":"623314189","properties":{"name":"ZD_STK_DIN_13-AutoClean-1","oid":"623314189","speedLimit":5},"geometry":{"type":"Polygon","coordinates":[[[-68.8262209754458,-21.0046952387317],[-68.8263310082182,-21.0044445353404],[-68.8257846916562,-21.0041181598474],[-68.825534713356,-21.0042536825244],[-68.8255824198727,-21.0043473459623],[-68.825678987096,-21.004488564389],[-68.8259936000316,-21.0046332183471],[-68.8261019977016,-21.0046828527365],[-68.8262209754458,-21.0046952387317]]]}},{"type":"Feature","id":"623520976","properties":{"name":"ZD_STK_DIN_22-AutoClean-1","oid":"623520976","speedLimit":5},"geometry":{"type":"Polygon","coordinates":[[[-68.8239613601304,-21.0049010993959],[-68.8240120483044,-21.0048705412472],[-68.8241982576114,-21.0047463196606],[-68.8241554564019,-21.0046351169303],[-68.8240335931829,-21.0045235525651],[-68.8238415167438,-21.0044209386635],[-68.8236839698197,-21.0044543898913],[-68.8236008681455,-21.0045704746928],[-68.8236383793179,-21.0047222709401],[-68.8237598578069,-21.0047967677285],[-68.8239613601304,-21.0049010993959]]]}},{"type":"Feature","id":"623764784","properties":{"name":"ZD_STK_DIN_12-AutoClean-1","oid":"623764784","speedLimit":5},"geometry":{"type":"Polygon","coordinates":[[[-68.8263364906203,-21.0047529194975],[-68.8264571034669,-21.0046523849966],[-68.8264859582149,-21.0045209307121],[-68.826484804025,-21.0045157774148],[-68.8263818887571,-21.0043905613323],[-68.8262448287042,-21.0043651564809],[-68.8261033442565,-21.0044612609544],[-68.8260845886703,-21.0045906358382],[-68.8260896863424,-21.0046124243406],[-68.8261785589663,-21.0047230846186],[-68.8263364906203,-21.0047529194975]]]}},{"type":"Feature","id":"623816501","properties":{"name":"ZD_STK_DIN_21-AutoClean-1","oid":"623816501","speedLimit":5},"geometry":{"type":"Polygon","coordinates":[[[-68.8241238123616,-21.0051744953768],[-68.8242007583563,-21.0051700653493],[-68.8244029339572,-21.0051056943379],[-68.8244088010893,-21.0049820152037],[-68.8243296428973,-21.0048433282213],[-68.8240733165526,-21.0046117914796],[-68.8238394007289,-21.0047705491986],[-68.8239206749358,-21.0048947707852],[-68.8241238123616,-21.0051744953768]]]}},{"type":"Feature","id":"623885777","properties":{"name":"VELO_REDUC_15KM_901","oid":"623885777","speedLimit":4.1666665},"geometry":{"type":"Polygon","coordinates":[[[-68.8075906188562,-20.9991330228147],[-68.807723927792,-20.9991297681006],[-68.8077038256508,-20.9994390563449],[-68.8077042103808,-20.9997288163048],[-68.8077193110323,-20.9998533995263],[-68.8075043431597,-20.9998314302064],[-68.8075906188562,-20.9991330228147]]]}}]}