{"type":"FeatureCollection","features":[{"type":"Feature","id":"553508825","properties":{"name":"ZD_STK_HG_02-AutoClean-1","oid":"553508825","speedLimit":5},"geometry":{"type":"Polygon","coordinates":[[[-68.8163725123302,-21.0204830707318],[-68.8164572514049,-21.0202238258673],[-68.8158824492366,-21.0197069631983],[-68.8156041857371,-21.019778825007],[-68.8156392932993,-21.0200159237794],[-68.8157186460082,-21.0201492522923],[-68.8157855908391,-21.0202101766433],[-68.8159801733,-21.0203623971285],[-68.8161238738421,-21.0204326318774],[-68.8163725123302,-21.0204830707318]]]}},{"type":"Feature","id":"558966402","properties":{"name":"ZD_STK_BL_02-AutoClean-1","oid":"558966402","speedLimit":5},"geometry":{"type":"Polygon","coordinates":[[[-68.8233374679208,-20.9923393650894],[-68.8235299343095,-20.9921372481031],[-68.8232679260922,-20.9918822516726],[-68.8231539467466,-20.9917736002336],[-68.8230884446923,-20.9917152972568],[-68.8229878350758,-20.9916418987805],[-68.8229576329538,-20.9916248146524],[-68.822845288755,-20.991569223442],[-68.8227258268585,-20.9915283661621],[-68.8226050183707,-20.9917746849402],[-68.8232114654374,-20.9922423742458],[-68.8233374679208,-20.9923393650894]]]}},{"type":"Feature","id":"592941111","properties":{"name":"INFO_ESTACION","oid":"592941111","speedLimit":5.5555553},"geometry":{"type":"Polygon","coordinates":[[[-68.820379872226,-21.0085296045982],[-68.8205721462444,-21.0083548764521],[-68.8202324204649,-21.0080415770449],[-68.8198861540985,-21.0076921207527],[-68.8195079542782,-21.0078427141782],[-68.8202900353409,-21.0086019183679],[-68.820379872226,-21.0085296045982]]]}},{"type":"Feature","id":"600880362","properties":{"name":"VEL_15_KPH_RC_002","oid":"600880362","speedLimit":4.1666665},"geometry":{"type":"Polygon","coordinates":[[[-68.8105515823402,-21.0009301505391],[-68.8108662999933,-21.0010288588347],[-68.810790409948,-21.0012875613459],[-68.8107808876229,-21.0014273077059],[-68.8108326352077,-21.0015342416928],[-68.8109928795872,-21.0015571109225],[-68.8111189782557,-21.0015630768085],[-68.8112135282107,-21.0015926350619],[-68.8112009279624,-21.0017585047712],[-68.8110276985941,-21.001935673507],[-68.8103190067641,-21.0017453979004],[-68.8102525428588,-21.0013291417635],[-68.8103759483444,-21.0008415661712],[-68.8105515823402,-21.0009301505391]]]}},{"type":"Feature","id":"603087867","properties":{"name":"ZD_BOT_NRT_04-AutoClean-1","oid":"603087867","speedLimit":5},"geometry":{"type":"Polygon","coordinates":[[[-68.7933707109037,-20.992613615061],[-68.7935184512201,-20.9926128015311],[-68.7935315323939,-20.9926104513336],[-68.7937927711304,-20.9925287367738],[-68.7937033189857,-20.9922709381848],[-68.7933707109037,-20.992613615061]]]}},{"type":"Feature","id":"604050980","properties":{"name":"VEL_10_KPH_901_002","oid":"604050980","speedLimit":2.7777777},"geometry":{"type":"Polygon","coordinates":[[[-68.8165624779062,-21.0014664475337],[-68.8166513529403,-21.0016385543056],[-68.8167047356718,-21.0018322648163],[-68.8164765846103,-21.0018629077762],[-68.8161714854674,-21.0019975921723],[-68.816029323887,-21.0020527314217],[-68.8157253789654,-21.0020995545876],[-68.8153308276778,-21.0021178138144],[-68.8151690443366,-21.0018740260183],[-68.8151768353299,-21.0017216247486],[-68.8151907821696,-21.0016560000026],[-68.8153473715153,-21.0016612427509],[-68.8155850449018,-21.0016743496216],[-68.8158338757602,-21.0016743496216],[-68.815976422081,-21.0016480454879],[-68.8161302220588,-21.0015744662272],[-68.8165624779062,-21.0014664475337]]]}},{"type":"Feature","id":"606156222","properties":{"name":"VEL_30KMH","oid":"606156222","speedLimit":8.333333},"geometry":{"type":"Polygon","coordinates":[[[-68.818292559332,-21.0229231181063],[-68.8181901221986,-21.0230006746243],[-68.8182815942304,-21.0230991117433],[-68.8184119250434,-21.0230220071864],[-68.818292559332,-21.0229231181063]]]}},{"type":"Feature","id":"606156969","properties":{"name":"VEL_30KMH_2","oid":"606156969","speedLimit":8.333333},"geometry":{"type":"Polygon","coordinates":[[[-68.8131894587567,-21.0229396598811],[-68.81302719449,-21.022970302841],[-68.813089522436,-21.0231181845001],[-68.8132432262286,-21.0230760617292],[-68.8131894587567,-21.0229396598811]]]}},{"type":"Feature","id":"606157392","properties":{"name":"VEL_20KH","oid":"606157392","speedLimit":5.5555553},"geometry":{"type":"Polygon","coordinates":[[[-68.8236964307206,-21.0147516621287],[-68.8235408994111,-21.0146621738387],[-68.8233969103137,-21.0148768553426],[-68.8235591745804,-21.0149629087285],[-68.8236964307206,-21.0147516621287]]]}},{"type":"Feature","id":"606157536","properties":{"name":"VEL_20KMH_2","oid":"606157536","speedLimit":5.5555553},"geometry":{"type":"Polygon","coordinates":[[[-68.8218513119131,-21.0175099804822],[-68.8216920293845,-21.0174460731882],[-68.8216057513482,-21.0176123948586],[-68.8217499328158,-21.017683714314],[-68.8218513119131,-21.0175099804822]]]}},{"type":"Feature","id":"606796346","properties":{"name":"ZD_STK_HG_03-AutoClean-1","oid":"606796346","speedLimit":5},"geometry":{"type":"Polygon","coordinates":[[[-68.8156296747891,-21.0198917248799],[-68.8158929334127,-21.0197807232434],[-68.8159521834354,-21.018881049556],[-68.8157024869111,-21.0187450996689],[-68.8156233265724,-21.0188344071745],[-68.8155677315835,-21.0189385390029],[-68.815557824518,-21.0189797578516],[-68.815511463299,-21.019189106215],[-68.8155015562335,-21.0194154483142],[-68.8155115594841,-21.0196444117875],[-68.8155632108838,-21.0197944628597],[-68.8156296747891,-21.0198917248799]]]}},{"type":"Feature","id":"607546676","properties":{"name":"ZD_STK_HG_01-AutoClean-1","oid":"607546676","speedLimit":5},"geometry":{"type":"Polygon","coordinates":[[[-68.8167375347915,-21.0205625254862],[-68.816909994679,-21.0205561980314],[-68.8169715531441,-21.0205537574416],[-68.8171378571851,-21.0205140752605],[-68.8172377935058,-21.0204489024756],[-68.8173259952442,-21.0203764983136],[-68.8171666165305,-21.0201504273911],[-68.8163692420367,-21.0202015893832],[-68.8162887351065,-21.0204620093463],[-68.8165067867323,-21.0205372156668],[-68.8166774191028,-21.0205612599953],[-68.8167375347915,-21.0205625254862]]]}},{"type":"Feature","id":"607691021","properties":{"name":"VEL_13_KPH_901_001","oid":"607691021","speedLimit":3.6111112},"geometry":{"type":"Polygon","coordinates":[[[-68.8149044391216,-21.0017806508631],[-68.815190205059,-21.0021589422709],[-68.8145356654414,-21.0025660687944],[-68.8143298293235,-21.0021386944154],[-68.8149044391216,-21.0017806508631]]]}},{"type":"Feature","id":"608715834","properties":{"name":"INFO_RESTRICCION VELOCIDAD","oid":"608715834","speedLimit":2.7777777},"geometry":{"type":"Polygon","coordinates":[[[-68.8173461941156,-21.0014915765687],[-68.8174914336193,-21.0011459167495],[-68.8172405828738,-21.0010696257224],[-68.8167294552429,-21.0012252811117],[-68.816606723053,-21.0014526175253],[-68.8164613873642,-21.0015448175816],[-68.8158105989655,-21.0017274098502],[-68.8158502272275,-21.0019614352874],[-68.8165388163712,-21.0018355189359],[-68.817076394905,-21.0017735098784],[-68.8173989997364,-21.0016352097938],[-68.8173461941156,-21.0014915765687]]]}},{"type":"Feature","id":"610258504","properties":{"name":"ZD_STK_MAR_01-AutoClean-1","oid":"610258504","speedLimit":5},"geometry":{"type":"Polygon","coordinates":[[[-68.8067455378625,-20.9870557595053],[-68.8069162664182,-20.9870341557666],[-68.8070254365087,-20.9869897731905],[-68.8060615656037,-20.9868002207216],[-68.8060985968679,-20.9868521962436],[-68.8061814122405,-20.9869373457074],[-68.806226234498,-20.9869601245449],[-68.8063365588097,-20.9870055014354],[-68.8065127699162,-20.9870366867486],[-68.8066842679527,-20.9870555787209],[-68.8067455378625,-20.9870557595053]]]}},{"type":"Feature","id":"610291621","properties":{"name":"ZD_STK_MAR_02-AutoClean-1","oid":"610291621","speedLimit":5},"geometry":{"type":"Polygon","coordinates":[[[-68.8068595172081,-20.9870304496859],[-68.8070894957865,-20.9870134559501],[-68.8072601281571,-20.9869894116216],[-68.807433934636,-20.9869452098299],[-68.8075845605054,-20.9868686476262],[-68.8068595172081,-20.9870304496859]]]}},{"type":"Feature","id":"610889233","properties":{"name":"VEL_10_KMH_902_001","oid":"610889233","speedLimit":2.7777777},"geometry":{"type":"Polygon","coordinates":[[[-68.8123098460009,-20.9973579407075],[-68.8124835562947,-20.9977860382242],[-68.8115518112137,-20.9974916307892],[-68.8094278517961,-20.9972923159615],[-68.8093977458592,-20.9971456997934],[-68.8105864013471,-20.9971033058459],[-68.8123098460009,-20.9973579407075]]]}},{"type":"Feature","id":"611100302","properties":{"name":"TRC_70%_007","oid":"611100302","speedLimit":5.5555553},"geometry":{"type":"Polygon","coordinates":[[[-68.8241703347172,-21.0149596546089],[-68.8231292271754,-21.0146916416999],[-68.8216842383913,-21.0170140888064],[-68.8226945667004,-21.0170281899915],[-68.8237995411498,-21.0152411359575],[-68.8241703347172,-21.0149596546089]]]}},{"type":"Feature","id":"611101069","properties":{"name":"TRC_90%-004","oid":"611101069","speedLimit":6.9444447},"geometry":{"type":"Polygon","coordinates":[[[-68.8219150826356,-21.004845941169],[-68.8221494857286,-21.0056373249863],[-68.8212465961781,-21.0061350245064],[-68.8203418791107,-21.0061917004234],[-68.8203516899911,-21.0053148959656],[-68.8213160418216,-21.0052701518206],[-68.8218717031546,-21.0049927381216],[-68.8219150826356,-21.004845941169]]]}},{"type":"Feature","id":"611176514","properties":{"name":"TRC_70%_004","oid":"611176514","speedLimit":6.9444447},"geometry":{"type":"Polygon","coordinates":[[[-68.8148212390086,-21.0023488563086],[-68.81414217219,-21.0029850366977],[-68.8116383778053,-21.0030014880803],[-68.81111359189,-21.0031371667907],[-68.8109742196775,-21.0032373213618],[-68.8098318292236,-21.002154693837],[-68.8103884524076,-21.0023804935829],[-68.8115091050285,-21.0024247857668],[-68.8122908013507,-21.0024955628689],[-68.813479841579,-21.0025530523159],[-68.8148212390086,-21.0023488563086]]]}},{"type":"Feature","id":"611187609","properties":{"name":"TRC_90%_003","oid":"611187609","speedLimit":5.5555553},"geometry":{"type":"Polygon","coordinates":[[[-68.8105682223628,-21.0028843397734],[-68.8087529209368,-21.0038412317311],[-68.8067278398038,-20.998752330972],[-68.8088226551356,-20.9972038219858],[-68.8091126532175,-20.9977453617287],[-68.8081263711838,-20.999624977388],[-68.8105682223628,-21.0028843397734]]]}},{"type":"Feature","id":"611197820","properties":{"name":"TRC_70%_006","oid":"611197820","speedLimit":8.333333},"geometry":{"type":"Polygon","coordinates":[[[-68.8222742378056,-21.0076553311224],[-68.8234252849187,-21.0124924895707],[-68.8229504190712,-21.0146568406982],[-68.824066262437,-21.0152593047921],[-68.824612401445,-21.0142775549761],[-68.8238090634748,-21.0104346204691],[-68.8232115616225,-21.0088778857916],[-68.8231499069723,-21.0076744038791],[-68.8222742378056,-21.0076553311224]]]}},{"type":"Feature","id":"611200085","properties":{"name":"TRC_70%_008","oid":"611200085","speedLimit":5.5555553},"geometry":{"type":"Polygon","coordinates":[[[-68.8216899133123,-21.0170229472432],[-68.8196407859038,-21.0203162971004],[-68.818129044659,-21.0225948135918],[-68.8157187421934,-21.0232112884786],[-68.8138932451465,-21.0231443078494],[-68.8136507625049,-21.0225009864756],[-68.8143353118743,-21.0212544778702],[-68.8147774747872,-21.0200750402862],[-68.815504826527,-21.0188151536333],[-68.816289216032,-21.0177831457473],[-68.8168312190806,-21.0165851777598],[-68.8147026427781,-21.0153187828677],[-68.8137506026406,-21.0190564104475],[-68.8129234107652,-21.0209462404268],[-68.8125954195681,-21.0227958458716],[-68.8186423845473,-21.0235998845986],[-68.8227002416214,-21.0170370484283],[-68.8216899133123,-21.0170229472432]]]}},{"type":"Feature","id":"611225942","properties":{"name":"TRAC_90%_005","oid":"611225942","speedLimit":9.722222},"geometry":{"type":"Polygon","coordinates":[[[-68.822560003743,-21.0054847429322],[-68.8219040213489,-21.0058661980675],[-68.8221789183698,-21.0072044547682],[-68.8222862609434,-21.0076553311224],[-68.82316193011,-21.0076744038791],[-68.8231286500648,-21.0070259301492],[-68.8228520217121,-21.0057888223339],[-68.822560003743,-21.0054847429322]]]}},{"type":"Feature","id":"611506423","properties":{"name":"TRAC_90%_01","oid":"611506423","speedLimit":5.5555553},"geometry":{"type":"Polygon","coordinates":[[[-68.8203418791107,-21.0061917004234],[-68.8200744845278,-21.0062084229826],[-68.8186680659694,-21.0056863175653],[-68.8170879371173,-21.0048132191882],[-68.8140839802034,-21.004470542312],[-68.8136421058458,-21.0044110642364],[-68.8138037930018,-21.00377090659],[-68.8158464760085,-21.0038913090166],[-68.817305026892,-21.0041768580148],[-68.8181037479772,-21.0046011590586],[-68.8187896439381,-21.0050498659996],[-68.8199095270782,-21.0053354149978],[-68.8203516899911,-21.0053148959656],[-68.8203418791107,-21.0061917004234]]]}},{"type":"Feature","id":"611524503","properties":{"name":"TRC_40%_F03_001","oid":"611524503","speedLimit":8.333333},"geometry":{"type":"Polygon","coordinates":[[[-68.8074409561484,-20.9948571497664],[-68.8064799707965,-20.9955956541396],[-68.8063391558075,-20.9958262446728],[-68.8062386423761,-20.9959698778978],[-68.8060858042494,-20.9960870262048],[-68.806174294543,-20.9962647372939],[-68.8064639078845,-20.9960719307054],[-68.806660991158,-20.995758179337],[-68.8067977663728,-20.9955086968315],[-68.8074948198054,-20.9951866293796],[-68.8074409561484,-20.9948571497664]]]}},{"type":"Feature","id":"611565659","properties":{"name":"INFO_SINGLE_LANE_P2","oid":"611565659","speedLimit":9.722222},"geometry":{"type":"Polygon","coordinates":[[[-68.821369328368,-21.0006418897746],[-68.8213608640791,-20.9999013967727],[-68.8190562690402,-20.9988105435566],[-68.815650354586,-20.9966766546046],[-68.8152352196866,-20.9975605096549],[-68.8179803424916,-20.9993917654807],[-68.8211659930628,-21.0007453888575],[-68.821369328368,-21.0006418897746]]]}},{"type":"Feature","id":"612022415","properties":{"name":"INFO_DESCARGA_PIO3","oid":"612022415","speedLimit":2.7777777},"geometry":{"type":"Polygon","coordinates":[[[-68.8120719802442,-20.9934874365758],[-68.8112533488429,-20.994869352715],[-68.8067962274112,-20.9931739563841],[-68.8078120382711,-20.9915782626632],[-68.8120719802442,-20.9934874365758]]]}},{"type":"Feature","id":"612399621","properties":{"name":"TRC_90%_002","oid":"612399621","speedLimit":9.722222},"geometry":{"type":"Polygon","coordinates":[[[-68.812179515188,-20.9933811353343],[-68.8111317708742,-20.994851003096],[-68.808246602561,-20.9938235148206],[-68.8046172501153,-20.9962923069186],[-68.802582454287,-21.0038842584241],[-68.8051183744956,-21.0035987998181],[-68.8055891043837,-21.0011586620514],[-68.8065913531444,-21.0000312903816],[-68.8066673393748,-20.9987896629556],[-68.8075177118596,-20.997990505408],[-68.8082769008681,-20.9968345697992],[-68.8065458575912,-20.9978193025582],[-68.8053461408166,-20.9997458317756],[-68.8058472651969,-20.9977907386192],[-68.8063331923312,-20.9968060962524],[-68.8076239963971,-20.995664442613],[-68.8088388142327,-20.9951649352487],[-68.8102510038972,-20.9957500440379],[-68.8117087852998,-20.9957643260074],[-68.8122099096802,-20.9940946010648],[-68.812179515188,-20.9933811353343]]]}},{"type":"Feature","id":"612548768","properties":{"name":"ZD_STK_DIN_13-AutoClean-1","oid":"612548768","speedLimit":5},"geometry":{"type":"Polygon","coordinates":[[[-68.8260860533894,-21.0039431941464],[-68.8266329618782,-21.003888506858],[-68.8266241128488,-21.003617511006],[-68.825928790748,-21.0034784877838],[-68.8256833263683,-21.0036210363023],[-68.8257358434338,-21.0037378230404],[-68.8258349140887,-21.0038517172277],[-68.8259588004998,-21.0039099298123],[-68.8260860533894,-21.0039431941464]]]}},{"type":"Feature","id":"612609137","properties":{"name":"EX-REDUCCION_901","oid":"612609137","speedLimit":2.7777777},"geometry":{"type":"Polygon","coordinates":[[[-68.8176749547935,-21.0017684479145],[-68.8164265683574,-21.0018231352028],[-68.8160135495303,-21.0018518799263],[-68.8159125551734,-21.0022458091868],[-68.8180206440493,-21.0022831411704],[-68.8176749547935,-21.0017684479145]]]}},{"type":"Feature","id":"612711005","properties":{"name":"ZD_STK_DIN_22-AutoClean-1","oid":"612711005","speedLimit":5},"geometry":{"type":"Polygon","coordinates":[[[-68.8236082289823,-21.006252895951],[-68.823795982301,-21.0060469824918],[-68.8235210852801,-21.005667877554],[-68.8233946980564,-21.0055787508329],[-68.8231389418707,-21.0055474751275],[-68.8230406406967,-21.0058024715579],[-68.823432114061,-21.0061212848901],[-68.8236082289823,-21.006252895951]]]}},{"type":"Feature","id":"612712103","properties":{"name":"VEL_10_KPH_F03_001","oid":"612712103","speedLimit":2.7777777},"geometry":{"type":"Polygon","coordinates":[[[-68.805099906956,-20.9985049274873],[-68.8047866320795,-20.9984508729445],[-68.8042434748097,-21.0007695235781],[-68.8043351392117,-21.0009115297434],[-68.805099906956,-20.9985049274873]]]}},{"type":"Feature","id":"612786077","properties":{"name":"VEL_10KM_CHANCADO","oid":"612786077","speedLimit":2.7777777},"geometry":{"type":"Polygon","coordinates":[[[-68.8254290129592,-21.0011510691056],[-68.8253645689409,-21.0018686928778],[-68.8251011179472,-21.0018431118817],[-68.8251594061188,-21.0011378718426],[-68.8254290129592,-21.0011510691056]]]}},{"type":"Feature","id":"612791037","properties":{"name":"VEL_10KM_CHANCADO_001","oid":"612791037","speedLimit":2.7777777},"geometry":{"type":"Polygon","coordinates":[[[-68.8258752156463,-21.0020658382924],[-68.8260691248115,-21.0021751224769],[-68.8255359707923,-21.0027732477446],[-68.8253840945166,-21.0026426309981],[-68.8258074051496,-21.0020749679059],[-68.8258752156463,-21.0020658382924]]]}},{"type":"Feature","id":"612794629","properties":{"name":"TRAC_90%_011","oid":"612794629","speedLimit":2.7777777},"geometry":{"type":"Polygon","coordinates":[[[-68.8136421058458,-21.0044110642364],[-68.8113579020485,-21.0041034595385],[-68.8103420911886,-21.0036220306166],[-68.8099080078242,-21.0033364816185],[-68.8103420911886,-21.0029693084528],[-68.8119655995216,-21.0034507373746],[-68.8136325835207,-21.0037607826623],[-68.8138037930018,-21.00377090659],[-68.8136421058458,-21.0044110642364]]]}}]}