{"type":"FeatureCollection","features":[{"type":"Feature","id":"553508825","properties":{"name":"ZD_STK_HG_02-AutoClean-1","oid":"553508825","speedLimit":5},"geometry":{"type":"Polygon","coordinates":[[[-68.8163762146554,-21.0204833592238],[-68.8164609377097,-21.0202241485146],[-68.8158862442106,-21.0197073539417],[-68.8156080333181,-21.0197792062827],[-68.815643134243,-21.0200162738176],[-68.81572247195,-21.0201495847646],[-68.8157894041246,-21.0202105010889],[-68.8159839497988,-21.0203627015192],[-68.8161276231735,-21.0204329270147],[-68.8163762146554,-21.0204833592238]]]}},{"type":"Feature","id":"558966402","properties":{"name":"ZD_STK_BL_02-AutoClean-1","oid":"558966402","speedLimit":5},"geometry":{"type":"Polygon","coordinates":[[[-68.8233398534874,-20.9923433614855],[-68.8235322834894,-20.9921412711279],[-68.823270324806,-20.9918863082929],[-68.8231563670088,-20.9917776711686],[-68.8230908773379,-20.9917193758732],[-68.8229902867422,-20.9916459870671],[-68.8229600903301,-20.9916289051898],[-68.8228477673704,-20.9915733213034],[-68.8227283280588,-20.9915324694064],[-68.8226075424104,-20.9917787557323],[-68.8232138748254,-20.9922463834203],[-68.8233398534874,-20.9923433614855]]]}},{"type":"Feature","id":"570805601","properties":{"name":"ZD_STK_MAR_02-AutoClean-1-tmp-1","oid":"570805601","speedLimit":5},"geometry":{"type":"Polygon","coordinates":[[[-68.8065105467531,-20.9867035401942],[-68.8068626138381,-20.9866979366154],[-68.8068669413494,-20.9864267957062],[-68.8062884011736,-20.9862049120622],[-68.8060061512706,-20.9862609478501],[-68.8060142292917,-20.9863756404547],[-68.8060431755339,-20.9864985576668],[-68.8060657747595,-20.9865263044199],[-68.8061511709823,-20.9866142444548],[-68.8062287776847,-20.986645335279],[-68.8063442741527,-20.9866794990336],[-68.8063919729438,-20.9866886274442],[-68.8065105467531,-20.9867035401942]]]}},{"type":"Feature","id":"592941111","properties":{"name":"INFO_ESTACION","oid":"592941111","speedLimit":5.5555553},"geometry":{"type":"Polygon","coordinates":[[[-68.8203828169403,-21.008531467947],[-68.8205750546085,-21.0083567628212],[-68.8202353930558,-21.0080435046908],[-68.8198891921526,-21.0076940944392],[-68.8195110638329,-21.0078446680241],[-68.8202929970394,-21.0086037721895],[-68.8203828169403,-21.008531467947]]]}},{"type":"Feature","id":"600880362","properties":{"name":"VEL_15_KPH_RC_002","oid":"600880362","speedLimit":4.1666665},"geometry":{"type":"Polygon","coordinates":[[[-68.8105563851404,-21.0009330151081],[-68.8108710432945,-21.001031710399],[-68.8107951675966,-21.0012903788264],[-68.8107856470718,-21.0014301067749],[-68.8108373848734,-21.0015370266735],[-68.810997598958,-21.0015598928901],[-68.8111236737869,-21.0015658579901],[-68.8112182058668,-21.0015954123492],[-68.8112056080006,-21.0017612602054],[-68.8110324113822,-21.0019384055994],[-68.8103238535338,-21.0017481550614],[-68.8102574021938,-21.0013319537658],[-68.810380784349,-21.0008444424111],[-68.8105563851404,-21.0009330151081]]]}},{"type":"Feature","id":"604050980","properties":{"name":"VEL_10_KPH_901_002","oid":"604050980","speedLimit":2.7777777},"geometry":{"type":"Polygon","coordinates":[[[-68.8165661443175,-21.0014692414462],[-68.8166550025493,-21.0016413255432],[-68.8167083751885,-21.0018350105327],[-68.8164802672601,-21.0018656494554],[-68.8161752257977,-21.002000316107],[-68.8160330910936,-21.0020554480918],[-68.8157292036342,-21.0021022650888],[-68.8153347269385,-21.00212052191],[-68.8151729741832,-21.0018767662327],[-68.8151807637036,-21.0017243850417],[-68.8151947079066,-21.0016587689417],[-68.8153512676483,-21.0016640109993],[-68.8155888961016,-21.0016771161432],[-68.8158376799172,-21.0016771161432],[-68.815980199289,-21.001650815475],[-68.8161339701901,-21.0015772459083],[-68.8165661443175,-21.0014692414462]]]}},{"type":"Feature","id":"606156222","properties":{"name":"VEL_30KMH","oid":"606156222","speedLimit":8.333333},"geometry":{"type":"Polygon","coordinates":[[[-68.818295898663,-21.0229230851246],[-68.8181934808959,-21.0230006314247],[-68.8182849356344,-21.0230990555747],[-68.8184152418077,-21.0230219611762],[-68.818295898663,-21.0229230851246]]]}},{"type":"Feature","id":"606156969","properties":{"name":"VEL_30KMH_2","oid":"606156969","speedLimit":8.333333},"geometry":{"type":"Polygon","coordinates":[[[-68.8131937628536,-21.0229396247201],[-68.8130315292637,-21.0229702636428],[-68.8130938454263,-21.0231181258187],[-68.8132475201605,-21.0230760085974],[-68.8131937628536,-21.0229396247201]]]}},{"type":"Feature","id":"606157392","properties":{"name":"VEL_20KH","oid":"606157392","speedLimit":5.5555553},"geometry":{"type":"Polygon","coordinates":[[[-68.8236987484236,-21.0147527057279],[-68.823543246518,-21.0146632292279],[-68.8233992846424,-21.0148778824477],[-68.8235615182323,-21.0149639244962],[-68.8236987484236,-21.0147527057279]]]}},{"type":"Feature","id":"606157536","properties":{"name":"VEL_20KMH_2","oid":"606157536","speedLimit":5.5555553},"geometry":{"type":"Polygon","coordinates":[[[-68.8218539784447,-21.0175106606758],[-68.8216947260292,-21.0174467618016],[-68.8216084643042,-21.0176130615592],[-68.8217526185136,-21.0176843716183],[-68.8218539784447,-21.0175106606758]]]}},{"type":"Feature","id":"606796346","properties":{"name":"ZD_STK_HG_03-AutoClean-1","oid":"606796346","speedLimit":5},"geometry":{"type":"Polygon","coordinates":[[[-68.8156335175513,-21.0198920912812],[-68.8158967264046,-21.019781104269],[-68.8159559652258,-21.0188815491127],[-68.8157063159079,-21.0187456171369],[-68.8156271705347,-21.0188349128763],[-68.8155715860564,-21.0189390309854],[-68.8155616808639,-21.0189802444036],[-68.8155153284096,-21.0191895651855],[-68.8155054232172,-21.0194158774644],[-68.8155154245766,-21.019644810772],[-68.8155670662113,-21.0197948420751],[-68.8156335175513,-21.0198920912812]]]}},{"type":"Feature","id":"607457029","properties":{"name":"ZD_STK_DIN_21-AutoClean-1","oid":"607457029","speedLimit":5},"geometry":{"type":"Polygon","coordinates":[[[-68.8239801328243,-21.0061874547872],[-68.824034082465,-21.006077371578],[-68.8240558161884,-21.005955087028],[-68.8240033090514,-21.0058078575143],[-68.8239219518392,-21.0057148561825],[-68.8238268427578,-21.0056383944461],[-68.8236054665136,-21.0058121957688],[-68.8236974020868,-21.0061336785068],[-68.8239801328243,-21.0061874547872]]]}},{"type":"Feature","id":"607546676","properties":{"name":"ZD_STK_HG_01-AutoClean-1","oid":"607546676","speedLimit":5},"geometry":{"type":"Polygon","coordinates":[[[-68.8167411681074,-21.0205628035102],[-68.8169135953905,-21.020556476889],[-68.8169751422177,-21.0205540366208],[-68.8171414148181,-21.0205143596678],[-68.8172413322454,-21.0204491954693],[-68.8173295173088,-21.0203768008465],[-68.8171701687265,-21.0201507597086],[-68.8163729449802,-21.0202019149601],[-68.8162924532702,-21.0204623006132],[-68.8165104636722,-21.0205374970254],[-68.8166810637839,-21.020561538186],[-68.8167411681074,-21.0205628035102]]]}},{"type":"Feature","id":"607691021","properties":{"name":"VEL_13_KPH_901_001","oid":"607691021","speedLimit":3.6111112},"geometry":{"type":"Polygon","coordinates":[[[-68.8149084189931,-21.0017834033796],[-68.8151941309051,-21.0021616449479],[-68.8145397150313,-21.0025687178329],[-68.8143339178278,-21.00214139976],[-68.8149084189931,-21.0017834033796]]]}},{"type":"Feature","id":"608715834","properties":{"name":"INFO_RESTRICCION VELOCIDAD","oid":"608715834","speedLimit":2.7777777},"geometry":{"type":"Polygon","coordinates":[[[-68.8173497123615,-21.0014943671704],[-68.817494924407,-21.0011487528915],[-68.817244121086,-21.0010724719157],[-68.8167330900863,-21.0012281067976],[-68.8166103810995,-21.0014554132598],[-68.8164650728872,-21.0015476011689],[-68.8158144075232,-21.0017301693811],[-68.8158540282932,-21.0019641639857],[-68.8165424872558,-21.0018382642236],[-68.8170799641578,-21.0017762633357],[-68.8174025079992,-21.001637981472],[-68.8173497123615,-21.0014943671704]]]}},{"type":"Feature","id":"610258504","properties":{"name":"ZD_STK_MAR_01-AutoClean-1","oid":"610258504","speedLimit":5},"geometry":{"type":"Polygon","coordinates":[[[-68.8067510602138,-20.987060452011],[-68.8069217564924,-20.9870388511185],[-68.8070309059438,-20.9869944743897],[-68.8069606079271,-20.9867314677078],[-68.8062873433375,-20.9864821084517],[-68.8060054781022,-20.9865401326062],[-68.8060073052736,-20.986653379126],[-68.8060425985324,-20.9867602086442],[-68.8060672172633,-20.9868049468942],[-68.8061042415265,-20.9868569155685],[-68.8061870412425,-20.986942053814],[-68.8062318550261,-20.9869648296503],[-68.8063421584805,-20.9870102005625],[-68.8065183362734,-20.987041381767],[-68.8066898018874,-20.9870602712504],[-68.8067510602138,-20.987060452011]]]}},{"type":"Feature","id":"610291621","properties":{"name":"ZD_STK_MAR_02-AutoClean-1","oid":"610291621","speedLimit":5},"geometry":{"type":"Polygon","coordinates":[[[-68.8068650180111,-20.9870351455261],[-68.8070949531109,-20.9870181540291],[-68.8072655532226,-20.9869941128685],[-68.8074393268426,-20.9869499169003],[-68.8075899242354,-20.9868733647836],[-68.8077518693245,-20.9867114936609],[-68.8075604971586,-20.9865085898805],[-68.8068145303794,-20.9867681621109],[-68.8068650180111,-20.9870351455261]]]}},{"type":"Feature","id":"610367080","properties":{"name":"ZD_STK_MAR_03-AutoClean-1","oid":"610367080","speedLimit":5},"geometry":{"type":"Polygon","coordinates":[[[-68.8077228269154,-20.9864277898896],[-68.8080082503266,-20.9863883840774],[-68.8079878629401,-20.9861701156455],[-68.8079394909806,-20.9860144807636],[-68.8078494787458,-20.9858159152378],[-68.8075761723662,-20.9859027707091],[-68.8077228269154,-20.9864277898896]]]}},{"type":"Feature","id":"610544737","properties":{"name":"ZD_STK_DIN_22-AutoClean-1","oid":"610544737","speedLimit":5},"geometry":{"type":"Polygon","coordinates":[[[-68.8237330800132,-21.0059358360234],[-68.8239259908497,-21.0057341975673],[-68.8237614492538,-21.0055816356157],[-68.8236746105273,-21.0055075237672],[-68.8234765066772,-21.0053730378763],[-68.8233509126829,-21.0053476410111],[-68.8233097532422,-21.0053480929126],[-68.8231891599276,-21.0053970790369],[-68.8231051100417,-21.0054895380869],[-68.8232147403277,-21.0056671353824],[-68.8232561882692,-21.0057205501415],[-68.8237330800132,-21.0059358360234]]]}},{"type":"Feature","id":"610786215","properties":{"name":"VEL_20_KPH_F03_001","oid":"610786215","speedLimit":5.5555553},"geometry":{"type":"Polygon","coordinates":[[[-68.8063839910896,-20.9994295387667],[-68.8062059861252,-20.9993805526424],[-68.8061477089732,-20.9996892013774],[-68.8060587545745,-21.0000439440669],[-68.8059328720795,-21.000225608476],[-68.8057058219872,-21.0003553945912],[-68.8054019345278,-21.0005630885277],[-68.8052270069048,-21.0007073354914],[-68.8050889112112,-21.0008889999005],[-68.804978415423,-21.0011774938279],[-68.8049477381763,-21.0013908817234],[-68.8050490019405,-21.0014831600128],[-68.8051471883633,-21.0014572208659],[-68.8052086390236,-21.0011168486445],[-68.8053835666466,-21.0008400137763],[-68.8057272672098,-21.0005890276746],[-68.8060556772332,-21.000332347614],[-68.8062397407133,-21.0001073910396],[-68.8063226365962,-20.9996314483637],[-68.8063839910896,-20.9994295387667]]]}},{"type":"Feature","id":"610889233","properties":{"name":"VEL_15_KMH","oid":"610889233","speedLimit":4.1666665},"geometry":{"type":"Polygon","coordinates":[[[-68.8112919658926,-20.997196512619],[-68.811276290685,-20.9974130638251],[-68.8100115033857,-20.997327744819],[-68.810051989658,-20.9971698504296],[-68.8105527307975,-20.9971292696735],[-68.8112919658926,-20.997196512619]]]}},{"type":"Feature","id":"611100302","properties":{"name":"TRAC_BOT6","oid":"611100302","speedLimit":5.5555553},"geometry":{"type":"Polygon","coordinates":[[[-68.8241725628263,-21.014969528075],[-68.823131652111,-21.0147015504764],[-68.8216869365089,-21.017023691603],[-68.8226970738106,-21.0170377909302],[-68.8238018393592,-21.0152509723387],[-68.8241725628263,-21.014969528075]]]}},{"type":"Feature","id":"611100742","properties":{"name":"TRAC_CAM_CH","oid":"611100742","speedLimit":5.5555553},"geometry":{"type":"Polygon","coordinates":[[[-68.8258463480258,-21.0026969674829],[-68.8249174717694,-21.0019946221479],[-68.8222146043854,-21.0045566325987],[-68.8235080494262,-21.0047387489094],[-68.8258463480258,-21.0026969674829]]]}},{"type":"Feature","id":"611101069","properties":{"name":"TRAC_RPA_SUR","oid":"611101069","speedLimit":2.7777777},"geometry":{"type":"Polygon","coordinates":[[[-68.821917737111,-21.0048482898367],[-68.822152095889,-21.00563956939],[-68.8212493770342,-21.0061372033387],[-68.8203448310079,-21.0061938717887],[-68.8203546400335,-21.005317182849],[-68.8213188095486,-21.005272444599],[-68.8218743658312,-21.0049950674489],[-68.821917737111,-21.0048482898367]]]}},{"type":"Feature","id":"611176514","properties":{"name":"TRC_40%_FM_001","oid":"611176514","speedLimit":5.5555553},"geometry":{"type":"Polygon","coordinates":[[[-68.8148252346095,-21.0023515339646],[-68.8141462961717,-21.0029876305376],[-68.8116429751415,-21.0030040797527],[-68.8111182884395,-21.0031397405876],[-68.810978942576,-21.0032398819634],[-68.8098367680965,-21.0021573970737],[-68.8103932860483,-21.0023831670707],[-68.8115137268044,-21.0024274534192],[-68.8122952753431,-21.0024982211965],[-68.8134840907776,-21.0025557030693],[-68.8148252346095,-21.0023515339646]]]}},{"type":"Feature","id":"611187609","properties":{"name":"TR_INT NORTESUR","oid":"611187609","speedLimit":5.5555553},"geometry":{"type":"Polygon","coordinates":[[[-68.810978942576,-21.0032398819634],[-68.8103179873518,-21.0037149208363],[-68.809790704143,-21.0036043857257],[-68.8081335558202,-21.003157455127],[-68.8086372781342,-21.0016708799023],[-68.8098367680965,-21.0021573970737],[-68.810978942576,-21.0032398819634]]]}},{"type":"Feature","id":"611197820","properties":{"name":"TRAC_CAM_CH1","oid":"611197820","speedLimit":5.5555553},"geometry":{"type":"Polygon","coordinates":[[[-68.8222888452457,-21.0076573096558],[-68.8234396747478,-21.0124938308135],[-68.822964898676,-21.01465789679],[-68.8240805310862,-21.0152602815099],[-68.8246265668439,-21.0142786610384],[-68.8238233807487,-21.0104362328341],[-68.823225991857,-21.0088797032547],[-68.8231643488629,-21.0076763798998],[-68.8222888452457,-21.0076573096558]]]}},{"type":"Feature","id":"611200085","properties":{"name":"TRAC_BOT61","oid":"611200085","speedLimit":5.5555553},"geometry":{"type":"Polygon","coordinates":[[[-68.8216869365089,-21.017023691603],[-68.8196381964979,-21.0203166075647],[-68.8181267410551,-21.0225948238639],[-68.8157168942688,-21.0232112175308],[-68.813891742341,-21.0231442457262],[-68.8136493055419,-21.0225010091094],[-68.814333725494,-21.0212546647301],[-68.8147758048138,-21.0200753825358],[-68.8155030190442,-21.0188156618717],[-68.8162872602566,-21.0177837899517],[-68.8165581624633,-21.0170735815302],[-68.8155314844518,-21.0167921372665],[-68.8137491268023,-21.0190568869006],[-68.8129220913116,-21.0209464678967],[-68.8125941621228,-21.0227958296579],[-68.818639983894,-21.0235997624537],[-68.8226970738106,-21.0170377909302],[-68.8216869365089,-21.017023691603]]]}},{"type":"Feature","id":"611225942","properties":{"name":"TRAC_CAM_CH2","oid":"611225942","speedLimit":2.7777777},"geometry":{"type":"Polygon","coordinates":[[[-68.8222146043854,-21.0045566325987],[-68.8216593366036,-21.0049755453034],[-68.8221815229658,-21.0072064927042],[-68.8222888452457,-21.0076573096558],[-68.8231643488629,-21.0076763798998],[-68.8231310751094,-21.0070279916056],[-68.8235080494262,-21.0047387489094],[-68.8222146043854,-21.0045566325987]]]}},{"type":"Feature","id":"611506423","properties":{"name":"TRAC_RPA_SUR1","oid":"611506423","speedLimit":4.1666665},"geometry":{"type":"Polygon","coordinates":[[[-68.8203448310079,-21.0061938717887],[-68.8200774869772,-21.0062105921447],[-68.8186713343091,-21.0056885555143],[-68.8170915041879,-21.004815572167],[-68.8140881151866,-21.0044729404381],[-68.81136255241,-21.0041059060274],[-68.810346933594,-21.0036245405333],[-68.8099129322952,-21.0033390291559],[-68.810346933594,-21.0029719043649],[-68.811970134995,-21.003453269859],[-68.8136368038426,-21.0037632742985],[-68.8158502777834,-21.0038937834561],[-68.8173085529208,-21.0041792948334],[-68.8181071230039,-21.004603539976],[-68.8187928892928,-21.0050521878004],[-68.8199125607136,-21.0053376991778],[-68.8203546400335,-21.005317182849],[-68.8203448310079,-21.0061938717887]]]}},{"type":"Feature","id":"611524503","properties":{"name":"TRC_40%_F03_001","oid":"611524503","speedLimit":2.2222223},"geometry":{"type":"Polygon","coordinates":[[[-68.8073085398347,-20.994955352244],[-68.8064855433545,-20.995599221523],[-68.8063447549872,-20.9958297816761],[-68.8062442605584,-20.9959733959776],[-68.8060914513265,-20.9960905288504],[-68.8061799248906,-20.9962682165262],[-68.8064694834793,-20.9960754353398],[-68.8066665294933,-20.9957617253079],[-68.80680327885,-20.9955122756714],[-68.8075002005014,-20.9951902506516],[-68.8073085398347,-20.994955352244]]]}}]}