{"type":"FeatureCollection","features":[{"type":"Feature","id":"553267213","properties":{"name":"ZD_BOT_PAD59_02-AutoClean-1","oid":"553267213","speedLimit":5},"geometry":{"type":"Polygon","coordinates":[[[-68.8183528593418,-20.9849452695992],[-68.8183528593418,-20.9849452695992]]]}},{"type":"Feature","id":"553508825","properties":{"name":"ZD_STK_HG_02-AutoClean-1","oid":"553508825","speedLimit":5},"geometry":{"type":"Polygon","coordinates":[[[-68.8157272352152,-21.0200493089644],[-68.8159960589609,-21.0199507973134],[-68.815866215649,-21.018996318831],[-68.8155896974848,-21.0189187747975],[-68.8155458392995,-21.0190272279913],[-68.8155146769046,-21.0191374887382],[-68.8154876502597,-21.0192528106342],[-68.8154840915912,-21.0194071756799],[-68.8154893815039,-21.019606819934],[-68.8154959217596,-21.0196406211794],[-68.8155315084451,-21.0197554008094],[-68.8155924867116,-21.0198600581414],[-68.8157272352152,-21.0200493089644]]]}},{"type":"Feature","id":"558966402","properties":{"name":"ZD_STK_BL_02-AutoClean-1","oid":"558966402","speedLimit":5},"geometry":{"type":"Polygon","coordinates":[[[-68.8233381692563,-20.9923443079854],[-68.8235306258986,-20.9921422235344],[-68.8232686309493,-20.9918872681515],[-68.8231546573756,-20.9917786342025],[-68.8230891586382,-20.9917203406108],[-68.8229885541166,-20.9916469539498],[-68.822958353524,-20.9916298725718],[-68.8228460150142,-20.99157429031],[-68.8227265591673,-20.991533439607],[-68.8226057567971,-20.9917797187344],[-68.8232121731537,-20.9922473327547],[-68.8233381692563,-20.9923443079854]]]}},{"type":"Feature","id":"570805601","properties":{"name":"ZD_STK_MAR_02-AutoClean-1-tmp-1","oid":"570805601","speedLimit":5},"geometry":{"type":"Polygon","coordinates":[[[-68.8065065326475,-20.9867046515343],[-68.8068586484732,-20.9866990481193],[-68.8068629765836,-20.986427915135],[-68.8062843563138,-20.9862060379762],[-68.8060020673358,-20.9862620721263],[-68.8060101464752,-20.9863767613787],[-68.8060390967247,-20.9864996749982],[-68.806061699079,-20.9865274209403],[-68.8061471071242,-20.9866153584048],[-68.8062247245706,-20.9866464483204],[-68.806340237028,-20.9866806110764],[-68.8063879424226,-20.9866897392202],[-68.8065065326475,-20.9867046515343]]]}},{"type":"Feature","id":"592941111","properties":{"name":"INFO_ESTACION","oid":"592941111","speedLimit":5.5555553},"geometry":{"type":"Polygon","coordinates":[[[-68.8219776037083,-21.0107289318739],[-68.8222567187387,-21.0106302394676],[-68.8218339104432,-21.0097467978271],[-68.821285106045,-21.0090451960414],[-68.8208550842321,-21.0093297049196],[-68.8218665155415,-21.010767613513],[-68.8219776037083,-21.0107289318739]]]}},{"type":"Feature","id":"600121666","properties":{"name":"ZD_STK_3C_02-AutoClean-1","oid":"600121666","speedLimit":5},"geometry":{"type":"Polygon","coordinates":[[[-68.8050765249727,-20.9853147334792],[-68.8048042387386,-20.9850291400691],[-68.8047714412799,-20.9851916391043],[-68.8047884651808,-20.9852999115427],[-68.8050765249727,-20.9853147334792]]]}},{"type":"Feature","id":"602013008","properties":{"name":"ZD_STK_3C_01-AutoClean-1","oid":"602013008","speedLimit":5},"geometry":{"type":"Polygon","coordinates":[[[-68.8048615621563,-20.9854521979022],[-68.8051261539719,-20.9853441062191],[-68.8048503090693,-20.9848853492097],[-68.8047553791813,-20.9850907776342],[-68.8047422986699,-20.9852505653396],[-68.8047865415761,-20.9853602838205],[-68.8048615621563,-20.9854521979022]]]}},{"type":"Feature","id":"607546676","properties":{"name":"ZD_STK_HG_01-AutoClean-1","oid":"607546676","speedLimit":5},"geometry":{"type":"Polygon","coordinates":[[[-68.8168108016979,-21.0205957323054],[-68.8170918403329,-21.0205346370063],[-68.817309592376,-21.0203997031578],[-68.8171832115524,-21.0201559546049],[-68.8158423629517,-21.0198709938384],[-68.8156213407808,-21.0200452419696],[-68.8156872242391,-21.0201347158544],[-68.8157635913425,-21.0202165980157],[-68.8158067762663,-21.0202529298356],[-68.8158959353404,-21.0203219783689],[-68.8160456879601,-21.020407385259],[-68.816097240564,-21.0204291662754],[-68.8163651025073,-21.0205295758572],[-68.8164754212323,-21.0205659076771],[-68.8165909336898,-21.020592117199],[-68.8168108016979,-21.0205957323054]]]}},{"type":"Feature","id":"619770241","properties":{"name":"VEL_10_KMH_02","oid":"619770241","speedLimit":2.7777777},"geometry":{"type":"Polygon","coordinates":[[[-68.8105589905013,-20.9969861950542],[-68.8103009389415,-20.9972286783198],[-68.8099578640574,-20.9971956000957],[-68.8095883396098,-20.9972699809111],[-68.8095737202147,-20.9969669446123],[-68.8105589905013,-20.9969861950542]]]}},{"type":"Feature","id":"620970737","properties":{"name":"ZD_BOT_NRT_02-AutoClean-1","oid":"620970737","speedLimit":5},"geometry":{"type":"Polygon","coordinates":[[[-68.7937044629975,-20.9903846491525],[-68.7937913137461,-20.9901260786632],[-68.7936836880676,-20.9900858606038],[-68.7932994480446,-20.9899740634367],[-68.7932407781037,-20.9899650256705],[-68.793125554187,-20.9899533669522],[-68.7930677498681,-20.9899513786436]]]}},{"type":"Feature","id":"621013260","properties":{"name":"ZD_STK_3C_04_-AutoClean-2","oid":"621013260","speedLimit":5},"geometry":{"type":"Polygon","coordinates":[[[-68.8078271833996,-20.9864038746771],[-68.8079022039798,-20.9861420505919],[-68.8071977799678,-20.9857992481221],[-68.8070034959012,-20.9859996153975],[-68.8071214128644,-20.9861092435008],[-68.8072167274734,-20.9861822686513],[-68.8072750126933,-20.9862214925563],[-68.8073569582502,-20.9862658679881],[-68.8075485492704,-20.9863332897235],[-68.807665792972,-20.9863720617403],[-68.8078271833996,-20.9864038746771]]]}},{"type":"Feature","id":"621013480","properties":{"name":"ZD_STK_3C_04_-AutoClean-1","oid":"621013480","speedLimit":5},"geometry":{"type":"Polygon","coordinates":[[[-68.8071187198179,-20.9861035497082],[-68.8073251225937,-20.9859140277521],[-68.8070529325399,-20.9855626394045],[-68.8069224159664,-20.985455993764],[-68.806721976365,-20.9853451907511],[-68.8066163704713,-20.9853113895057],[-68.8064886431245,-20.9855545957926],[-68.8069933969769,-20.9859978078443],[-68.8071187198179,-20.9861035497082]]]}},{"type":"Feature","id":"621174471","properties":{"name":"ZD_STK_MAR_01-AutoClean-1","oid":"621174471","speedLimit":5},"geometry":{"type":"Polygon","coordinates":[[[-68.8069176069549,-20.9870376932167],[-68.8072899206292,-20.9870015421522],[-68.8074493874522,-20.9869699099707],[-68.8075366229217,-20.9869393623211],[-68.8076426135363,-20.9868709464314],[-68.8076699287219,-20.9868507018352],[-68.8077461034649,-20.9867528228279],[-68.8077666860343,-20.9866262037242],[-68.8075061337885,-20.9865097069186],[-68.8068742296707,-20.9867696330729],[-68.8069176069549,-20.9870376932167]]]}},{"type":"Feature","id":"621174472","properties":{"name":"ZD_STK_MAR_01-AutoClean-2","oid":"621174472","speedLimit":5},"geometry":{"type":"Polygon","coordinates":[[[-68.8066081951517,-20.9870644450045],[-68.8069566561287,-20.9870620048076],[-68.8069678130354,-20.9867910525787],[-68.8062257825531,-20.9866012594897],[-68.8060455408002,-20.9868130143504],[-68.8061290252407,-20.986889744985],[-68.8062172225126,-20.9869699099707],[-68.8063779396786,-20.987026938275],[-68.8066081951517,-20.9870644450045]]]}},{"type":"Feature","id":"622898566","properties":{"name":"INFO_RED_VEL_20KPH_902","oid":"622898566","speedLimit":3.6111112},"geometry":{"type":"Polygon","coordinates":[[[-68.8075774033397,-21.0003375794954],[-68.8076002942346,-21.0000149312441],[-68.8076814703496,-21.0000012842172],[-68.8078395906494,-21.0005721999045],[-68.8079519291593,-21.0008204673404],[-68.8078020803593,-21.0008888832301],[-68.8075774033397,-21.0003375794954]]]}},{"type":"Feature","id":"623520976","properties":{"name":"ZD_STK_DIN_22-AutoClean-1","oid":"623520976","speedLimit":5},"geometry":{"type":"Polygon","coordinates":[[[-68.8242326454048,-21.0047418636923],[-68.8244639588604,-21.0045798165454],[-68.8244088475881,-21.0044815760274],[-68.824291411526,-21.004362367892],[-68.8241264624298,-21.004228608953],[-68.8239652643626,-21.0042383697405],[-68.8238800486779,-21.0043697788602],[-68.8238586004864,-21.0044902522829],[-68.8242326454048,-21.0047418636923]]]}},{"type":"Feature","id":"623816501","properties":{"name":"ZD_STK_DIN_21-AutoClean-1","oid":"623816501","speedLimit":5},"geometry":{"type":"Polygon","coordinates":[[[-68.824368836612,-21.0049660002927],[-68.8246272728927,-21.0048453461147],[-68.8245924556491,-21.0047423155806],[-68.8244989684645,-21.0046025917161],[-68.8244297186982,-21.0045185404909],[-68.8243515241704,-21.0044407253244],[-68.8241234808426,-21.0046068394661],[-68.824368836612,-21.0049660002927]]]}},{"type":"Feature","id":"623885777","properties":{"name":"VELO_REDUC_15KM_901","oid":"623885777","speedLimit":4.1666665},"geometry":{"type":"Polygon","coordinates":[[[-68.8074063948889,-20.9981613757858],[-68.8091218654894,-20.9979169945893],[-68.8077216736862,-20.9991840894026],[-68.807583366514,-20.9992061415519],[-68.8074063948889,-20.9981613757858]]]}},{"type":"Feature","id":"624057522","properties":{"name":"VEL_10KPH","oid":"624057522","speedLimit":2.7777777},"geometry":{"type":"Polygon","coordinates":[[[-68.8103174819412,-21.0009236786298],[-68.8107258632021,-21.0014406388532],[-68.810644206186,-21.0016032282661],[-68.8104544425902,-21.0014587143855],[-68.8102405377564,-21.001174295885],[-68.8101636897518,-21.0009801646682],[-68.8103174819412,-21.0009236786298]]]}},{"type":"Feature","id":"624400171","properties":{"name":"VEL_15KPH","oid":"624400171","speedLimit":4.1666665},"geometry":{"type":"Polygon","coordinates":[[[-68.8092501699176,-21.0025788551213],[-68.809121673129,-21.0027431617097],[-68.80950514371,-21.0029945923638],[-68.8096189249233,-21.0028422156267],[-68.8092501699176,-21.0025788551213]]]}},{"type":"Feature","id":"624708321","properties":{"name":"ZD_STK_DIN_12-AutoClean-1","oid":"624708321","speedLimit":5},"geometry":{"type":"Polygon","coordinates":[[[-68.825963408662,-21.0057094469356],[-68.8261079675493,-21.0056385004714],[-68.8261688496355,-21.0055189308253],[-68.826069976358,-21.0053698076839],[-68.8259661017085,-21.0053259745182],[-68.8256460138997,-21.0053501957314],[-68.8255853241739,-21.0056151830347],[-68.8257013175325,-21.0056539550515],[-68.825963408662,-21.0057094469356]]]}},{"type":"Feature","id":"624724475","properties":{"name":"TRC_20_01","oid":"624724475","speedLimit":2.7777777},"geometry":{"type":"Polygon","coordinates":[[[-68.8246183281312,-21.0067526762815],[-68.8236417140654,-21.006450363004],[-68.8232740170422,-21.0066069874913],[-68.8226937617085,-21.0067473439995],[-68.8228373587934,-21.007319524974],[-68.823337207454,-21.0073357025754],[-68.8240954923954,-21.0074221036198],[-68.8247101802518,-21.007222368988],[-68.8246183281312,-21.0067526762815]]]}},{"type":"Feature","id":"624790435","properties":{"name":"VELO_REDUC_15KM_9011","oid":"624790435","speedLimit":4.1666665},"geometry":{"type":"Polygon","coordinates":[[[-68.8077216736862,-20.9991840894026],[-68.8077045536051,-20.9994473595303],[-68.807704938326,-20.9997370199352],[-68.807687048803,-21.0000095989621],[-68.8074781453412,-21.0000426771862],[-68.807583366514,-20.9992061415519],[-68.8077216736862,-20.9991840894026]]]}},{"type":"Feature","id":"625017869","properties":{"name":"New Zone1256","oid":"625017869","speedLimit":8.333333},"geometry":{"type":"Polygon","coordinates":[[[-68.8055453074187,-20.9870291073389],[-68.8056963103814,-20.986157234039],[-68.8044448132153,-20.9851840473808],[-68.8033660557442,-20.9861369894429],[-68.7997194784653,-20.9863194619413],[-68.7972165803134,-20.986157234039],[-68.7947136821616,-20.9863397065375],[-68.7955551630028,-20.9875967694303],[-68.7972165803134,-20.989725705623],[-68.7981444310021,-20.9908408755874],[-68.7995469311308,-20.9915707655812],[-68.8017045422533,-20.9918140622457],[-68.8058042246006,-20.9926453559756],[-68.8087602278208,-20.9937401909662],[-68.8107452916088,-20.9945106605299],[-68.8123204352522,-20.9957677234228],[-68.8129812896196,-20.9961397178772],[-68.816658452212,-20.9967145198039],[-68.8159021870554,-20.9962543167519],[-68.8082855783807,-20.9914085376789],[-68.806127871078,-20.9899892468838],[-68.8035817880024,-20.9896040572908],[-68.8019203706917,-20.989725705623],[-68.7999568512754,-20.9895026535546],[-68.7983386188885,-20.9882455906618],[-68.7981012460784,-20.9875359452642],[-68.8000431249427,-20.9880225385934],[-68.8030423130866,-20.9879212252349],[-68.8043585395481,-20.9872521594073],[-68.8055453074187,-20.9870291073389]]]}},{"type":"Feature","id":"625094199","properties":{"name":"New Zone1278","oid":"625094199","speedLimit":2.7777777},"geometry":{"type":"Polygon","coordinates":[[[-68.816674706671,-20.9976620392064],[-68.8163078752699,-20.9974928522242],[-68.8158783343582,-20.9972284071868],[-68.8154916898294,-20.996990262049],[-68.8153048116406,-20.9971476999352],[-68.8166644153863,-20.9981184463966],[-68.8170273995782,-20.9979178983659],[-68.816674706671,-20.9976620392064]]]}},{"type":"Feature","id":"625102060","properties":{"name":"VEL_15KPH_","oid":"625102060","speedLimit":4.1666665},"geometry":{"type":"Polygon","coordinates":[[[-68.8204225617332,-20.9998682482996],[-68.8203239769964,-21.0001519437788],[-68.82028386984,-21.0002185521153],[-68.819729294628,-21.00004484625],[-68.8190113092034,-20.9996395024385],[-68.8184350934394,-20.9992370507122],[-68.8178188666992,-20.9988055877565],[-68.8181177948572,-20.9984813127073],[-68.8186477479302,-20.9988229402675],[-68.819507406835,-20.9993788532629],[-68.8200035044666,-20.9996279340978],[-68.8204719021917,-20.999798747878],[-68.8204225617332,-20.9998682482996]]]}},{"type":"Feature","id":"625150633","properties":{"name":"ZD_STK_DIN_13-AutoClean-1","oid":"625150633","speedLimit":5},"geometry":{"type":"Polygon","coordinates":[[[-68.8256342799115,-21.0056267513754],[-68.8257564288049,-21.0056066875346],[-68.8257743183279,-21.0053360968162],[-68.8255514687326,-21.0051923963346],[-68.8252866845566,-21.0053002168846],[-68.825303900818,-21.0054185212435],[-68.8253701689971,-21.0055173944051],[-68.8254015237524,-21.0055489362089],[-68.8254684651932,-21.0055898772895],[-68.8255110730356,-21.0056072298005],[-68.8256342799115,-21.0056267513754]]]}},{"type":"Feature","id":"625227360","properties":{"name":"New Zone1317","oid":"625227360","speedLimit":4.1666665},"geometry":{"type":"Polygon","coordinates":[[[-68.8081736245918,-20.9981490844238],[-68.8082998130549,-20.998382891434],[-68.8080584968552,-20.998578287938],[-68.8079098983983,-20.9987247901272],[-68.8077555291275,-20.9988987671254],[-68.8077234049304,-20.9991577895031],[-68.807518829579,-20.9991100700978],[-68.8075979859091,-20.9987701597132],[-68.8081736245918,-20.9981490844238]]]}},{"type":"Feature","id":"625262401","properties":{"name":"New Zone1366","oid":"625262401","speedLimit":4.1666665},"geometry":{"type":"Polygon","coordinates":[[[-68.8103005542206,-21.0029146985111],[-68.810281606715,-21.003250541901],[-68.8097702164267,-21.0029436193628],[-68.809595072226,-21.0027634063059],[-68.8092706563068,-21.0025720767967],[-68.809071755589,-21.0023985516867],[-68.8092920083181,-21.002231624146],[-68.8103005542206,-21.0029146985111]]]}}]}