{"type":"FeatureCollection","features":[{"type":"Feature","id":"553508825","properties":{"name":"ZD_STK_HG_02-AutoClean-1","oid":"553508825","speedLimit":5},"geometry":{"type":"Polygon","coordinates":[[[-68.8163721921252,-21.0204830850805],[-68.8164569324972,-21.0202238413489],[-68.8158821215294,-21.0197069809385],[-68.8156038537701,-21.0197788424331],[-68.8156389618697,-21.0200159401695],[-68.8157183157935,-21.0201492680998],[-68.8157852616492,-21.0202101921845],[-68.8159798470888,-21.0203624120046],[-68.8161235498308,-21.0204326464465],[-68.8163721921252,-21.0204830850805]]]}},{"type":"Feature","id":"558966402","properties":{"name":"ZD_STK_BL_02-AutoClean-1","oid":"558966402","speedLimit":5},"geometry":{"type":"Polygon","coordinates":[[[-68.8233372543399,-20.9923395024215],[-68.823529723675,-20.9921373863184],[-68.8232677114467,-20.9918823910022],[-68.8231537303562,-20.991773740038],[-68.8230882272992,-20.991715437316],[-68.8229876161425,-20.9916420391604],[-68.8229574135582,-20.991624955107],[-68.8228450676394,-20.9915693641395],[-68.8227256039142,-20.9915285070381],[-68.822604793577,-20.9917748247398],[-68.8232112499276,-20.9922425120017],[-68.8233372543399,-20.9923395024215]]]}},{"type":"Feature","id":"570805601","properties":{"name":"ZD_STK_MAR_02-AutoClean-1-tmp-1","oid":"570805601","speedLimit":5},"geometry":{"type":"Polygon","coordinates":[[[-68.8065045076594,-20.98669896264],[-68.8068566467077,-20.9866933583474],[-68.8060596447535,-20.9865217042866],[-68.8061450584314,-20.9866096555247],[-68.8062226809968,-20.9866407503098],[-68.8063382010725,-20.9866749184167],[-68.8063859096134,-20.9866840479902],[-68.8065045076594,-20.98669896264]]]}},{"type":"Feature","id":"592941111","properties":{"name":"INFO_ESTACION","oid":"592941111","speedLimit":5.5555553},"geometry":{"type":"Polygon","coordinates":[[[-68.8203796133682,-21.0085296711816],[-68.8205718903302,-21.0083549437991],[-68.8202321593499,-21.0080416457609],[-68.8198858876826,-21.0076921909958],[-68.8195076820727,-21.0078427837632],[-68.8202897751079,-21.0086019846353],[-68.8203796133682,-21.0085296711816]]]}},{"type":"Feature","id":"600880362","properties":{"name":"VEL_15_KPH_RC_002","oid":"600880362","speedLimit":4.1666665},"geometry":{"type":"Polygon","coordinates":[[[-68.8105511730247,-21.0009302503309],[-68.8108658954957,-21.0010289581952],[-68.8107900042886,-21.0012876595758],[-68.8107804818177,-21.0014274053252],[-68.8108322301947,-21.0015343388448],[-68.8109924770274,-21.0015572079746],[-68.8111185776262,-21.0015631738345],[-68.8112131290287,-21.0015927319587],[-68.8112005285875,-21.0017586009432],[-68.8110272965672,-21.0019357689048],[-68.8103185938882,-21.0017454941297],[-68.8102521289654,-21.0013292398117],[-68.8103755363401,-21.0008416663501],[-68.8105511730247,-21.0009302503309]]]}},{"type":"Feature","id":"603087867","properties":{"name":"ZD_BOT_NRT_04-AutoClean-1","oid":"603087867","speedLimit":5},"geometry":{"type":"Polygon","coordinates":[[[-68.7933700385723,-20.9926137511947],[-68.7935177811503,-20.9926129376684],[-68.7935308625244,-20.9926105874811],[-68.7937921052601,-20.9925288732784],[-68.793702651746,-20.9922710758159],[-68.79313649757,-20.9926009155567],[-68.7933700385723,-20.9926137511947]]]}},{"type":"Feature","id":"604050980","properties":{"name":"VEL_10_KPH_901_002","oid":"604050980","speedLimit":2.7777777},"geometry":{"type":"Polygon","coordinates":[[[-68.8165621606094,-21.001466544982],[-68.816651037004,-21.0016386510018],[-68.8167044205527,-21.0018323606659],[-68.8164762659986,-21.001863003492],[-68.816171162185,-21.0019976872995],[-68.8160289984283,-21.002052826308],[-68.8157250488537,-21.0020996492692],[-68.8153304915261,-21.0021179084163],[-68.8151687057082,-21.0018741216855],[-68.8151764968207,-21.0017217210818],[-68.815190443874,-21.0016560966225],[-68.8153470356169,-21.0016613393479],[-68.8155847126418,-21.0016744461614],[-68.8158335473094,-21.0016744461614],[-68.8159760958125,-21.0016481421426],[-68.8161298981447,-21.0015745632035],[-68.8165621606094,-21.001466544982]]]}},{"type":"Feature","id":"606156222","properties":{"name":"VEL_30KMH","oid":"606156222","speedLimit":8.333333},"geometry":{"type":"Polygon","coordinates":[[[-68.8182922685204,-21.0229231217924],[-68.8181898298188,-21.0230006779715],[-68.818281303251,-21.0230991146604],[-68.8184116360591,-21.0230220104404],[-68.8182922685204,-21.0229231217924]]]}},{"type":"Feature","id":"606156969","properties":{"name":"VEL_30KMH_2","oid":"606156969","speedLimit":8.333333},"geometry":{"type":"Polygon","coordinates":[[[-68.8131890898235,-21.022939663495],[-68.8130268230728,-21.022970306321],[-68.8130891519729,-21.0231181873338],[-68.8132428581186,-21.023076064747],[-68.8131890898235,-21.022939663495]]]}},{"type":"Feature","id":"606157392","properties":{"name":"VEL_20KH","oid":"606157392","speedLimit":5.5555553},"geometry":{"type":"Polygon","coordinates":[[[-68.823696222635,-21.0147517015228],[-68.8235406889444,-21.0146622136238],[-68.8233966976428,-21.0148768941895],[-68.8235589643935,-21.0149629471994],[-68.823696222635,-21.0147517015228]]]}},{"type":"Feature","id":"606157536","properties":{"name":"VEL_20KMH_2","oid":"606157536","speedLimit":5.5555553},"geometry":{"type":"Polygon","coordinates":[[[-68.8218510755811,-21.0175100078229],[-68.8216917906142,-21.0174461008082],[-68.8216055112571,-21.0176124217517],[-68.8217496949319,-21.0176837408954],[-68.8218510755811,-21.0175100078229]]]}},{"type":"Feature","id":"606796346","properties":{"name":"ZD_STK_HG_03-AutoClean-1","oid":"606796346","speedLimit":5},"geometry":{"type":"Polygon","coordinates":[[[-68.8156293432123,-21.0198917418128],[-68.815892605866,-21.0197807406613],[-68.8159518567958,-21.0188810709053],[-68.815702156449,-21.0187451216123],[-68.8156229948984,-21.0188344287276],[-68.8155673990585,-21.018938560101],[-68.8155574918413,-21.0189797787696],[-68.8155111299125,-21.0191891262181],[-68.8155012226954,-21.0194154673282],[-68.8155112260991,-21.019644429801],[-68.8155628782895,-21.0197944802175],[-68.8156293432123,-21.0198917418128]]]}},{"type":"Feature","id":"607546676","properties":{"name":"ZD_STK_HG_01-AutoClean-1","oid":"607546676","speedLimit":5},"geometry":{"type":"Polygon","coordinates":[[[-68.8167372201745,-21.0205625394878],[-68.8169096827022,-21.0205562120606],[-68.8169712421096,-21.0205537714815],[-68.8171375486966,-21.0205140894738],[-68.8172374865472,-21.0204489169736],[-68.8173256896358,-21.0203765131281],[-68.8171663084822,-21.0201504431934],[-68.8163689217817,-21.0202016049619],[-68.8162884136191,-21.0204620237871],[-68.8165064685829,-21.020537229779],[-68.8166771035656,-21.0205612740023],[-68.8167372201745,-21.0205625394878]]]}},{"type":"Feature","id":"607691021","properties":{"name":"VEL_13_KPH_901_001","oid":"607691021","speedLimit":3.6111112},"geometry":{"type":"Polygon","coordinates":[[[-68.8149040964424,-21.0017807469384],[-68.8151898667545,-21.0021590366931],[-68.8145353171168,-21.0025661614375],[-68.8143294778479,-21.0021387889261],[-68.8149040964424,-21.0017807469384]]]}},{"type":"Feature","id":"608715834","properties":{"name":"INFO_RESTRICCION VELOCIDAD","oid":"608715834","speedLimit":2.7777777},"geometry":{"type":"Polygon","coordinates":[[[-68.8173458888164,-21.0014916739071],[-68.8174911305435,-21.0011460155984],[-68.8172402759578,-21.0010697249047],[-68.8167291405023,-21.0012253796138],[-68.8166064064335,-21.001452715034],[-68.8164610685198,-21.0015449146874],[-68.8158102701584,-21.0017275061581],[-68.815849899027,-21.0019615305726],[-68.8165384987121,-21.0018356147714],[-68.8170760854756,-21.0017736059848],[-68.8173986952456,-21.0016353065046],[-68.8173458888164,-21.0014916739071]]]}},{"type":"Feature","id":"610258504","properties":{"name":"ZD_STK_MAR_01-AutoClean-1","oid":"610258504","speedLimit":5},"geometry":{"type":"Polygon","coordinates":[[[-68.8067450702816,-20.9870559199259],[-68.8069158014509,-20.9870343162816],[-68.8070249732127,-20.9869899338994],[-68.8069546608269,-20.9867268937115],[-68.8059993357714,-20.9865355342346],[-68.8060011633163,-20.9866487951815],[-68.8060364637891,-20.9867556383094],[-68.8060610875521,-20.9868003822589],[-68.8060981193832,-20.9868523575537],[-68.8061809360236,-20.9869375066455],[-68.8062257589672,-20.9869602853834],[-68.8063360849679,-20.9870056620756],[-68.8065122987719,-20.9870368472525],[-68.8066837994338,-20.9870557391423],[-68.8067450702816,-20.9870559199259]]]}},{"type":"Feature","id":"610291621","properties":{"name":"ZD_STK_MAR_02-AutoClean-1","oid":"610291621","speedLimit":5},"geometry":{"type":"Polygon","coordinates":[[[-68.8068590513721,-20.9870306102171],[-68.8070890334711,-20.9870136165555],[-68.8072596684538,-20.9869895723321],[-68.8074334775935,-20.9869453707336],[-68.8075841057688,-20.9868688088644],[-68.8077460839598,-20.9867069171199],[-68.8068085534206,-20.9867635927893],[-68.8068590513721,-20.9870306102171]]]}},{"type":"Feature","id":"610889233","properties":{"name":"VEL_10_KMH_902_001","oid":"610889233","speedLimit":2.7777777},"geometry":{"type":"Polygon","coordinates":[[[-68.812309463602,-20.9973580561092],[-68.8124831765551,-20.9977861517552],[-68.8115514172104,-20.9974917456068],[-68.8094274252777,-20.99729243165],[-68.80939731888,-20.9971458161226],[-68.8105859925646,-20.9971034223603],[-68.812309463602,-20.9973580561092]]]}},{"type":"Feature","id":"611100302","properties":{"name":"TRC_70%_007","oid":"611100302","speedLimit":5.5555553},"geometry":{"type":"Polygon","coordinates":[[[-68.8241701338863,-21.014959693094],[-68.8231290104066,-21.0146916813562],[-68.8216839995017,-21.017014118314],[-68.8226943432776,-21.0170282194375],[-68.8237993346426,-21.0152411732126],[-68.8241701338863,-21.014959693094]]]}},{"type":"Feature","id":"611101069","properties":{"name":"TRC_90%-004","oid":"611101069","speedLimit":6.9444447},"geometry":{"type":"Polygon","coordinates":[[[-68.8219148472799,-21.0048460238495],[-68.8221492539613,-21.0056374042085],[-68.8212463505888,-21.0061351015537],[-68.8203416196714,-21.0061917772231],[-68.820351430702,-21.0053149765968],[-68.8213157972954,-21.0052702326473],[-68.8218714671349,-21.0049928201605],[-68.8219148472799,-21.0048460238495]]]}},{"type":"Feature","id":"611176514","properties":{"name":"TRC_70%_004","oid":"611176514","speedLimit":6.9444447},"geometry":{"type":"Polygon","coordinates":[[[-68.8148208950557,-21.0023489499009],[-68.8141418178415,-21.00298512751],[-68.8116379851272,-21.0030015788207],[-68.8111131911781,-21.0031372569382],[-68.810973816832,-21.0032374110716],[-68.8098314088896,-21.0021547882777],[-68.8103880405948,-21.0023805870369],[-68.8115087103714,-21.0024248790273],[-68.8122904186603,-21.0024956558201],[-68.8134794770912,-21.0025531450158],[-68.8148208950557,-21.0023489499009]]]}},{"type":"Feature","id":"611187609","properties":{"name":"TRC_90%_003","oid":"611187609","speedLimit":5.5555553},"geometry":{"type":"Polygon","coordinates":[[[-68.810567813302,-21.0028844310257],[-68.8087524840862,-21.0038413188019],[-68.8067273719519,-20.9987524402805],[-68.8088222193526,-20.997203938061],[-68.8091122218739,-20.9977454754375],[-68.8081259247416,-20.9996250828832],[-68.810567813302,-21.0028844310257]]]}},{"type":"Feature","id":"611197820","properties":{"name":"TRC_70%_006","oid":"611197820","speedLimit":8.333333},"geometry":{"type":"Polygon","coordinates":[[[-68.8222740079481,-21.0076554015262],[-68.8234250726822,-21.012492538837],[-68.8229501995651,-21.0146568805066],[-68.824066060013,-21.0152593419679],[-68.8246122073816,-21.0142775964419],[-68.8238088571134,-21.0104346787279],[-68.8232113461142,-21.0088779508531],[-68.8231496905201,-21.0076744741996],[-68.8222740079481,-21.0076554015262]]]}},{"type":"Feature","id":"611200085","properties":{"name":"TRC_70%_008","oid":"611200085","speedLimit":5.5555553},"geometry":{"type":"Polygon","coordinates":[[[-68.8216896745095,-21.0170229767121],[-68.8196405157317,-21.0203163121779],[-68.8181287513442,-21.0225948187126],[-68.81571841198,-21.0232112909055],[-68.8138928869873,-21.023144310569],[-68.8136504006336,-21.0225009920064],[-68.8143349604826,-21.021254488848],[-68.8147771301644,-21.0200750564179],[-68.8155044930389,-21.0188151752706],[-68.8162888945519,-21.0177831718943],[-68.8168309058978,-21.0165852091417],[-68.8147022970096,-21.0153188197835],[-68.8137502422977,-21.0190564310305],[-68.8129230377592,-21.0209462527515],[-68.812595041541,-21.0227958501139],[-68.818642099091,-21.0235998853274],[-68.8227000182855,-21.0170370778356],[-68.8216896745095,-21.0170229767121]]]}},{"type":"Feature","id":"611225942","properties":{"name":"TRAC_90%_005","oid":"611225942","speedLimit":9.722222},"geometry":{"type":"Polygon","coordinates":[[[-68.8225597782602,-21.0054848228212],[-68.8219037858238,-21.0058662762895],[-68.822178687053,-21.0072045271423],[-68.8222860312699,-21.0076554015262],[-68.8231617138419,-21.0076744741996],[-68.8231284332872,-21.0070260033035],[-68.8228518006996,-21.0057889008941],[-68.8225597782602,-21.0054848228212]]]}},{"type":"Feature","id":"611506423","properties":{"name":"TRAC_90%_01","oid":"611506423","speedLimit":5.5555553},"geometry":{"type":"Polygon","coordinates":[[[-68.8203416196714,-21.0061917772231],[-68.820074220995,-21.0062084997092],[-68.8186677809063,-21.0056863965734],[-68.8170876278645,-21.0048133020117],[-68.8140836249641,-21.0044706266329],[-68.813641743842,-21.0044111488172],[-68.8138034334733,-21.0037709939682],[-68.8158461477506,-21.0038913958686],[-68.8173047209626,-21.004176943619],[-68.8181034542752,-21.0046012428086],[-68.8187893607362,-21.0050499477889],[-68.8199092610202,-21.0053354955393],[-68.820351430702,-21.0053149765968],[-68.8203416196714,-21.0061917772231]]]}},{"type":"Feature","id":"611524503","properties":{"name":"TRC_40%_F03_001","oid":"611524503","speedLimit":8.333333},"geometry":{"type":"Polygon","coordinates":[[[-68.8074404992134,-20.9948572760962],[-68.8064794991501,-20.9955957772422],[-68.8063386820054,-20.9958263667678],[-68.8062381670353,-20.9959699993652],[-68.8060853265688,-20.9960871471602],[-68.8061738182171,-20.9962648574727],[-68.8064634359922,-20.9960720517268],[-68.8066605222828,-20.9957583017295],[-68.8067972995914,-20.9955088203141],[-68.807494363695,-20.9951867542697],[-68.8074404992134,-20.9948572760962]]]}},{"type":"Feature","id":"611565659","properties":{"name":"INFO_SINGLE_LANE_P2","oid":"611565659","speedLimit":9.722222},"geometry":{"type":"Polygon","coordinates":[[[-68.8213690846576,-21.000641990826],[-68.821360620239,-20.99990150106],[-68.81905598992,-20.9988106526107],[-68.8156500233258,-20.9966767729834],[-68.8152348820713,-20.9975606241714],[-68.8179800469004,-20.9993918719949],[-68.8211657462396,-21.0007454894566],[-68.8213690846576,-21.000641990826]]]}},{"type":"Feature","id":"612022415","properties":{"name":"INFO_DESCARGA_PIO3","oid":"612022415","speedLimit":2.7777777},"geometry":{"type":"Polygon","coordinates":[[[-68.8120715942039,-20.993487568891],[-68.8112529502704,-20.9948694789915],[-68.8067957606062,-20.9931740900692],[-68.8078115870169,-20.9915784033212],[-68.8120715942039,-20.993487568891]]]}},{"type":"Feature","id":"612399621","properties":{"name":"TRC_90%_002","oid":"612399621","speedLimit":9.722222},"geometry":{"type":"Polygon","coordinates":[[[-68.8121791307939,-20.9933812681141],[-68.8111313704406,-20.9948511294526],[-68.8082461579594,-20.9938236456672],[-68.8046167499532,-20.9962924269769],[-68.8025819229749,-21.0038843453069],[-68.805117882005,-21.0035988879484],[-68.8055886190994,-21.0011587608446],[-68.8065908832031,-21.0000313941012],[-68.8066668705967,-20.998789772101],[-68.8075172560997,-20.9979906180456],[-68.8082764567303,-20.996834687488],[-68.8065453869535,-20.9978194159439],[-68.8053456518128,-20.9997459367427],[-68.8058467838647,-20.9977908521297],[-68.8063327184378,-20.9968062140656],[-68.8076235422642,-20.9956645654151],[-68.808838378697,-20.9951650602336],[-68.8102505899802,-20.9957501664659],[-68.8117083936995,-20.995764448373],[-68.8122095257514,-20.9940947307268],[-68.8121791307939,-20.9933812681141]]]}},{"type":"Feature","id":"612548768","properties":{"name":"ZD_STK_DIN_13-AutoClean-1","oid":"612548768","speedLimit":5},"geometry":{"type":"Polygon","coordinates":[[[-68.8260858818857,-21.0039432807717],[-68.8266327987469,-21.0038885937223],[-68.826623949582,-21.0036175990545],[-68.8259286168368,-21.0034785764397],[-68.8256831486993,-21.0036211243354],[-68.8257356665688,-21.0037379105631],[-68.8258347387403,-21.0038518042527],[-68.825958627048,-21.003910016583],[-68.8260858818857,-21.0039432807717]]]}},{"type":"Feature","id":"612609137","properties":{"name":"EX-REDUCCION_901","oid":"612609137","speedLimit":2.7777777},"geometry":{"type":"Polygon","coordinates":[[[-68.8176746545272,-21.001768544043],[-68.81642624898,-21.0018232310924],[-68.8160132238301,-21.0018519756903],[-68.8159122279272,-21.0022459032294],[-68.818020349075,-21.0022832350498],[-68.8176746545272,-21.001768544043]]]}},{"type":"Feature","id":"612711005","properties":{"name":"ZD_STK_DIN_22-AutoClean-1","oid":"612711005","speedLimit":5},"geometry":{"type":"Polygon","coordinates":[[[-68.8236080195464,-21.0062529724833],[-68.8237957757394,-21.0060470599238],[-68.8235208745101,-21.0056679566427],[-68.8233944853516,-21.005578830311],[-68.8231387252506,-21.0055475547423],[-68.8230404225718,-21.0058025500585],[-68.823431901929,-21.0061213619975],[-68.8236080195464,-21.0062529724833]]]}},{"type":"Feature","id":"612712103","properties":{"name":"VEL_10_KPH_F03_001","oid":"612712103","speedLimit":2.7777777},"geometry":{"type":"Polygon","coordinates":[[[-68.8050994141827,-20.998505037877],[-68.8047861345104,-20.9984509835703],[-68.8042429689256,-21.0007696240718],[-68.8043346347309,-21.0009116296165],[-68.8050994141827,-20.998505037877]]]}},{"type":"Feature","id":"612786077","properties":{"name":"VEL_10KM_CHANCADO","oid":"612786077","speedLimit":2.7777777},"geometry":{"type":"Polygon","coordinates":[[[-68.825428831397,-21.001151167932],[-68.8253643863922,-21.0018687885683],[-68.8251009313654,-21.001843207684],[-68.8251592204294,-21.0011379707267],[-68.825428831397,-21.001151167932]]]}},{"type":"Feature","id":"612791037","properties":{"name":"VEL_10KM_CHANCADO_001","oid":"612791037","speedLimit":2.7777777},"geometry":{"type":"Polygon","coordinates":[[[-68.8258750409149,-21.0020659331214],[-68.8260689530486,-21.0021752168284],[-68.8255357908676,-21.0027733394824],[-68.8253839122668,-21.0026427233066],[-68.8258072293801,-21.002075062695],[-68.8258750409149,-21.0020659331214]]]}},{"type":"Feature","id":"612794629","properties":{"name":"TRAC_90%_011","oid":"612794629","speedLimit":2.7777777},"geometry":{"type":"Polygon","coordinates":[[[-68.813641743842,-21.0044111488172],[-68.8113575050766,-21.0041035454635],[-68.810341678666,-21.0036221186454],[-68.8099075886564,-21.003336570895],[-68.810341678666,-21.0029693993338],[-68.8119652118528,-21.0034508261519],[-68.8136322213711,-21.0037608700847],[-68.8138034334733,-21.0037709939682],[-68.813641743842,-21.0044111488172]]]}}]}