{"type":"FeatureCollection","features":[{"type":"Feature","id":"558966402","properties":{"name":"ZD_STK_BL_02-AutoClean-1","oid":"558966402","speedLimit":5},"geometry":{"type":"Polygon","coordinates":[[[-68.8233350260916,-20.9923360768016],[-68.8235274436996,-20.9921338114604],[-68.8232655018885,-20.9918786278613],[-68.823151551431,-20.9917698966716],[-68.8230860659782,-20.9917115509001],[-68.8229854818614,-20.991638098549],[-68.8229552873941,-20.9916210018811],[-68.822842971669,-20.9915653698664],[-68.8227235400502,-20.9915244825971],[-68.8226027621814,-20.9917709821744],[-68.8232090555437,-20.9922390147663],[-68.8233350260916,-20.9923360768016]]]}},{"type":"Feature","id":"592941111","properties":{"name":"INFO_ESTACION","oid":"592941111","speedLimit":5.5555553},"geometry":{"type":"Polygon","coordinates":[[[-68.8203781800014,-21.0085382000269],[-68.8205704052879,-21.0083633436295],[-68.8202307656121,-21.0080498142589],[-68.8198845870072,-21.0077001014641],[-68.8195064830419,-21.0078508054259],[-68.8202883658856,-21.0086105668753],[-68.8203781800014,-21.0085382000269]]]}},{"type":"Feature","id":"600880362","properties":{"name":"VEL_15_KPH_RC_002","oid":"600880362","speedLimit":4.1666665},"geometry":{"type":"Polygon","coordinates":[[[-68.8105523811024,-21.0009331679307],[-68.8108670189901,-21.0010319486787],[-68.8107911481792,-21.0012908410788],[-68.8107816282675,-21.0014306900133],[-68.8108333627368,-21.0015377024903],[-68.8109935665024,-21.0015605885061],[-68.811119633211,-21.0015665587711],[-68.8112141592023,-21.0015961387204],[-68.8112015621475,-21.0017621301789],[-68.8110283766843,-21.0019394289574],[-68.8103198644728,-21.0017490136876],[-68.8102534174127,-21.0013324520166],[-68.8103767916211,-21.0008445185414],[-68.8105523811024,-21.0009331679307]]]}},{"type":"Feature","id":"604050980","properties":{"name":"VEL_10_KPH_901_002","oid":"604050980","speedLimit":2.7777777},"geometry":{"type":"Polygon","coordinates":[[[-68.8165617532029,-21.00146985857],[-68.8166506057115,-21.0016420916691],[-68.8167039749131,-21.0018359443642],[-68.8164758816767,-21.0018666098162],[-68.8161708598614,-21.0020013930713],[-68.8160287343119,-21.0020565727932],[-68.8157248664253,-21.0021034303275],[-68.8153304151371,-21.0021217029567],[-68.8151686728,-21.0018777362191],[-68.8151764618186,-21.0017252230862],[-68.8151904051235,-21.0016595501713],[-68.8153469547815,-21.0016647967678],[-68.8155845679296,-21.0016779132591],[-68.8158333357216,-21.0016779132591],[-68.8159758459139,-21.001651589818],[-68.816129606911,-21.0015779565497],[-68.8165617532029,-21.00146985857]]]}},{"type":"Feature","id":"607457029","properties":{"name":"ZD_STK_DIN_21-AutoClean-1","oid":"607457029","speedLimit":5},"geometry":{"type":"Polygon","coordinates":[[[-68.8234085890452,-21.0061818449851],[-68.823694667198,-21.0061469279808],[-68.8236832240718,-21.0059193342426],[-68.8236451444253,-21.0057654642313],[-68.8235930253131,-21.0056615273453],[-68.8233190634116,-21.0057462870164],[-68.8234085890452,-21.0061818449851]]]}},{"type":"Feature","id":"607691021","properties":{"name":"VEL_13_KPH_901_001","oid":"607691021","speedLimit":3.6111112},"geometry":{"type":"Polygon","coordinates":[[[-68.8149041346493,-21.0017842925262],[-68.8151898281592,-21.0021628616018],[-68.814535454435,-21.0025702869581],[-68.8143296704865,-21.0021425988842],[-68.8149041346493,-21.0017842925262]]]}},{"type":"Feature","id":"608715834","properties":{"name":"INFO_RESTRICCION VELOCIDAD","oid":"608715834","speedLimit":2.7777777},"geometry":{"type":"Polygon","coordinates":[[[-68.8173452707788,-21.0014950060498],[-68.8174904734715,-21.0011490925145],[-68.8172396863043,-21.0010727454895],[-68.816728688219,-21.0012285151306],[-68.8166059871357,-21.0014560184102],[-68.8164606882824,-21.0015482861419],[-68.8158100648264,-21.0017310124341],[-68.8158496830446,-21.0019652096471],[-68.8165380976649,-21.0018392008724],[-68.8170755399491,-21.0017771462999],[-68.8173980630161,-21.0016387447024],[-68.8173452707788,-21.0014950060498]]]}},{"type":"Feature","id":"610786215","properties":{"name":"VEL_20_KPH_F03_001","oid":"610786215","speedLimit":5.5555553},"geometry":{"type":"Polygon","coordinates":[[[-68.8063802557873,-20.9994283897772],[-68.8062022622878,-20.9993793612374],[-68.8061439888894,-20.9996882772214],[-68.80605504022,-21.0000433270713],[-68.8059291658328,-21.0002251487778],[-68.8057021303644,-21.0003550472707],[-68.8053982624778,-21.0005629210426],[-68.8052233461215,-21.0007072929052],[-68.8050852593224,-21.0008891146117],[-68.804974770651,-21.0011778583367],[-68.8049440953802,-21.001391430998],[-68.8050453526221,-21.0014837891883],[-68.8051435327209,-21.0014578275814],[-68.8052049794233,-21.0011171606427],[-68.8053798957796,-21.0008400860719],[-68.8057235742057,-21.0005888826495],[-68.8060519630768,-21.0003319803377],[-68.8062360147018,-21.0001068289807],[-68.8063189052456,-20.9996304742013],[-68.8063802557873,-20.9994283897772]]]}},{"type":"Feature","id":"610889233","properties":{"name":"VEL_15_KMH","oid":"610889233","speedLimit":4.1666665},"geometry":{"type":"Polygon","coordinates":[[[-68.81231019913,-20.9973583360792],[-68.8124838653968,-20.9977867478217],[-68.8115523564672,-20.9974921242902],[-68.8100459987319,-20.9973021613132],[-68.8100864823966,-20.997144130208],[-68.8105871912844,-20.9971035143144],[-68.81231019913,-20.9973583360792]]]}},{"type":"Feature","id":"611100742","properties":{"name":"TRAC_CAM_CH","oid":"611100742","speedLimit":5.5555553},"geometry":{"type":"Polygon","coordinates":[[[-68.8258413591918,-21.0026986476555],[-68.8249125427624,-21.001995694182],[-68.8219490615823,-21.0048652206374],[-68.8221803281226,-21.0056642411021],[-68.8258413591918,-21.0026986476555]]]}},{"type":"Feature","id":"611101069","properties":{"name":"TRAC_RPA_SUR","oid":"611101069","speedLimit":5.5555553},"geometry":{"type":"Polygon","coordinates":[[[-68.821913001311,-21.0048518327705],[-68.8221473449944,-21.0056437974674],[-68.8212446842819,-21.0061418623014],[-68.8203401965156,-21.0061985798188],[-68.8203500049094,-21.0053211317822],[-68.8213141123243,-21.0052763547948],[-68.8218696328246,-21.0049987374727],[-68.821913001311,-21.0048518327705]]]}},{"type":"Feature","id":"611176514","properties":{"name":"TRC_40%_FM_001","oid":"611176514","speedLimit":5.5555553},"geometry":{"type":"Polygon","coordinates":[[[-68.8148209556234,-21.0023529150373],[-68.8141420609147,-21.002989562386],[-68.8116389011185,-21.0030060258439],[-68.8111142482105,-21.0031418041432],[-68.810974911322,-21.0032420322282],[-68.8098328104077,-21.0021586100494],[-68.8103892925152,-21.0023845755335],[-68.811509661106,-21.0024289002281],[-68.8122911593067,-21.002499729281],[-68.813479898172,-21.0025572609254],[-68.8148209556234,-21.0023529150373]]]}},{"type":"Feature","id":"611187609","properties":{"name":"TR_INT NORTESUR","oid":"611187609","speedLimit":5.5555553},"geometry":{"type":"Polygon","coordinates":[[[-68.8105690169076,-21.0028887915496],[-68.808754175571,-21.0038463858708],[-68.8067296076961,-20.9987537498331],[-68.808228464895,-20.9977331058953],[-68.8088548558486,-20.9979014492763],[-68.8081277846174,-20.999627036776],[-68.8105690169076,-21.0028887915496]]]}},{"type":"Feature","id":"611197820","properties":{"name":"TRAC_CAM_CH1","oid":"611197820","speedLimit":5.5555553},"geometry":{"type":"Polygon","coordinates":[[[-68.8222840855434,-21.00766328483],[-68.8234348409228,-21.0125039937767],[-68.8246216565735,-21.014290369429],[-68.82381852221,-21.010444614189],[-68.8232211717949,-21.0088867368604],[-68.8231595327711,-21.0076823715863],[-68.8222840855434,-21.00766328483]]]}},{"type":"Feature","id":"611225942","properties":{"name":"TRAC_CAM_CH2","oid":"611225942","speedLimit":2.7777777},"geometry":{"type":"Polygon","coordinates":[[[-68.8225577589627,-21.0054911034173],[-68.8219019428277,-21.0058728385425],[-68.8221767701758,-21.0072120775304],[-68.8222840855434,-21.00766328483],[-68.8231595327711,-21.0076823715863],[-68.8231262611607,-21.0070334218734],[-68.8228497029196,-21.0057954060148],[-68.8225577589627,-21.0054911034173]]]}},{"type":"Feature","id":"611506423","properties":{"name":"TRAC_RPA_SUR1","oid":"611506423","speedLimit":5.5555553},"geometry":{"type":"Polygon","coordinates":[[[-68.8203401965156,-21.0061985798188],[-68.820072869704,-21.0062153146525],[-68.8186668076034,-21.0056928260072],[-68.817087079236,-21.0048190867716],[-68.814083883677,-21.0044761583688],[-68.8113584964484,-21.0041088061547],[-68.8103429430464,-21.0036270238616],[-68.8099089697008,-21.0033412652691],[-68.8103429430464,-21.0029738225964],[-68.8119660399002,-21.0034556048895],[-68.813632601401,-21.0037658777519],[-68.8158459327764,-21.0038964999133],[-68.8173041139891,-21.0041822585058],[-68.818102632638,-21.0046068709887],[-68.818788354758,-21.0050559072829],[-68.819907954063,-21.0053416658754],[-68.8203500049094,-21.0053211317822],[-68.8203401965156,-21.0061985798188]]]}},{"type":"Feature","id":"611524503","properties":{"name":"TRC_40%_F03_001","oid":"611524503","speedLimit":8.333333},"geometry":{"type":"Polygon","coordinates":[[[-68.807442543301,-20.9948557095451],[-68.8064818015114,-20.9955947559842],[-68.806341022212,-20.995825515772],[-68.8062405342558,-20.9959692544246],[-68.806087734866,-20.996086488719],[-68.8061762027318,-20.9962643302489],[-68.8064657426705,-20.9960713821394],[-68.8066627759932,-20.995757400476],[-68.8067995165422,-20.995507734849],[-68.8074963933062,-20.9951854309981],[-68.807442543301,-20.9948557095451]]]}},{"type":"Feature","id":"611565659","properties":{"name":"INFO_SINGLE_LANE_P2","oid":"611565659","speedLimit":8.333333},"geometry":{"type":"Polygon","coordinates":[[[-68.8213673853652,-21.0006446955813],[-68.8213589232215,-20.9999036590539],[-68.8190549122839,-20.9988120051461],[-68.8156498610609,-20.9966765499089],[-68.8152348313778,-20.9975610537133],[-68.8179792584296,-20.9993936536899],[-68.8211641015955,-21.000748270633],[-68.8213673853652,-21.0006446955813]]]}},{"type":"Feature","id":"611624297","properties":{"name":"ZD_STK_DIN_13-AutoClean-1","oid":"611624297","speedLimit":5},"geometry":{"type":"Polygon","coordinates":[[[-68.8258543408895,-21.0038291082857],[-68.8259996397428,-21.0038179818828],[-68.8261368610954,-21.0037744713152],[-68.8264604419304,-21.0033800719915],[-68.8262439841415,-21.0034021438803],[-68.825843378567,-21.0034519865471],[-68.8257127923043,-21.0036939631964],[-68.8258543408895,-21.0038291082857]]]}},{"type":"Feature","id":"611713611","properties":{"name":"VEL_15_KMH_F03_001","oid":"611713611","speedLimit":4.1666665},"geometry":{"type":"Polygon","coordinates":[[[-68.8046958083918,-20.9995241853927],[-68.8045479131989,-20.9995211098016],[-68.8042718357614,-21.0004672158857],[-68.804465791941,-21.0005197723093],[-68.8047615823268,-20.9995303365748],[-68.8046958083918,-20.9995241853927]]]}},{"type":"Feature","id":"611923346","properties":{"name":"ZD_RELL_PIO3-AutoClean-1","oid":"611923346","speedLimit":5},"geometry":{"type":"Polygon","coordinates":[[[-68.8109473131943,-20.994271437703],[-68.8110202991835,-20.9940089269605],[-68.810533725922,-20.9937801572611],[-68.810045614089,-20.9935612475447],[-68.8098715631793,-20.9937776244214],[-68.8099494533654,-20.9938679020647],[-68.8101015796302,-20.9939413544158],[-68.8106682547744,-20.9942028701142],[-68.8108268238076,-20.9942652865209],[-68.8109473131943,-20.994271437703]]]}}]}