{"type":"FeatureCollection","features":[{"type":"Feature","id":"553508825","properties":{"name":"ZD_STK_HG_02-AutoClean-1","oid":"553508825","speedLimit":5},"geometry":{"type":"Polygon","coordinates":[[[-68.815727177611,-21.0200496458394],[-68.8159960017172,-21.0199511316249],[-68.8158661582312,-21.0189966283044],[-68.8155896396962,-21.018919082253],[-68.8155457814521,-21.0190275382689],[-68.8155146190155,-21.0191378018852],[-68.8154875923343,-21.0192531267821],[-68.815484033661,-21.0194074958449],[-68.8154893235808,-21.0196071452942],[-68.8154958638453,-21.0196409474192],[-68.8155314505785,-21.0197557300361],[-68.8155924289267,-21.0198603900915],[-68.815727177611,-21.0200496458394]]]}},{"type":"Feature","id":"558966402","properties":{"name":"ZD_STK_BL_02-AutoClean-1","oid":"558966402","speedLimit":5},"geometry":{"type":"Polygon","coordinates":[[[-68.8233381218574,-20.9923439239023],[-68.8235305787577,-20.9921418341926],[-68.8232685834571,-20.991886872175],[-68.8231546097305,-20.991778235399],[-68.8230891109054,-20.9917199402905],[-68.8229885062488,-20.9916465517197],[-68.8229583056158,-20.9916294698972],[-68.8228459669553,-20.991573886189],[-68.8227265109482,-20.991533034423],[-68.8226057084161,-20.9917793199592],[-68.8232121255858,-20.992246946148],[-68.8233381218574,-20.9923439239023]]]}},{"type":"Feature","id":"570805601","properties":{"name":"ZD_STK_MAR_02-AutoClean-1-tmp-1","oid":"570805601","speedLimit":5},"geometry":{"type":"Polygon","coordinates":[[[-68.8065064626796,-20.9867041206924],[-68.8068585789775,-20.9866985171315],[-68.8068629070937,-20.9864273770916],[-68.806284286048,-20.986205494159],[-68.8060019966915,-20.9862615297672],[-68.8060100758417,-20.9863762220041],[-68.8060390261301,-20.9864991388222],[-68.8060616285147,-20.9865268854863],[-68.8061470366744,-20.9866148252392],[-68.8062246542249,-20.9866459159638],[-68.8063401668372,-20.9866800796088],[-68.8063878722958,-20.9866892079902],[-68.8065064626796,-20.9867041206924]]]}},{"type":"Feature","id":"592941111","properties":{"name":"INFO_ESTACION","oid":"592941111","speedLimit":5.5555553},"geometry":{"type":"Polygon","coordinates":[[[-68.821977554485,-21.0107290262078],[-68.8222566698897,-21.0106303312332],[-68.8218338610272,-21.0097468666032],[-68.8212850558931,-21.00904524656],[-68.8208550335036,-21.0093297628419],[-68.8218664661692,-21.0107677088535],[-68.821977554485,-21.0107290262078]]]}},{"type":"Feature","id":"607546676","properties":{"name":"ZD_STK_HG_01-AutoClean-1","oid":"607546676","speedLimit":5},"geometry":{"type":"Polygon","coordinates":[[[-68.8168107455466,-21.0205960833998],[-68.8170917845585,-21.0205349865108],[-68.8173095368935,-21.0204000491509],[-68.8171831559005,-21.020156294255],[-68.8158423055019,-21.0198713260731],[-68.8156212830347,-21.0200455787388],[-68.8156871665813,-21.0201350549519],[-68.8157635337871,-21.020216939244],[-68.8158067187687,-21.0202532720093],[-68.8158958779624,-21.0203223223395],[-68.8160456307829,-21.020407731452],[-68.8160971834559,-21.0204295130352],[-68.8163650457584,-21.02052992523],[-68.8164753646314,-21.0205662579954],[-68.8165908772437,-21.0205924681992],[-68.8168107455466,-21.0205960833998]]]}},{"type":"Feature","id":"621174471","properties":{"name":"ZD_STK_MAR_01-AutoClean-1","oid":"621174471","speedLimit":5},"geometry":{"type":"Polygon","coordinates":[[[-68.8067350833953,-20.9870963699501],[-68.8068619452901,-20.9870658215056],[-68.8069834210848,-20.987034911541],[-68.80693138751,-20.9867682905018],[-68.8062524503489,-20.986327687937],[-68.8059639092689,-20.9863268745168],[-68.805947366247,-20.9864457242343],[-68.8059631398261,-20.9865980145567],[-68.8059792981266,-20.9866827910092],[-68.8060217136653,-20.9868022733868],[-68.8060371025229,-20.9868249587701],[-68.8061270311595,-20.9869156099235],[-68.8063685400434,-20.9870132203378],[-68.8065739812923,-20.9870817283879],[-68.8067350833953,-20.9870963699501]]]}},{"type":"Feature","id":"625872519","properties":{"name":"VEL_15_4_ESQ","oid":"625872519","speedLimit":8.333333},"geometry":{"type":"Polygon","coordinates":[[[-68.8228153816008,-21.0050164670871],[-68.8223765106182,-21.0050686163548],[-68.8224531663651,-21.0048947252092],[-68.8226250406684,-21.0046685944159],[-68.8228179784706,-21.0045418816373],[-68.8230137055031,-21.0044276413005],[-68.8232146262752,-21.0046835071181],[-68.8228153816008,-21.0050164670871]]]}},{"type":"Feature","id":"626734706","properties":{"name":"ZD_STK_MAR_02-AutoClean-1","oid":"626734706","speedLimit":5},"geometry":{"type":"Polygon","coordinates":[[[-68.8068167405209,-20.9870499146232],[-68.8072750399363,-20.9869960481353],[-68.8075040453734,-20.9869421816474],[-68.8076190770839,-20.9868915688399],[-68.8077246831192,-20.9867673867017],[-68.8078791487773,-20.986470488358],[-68.8076395635006,-20.9863192825957],[-68.806752107319,-20.9867857338444],[-68.8068167405209,-20.9870499146232]]]}}]}