{"type":"FeatureCollection","features":[{"type":"Feature","id":"558966402","properties":{"name":"ZD_STK_BL_02-AutoClean-1","oid":"558966402","speedLimit":5},"geometry":{"type":"Polygon","coordinates":[[[-68.8233398941775,-20.9923379902969],[-68.8235323253559,-20.9921357423862],[-68.8232703650711,-20.991880580778],[-68.8231564065771,-20.9917718589584],[-68.823090916506,-20.9917135182149],[-68.8229903252953,-20.9916400721937],[-68.8229601286986,-20.9916229769991],[-68.8228478050522,-20.9915673497786],[-68.8227283650105,-20.9915264660327],[-68.8226075786237,-20.9917729443676],[-68.8232139147454,-20.992240936626],[-68.8233398941775,-20.9923379902969]]]}},{"type":"Feature","id":"592941111","properties":{"name":"INFO_ESTACION","oid":"592941111","speedLimit":5.5555553},"geometry":{"type":"Polygon","coordinates":[[[-68.8203828395532,-21.0085387172792],[-68.8205750783965,-21.0083638759503],[-68.8202354147674,-21.0080503735985],[-68.8198892117478,-21.0077006909408],[-68.8195110811165,-21.0078513819154],[-68.8202930191031,-21.0086110778912],[-68.8203828395532,-21.0085387172792]]]}},{"type":"Feature","id":"600880362","properties":{"name":"VEL_15_KPH_RC_002","oid":"600880362","speedLimit":4.1666665},"geometry":{"type":"Polygon","coordinates":[[[-68.8105563476814,-21.0009343405583],[-68.8108710077591,-21.0010331127938],[-68.8107951315973,-21.0012919828834],[-68.8107856110143,-21.0014318197662],[-68.8108373491322,-21.0015388230213],[-68.8109975641962,-21.0015617070648],[-68.8111236397958,-21.0015676768153],[-68.8112181724537,-21.0015972542155],[-68.8112055745105,-21.0017632313694],[-68.8110323768332,-21.0019405148689],[-68.8103238146532,-21.0017501160084],[-68.810257362907,-21.0013335902353],[-68.8103807458164,-21.0008456988085],[-68.8105563476814,-21.0009343405583]]]}},{"type":"Feature","id":"604050980","properties":{"name":"VEL_10_KPH_901_002","oid":"604050980","speedLimit":2.7777777},"geometry":{"type":"Polygon","coordinates":[[[-68.8165661435979,-21.0014709849475],[-68.8166550023729,-21.0016432032041],[-68.8167083753384,-21.0018370391937],[-68.8164802660155,-21.001867702003],[-68.8161752226883,-21.002002473643],[-68.8160330871153,-21.0020576486097],[-68.8157291977982,-21.002104502106],[-68.8153347186909,-21.0021227731605],[-68.8151729649468,-21.0018788274471],[-68.8151807545147,-21.0017263274572],[-68.815194698803,-21.0016606602018],[-68.8153512595018,-21.0016659063462],[-68.8155888894078,-21.0016790217071],[-68.8158376747443,-21.0016790217071],[-68.8159801949873,-21.0016527005345],[-68.8161339668285,-21.0015790736117],[-68.8165661435979,-21.0014709849475]]]}},{"type":"Feature","id":"607691021","properties":{"name":"VEL_13_KPH_901_001","oid":"607691021","speedLimit":3.6111112},"geometry":{"type":"Polygon","coordinates":[[[-68.8149084081394,-21.0017853918068],[-68.815194121798,-21.0021639282586],[-68.8145397019236,-21.0025713185045],[-68.814333903462,-21.0021436672873],[-68.8149084081394,-21.0017853918068]]]}},{"type":"Feature","id":"608715834","properties":{"name":"INFO_RESTRICCION VELOCIDAD","oid":"608715834","speedLimit":2.7777777},"geometry":{"type":"Polygon","coordinates":[[[-68.8173497164321,-21.0014961302601],[-68.8174949293653,-21.0011502465345],[-68.8172441245111,-21.0010739060888],[-68.8167330903873,-21.0012296623062],[-68.8166103806504,-21.0014571459804],[-68.8164650715497,-21.0015494057608],[-68.815814402208,-21.0017321163062],[-68.8158540232202,-21.001966293337],[-68.8165424863915,-21.0018402954212],[-68.8170799665794,-21.0017782461964],[-68.8174025123926,-21.0016398565258],[-68.8173497164321,-21.0014961302601]]]}},{"type":"Feature","id":"610258504","properties":{"name":"ZD_STK_MAR_01-AutoClean-1","oid":"610258504","speedLimit":5},"geometry":{"type":"Polygon","coordinates":[[[-68.8067509994917,-20.9870509621771],[-68.8069216968138,-20.9870293444443],[-68.8070308469325,-20.9869849331186],[-68.8063420952586,-20.9870006715518],[-68.8065182741286,-20.9870318770657],[-68.8066897407907,-20.9870507812756],[-68.8067509994917,-20.9870509621771]]]}},{"type":"Feature","id":"610291621","properties":{"name":"ZD_STK_MAR_02-AutoClean-1","oid":"610291621","speedLimit":5},"geometry":{"type":"Polygon","coordinates":[[[-68.8068649579856,-20.9870256359629],[-68.8070948944911,-20.9870086312191],[-68.8072654956457,-20.9869845713156],[-68.8068649579856,-20.9870256359629]]]}},{"type":"Feature","id":"610786215","properties":{"name":"VEL_20_KPH_F03_001","oid":"610786215","speedLimit":5.5555553},"geometry":{"type":"Polygon","coordinates":[[[-68.8063839281235,-20.9994296920814],[-68.806205922071,-20.9993806677667],[-68.8061476445626,-20.9996895571294],[-68.8060586896201,-21.0000445763823],[-68.8059328063555,-21.0002263824201],[-68.8057057548752,-21.0003562697187],[-68.8054018655581,-21.0005641255769],[-68.8052269368657,-21.0007084849979],[-68.8050888403279,-21.0008902910357],[-68.8049783438642,-21.0011790098778],[-68.80494766643,-21.0013925641341],[-68.8050489308132,-21.0014849143653],[-68.8051471178362,-21.0014589549957],[-68.8052085688722,-21.0011183174144],[-68.8053834975646,-21.000841266721],[-68.8057272002289,-21.0005900849464],[-68.80605561226,-21.0003332047737],[-68.8062396768654,-21.0001080728194],[-68.806322573255,-20.9996317590905],[-68.8063839281235,-20.9994296920814]]]}},{"type":"Feature","id":"610889233","properties":{"name":"VEL_15_KMH_902_001","oid":"610889233","speedLimit":2.7777777},"geometry":{"type":"Polygon","coordinates":[[[-68.8123142896805,-20.9973598167736],[-68.8124879681953,-20.9977881915969],[-68.8115563935703,-20.9974935934551],[-68.8100499295978,-20.9973036468484],[-68.8100904161176,-20.9971456293619],[-68.8105911603183,-20.9971050169684],[-68.8123142896805,-20.9973598167736]]]}},{"type":"Feature","id":"611101069","properties":{"name":"TRC_70%-004","oid":"611101069","speedLimit":6.9444447},"geometry":{"type":"Polygon","coordinates":[[[-68.8219177691073,-21.0048526677011],[-68.822152129318,-21.0056445641492],[-68.8212494049446,-21.0061425860617],[-68.8203448533886,-21.0061992986914],[-68.8203546624741,-21.0053219262703],[-68.8213188378835,-21.0052771531415],[-68.8218743975623,-21.0049995597435],[-68.8219177691073,-21.0048526677011]]]}},{"type":"Feature","id":"611176514","properties":{"name":"TRC_70%_004","oid":"611176514","speedLimit":6.9444447},"geometry":{"type":"Polygon","coordinates":[[[-68.8148252232472,-21.0023539653161],[-68.8141462806589,-21.0029905578006],[-68.8116429443252,-21.0030070198398],[-68.8111182544156,-21.0031427864382],[-68.8109789077002,-21.0032430058859],[-68.8098367262383,-21.0021596770727],[-68.8103932475922,-21.0023856230838],[-68.8115136951979,-21.0024299439587],[-68.8122952485144,-21.0025007669078],[-68.8134840712165,-21.0025582935943],[-68.8148252232472,-21.0023539653161]]]}},{"type":"Feature","id":"611187609","properties":{"name":"TRC_70%_003","oid":"611187609","speedLimit":8.333333},"geometry":{"type":"Polygon","coordinates":[[[-68.8105729846598,-21.0028897956483],[-68.8087580153299,-21.0038473074473],[-68.8067333046707,-20.9987551102755],[-68.8082322675778,-20.9977345542932],[-68.8088587027081,-20.997902883167],[-68.8081315801996,-20.9996283219615],[-68.8105729846598,-21.0028897956483]]]}},{"type":"Feature","id":"611197820","properties":{"name":"TRC_70%_006","oid":"611197820","speedLimit":8.333333},"geometry":{"type":"Polygon","coordinates":[[[-68.8222888795107,-21.0076638774794],[-68.8234397160481,-21.0125041692705],[-68.8246266154001,-21.0142903909791],[-68.8238234243948,-21.010444967153],[-68.8232260318511,-21.008887224077],[-68.8231643884801,-21.0076829625908],[-68.8222888795107,-21.0076638774794]]]}},{"type":"Feature","id":"611225942","properties":{"name":"TRAC_70%_005","oid":"611225942","speedLimit":8.333333},"geometry":{"type":"Polygon","coordinates":[[[-68.8225625722312,-21.0054918832578],[-68.8219067098441,-21.0058735854864],[-68.8221815565746,-21.0072127090632],[-68.8222888795107,-21.0076638774794],[-68.8231643884801,-21.0076829625908],[-68.8231311145232,-21.0070340688022],[-68.8228545367776,-21.0057961596315],[-68.8225625722312,-21.0054918832578]]]}},{"type":"Feature","id":"611506423","properties":{"name":"TRAC_70%_01","oid":"611506423","speedLimit":8.333333},"geometry":{"type":"Polygon","coordinates":[[[-68.8203448533886,-21.0061992986914],[-68.8200775077235,-21.006216032083],[-68.8186713464591,-21.0056935884639],[-68.81709150668,-21.0048199245241],[-68.8140880993181,-21.0044770256737],[-68.8113625198793,-21.0041097051168],[-68.8103468948545,-21.003627964342],[-68.8099128909026,-21.0033422303752],[-68.8103468948545,-21.0029748193675],[-68.8119701061786,-21.0034565601422],[-68.8136367852151,-21.0037668062664],[-68.8158502726875,-21.0038974171712],[-68.8173085567398,-21.004183151138],[-68.8181071317048,-21.0046077270293],[-68.818792902186,-21.0050567246271],[-68.8199125804516,-21.0053424585939],[-68.8203546624741,-21.0053219262703],[-68.8203448533886,-21.0061992986914]]]}},{"type":"Feature","id":"611524503","properties":{"name":"TRC_40%_F03_001","oid":"611524503","speedLimit":8.333333},"geometry":{"type":"Polygon","coordinates":[[[-68.8074462905559,-20.9948574059072],[-68.8064854810092,-20.9955963886578],[-68.8063446917813,-20.9958271285595],[-68.8062441967381,-20.9959708548252],[-68.806091386572,-20.9960880790167],[-68.806179860677,-20.9962659052208],[-68.8064694210358,-20.9960729737389],[-68.8066664682544,-20.9957590191334],[-68.8068032184471,-20.9955093750218],[-68.807500144359,-20.9951870989458],[-68.8074462905559,-20.9948574059072]]]}},{"type":"Feature","id":"611565659","properties":{"name":"INFO_SINGLE_LANE_P2","oid":"611565659","speedLimit":8.333333},"geometry":{"type":"Polygon","coordinates":[[[-68.8213721146815,-21.0006458930685],[-68.821363651941,-20.999904920401],[-68.819059478511,-20.9988133605682],[-68.8156541871439,-20.9966780893572],[-68.8152391281905,-20.9975625169381],[-68.8179837487954,-20.9993949589876],[-68.821168816575,-21.0007494591945],[-68.8213721146815,-21.0006458930685]]]}},{"type":"Feature","id":"611624297","properties":{"name":"ZD_STK_DIN_13-AutoClean-1","oid":"611624297","speedLimit":5},"geometry":{"type":"Polygon","coordinates":[[[-68.8260287376292,-21.003881316935],[-68.8261914530484,-21.0038643121912],[-68.8265382330729,-21.0037566757807],[-68.8264974580506,-21.0034880370085],[-68.8259553618225,-21.00348939377],[-68.8257639884867,-21.0035152626888],[-68.8257366769152,-21.0036664059172],[-68.8257386002653,-21.0037855295748],[-68.8259247805558,-21.003872090957],[-68.8260287376292,-21.003881316935]]]}},{"type":"Feature","id":"611923346","properties":{"name":"ZD_RELL_PIO3-AutoClean-1","oid":"611923346","speedLimit":5},"geometry":{"type":"Polygon","coordinates":[[[-68.8108022479927,-20.9942675764681],[-68.8109471724234,-20.9940329471836],[-68.8105249009071,-20.9937806799998],[-68.81039834447,-20.9937250527793],[-68.8099503000622,-20.9935435180938],[-68.8098353798932,-20.9937924385992],[-68.8105962571961,-20.9941679901758],[-68.8108022479927,-20.9942675764681]]]}},{"type":"Feature","id":"612022415","properties":{"name":"INFO_DESCARGA_PIO3","oid":"612022415","speedLimit":2.7777777},"geometry":{"type":"Polygon","coordinates":[[[-68.8120764674396,-20.9934868054641],[-68.8112579858009,-20.9948696167604],[-68.806801679767,-20.9931731222108],[-68.8078173047918,-20.9915763948551],[-68.8120764674396,-20.9934868054641]]]}},{"type":"Feature","id":"612399621","properties":{"name":"TRC_70%_002","oid":"612399621","speedLimit":8.333333},"geometry":{"type":"Polygon","coordinates":[[[-68.8121845597157,-20.9933809780689],[-68.8111370070791,-20.9948517979597],[-68.8082523665864,-20.9938236441132],[-68.8046236781042,-20.9962940354087],[-68.8025892545269,-21.0038909047161],[-68.8051247108074,-21.0036052612],[-68.805595354579,-21.001163542797],[-68.8065974199855,-21.000035440855],[-68.8066733923148,-20.9987930091461],[-68.8075236092303,-20.9979933339321],[-68.8082826593506,-20.9968366495484],[-68.8065519327554,-20.9978220201831],[-68.8053524354603,-20.999749797339],[-68.8058534681636,-20.9977934377413],[-68.806339306401,-20.9968081575574],[-68.8076298743238,-20.9956657643946],[-68.8088444699173,-20.9951659334668],[-68.8102564012319,-20.9957514212691],[-68.8117139159442,-20.99576571249],[-68.8122149486474,-20.9940949059576],[-68.8121845597157,-20.9933809780689]]]}}]}