{"type":"FeatureCollection","features":[{"type":"Feature","id":"611101069","properties":{"name":"TRC_70%-004","oid":"611101069","speedLimit":6.9444447},"geometry":{"type":"Polygon","coordinates":[[[-68.8219156346742,-21.0048518348521],[-68.8221500054501,-21.0056437996652],[-68.821247240381,-21.0061418645722],[-68.8203426480468,-21.0061985820979],[-68.8203524575746,-21.0053211339327],[-68.82131667645,-21.0052763569387],[-68.821872261174,-21.0049987395759],[-68.8219156346742,-21.0048518348521]]]}},{"type":"Feature","id":"611176514","properties":{"name":"TRC_70%_004","oid":"611176514","speedLimit":6.9444447},"geometry":{"type":"Polygon","coordinates":[[[-68.8148227690748,-21.0023529167527],[-68.814143795879,-21.0029895641946],[-68.8116403466923,-21.003006027655],[-68.8111156331292,-21.0031418059742],[-68.8109762801319,-21.0032420340739],[-68.8098340471792,-21.0021586117363],[-68.8103905936217,-21.0023845772535],[-68.8115110917383,-21.0024289019546],[-68.8122926802882,-21.0024997310179],[-68.8134815565836,-21.0025572626708],[-68.8148227690748,-21.0023529167527]]]}},{"type":"Feature","id":"611187609","properties":{"name":"TRC_70%_003","oid":"611187609","speedLimit":8.333333},"geometry":{"type":"Polygon","coordinates":[[[-68.8105703387921,-21.0028887933435],[-68.8087552876415,-21.0038463878051],[-68.8067304857062,-20.9987537510209],[-68.8082295161881,-20.9977331069335],[-68.8088559795588,-20.9979014503392],[-68.8081288242708,-20.9996270380917],[-68.8105703387921,-21.0028887933435]]]}},{"type":"Feature","id":"611197820","properties":{"name":"TRC_70%_006","oid":"611197820","speedLimit":8.333333},"geometry":{"type":"Polygon","coordinates":[[[-68.8222867618077,-21.0076632873238],[-68.823437650226,-21.0125039969801],[-68.8246246030846,-21.0142903728942],[-68.8238213758706,-21.0104446170904],[-68.8232239563958,-21.0088867395336],[-68.8231623102459,-21.0076823740829],[-68.8222867618077,-21.0076632873238]]]}},{"type":"Feature","id":"611225942","properties":{"name":"TRAC_70%_005","oid":"611225942","speedLimit":8.333333},"geometry":{"type":"Polygon","coordinates":[[[-68.8225604668665,-21.0054911055927],[-68.8219045749125,-21.0058728407739],[-68.8221794340334,-21.007212079958],[-68.8222867618077,-21.0076632873238],[-68.8231623102459,-21.0076823740829],[-68.823129034789,-21.0070334242749],[-68.822852444575,-21.0057954082348],[-68.8225604668665,-21.0054911055927]]]}},{"type":"Feature","id":"611506423","properties":{"name":"TRAC_70%_01","oid":"611506423","speedLimit":8.333333},"geometry":{"type":"Polygon","coordinates":[[[-68.8203426480468,-21.0061985820979],[-68.8200752903295,-21.006215316934],[-68.818669065674,-21.0056928282121],[-68.817089154674,-21.0048190888484],[-68.8140856119154,-21.0044761603954],[-68.8113599096047,-21.0041088081275],[-68.8103442387944,-21.0036270257637],[-68.8099102152771,-21.0033412671293],[-68.8103442387944,-21.0029738244028],[-68.8119675232946,-21.0034556067665],[-68.8136342774667,-21.0037658796744],[-68.8158478647254,-21.0038965018549],[-68.8173062145186,-21.0041822604893],[-68.8181048254842,-21.0046068730344],[-68.8187906268807,-21.0050559093945],[-68.8199103556226,-21.0053416680289],[-68.8203524575746,-21.0053211339327],[-68.8203426480468,-21.0061985820979]]]}},{"type":"Feature","id":"604050980","properties":{"name":"VEL_10_KPH_901_002","oid":"604050980","speedLimit":2.7777777},"geometry":{"type":"Polygon","coordinates":[[[-68.816563767908,-21.0014698601559],[-68.8166526306888,-21.0016420932803],[-68.8167060060604,-21.0018359460038],[-68.8164778864542,-21.0018666114603],[-68.8161728293753,-21.0020013947352],[-68.8160306873946,-21.0020565744651],[-68.8157267843779,-21.0021034320063],[-68.8153322874871,-21.0021217046382],[-68.815170526451,-21.0018777378649],[-68.81517831637,-21.0017252247095],[-68.815192261287,-21.001659551785],[-68.8153488290437,-21.0016647983823],[-68.8155864696622,-21.0016779148755],[-68.8158352662142,-21.0016779148755],[-68.8159777928822,-21.0016515914305],[-68.8161315716556,-21.0015779581515],[-68.816563767908,-21.0014698601559]]]}},{"type":"Feature","id":"600880362","properties":{"name":"VEL_15_KPH_RC_002","oid":"600880362","speedLimit":4.1666665},"geometry":{"type":"Polygon","coordinates":[[[-68.8105537010636,-21.0009331694379],[-68.8108683753266,-21.0010319502004],[-68.8107924957442,-21.0012908426385],[-68.810782974732,-21.0014306915935],[-68.8108347151823,-21.0015377040862],[-68.810994937469,-21.0015605901053],[-68.8111210187522,-21.0015665603712],[-68.8112155556717,-21.0015961403248],[-68.8112029571606,-21.0017621318076],[-68.8110297516754,-21.0019394306121],[-68.8103211575527,-21.0017490153144],[-68.8102547028107,-21.0013324535824],[-68.8103780912824,-21.0008445200357],[-68.8105537010636,-21.0009331694379]]]}},{"type":"Feature","id":"592941111","properties":{"name":"INFO_ESTACION","oid":"592941111","speedLimit":5.5555553},"geometry":{"type":"Polygon","coordinates":[[[-68.8203806359239,-21.008538202649],[-68.8205728834336,-21.008363346226],[-68.820233204492,-21.0080498168094],[-68.8198869858653,-21.0077001039633],[-68.8195088381874,-21.0078508079472],[-68.8202908114246,-21.008610569508],[-68.8203806359239,-21.008538202649]]]}},{"type":"Feature","id":"610889233","properties":{"name":"VEL_15_KMH_902_001","oid":"610889233","speedLimit":2.7777777},"geometry":{"type":"Polygon","coordinates":[[[-68.8123117223126,-20.9973583370625],[-68.812485408657,-20.9977867488677],[-68.8115537920356,-20.997492125293],[-68.8100472601502,-20.9973021622882],[-68.8100877484952,-20.9971441311599],[-68.81058851527,-20.9971035152603],[-68.8123117223126,-20.9973583370625]]]}},{"type":"Feature","id":"610786215","properties":{"name":"VEL_20_KPH_F03_001","oid":"610786215","speedLimit":5.5555553},"geometry":{"type":"Polygon","coordinates":[[[-68.8063810934087,-20.9994283910638],[-68.8062030793315,-20.9993793625169],[-68.806144799196,-20.9996882785462],[-68.8060558402433,-21.0000433284481],[-68.8059299513038,-21.0002251501813],[-68.8057028895877,-21.0003550486932],[-68.805398986571,-21.0005629224956],[-68.8052240499926,-21.0007072943793],[-68.8050859472293,-21.0008891161125],[-68.8049754457843,-21.0011778598799],[-68.8049447669671,-21.0013914325725],[-68.8050460359154,-21.0014837907762],[-68.8051442273648,-21.0014578291656],[-68.805205681171,-21.0011171621769],[-68.8053806177494,-21.0008400875655],[-68.8057243359082,-21.0005888841063],[-68.8060527627444,-21.0003319817569],[-68.8062368356476,-21.0001068303668],[-68.8063197357744,-20.9996304755176],[-68.8063810934087,-20.9994283910638]]]}},{"type":"Feature","id":"608715834","properties":{"name":"INFO_RESTRICCION VELOCIDAD","oid":"608715834","speedLimit":2.7777777},"geometry":{"type":"Polygon","coordinates":[[[-68.8173473760664,-21.0014950076394],[-68.817492595546,-21.0011490940534],[-68.8172417793853,-21.0010727470172],[-68.8167307222235,-21.0012285166812],[-68.8166080069547,-21.0014560199941],[-68.8164626913034,-21.0015482877393],[-68.8158119926288,-21.0017310140583],[-68.8158516154272,-21.0019652113057],[-68.8165401096351,-21.0018392025124],[-68.8170776140531,-21.0017771479309],[-68.817400174407,-21.001638746313],[-68.8173473760664,-21.0014950076394]]]}},{"type":"Feature","id":"607691021","properties":{"name":"VEL_13_KPH_901_001","oid":"607691021","speedLimit":3.6111112},"geometry":{"type":"Polygon","coordinates":[[[-68.814905957717,-21.0017842941582],[-68.8151916842559,-21.0021628632893],[-68.8145372348796,-21.0025702887054],[-68.8143314271404,-21.0021426005688],[-68.814905957717,-21.0017842941582]]]}},{"type":"Feature","id":"558966402","properties":{"name":"ZD_STK_BL_02-AutoClean-1","oid":"558966402","speedLimit":5},"geometry":{"type":"Polygon","coordinates":[[[-68.8233378238553,-20.9923360770487],[-68.8235302637086,-20.9921338116778],[-68.8232682916144,-20.9918786280413],[-68.8231543279831,-20.9917698968357],[-68.8230888349596,-20.9917115510556],[-68.8229882392141,-20.9916380986938],[-68.8229580412561,-20.9916210020233],[-68.8228457125461,-20.9915653700005],[-68.8227262671199,-20.9915244827251],[-68.8226054752879,-20.9917709823386],[-68.8232118387439,-20.9922390149991],[-68.8233378238553,-20.9923360770487]]]}},{"type":"Feature","id":"611524503","properties":{"name":"TRC_40%_F03_001","oid":"611524503","speedLimit":8.333333},"geometry":{"type":"Polygon","coordinates":[[[-68.8074435037336,-20.9948557101615],[-68.8064826508726,-20.9955947567089],[-68.8063418552977,-20.9958255165305],[-68.8062413557241,-20.9959692552042],[-68.8060885386692,-20.9960864895158],[-68.8061770167627,-20.9962643310717],[-68.8064665901752,-20.9960713829339],[-68.8066636462769,-20.9957574012245],[-68.8068004026344,-20.995507735561],[-68.8074973599644,-20.9951854316628],[-68.8074435037336,-20.9948557101615]]]}},{"type":"Feature","id":"611565659","properties":{"name":"INFO_SINGLE_LANE_P2","oid":"611565659","speedLimit":8.333333},"geometry":{"type":"Polygon","coordinates":[[[-68.8213699556497,-21.0006446970463],[-68.8213614925278,-20.9999036604102],[-68.8190572152232,-20.9988120063424],[-68.8156517703421,-20.9966765507922],[-68.8152366926774,-20.9975610547262],[-68.8179814370126,-20.9993936549715],[-68.8211666483784,-21.0007482721132],[-68.8213699556497,-21.0006446970463]]]}},{"type":"Feature","id":"611624297","properties":{"name":"ZD_STK_DIN_13-AutoClean-1","oid":"611624297","speedLimit":5},"geometry":{"type":"Polygon","coordinates":[[[-68.8258574299112,-21.0038291102175],[-68.8260027455626,-21.0038179838129],[-68.8261399827794,-21.0037744732389],[-68.82624711821,-21.0034021457494],[-68.8258464663214,-21.0034519884236],[-68.8257158649616,-21.0036939651083],[-68.8258574299112,-21.0038291102175]]]}},{"type":"Feature","id":"611923346","properties":{"name":"ZD_RELL_PIO3-AutoClean-1","oid":"611923346","speedLimit":5},"geometry":{"type":"Polygon","coordinates":[[[-68.8109486788136,-20.9942714382338],[-68.8110216732407,-20.9940089274528],[-68.8105350437265,-20.9937801577198],[-68.8100468754628,-20.9935612479714],[-68.8098728044311,-20.9937776248797],[-68.8099507036221,-20.9938679025363],[-68.8101028474742,-20.9939413548982],[-68.8106695881317,-20.9942028706349],[-68.8108281754971,-20.9942652870507],[-68.8109486788136,-20.9942714382338]]]}}]}