{"type":"FeatureCollection","features":[{"type":"Feature","id":"551760555","properties":{"name":"ZD_BOT_PAD59_01-AutoClean-1","oid":"551760555","speedLimit":5},"geometry":{"type":"Polygon","coordinates":[[[-68.8195525594034,-20.9847239119437],[-68.8195525594034,-20.9847239119437]]]}},{"type":"Feature","id":"553267213","properties":{"name":"ZD_BOT_PAD59_02-AutoClean-1","oid":"553267213","speedLimit":5},"geometry":{"type":"Polygon","coordinates":[[[-68.8183521877065,-20.9849443500688],[-68.8186252530308,-20.9848566809498],[-68.8182635064001,-20.9847305097228],[-68.8182964012014,-20.9848413162588],[-68.8183521877065,-20.9849443500688]]]}},{"type":"Feature","id":"553508825","properties":{"name":"ZD_STK_HG_02-AutoClean-1","oid":"553508825","speedLimit":5},"geometry":{"type":"Polygon","coordinates":[[[-68.8163728247939,-21.0204836937039],[-68.8164575625715,-21.0202244823292],[-68.8158827692013,-21.0197076864295],[-68.815604509961,-21.0197795389549],[-68.8156396169858,-21.0200166070985],[-68.8157189684802,-21.0201499183878],[-68.8157859122863,-21.0202108348684],[-68.8159804917689,-21.0203630356895],[-68.8161241901115,-21.0204332613653],[-68.8163728247939,-21.0204836937039]]]}},{"type":"Feature","id":"558966402","properties":{"name":"ZD_STK_BL_02-AutoClean-1","oid":"558966402","speedLimit":5},"geometry":{"type":"Polygon","coordinates":[[[-68.8233376737773,-20.9923436237171],[-68.82353013722,-20.9921415328406],[-68.8232681330131,-20.9918865693511],[-68.8231541554121,-20.9917779319479],[-68.8230886543604,-20.9917196365027],[-68.8229880462839,-20.9916462475082],[-68.8229578446242,-20.9916291655871],[-68.8228455021449,-20.991573581558],[-68.822726042077,-20.9915327295561],[-68.8226052354382,-20.9917790165143],[-68.8232116732226,-20.992246645403],[-68.8233376737773,-20.9923436237171]]]}},{"type":"Feature","id":"570805601","properties":{"name":"ZD_STK_MAR_02-AutoClean-1-tmp-1","oid":"570805601","speedLimit":5},"geometry":{"type":"Polygon","coordinates":[[[-68.8065054424214,-20.9867037879458],[-68.8068575706892,-20.9866981843526],[-68.8068618989525,-20.9864270427473],[-68.8062832582371,-20.9862051585336],[-68.8060009592843,-20.9862611944654],[-68.8060090387092,-20.9863758873644],[-68.8060379899817,-20.9864988048922],[-68.8060605931346,-20.9865265517164],[-68.8061460041977,-20.9866144919771],[-68.8062236243868,-20.9866455828812],[-68.8063391409259,-20.9866797467235],[-68.8063868480061,-20.9866888751575],[-68.8065054424214,-20.9867037879458]]]}},{"type":"Feature","id":"592941111","properties":{"name":"INFO_ESTACION","oid":"592941111","speedLimit":5.5555553},"geometry":{"type":"Polygon","coordinates":[[[-68.8219770601536,-21.010728832169],[-68.8222218474908,-21.0106275155892],[-68.8220181305634,-21.0102231530751],[-68.8218223006936,-21.0097828191081],[-68.82141198133,-21.0098013471178],[-68.8218659680615,-21.0107675150381],[-68.8219770601536,-21.010728832169]]]}},{"type":"Feature","id":"600121666","properties":{"name":"ZD_STK_3C_02-AutoClean-1","oid":"600121666","speedLimit":5},"geometry":{"type":"Polygon","coordinates":[[[-68.8050753842171,-20.9853138256963],[-68.8049743914061,-20.9847121624741],[-68.8048030883618,-20.9850282232054],[-68.8047702897442,-20.9851907274075],[-68.8047873142466,-20.9852990032886],[-68.8050753842171,-20.9853138256963]]]}},{"type":"Feature","id":"602013008","properties":{"name":"ZD_STK_3C_01-AutoClean-1","oid":"602013008","speedLimit":5},"geometry":{"type":"Polygon","coordinates":[[[-68.8048604138051,-20.9854512944902],[-68.80512501497,-20.9853431993703],[-68.8048491603204,-20.984884427774],[-68.804754227078,-20.9850898627303],[-68.8047411461044,-20.9852496555164],[-68.804785390574,-20.985359377486],[-68.8048604138051,-20.9854512944902]]]}},{"type":"Feature","id":"606156222","properties":{"name":"VEL_30KMH","oid":"606156222","speedLimit":8.333333},"geometry":{"type":"Polygon","coordinates":[[[-68.8182928424071,-21.0229234258686],[-68.8181904068416,-21.0230009723678],[-68.8182818774733,-21.0230993967705],[-68.8184122062914,-21.0230223021741],[-68.8182928424071,-21.0229234258686]]]}},{"type":"Feature","id":"606156969","properties":{"name":"VEL_30KMH_2","oid":"606156969","speedLimit":8.333333},"geometry":{"type":"Polygon","coordinates":[[[-68.813189819941,-21.0229399655066],[-68.8130275581579,-21.022970604508],[-68.8130898851499,-21.0231184670634],[-68.8132435865899,-21.023076349734],[-68.813189819941,-21.0229399655066]]]}},{"type":"Feature","id":"606157392","properties":{"name":"VEL_20KH","oid":"606157392","speedLimit":5.5555553},"geometry":{"type":"Polygon","coordinates":[[[-68.8236966310828,-21.0147530254948],[-68.8235411021538,-21.014663548765],[-68.8233971152604,-21.0148782025359],[-68.8235593770434,-21.0149642448053],[-68.8236966310828,-21.0147530254948]]]}},{"type":"Feature","id":"606157536","properties":{"name":"VEL_20KMH_2","oid":"606157536","speedLimit":5.5555553},"geometry":{"type":"Polygon","coordinates":[[[-68.821851540517,-21.0175109875236],[-68.8216922604265,-21.0174470884853],[-68.8216059837108,-21.0176133886699],[-68.8217501629715,-21.0176846989121],[-68.821851540517,-21.0175109875236]]]}},{"type":"Feature","id":"606796346","properties":{"name":"ZD_STK_HG_03-AutoClean-1","oid":"606796346","speedLimit":5},"geometry":{"type":"Polygon","coordinates":[[[-68.8156299986228,-21.0198924242432],[-68.8158932532169,-21.0197814369461],[-68.8159525023327,-21.0188818794802],[-68.8157028096304,-21.0187459471554],[-68.8156236505033,-21.0188352431241],[-68.8155680563654,-21.0189393615005],[-68.8155581494516,-21.0189805750245],[-68.8155117889421,-21.0191898963438],[-68.8155018820283,-21.0194162092037],[-68.8155118851257,-21.0196451430992],[-68.8155635357348,-21.0197951747874],[-68.8156299986228,-21.0198924242432]]]}},{"type":"Feature","id":"607546676","properties":{"name":"ZD_STK_HG_01-AutoClean-1","oid":"607546676","speedLimit":5},"geometry":{"type":"Polygon","coordinates":[[[-68.816737841668,-21.0205631381943],[-68.8169102989158,-21.0205568115568],[-68.8169718564388,-21.0205543712824],[-68.8171381579343,-21.0205146942275],[-68.8172380927254,-21.0204495298616],[-68.8173262931137,-21.020377135053],[-68.8171669168395,-21.0201510933347],[-68.8163695545505,-21.0202022487176],[-68.8162890488525,-21.0204626350392],[-68.8165070971407,-21.0205378316444],[-68.8166777268996,-21.0205618728668],[-68.816737841668,-21.0205631381943]]]}},{"type":"Feature","id":"615608482","properties":{"name":"INFO_SINGLE_LANE_903","oid":"615608482","speedLimit":3.6111112},"geometry":{"type":"Polygon","coordinates":[[[-68.8107987910938,-21.0010986053921],[-68.810372409064,-21.0010071402906],[-68.8103388409773,-21.0013605281828],[-68.8103791419181,-21.001593981105],[-68.8107786887153,-21.001858976834],[-68.8110237646034,-21.0019189895093],[-68.8113864730704,-21.0020072912921],[-68.8115128583597,-21.0020358515412],[-68.811605194644,-21.0016503785589],[-68.8110103950789,-21.0014866994099],[-68.8107618565801,-21.0013605281828],[-68.8108726601214,-21.0010670625853],[-68.8107987910938,-21.0010986053921]]]}},{"type":"Feature","id":"617114544","properties":{"name":"VEL_10_KPH_903_001","oid":"617114544","speedLimit":2.7777777},"geometry":{"type":"Polygon","coordinates":[[[-68.8146092017624,-21.0006469738582],[-68.8142183114918,-21.0009048295248],[-68.8139486125946,-21.0008503300621],[-68.8135823453332,-21.0007851656963],[-68.8130908469862,-21.0007380774375],[-68.8128094136861,-21.0007561535446],[-68.8123930347537,-21.0006909891788],[-68.8121597894521,-21.0006148887682],[-68.8117800564826,-21.0005007381523],[-68.811527574455,-21.0005858766164],[-68.8113015429256,-21.0003416684106],[-68.8114108075287,-21.0003069622851],[-68.8116420329742,-21.0003229596398],[-68.8117712075887,-21.0003176271882],[-68.8120763020616,-21.0003403127025],[-68.812533174302,-21.0003590214733],[-68.8129758113652,-21.0003870394392],[-68.8136271669046,-21.0003817069876],[-68.8138896520296,-21.000410990281],[-68.8146486370505,-21.0004933269485],[-68.8146092017624,-21.0006469738582]]]}},{"type":"Feature","id":"618760827","properties":{"name":"VEL_15_KMH","oid":"618760827","speedLimit":4.1666665},"geometry":{"type":"Polygon","coordinates":[[[-68.8153930983432,-21.0021954635662],[-68.8153860769383,-21.0021269551206],[-68.8150538586818,-21.0021744049015],[-68.8148323477829,-21.0022533974892],[-68.8146389225039,-21.0023311247494],[-68.8145282151462,-21.0023719767512],[-68.8145646687419,-21.0025050168989],[-68.8153930983432,-21.0021954635662]]]}},{"type":"Feature","id":"619354898","properties":{"name":"New Zone11446","oid":"619354898","speedLimit":5.5555553},"geometry":{"type":"Polygon","coordinates":[[[-68.8036912056042,-20.9912026598419],[-68.803564531764,-20.9909355853607],[-68.8032918511742,-20.9909572766891],[-68.8030230179296,-20.9910114146296],[-68.8026390528805,-20.9910871535181],[-68.8026928195294,-20.9913108453424],[-68.8036912056042,-20.9912026598419]]]}},{"type":"Feature","id":"619355510","properties":{"name":"VEL_10KMH","oid":"619355510","speedLimit":2.7777777},"geometry":{"type":"Polygon","coordinates":[[[-68.8157017516105,-21.002313319784],[-68.8156577956918,-21.0017254847836],[-68.8170899699359,-21.0016636644976],[-68.8170624614178,-21.002261802879],[-68.8158716119003,-21.0023830031765],[-68.8157017516105,-21.002313319784]]]}},{"type":"Feature","id":"619524295","properties":{"name":"ZD_STK_DIN_21-AutoClean-1","oid":"619524295","speedLimit":5},"geometry":{"type":"Polygon","coordinates":[[[-68.8239446886634,-21.0062552668227],[-68.8240067271045,-21.0061689534117],[-68.8240689579128,-21.0060105163337],[-68.8240801152138,-21.0059659587299],[-68.8240988710216,-21.0058525311583],[-68.8240568387755,-21.0056957209299],[-68.8239238168158,-21.0055104408329],[-68.8238246514938,-21.0054445534228],[-68.8236109314689,-21.0056267605816],[-68.8236842233946,-21.0061384951714],[-68.8239446886634,-21.0062552668227]]]}},{"type":"Feature","id":"619770241","properties":{"name":"New Zone11516","oid":"619770241","speedLimit":2.7777777},"geometry":{"type":"Polygon","coordinates":[[[-68.8105580434691,-20.9969856583809],[-68.810299982791,-20.9972281493566],[-68.8099568957844,-20.9971950700807],[-68.8095873582796,-20.9972694532611],[-68.8095727383679,-20.9969664073269],[-68.8105580434691,-20.9969856583809]]]}},{"type":"Feature","id":"619848433","properties":{"name":"ZD_BOT_NRT_02-AutoClean-1","oid":"619848433","speedLimit":5},"geometry":{"type":"Polygon","coordinates":[[[-68.792104637037,-20.9906431139491],[-68.7936971493915,-20.9904072207524],[-68.7938217071918,-20.9901626510244],[-68.7937240808078,-20.9900879063219],[-68.7933756075179,-20.98999300676],[-68.7932073823498,-20.9899571256876],[-68.7931474599486,-20.9899517028555],[-68.7930317510422,-20.9899460088818],[-68.7929748103336,-20.9899450146959],[-68.792629895838,-20.9899648984136],[-68.7925163029714,-20.9899929163795],[-68.792234196386,-20.990071366684],[-68.7920878049018,-20.9901572281923],[-68.791967286814,-20.9902819533308],[-68.7918809139146,-20.9904237603904],[-68.7918437870336,-20.990527065342],[-68.792104637037,-20.9906431139491]]]}},{"type":"Feature","id":"619990689","properties":{"name":"ZD_BOT_NRT_03-AutoClean-1","oid":"619990689","speedLimit":5},"geometry":{"type":"Polygon","coordinates":[[[-68.792021534381,-20.9917814567888],[-68.792252375092,-20.9916187718256],[-68.7921763900246,-20.9904674141888],[-68.7918972651316,-20.9903986346016],[-68.7918563870891,-20.99050139727],[-68.7918241655732,-20.9906609189145],[-68.7917840569996,-20.9909301625286],[-68.7917718416787,-20.991092214828],[-68.7917908860374,-20.9915256798744],[-68.7918661978193,-20.991618681445],[-68.792021534381,-20.9917814567888]]]}},{"type":"Feature","id":"620034757","properties":{"name":"VEL_10KPH","oid":"620034757","speedLimit":2.7777777},"geometry":{"type":"Polygon","coordinates":[[[-68.8141377096103,-21.0024917309603],[-68.814195419788,-21.0028529819591],[-68.8147075014318,-21.0028015554346],[-68.8148731296418,-21.0027929692838],[-68.8150752114476,-21.0024503366752],[-68.8152955681429,-21.0022918092166],[-68.8154490772156,-21.0022318869218],[-68.8154156053125,-21.0020519392764],[-68.8153411591833,-21.0018378277888],[-68.8150798282618,-21.0018863621361],[-68.814863992197,-21.0020562775421],[-68.8146755684667,-21.0023047336331],[-68.8144598285856,-21.0024403044358],[-68.814175702144,-21.0024803430128],[-68.8141377096103,-21.0024917309603]]]}},{"type":"Feature","id":"620050007","properties":{"name":"ZD_STK_DIN_22-AutoClean-1","oid":"620050007","speedLimit":5},"geometry":{"type":"Polygon","coordinates":[[[-68.8237504939154,-21.005760433393],[-68.823956230699,-21.0055702727472],[-68.8238235934738,-21.0054239466608],[-68.8236465194118,-21.0052732823088],[-68.823535331136,-21.0052334244928],[-68.8234857965668,-21.0052179694213],[-68.8234077916432,-21.0051949223848],[-68.8232471649819,-21.0052466200509],[-68.8231665631003,-21.0053436887456],[-68.8232612077918,-21.0055174001341],[-68.8233248813546,-21.0055703631277],[-68.8237504939154,-21.005760433393]]]}}]}