{"type":"FeatureCollection","features":[{"type":"Feature","id":"553508825","properties":{"name":"ZD_STK_HG_02-AutoClean-1","oid":"553508825","speedLimit":5},"geometry":{"type":"Polygon","coordinates":[[[-68.8157264923451,-21.0200496458394],[-68.8159953254644,-21.0199511316249],[-68.815865477625,-21.0189966283044],[-68.815588949819,-21.018919082253],[-68.8155450901043,-21.0190275382689],[-68.8155139266229,-21.0191378018852],[-68.8154868990356,-21.0192531267821],[-68.815483340243,-21.0194074958449],[-68.8154886303401,-21.0196071452942],[-68.8154951708239,-21.0196409474192],[-68.8155307587502,-21.0197557300361],[-68.8155917391429,-21.0198603900915],[-68.8157264923451,-21.0200496458394]]]}},{"type":"Feature","id":"558966402","properties":{"name":"ZD_STK_BL_02-AutoClean-1","oid":"558966402","speedLimit":5},"geometry":{"type":"Polygon","coordinates":[[[-68.8233376917706,-20.9923439239023],[-68.8235301551236,-20.9921418341926],[-68.8232681510389,-20.991886872175],[-68.823154173491,-20.991778235399],[-68.8230886724698,-20.9917199402905],[-68.8229880644402,-20.9916465517197],[-68.8229578627946,-20.9916294698972],[-68.8228455203676,-20.991573886189],[-68.8227260603554,-20.991533034423],[-68.822605253773,-20.9917793199592],[-68.8232116912746,-20.992246946148],[-68.8233376917706,-20.9923439239023]]]}},{"type":"Feature","id":"570805601","properties":{"name":"ZD_STK_MAR_02-AutoClean-1-tmp-1","oid":"570805601","speedLimit":5},"geometry":{"type":"Polygon","coordinates":[[[-68.8065054682623,-20.9867041206924],[-68.8068575963659,-20.9866985171315],[-68.8068619246272,-20.9864273770916],[-68.8062832841816,-20.986205494159],[-68.8060009853604,-20.9862615297672],[-68.8060090647816,-20.9863762220041],[-68.8060380160406,-20.9864991388222],[-68.806060619183,-20.9865268854863],[-68.8061460302062,-20.9866148252392],[-68.806223650359,-20.9866459159638],[-68.8063391668443,-20.9866800796088],[-68.8063868739023,-20.9866892079902],[-68.8065054682623,-20.9867041206924]]]}},{"type":"Feature","id":"592941111","properties":{"name":"INFO_ESTACION","oid":"592941111","speedLimit":5.5555553},"geometry":{"type":"Polygon","coordinates":[[[-68.8219770787813,-21.0107290262078],[-68.8222562035441,-21.0106303312332],[-68.8218333805057,-21.0097468666032],[-68.8212845569713,-21.00904524656],[-68.8208545201641,-21.0093297628419],[-68.8218659867409,-21.0107677088535],[-68.8219770787813,-21.0107290262078]]]}},{"type":"Feature","id":"607546676","properties":{"name":"ZD_STK_HG_01-AutoClean-1","oid":"607546676","speedLimit":5},"geometry":{"type":"Polygon","coordinates":[[[-68.8168100966105,-21.0205960833998],[-68.817091145045,-21.0205349865108],[-68.8173089046808,-21.0204000491509],[-68.8171825194505,-21.020156294255],[-68.815841624096,-21.0198713260731],[-68.8156205942183,-21.0200455787388],[-68.8156864799739,-21.0201350549519],[-68.8157628497401,-21.020216939244],[-68.8158060361697,-21.0202532720093],[-68.8158951983527,-21.0203223223395],[-68.8160449561941,-21.020407731452],[-68.8160965105955,-21.0204295130352],[-68.8163643818789,-21.02052992523],[-68.8164747044506,-21.0205662579954],[-68.8165902209358,-21.0205924681992],[-68.8168100966105,-21.0205960833998]]]}},{"type":"Feature","id":"619990689","properties":{"name":"ZD_BOT_NRT_03-AutoClean-1","oid":"619990689","speedLimit":5},"geometry":{"type":"Polygon","coordinates":[[[-68.7921598789695,-20.991526255922],[-68.7922221097488,-20.9903499600489]]]}},{"type":"Feature","id":"620970737","properties":{"name":"ZD_BOT_NRT_02-AutoClean-1","oid":"620970737","speedLimit":5},"geometry":{"type":"Polygon","coordinates":[[[-68.793702952219,-20.9903842140739],[-68.793789805996,-20.9901256368559],[-68.7936821765647,-20.9900854177499],[-68.7932979231438,-20.9899736176735],[-68.7932392511571,-20.9899645796722],[-68.7931240232226,-20.9899529206504],[-68.7930662168882,-20.9899509322901],[-68.7926624381996,-20.989943249989],[-68.7924912314188,-20.9899674718326],[-68.7923815821322,-20.9900056121982],[-68.7922211479129,-20.9900690589675],[-68.7921121719115,-20.9901172315146]]]}},{"type":"Feature","id":"621174471","properties":{"name":"ZD_STK_MAR_01-AutoClean-1","oid":"621174471","speedLimit":5},"geometry":{"type":"Polygon","coordinates":[[[-68.8067340966431,-20.9870963699501],[-68.8068609627914,-20.9870658215056],[-68.8069824426588,-20.987034911541],[-68.8069304073395,-20.9867682905018],[-68.806251447415,-20.986327687937],[-68.8059628966609,-20.9863268745168],[-68.8059463530843,-20.9864457242343],[-68.8059621271922,-20.9865980145567],[-68.8059782860344,-20.9866827910092],[-68.8060207029953,-20.9868022733868],[-68.8060360923689,-20.9868249587701],[-68.8061260240206,-20.9869156099235],[-68.8063675410018,-20.9870132203378],[-68.8065729891387,-20.9870817283879],[-68.8067340966431,-20.9870963699501]]]}},{"type":"Feature","id":"623885777","properties":{"name":"VEL_15_KPH_902_001","oid":"623885777","speedLimit":4.1666665},"geometry":{"type":"Polygon","coordinates":[[[-68.8077573938009,-20.9984530705213],[-68.8090652981858,-20.997954715128],[-68.8094216583672,-20.998151833937],[-68.8075823396767,-20.9992059360321],[-68.8077573938009,-20.9984530705213]]]}},{"type":"Feature","id":"624057522","properties":{"name":"VEL_10KPH","oid":"624057522","speedLimit":2.7777777},"geometry":{"type":"Polygon","coordinates":[[[-68.8103155886035,-21.0005563038108],[-68.8104412043651,-21.0009712384519],[-68.810846329624,-21.0014280190391],[-68.8105181512329,-21.0017363052644],[-68.8100644532638,-21.0013176650428],[-68.8098456356086,-21.0004725215385],[-68.8103155886035,-21.0005563038108]]]}},{"type":"Feature","id":"624400171","properties":{"name":"VEL_15KPH","oid":"624400171","speedLimit":4.1666665},"geometry":{"type":"Polygon","coordinates":[[[-68.8092492011998,-21.0025787373684],[-68.8091206999306,-21.0027430482326],[-68.8095041838828,-21.0029944854296],[-68.8096179690636,-21.0028421047272],[-68.8092492011998,-21.0025787373684]]]}},{"type":"Feature","id":"625102060","properties":{"name":"VEL_15KPH_","oid":"625102060","speedLimit":8.333333},"geometry":{"type":"Polygon","coordinates":[[[-68.8204219825836,-20.9998680600095],[-68.8203233944093,-21.0001517628713],[-68.8202832858545,-21.0002183729411],[-68.819728691305,-21.0000446625555],[-68.8190106808451,-20.9996393081958],[-68.8184344449891,-20.9992368459966],[-68.8178181967619,-20.9988053718131],[-68.8181171353431,-20.9984810883254],[-68.8186471068949,-20.9988227247757],[-68.8195067957751,-20.9993786522375],[-68.820002910705,-20.9996277395541],[-68.8204713247626,-20.9997985577793],[-68.8204219825836,-20.9998680600095]]]}},{"type":"Feature","id":"625497864","properties":{"name":"ZD_STK_DIN_21-AutoClean-1","oid":"625497864","speedLimit":5},"geometry":{"type":"Polygon","coordinates":[[[-68.8245384476422,-21.0044973242907],[-68.8248129555929,-21.0044138131584],[-68.8247668836558,-21.0041914783257],[-68.8247036910407,-21.0040936871513],[-68.8246727199264,-21.0040581678061],[-68.8245687454714,-21.0039942691367],[-68.824449766377,-21.0039648052524],[-68.8243126085853,-21.0042033181075],[-68.8245384476422,-21.0044973242907]]]}},{"type":"Feature","id":"625872519","properties":{"name":"VEL_15_4_ESQ","oid":"625872519","speedLimit":4.1666665},"geometry":{"type":"Polygon","coordinates":[[[-68.8228149339877,-21.0050164670871],[-68.8223760482906,-21.0050686163548],[-68.8224527066077,-21.0048947252092],[-68.8226245866735,-21.0046685944159],[-68.8228175309445,-21.0045418816373],[-68.8230132645394,-21.0044276413005],[-68.8232141920478,-21.0046835071181],[-68.8228149339877,-21.0050164670871]]]}},{"type":"Feature","id":"626412789","properties":{"name":"ZD_STK_DIN_22-AutoClean-1","oid":"626412789","speedLimit":5},"geometry":{"type":"Polygon","coordinates":[[[-68.8240490655632,-21.0062995017559],[-68.8241667942708,-21.0060908143052],[-68.8244816031436,-21.0052572394426],[-68.8244849695691,-21.0051321535042],[-68.8242046906032,-21.0050678029347],[-68.8240796519431,-21.0053232168523],[-68.8239624041533,-21.0056295147173],[-68.8239465338618,-21.0056712702835],[-68.8237854263574,-21.0061892381397],[-68.8240490655632,-21.0062995017559]]]}},{"type":"Feature","id":"626617414","properties":{"name":"ZD_STK_DIN_13-AutoClean-1","oid":"626617414","speedLimit":5},"geometry":{"type":"Polygon","coordinates":[[[-68.8257971060317,-21.0059029142576],[-68.8259345523743,-21.0056644917825],[-68.8255791540288,-21.0053447272954],[-68.8255062468716,-21.0053373161343],[-68.8252906032746,-21.0053436427353],[-68.8252496290675,-21.0054612271326],[-68.8252894490716,-21.0056147827752],[-68.8253814005786,-21.0057023610081],[-68.8254738330035,-21.0057723151384],[-68.8257971060317,-21.0059029142576]]]}},{"type":"Feature","id":"626734706","properties":{"name":"ZD_STK_MAR_02-AutoClean-1","oid":"626734706","speedLimit":5},"geometry":{"type":"Polygon","coordinates":[[[-68.8068157565065,-20.9870499146232],[-68.8072740712877,-20.9869960481353],[-68.8075030844029,-20.9869421816474],[-68.8076181199702,-20.9868915688399],[-68.8077237295462,-20.9867673867017],[-68.8078782003833,-20.986470488358],[-68.8076386070738,-20.9863192825957],[-68.8067511211376,-20.9867857338444],[-68.8068157565065,-20.9870499146232]]]}}]}