{"type":"FeatureCollection","features":[{"type":"Feature","id":"551760555","properties":{"name":"ZD_BOT_PAD59_01-AutoClean-1","oid":"551760555","speedLimit":5},"geometry":{"type":"Polygon","coordinates":[[[-68.8195525019504,-20.9847243047122],[-68.8195525019504,-20.9847243047122]]]}},{"type":"Feature","id":"553267213","properties":{"name":"ZD_BOT_PAD59_02-AutoClean-1","oid":"553267213","speedLimit":5},"geometry":{"type":"Polygon","coordinates":[[[-68.8183521263663,-20.9849447398279],[-68.8186251925749,-20.9848570719057],[-68.8182634447726,-20.9847309024012],[-68.8182963396805,-20.9848417074245],[-68.8183521263663,-20.9849447398279]]]}},{"type":"Feature","id":"553508825","properties":{"name":"ZD_STK_HG_02-AutoClean-1","oid":"553508825","speedLimit":5},"geometry":{"type":"Polygon","coordinates":[[[-68.8163727570436,-21.0204835982749],[-68.8164574950957,-21.020224390439],[-68.8158826998641,-21.0197076015946],[-68.8156044397226,-21.0197794531391],[-68.8156395468611,-21.0200165180462],[-68.8157188986125,-21.0201498275155],[-68.8157858426354,-21.0202107431645],[-68.8159804227482,-21.0203629419078],[-68.8161241215561,-21.0204331666248],[-68.8163727570436,-21.0204835982749]]]}},{"type":"Feature","id":"558966402","properties":{"name":"ZD_STK_BL_02-AutoClean-1","oid":"558966402","speedLimit":5},"geometry":{"type":"Polygon","coordinates":[[[-68.8233376285821,-20.9923439124603],[-68.8235300926482,-20.9921418243428],[-68.8232680875928,-20.991886864334],[-68.8231541096226,-20.991778228414],[-68.8230886083588,-20.9917199337647],[-68.8229879999565,-20.9916465457721],[-68.822957798199,-20.9916294640842],[-68.8228454553558,-20.9915738808139],[-68.8227259949011,-20.9915330293697],[-68.8226051878711,-20.9917793129656],[-68.8232116276194,-20.9922469354701],[-68.8233376285821,-20.9923439124603]]]}},{"type":"Feature","id":"570805601","properties":{"name":"ZD_STK_MAR_02-AutoClean-1-tmp-1","oid":"570805601","speedLimit":5},"geometry":{"type":"Polygon","coordinates":[[[-68.8065053427165,-20.9867041536848],[-68.8068574721246,-20.9866985501681],[-68.806861800402,-20.9864274122644],[-68.8062831578126,-20.9862055310799],[-68.8060008579457,-20.9862615662467],[-68.8060089373968,-20.98637625758],[-68.806037888763,-20.9864991734296],[-68.8060604919892,-20.9865269198751],[-68.8061459033288,-20.9866148589352],[-68.8062235237692,-20.9866459494148],[-68.8063390406824,-20.9866801127907],[-68.8063867479172,-20.9866892411001],[-68.8065053427165,-20.9867041536848]]]}},{"type":"Feature","id":"592941111","properties":{"name":"INFO_ESTACION","oid":"592941111","speedLimit":5.5555553},"geometry":{"type":"Polygon","coordinates":[[[-68.8219770105522,-21.0107288699148],[-68.8222217986822,-21.0106275547181],[-68.822018081095,-21.0102231977244],[-68.8218222505911,-21.0097828697689],[-68.8214119298986,-21.0098013975256],[-68.8218659181003,-21.0107675522557],[-68.8219770105522,-21.0107288699148]]]}},{"type":"Feature","id":"600121666","properties":{"name":"ZD_STK_3C_02-AutoClean-1","oid":"600121666","speedLimit":5},"geometry":{"type":"Polygon","coordinates":[[[-68.8050752798811,-20.9853142104113],[-68.804974286743,-20.9847125554031],[-68.804802983144,-20.9850286118194],[-68.8047701844201,-20.985191113803],[-68.8047872089777,-20.9852993882059],[-68.8050752798811,-20.9853142104113]]]}},{"type":"Feature","id":"602013008","properties":{"name":"ZD_STK_3C_01-AutoClean-1","oid":"602013008","speedLimit":5},"geometry":{"type":"Polygon","coordinates":[[[-68.8048603087729,-20.9854516773285],[-68.8051249107947,-20.9853435836842],[-68.8048490552518,-20.9848848183512],[-68.804754121702,-20.9850902505029],[-68.804741040686,-20.9852500411074],[-68.8047852852989,-20.9853597615791],[-68.8048603087729,-20.9854516773285]]]}},{"type":"Feature","id":"606156222","properties":{"name":"VEL_30KMH","oid":"606156222","speedLimit":8.333333},"geometry":{"type":"Polygon","coordinates":[[[-68.8182927808747,-21.0229232971321],[-68.8181903449775,-21.0230008425725],[-68.8182818159054,-21.0230992656316],[-68.8184121451455,-21.0230221720876],[-68.8182927808747,-21.0229232971321]]]}},{"type":"Feature","id":"606156969","properties":{"name":"VEL_30KMH_2","oid":"606156969","speedLimit":8.333333},"geometry":{"type":"Polygon","coordinates":[[[-68.8131897418829,-21.0229398365442],[-68.8130274795744,-21.0229704751273],[-68.8130898067681,-21.0231183356641],[-68.8132435087059,-21.0230762189097],[-68.8131897418829,-21.0229398365442]]]}},{"type":"Feature","id":"606157392","properties":{"name":"VEL_20KH","oid":"606157392","speedLimit":5.5555553},"geometry":{"type":"Polygon","coordinates":[[[-68.8236965870501,-21.0147530083017],[-68.8235410576174,-21.0146635327934],[-68.8233970702577,-21.0148781836338],[-68.8235593325662,-21.0149642247286],[-68.8236965870501,-21.0147530083017]]]}},{"type":"Feature","id":"606157536","properties":{"name":"VEL_20KMH_2","oid":"606157536","speedLimit":5.5555553},"geometry":{"type":"Polygon","coordinates":[[[-68.8218514905092,-21.0175109326784],[-68.8216922099028,-21.0174470345125],[-68.8216059329077,-21.0176133324267],[-68.8217501126353,-21.0176846416954],[-68.8218514905092,-21.0175109326784]]]}},{"type":"Feature","id":"606796346","properties":{"name":"ZD_STK_HG_03-AutoClean-1","oid":"606796346","speedLimit":5},"geometry":{"type":"Polygon","coordinates":[[[-68.815629928467,-21.0198923368863],[-68.8158931839136,-21.0197813511044],[-68.8159524332213,-21.0188818059194],[-68.8157027397104,-21.0187458754503],[-68.8156235803269,-21.0188351701999],[-68.815567986009,-21.0189392871549],[-68.8155580790631,-21.0189805001163],[-68.8155117184035,-21.0191898185779],[-68.8155018114576,-21.0194161283482],[-68.8155118145874,-21.0196450591182],[-68.8155634653638,-21.0197950887582],[-68.815629928467,-21.0198923368863]]]}},{"type":"Feature","id":"607546676","properties":{"name":"ZD_STK_HG_01-AutoClean-1","oid":"607546676","speedLimit":5},"geometry":{"type":"Polygon","coordinates":[[[-68.8167377750999,-21.0205630416807],[-68.8169102329062,-21.0205567151296],[-68.8169717906284,-21.0205542748885],[-68.8171380926625,-21.0205145983752],[-68.8172380277772,-21.020449434899],[-68.8173262284512,-21.0203770410788],[-68.8171668516609,-21.0201510024464],[-68.8163694867897,-21.0202021571309],[-68.816288980831,-21.0204625398977],[-68.8165070298254,-21.0205377354763],[-68.8166776601368,-21.0205617763705],[-68.8167377750999,-21.0205630416807]]]}},{"type":"Feature","id":"615608482","properties":{"name":"INFO_SINGLE_LANE_903","oid":"615608482","speedLimit":3.6111112},"geometry":{"type":"Polygon","coordinates":[[[-68.8107987052926,-21.001098774611],[-68.810372321882,-21.0010073107582],[-68.8103387536866,-21.001360693826],[-68.8103790547578,-21.001594143561],[-68.8107786028489,-21.0018591356722],[-68.8110236795307,-21.0019191475282],[-68.8113863891724,-21.0020074481055],[-68.8115127748709,-21.0020360079647],[-68.8116051114543,-21.001650540245],[-68.8110103099629,-21.0014868633305],[-68.8107617706592,-21.001360693826],[-68.8108725745593,-21.0010672322349],[-68.8107987052926,-21.001098774611]]]}},{"type":"Feature","id":"617114544","properties":{"name":"VEL_10_KPH_903_001","oid":"617114544","speedLimit":2.7777777},"geometry":{"type":"Polygon","coordinates":[[[-68.8146091283008,-21.0006471492428],[-68.8142182367644,-21.0009050013892],[-68.8139485369937,-21.0008505026706],[-68.8135822685463,-21.0007853391944],[-68.8130907686075,-21.0007382515784],[-68.8128093343961,-21.0007563274387],[-68.8123929541153,-21.0006911639625],[-68.8121597080583,-21.0006150645909],[-68.8117799738591,-21.0005009155334],[-68.8115274910138,-21.0005860528352],[-68.8113014587524,-21.0003418479633],[-68.8114107237094,-21.0003071423116],[-68.8116419499037,-21.0003231394479],[-68.8117711249365,-21.0003178070692],[-68.8120762203975,-21.0003404922738],[-68.8125330941174,-21.0003592007891],[-68.8129757326141,-21.0003872183725],[-68.8136270902628,-21.0003818859937],[-68.8138895762379,-21.0004111688873],[-68.8146485637166,-21.0004935044307],[-68.8146091283008,-21.0006471492428]]]}},{"type":"Feature","id":"618760827","properties":{"name":"VEL_15_KMH","oid":"618760827","speedLimit":4.1666665},"geometry":{"type":"Polygon","coordinates":[[[-68.8153930274202,-21.0021956178106],[-68.8153860059926,-21.0021271103003],[-68.8150537866602,-21.0021745594335],[-68.814832275044,-21.0022535509427],[-68.8146388491386,-21.0023312771418],[-68.8145281414224,-21.0023721285859],[-68.8145645951361,-21.0025051669173],[-68.8153930274202,-21.0021956178106]]]}},{"type":"Feature","id":"619354898","properties":{"name":"New Zone11446","oid":"619354898","speedLimit":5.5555553},"geometry":{"type":"Polygon","coordinates":[[[-68.8036910967856,-20.9912029641617],[-68.8035644225353,-20.9909358933266],[-68.8032917410624,-20.9909575843589],[-68.8030229069472,-20.9910117215603],[-68.8026389406546,-20.9910874594147],[-68.8026927074776,-20.9913111481852],[-68.8036910967856,-20.9912029641617]]]}},{"type":"Feature","id":"619355510","properties":{"name":"VEL_10KMH","oid":"619355510","speedLimit":2.7777777},"geometry":{"type":"Polygon","coordinates":[[[-68.815701681687,-21.0023134724194],[-68.815657725626,-21.0017256454443],[-68.817089904508,-21.0016638260023],[-68.8170623959009,-21.0022619562177],[-68.8158715425269,-21.0023831548607],[-68.815701681687,-21.0023134724194]]]}},{"type":"Feature","id":"619524295","properties":{"name":"ZD_STK_DIN_21-AutoClean-1","oid":"619524295","speedLimit":5},"geometry":{"type":"Polygon","coordinates":[[[-68.823944645434,-21.0062553656422],[-68.824006684076,-21.0061690534096],[-68.8240689150859,-21.0060106184945],[-68.824080072423,-21.005966061499],[-68.8240988282915,-21.005852635476],[-68.8240567959093,-21.0056958273884],[-68.8239237735188,-21.0055105498208],[-68.8238246078756,-21.0054446633103],[-68.8236108871586,-21.0056268679815],[-68.8236841793217,-21.006138595585],[-68.823944645434,-21.0062553656422]]]}},{"type":"Feature","id":"619770241","properties":{"name":"New Zone11516","oid":"619770241","speedLimit":2.7777777},"geometry":{"type":"Polygon","coordinates":[[[-68.8105579568882,-20.9969858837503],[-68.8102998953744,-20.9972283714155],[-68.8099568072567,-20.9971952925913],[-68.8095872685552,-20.9972696747562],[-68.8095726485962,-20.9969666329592],[-68.8105579568882,-20.9969858837503]]]}},{"type":"Feature","id":"619848433","properties":{"name":"ZD_BOT_NRT_02-AutoClean-1","oid":"619848433","speedLimit":5},"geometry":{"type":"Polygon","coordinates":[[[-68.7921044906963,-20.9906434259078],[-68.793697008208,-20.9904075359316],[-68.7938215664117,-20.9901629695425],[-68.7937239397116,-20.9900882258604],[-68.7933754652932,-20.9899933275941],[-68.7932072395803,-20.9899574470116],[-68.793147316985,-20.9899520242535],[-68.793031607704,-20.9899463303575],[-68.7929746668109,-20.9899453361852],[-68.7926297511983,-20.9899652196315],[-68.7925161579639,-20.9899932372148],[-68.7922340504649,-20.9900716864483],[-68.7920876585066,-20.9901575467845],[-68.7919671400285,-20.9902822702201],[-68.7918807668494,-20.9904240753438],[-68.7918436398482,-20.9905273788851],[-68.7921044906963,-20.9906434259078]]]}},{"type":"Feature","id":"619990689","properties":{"name":"ZD_BOT_NRT_03-AutoClean-1","oid":"619990689","speedLimit":5},"geometry":{"type":"Polygon","coordinates":[[[-68.7920213877712,-20.9917817532067],[-68.7922522292297,-20.9916190704645],[-68.7921762439163,-20.9904677285462],[-68.7918971181194,-20.990398949898],[-68.7918562399445,-20.9905017111635],[-68.7918240183242,-20.9906612306302],[-68.7917839096208,-20.9909304705685],[-68.7917907386806,-20.9915259797842],[-68.7918660507065,-20.9916189800852],[-68.7920213877712,-20.9917817532067]]]}},{"type":"Feature","id":"620034757","properties":{"name":"VEL_10KPH","oid":"620034757","speedLimit":2.7777777},"geometry":{"type":"Polygon","coordinates":[[[-68.8141376346218,-21.00249188116],[-68.8141953449864,-21.002853127227],[-68.8147074282885,-21.0028017014046],[-68.814873057035,-21.002793115371],[-68.8150751394951,-21.0024504874401],[-68.815295496904,-21.0022919621457],[-68.8154490064739,-21.002232040669],[-68.8154155344624,-21.0020520954803],[-68.8153410880921,-21.0018379869157],[-68.8150797563243,-21.0018865206005],[-68.8148639195606,-21.0020564336868],[-68.8146754952201,-21.0023048863858],[-68.8144597546403,-21.0024404553377],[-68.8141756272785,-21.0024804933681],[-68.8141376346218,-21.00249188116]]]}},{"type":"Feature","id":"620050007","properties":{"name":"ZD_STK_DIN_22-AutoClean-1","oid":"620050007","speedLimit":5},"geometry":{"type":"Polygon","coordinates":[[[-68.8237504500571,-21.005760538968],[-68.823956187507,-21.0055703809183],[-68.8238235498523,-21.0054240568296],[-68.8236464752168,-21.0052733945344],[-68.823535286581,-21.0052335372626],[-68.8234857518513,-21.0052180824021],[-68.8234077466752,-21.0051950356803],[-68.8232471194936,-21.0052467326406],[-68.823166517351,-21.0053438000101],[-68.823261162349,-21.005517509027],[-68.823324836118,-21.0055704712976],[-68.8237504500571,-21.005760538968]]]}}]}