{"type":"FeatureCollection","features":[{"type":"Feature","id":"553267213","properties":{"name":"ZD_BOT_PAD59_02-AutoClean-1","oid":"553267213","speedLimit":5},"geometry":{"type":"Polygon","coordinates":[[[-68.8183554058877,-20.9849452695992],[-68.8183554058877,-20.9849452695992]]]}},{"type":"Feature","id":"553508825","properties":{"name":"ZD_STK_HG_02-AutoClean-1","oid":"553508825","speedLimit":5},"geometry":{"type":"Polygon","coordinates":[[[-68.8157301356943,-21.0200493089644],[-68.8159989232027,-21.0199507973134],[-68.8158690973936,-21.018996318831],[-68.815592616504,-21.0189187747975],[-68.8155487642307,-21.0190272279913],[-68.8155176060366,-21.0191374887382],[-68.8154905830348,-21.0192528106342],[-68.815487024846,-21.0194071756799],[-68.8154923140456,-21.019606819934],[-68.8154988534197,-21.0196406211794],[-68.8155344353081,-21.0197554008094],[-68.8155954053547,-21.0198600581414],[-68.8157301356943,-21.0200493089644]]]}},{"type":"Feature","id":"558966402","properties":{"name":"ZD_STK_BL_02-AutoClean-1","oid":"558966402","speedLimit":5},"geometry":{"type":"Polygon","coordinates":[[[-68.8233400437841,-20.9923443079854],[-68.8235324744833,-20.9921422235344],[-68.8232705148508,-20.9918872681515],[-68.8231565566406,-20.9917786342025],[-68.8230910667325,-20.9917203406108],[-68.8229904757723,-20.9916469539498],[-68.8229602792508,-20.9916298725718],[-68.8228479558842,-20.99157429031],[-68.8227285161399,-20.991533439607],[-68.8226077300538,-20.9917797187344],[-68.8232140646657,-20.9922473327547],[-68.8233400437841,-20.9923443079854]]]}},{"type":"Feature","id":"570805601","properties":{"name":"ZD_STK_MAR_02-AutoClean-1-tmp-1","oid":"570805601","speedLimit":5},"geometry":{"type":"Polygon","coordinates":[[[-68.8065106760743,-20.9867046515343],[-68.8068627444349,-20.9866990481193],[-68.8068670719619,-20.986427915135],[-68.8062885296899,-20.9862060379762],[-68.8060062787643,-20.9862620721263],[-68.8060143568146,-20.9863767613787],[-68.8060433031617,-20.9864996749982],[-68.8060659024692,-20.9865274209403],[-68.8061512990014,-20.9866153584048],[-68.806228905985,-20.9866464483204],[-68.8063444028714,-20.9866806110764],[-68.8063921018354,-20.9866897392202],[-68.8065106760743,-20.9867046515343]]]}},{"type":"Feature","id":"592941111","properties":{"name":"INFO_ESTACION","oid":"592941111","speedLimit":5.5555553},"geometry":{"type":"Polygon","coordinates":[[[-68.8219796616398,-21.0107289318739],[-68.8222587390456,-21.0106302394676],[-68.8218359877445,-21.0097467978271],[-68.821287257325,-21.0090451960414],[-68.8208572934789,-21.0093297049196],[-68.8218685884477,-21.010767613513],[-68.8219796616398,-21.0107289318739]]]}},{"type":"Feature","id":"600121666","properties":{"name":"ZD_STK_3C_02-AutoClean-1","oid":"600121666","speedLimit":5},"geometry":{"type":"Polygon","coordinates":[[[-68.805080861164,-20.9853147334792],[-68.8048086116341,-20.9850291400691],[-68.8047758185964,-20.9851916391043],[-68.8047928402025,-20.9852999115427],[-68.805080861164,-20.9853147334792]]]}},{"type":"Feature","id":"602013008","properties":{"name":"ZD_STK_3C_01-AutoClean-1","oid":"602013008","speedLimit":5},"geometry":{"type":"Polygon","coordinates":[[[-68.8048659273246,-20.9854521979022],[-68.8051304834732,-20.9853441062191],[-68.8048546757545,-20.9848853492097],[-68.804759758663,-20.9850907776342],[-68.8047466799148,-20.9852505653396],[-68.8047909168571,-20.9853602838205],[-68.8048659273246,-20.9854521979022]]]}},{"type":"Feature","id":"607546676","properties":{"name":"ZD_STK_HG_01-AutoClean-1","oid":"607546676","speedLimit":5},"geometry":{"type":"Polygon","coordinates":[[[-68.8168135561126,-21.0205957323054],[-68.8170945568637,-21.0205346370063],[-68.8173122795539,-21.0203997031578],[-68.8171859157664,-21.0201559546049],[-68.8158452479117,-21.0198709938384],[-68.8156242555345,-21.0200452419696],[-68.8156901301117,-21.0201347158544],[-68.8157664869209,-21.0202165980157],[-68.8158096660233,-21.0202529298356],[-68.8158988130788,-21.0203219783689],[-68.8160485455119,-21.020407385259],[-68.8161000911665,-21.0204291662754],[-68.8163679170022,-21.0205295758572],[-68.8164782208562,-21.0205659076771],[-68.8165937177426,-21.020592117199],[-68.8168135561126,-21.0205957323054]]]}},{"type":"Feature","id":"619770241","properties":{"name":"VEL_10_KMH_02","oid":"619770241","speedLimit":2.7777777},"geometry":{"type":"Polygon","coordinates":[[[-68.8105625876581,-20.9969861950542],[-68.8103045708836,-20.9972286783198],[-68.8099615422459,-20.9971956000957],[-68.8095920676101,-20.9972699809111],[-68.8095774501856,-20.9969669446123],[-68.8105625876581,-20.9969861950542]]]}},{"type":"Feature","id":"621013260","properties":{"name":"ZD_STK_3C_04_-AutoClean-2","oid":"621013260","speedLimit":5},"geometry":{"type":"Polygon","coordinates":[[[-68.8078311488031,-20.9864038746771],[-68.8079061592706,-20.9861420505919],[-68.8072018302147,-20.9857992481221],[-68.8070075723375,-20.9859996153975],[-68.8071254734055,-20.9861092435008],[-68.8072207751661,-20.9861822686513],[-68.8072790525293,-20.9862214925563],[-68.8073609870399,-20.9862658679881],[-68.8075525522336,-20.9863332897235],[-68.8076697801308,-20.9863720617403],[-68.8078311488031,-20.9864038746771]]]}},{"type":"Feature","id":"621013480","properties":{"name":"ZD_STK_3C_04_-AutoClean-1","oid":"621013480","speedLimit":5},"geometry":{"type":"Polygon","coordinates":[[[-68.8071227807221,-20.9861035497082],[-68.8073291556748,-20.9859140277521],[-68.8070570023122,-20.9855626394045],[-68.8069265033323,-20.985455993764],[-68.80672609075,-20.9853451907511],[-68.806620499092,-20.9853113895057],[-68.8064927889628,-20.9855545957926],[-68.8069974747746,-20.9859978078443],[-68.8071227807221,-20.9861035497082]]]}},{"type":"Feature","id":"621174471","properties":{"name":"ZD_STK_MAR_01-AutoClean-1","oid":"621174471","speedLimit":5},"geometry":{"type":"Polygon","coordinates":[[[-68.806921694969,-20.9870376932167],[-68.8072939584555,-20.9870015421522],[-68.8074534037824,-20.9869699099707],[-68.8075406274927,-20.9869393623211],[-68.8076466038198,-20.9868709464314],[-68.8076739153233,-20.9868507018352],[-68.8077500797979,-20.9867528228279],[-68.8077706595928,-20.9866262037242],[-68.8075101424694,-20.9865097069186],[-68.806878323532,-20.9867696330729],[-68.806921694969,-20.9870376932167]]]}},{"type":"Feature","id":"621174472","properties":{"name":"ZD_STK_MAR_01-AutoClean-2","oid":"621174472","speedLimit":5},"geometry":{"type":"Polygon","coordinates":[[[-68.8066123248744,-20.9870644450045],[-68.806960738879,-20.9870620048076],[-68.8069718942818,-20.9867910525787],[-68.8062299638249,-20.9866012594897],[-68.8060497463685,-20.9868130143504],[-68.8061332195554,-20.986889744985],[-68.8062214049383,-20.9869699099707],[-68.8063821004397,-20.987026938275],[-68.8066123248744,-20.9870644450045]]]}},{"type":"Feature","id":"622898566","properties":{"name":"INFO_RED_VEL_20KPH_902","oid":"622898566","speedLimit":3.6111112},"geometry":{"type":"Polygon","coordinates":[[[-68.8075814024134,-21.0003375794954],[-68.8076042902227,-21.0000149312441],[-68.8076854553952,-21.0000012842172],[-68.8078435543804,-21.0005721999045],[-68.8079558777471,-21.0008204673404],[-68.8078060491467,-21.0008888832301],[-68.8075814024134,-21.0003375794954]]]}},{"type":"Feature","id":"623520976","properties":{"name":"ZD_STK_DIN_22-AutoClean-1","oid":"623520976","speedLimit":5},"geometry":{"type":"Polygon","coordinates":[[[-68.8242343993575,-21.0047418636923],[-68.8244656816321,-21.0045798165454],[-68.8244105777887,-21.0044815760274],[-68.824293157557,-21.004362367892],[-68.8241282306959,-21.004228608953],[-68.8239670543581,-21.0042383697405],[-68.8238818501605,-21.0043697788602],[-68.8238604048602,-21.0044902522829],[-68.8242343993575,-21.0047418636923]]]}},{"type":"Feature","id":"623816501","properties":{"name":"ZD_STK_DIN_21-AutoClean-1","oid":"623816501","speedLimit":5},"geometry":{"type":"Polygon","coordinates":[[[-68.8243705722061,-21.0049660002927],[-68.8246289736497,-21.0048453461147],[-68.8245941610994,-21.0047423155806],[-68.8245006865169,-21.0046025917161],[-68.8244314460854,-21.0045185404909],[-68.8243532620982,-21.0044407253244],[-68.8241252495106,-21.0046068394661],[-68.8243705722061,-21.0049660002927]]]}},{"type":"Feature","id":"623885777","properties":{"name":"VELO_REDUC_15KM_901","oid":"623885777","speedLimit":4.1666665},"geometry":{"type":"Polygon","coordinates":[[[-68.8074104170146,-20.9981613757858],[-68.8091256563702,-20.9979169945893],[-68.8077256533124,-20.9991840894026],[-68.8075873647839,-20.9992061415519],[-68.8074104170146,-20.9981613757858]]]}},{"type":"Feature","id":"624057522","properties":{"name":"VEL_10KPH","oid":"624057522","speedLimit":2.7777777},"geometry":{"type":"Polygon","coordinates":[[[-68.8103211116533,-21.0009236786298],[-68.8107294378646,-21.0014406388532],[-68.8106477918558,-21.0016032282661],[-68.81045805384,-21.0014587143855],[-68.8102441778405,-21.001174295885],[-68.810167340195,-21.0009801646682],[-68.8103211116533,-21.0009236786298]]]}},{"type":"Feature","id":"624400171","properties":{"name":"VEL_15KPH","oid":"624400171","speedLimit":4.1666665},"geometry":{"type":"Polygon","coordinates":[[[-68.809253943503,-21.0025788551213],[-68.8091254640356,-21.0027431617097],[-68.809508882925,-21.0029945923638],[-68.8096226488006,-21.0028422156267],[-68.809253943503,-21.0025788551213]]]}},{"type":"Feature","id":"624708321","properties":{"name":"ZD_STK_DIN_12-AutoClean-1","oid":"624708321","speedLimit":5},"geometry":{"type":"Polygon","coordinates":[[[-68.8261530324806,-21.005397282493],[-68.8263139203166,-21.0053561606571],[-68.826417877131,-21.0052897330759],[-68.8263034380846,-21.0050408329963],[-68.8258107731811,-21.0050726459332],[-68.8257848080192,-21.0053426943855],[-68.8261530324806,-21.005397282493]]]}},{"type":"Feature","id":"624724475","properties":{"name":"TRC_20_01","oid":"624724475","speedLimit":2.7777777},"geometry":{"type":"Polygon","coordinates":[[[-68.824620030094,-21.0067526762815],[-68.8236435476754,-21.006450363004],[-68.8232759002177,-21.0066069874913],[-68.8226957231022,-21.0067473439995],[-68.8228393008302,-21.007319524974],[-68.8233390821114,-21.0073357025754],[-68.8240972648362,-21.0074221036198],[-68.824711869833,-21.007222368988],[-68.824620030094,-21.0067526762815]]]}},{"type":"Feature","id":"624790435","properties":{"name":"VELO_REDUC_15KM_9011","oid":"624790435","speedLimit":4.1666665},"geometry":{"type":"Polygon","coordinates":[[[-68.8077256533124,-20.9991840894026],[-68.807708535539,-20.9994473595303],[-68.8077089202081,-20.9997370199352],[-68.8076910330966,-21.0000095989621],[-68.807482157795,-21.0000426771862],[-68.8075873647839,-20.9992061415519],[-68.8077256533124,-20.9991840894026]]]}}]}