{"type":"FeatureCollection","features":[{"type":"Feature","id":"553508825","properties":{"name":"ZD_STK_HG_02-AutoClean-1","oid":"553508825","speedLimit":5},"geometry":{"type":"Polygon","coordinates":[[[-68.815727177611,-21.0200496458394],[-68.8159960017172,-21.0199511316249],[-68.8158661582312,-21.0189966283044],[-68.8155896396962,-21.018919082253],[-68.8155457814521,-21.0190275382689],[-68.8155146190155,-21.0191378018852],[-68.8154875923343,-21.0192531267821],[-68.815484033661,-21.0194074958449],[-68.8154893235808,-21.0196071452942],[-68.8154958638453,-21.0196409474192],[-68.8155314505785,-21.0197557300361],[-68.8155924289267,-21.0198603900915],[-68.815727177611,-21.0200496458394]]]}},{"type":"Feature","id":"558966402","properties":{"name":"ZD_STK_BL_02-AutoClean-1","oid":"558966402","speedLimit":5},"geometry":{"type":"Polygon","coordinates":[[[-68.8233381218574,-20.9923439239023],[-68.8235305787577,-20.9921418341926],[-68.8232685834571,-20.991886872175],[-68.8231546097305,-20.991778235399],[-68.8230891109054,-20.9917199402905],[-68.8229885062488,-20.9916465517197],[-68.8229583056158,-20.9916294698972],[-68.8228459669553,-20.991573886189],[-68.8227265109482,-20.991533034423],[-68.8226057084161,-20.9917793199592],[-68.8232121255858,-20.992246946148],[-68.8233381218574,-20.9923439239023]]]}},{"type":"Feature","id":"570805601","properties":{"name":"ZD_STK_MAR_02-AutoClean-1-tmp-1","oid":"570805601","speedLimit":5},"geometry":{"type":"Polygon","coordinates":[[[-68.8065064626796,-20.9867041206924],[-68.8068585789775,-20.9866985171315],[-68.8068629070937,-20.9864273770916],[-68.806284286048,-20.986205494159],[-68.8060019966915,-20.9862615297672],[-68.8060100758417,-20.9863762220041],[-68.8060390261301,-20.9864991388222],[-68.8060616285147,-20.9865268854863],[-68.8061470366744,-20.9866148252392],[-68.8062246542249,-20.9866459159638],[-68.8063401668372,-20.9866800796088],[-68.8063878722958,-20.9866892079902],[-68.8065064626796,-20.9867041206924]]]}},{"type":"Feature","id":"592941111","properties":{"name":"INFO_ESTACION","oid":"592941111","speedLimit":5.5555553},"geometry":{"type":"Polygon","coordinates":[[[-68.821977554485,-21.0107290262078],[-68.8222566698897,-21.0106303312332],[-68.8218338610272,-21.0097468666032],[-68.8212850558931,-21.00904524656],[-68.8208550335036,-21.0093297628419],[-68.8218664661692,-21.0107677088535],[-68.821977554485,-21.0107290262078]]]}},{"type":"Feature","id":"607546676","properties":{"name":"ZD_STK_HG_01-AutoClean-1","oid":"607546676","speedLimit":5},"geometry":{"type":"Polygon","coordinates":[[[-68.8168107455466,-21.0205960833998],[-68.8170917845585,-21.0205349865108],[-68.8173095368935,-21.0204000491509],[-68.8171831559005,-21.020156294255],[-68.8158423055019,-21.0198713260731],[-68.8156212830347,-21.0200455787388],[-68.8156871665813,-21.0201350549519],[-68.8157635337871,-21.020216939244],[-68.8158067187687,-21.0202532720093],[-68.8158958779624,-21.0203223223395],[-68.8160456307829,-21.020407731452],[-68.8160971834559,-21.0204295130352],[-68.8163650457584,-21.02052992523],[-68.8164753646314,-21.0205662579954],[-68.8165908772437,-21.0205924681992],[-68.8168107455466,-21.0205960833998]]]}},{"type":"Feature","id":"619990689","properties":{"name":"ZD_BOT_NRT_03-AutoClean-1","oid":"619990689","speedLimit":5},"geometry":{"type":"Polygon","coordinates":[[[-68.7920017911314,-20.9917521155752],[-68.7921613543486,-20.991526255922],[-68.7922235830415,-20.9903499600489],[-68.7920017911314,-20.9917521155752]]]}},{"type":"Feature","id":"620970737","properties":{"name":"ZD_BOT_NRT_02-AutoClean-1","oid":"620970737","speedLimit":5},"geometry":{"type":"Polygon","coordinates":[[[-68.7921004721807,-20.9906475814327],[-68.7937043758638,-20.9903842140739],[-68.7937912267289,-20.9901256368559],[-68.793683600906,-20.9900854177499],[-68.7932993603679,-20.9899736176735],[-68.7932406903483,-20.9899645796722],[-68.7931254662771,-20.9899529206504],[-68.7930676618807,-20.9899509322901],[-68.7926638967295,-20.989943249989],[-68.7924926956887,-20.9899674718326],[-68.7923830500783,-20.9900056121982],[-68.7922226212379,-20.9900690589675],[-68.79211364889,-20.9901172315146],[-68.7921004721807,-20.9906475814327]]]}},{"type":"Feature","id":"621174471","properties":{"name":"ZD_STK_MAR_01-AutoClean-1","oid":"621174471","speedLimit":5},"geometry":{"type":"Polygon","coordinates":[[[-68.8067350833953,-20.9870963699501],[-68.8068619452901,-20.9870658215056],[-68.8069834210848,-20.987034911541],[-68.80693138751,-20.9867682905018],[-68.8062524503489,-20.986327687937],[-68.8059639092689,-20.9863268745168],[-68.805947366247,-20.9864457242343],[-68.8059631398261,-20.9865980145567],[-68.8059792981266,-20.9866827910092],[-68.8060217136653,-20.9868022733868],[-68.8060371025229,-20.9868249587701],[-68.8061270311595,-20.9869156099235],[-68.8063685400434,-20.9870132203378],[-68.8065739812923,-20.9870817283879],[-68.8067350833953,-20.9870963699501]]]}},{"type":"Feature","id":"623885777","properties":{"name":"VEL_15_KPH_902_001","oid":"623885777","speedLimit":4.1666665},"geometry":{"type":"Polygon","coordinates":[[[-68.8077583462452,-20.9984530705213],[-68.8090662067803,-20.997954715128],[-68.809422555014,-20.998151833937],[-68.80758329799,-20.9992059360321],[-68.8077583462452,-20.9984530705213]]]}},{"type":"Feature","id":"624057522","properties":{"name":"VEL_10KPH","oid":"624057522","speedLimit":2.7777777},"geometry":{"type":"Polygon","coordinates":[[[-68.8103164552797,-21.0005563038108],[-68.8104420668298,-21.0009712384519],[-68.8108471785061,-21.0014280190391],[-68.8105190111178,-21.0017363052644],[-68.8100653283598,-21.0013176650428],[-68.8098465180408,-21.0004725215385],[-68.8103164552797,-21.0005563038108]]]}},{"type":"Feature","id":"625102060","properties":{"name":"VEL_15KPH_","oid":"625102060","speedLimit":8.333333},"geometry":{"type":"Polygon","coordinates":[[[-68.8204225104248,-20.9998680600095],[-68.8203239255558,-21.0001517628713],[-68.8202838183457,-21.0002183729411],[-68.81972924239,-21.0000446625555],[-68.8190112560027,-20.9996393081958],[-68.818435039466,-20.9992368459966],[-68.8178188118996,-20.9988053718131],[-68.8181177404584,-20.9984810883254],[-68.818647694242,-20.9988227247757],[-68.8195073542995,-20.9993786522375],[-68.8200034525963,-20.9996277395541],[-68.8204718509494,-20.9997985577793],[-68.8204225104248,-20.9998680600095]]]}},{"type":"Feature","id":"625497864","properties":{"name":"ZD_STK_DIN_21-AutoClean-1","oid":"625497864","speedLimit":5},"geometry":{"type":"Polygon","coordinates":[[[-68.8245388374714,-21.0044973242907],[-68.8248133362188,-21.0044138131584],[-68.8247672658264,-21.0041914783257],[-68.8247040753299,-21.0040936871513],[-68.824673105254,-21.0040581678061],[-68.8245691342848,-21.0039942691367],[-68.8244501591795,-21.0039648052524],[-68.8243130059862,-21.0042033181075],[-68.8245388374714,-21.0044973242907]]]}},{"type":"Feature","id":"625872519","properties":{"name":"VEL_15_4_ESQ","oid":"625872519","speedLimit":4.1666665},"geometry":{"type":"Polygon","coordinates":[[[-68.8228153816008,-21.0050164670871],[-68.8223765106182,-21.0050686163548],[-68.8224531663651,-21.0048947252092],[-68.8226250406684,-21.0046685944159],[-68.8228179784706,-21.0045418816373],[-68.8230137055031,-21.0044276413005],[-68.8232146262752,-21.0046835071181],[-68.8228153816008,-21.0050164670871]]]}},{"type":"Feature","id":"626412789","properties":{"name":"ZD_STK_DIN_22-AutoClean-1","oid":"626412789","speedLimit":5},"geometry":{"type":"Polygon","coordinates":[[[-68.8240494717998,-21.0062995017559],[-68.8241671965604,-21.0060908143052],[-68.8244819948787,-21.0052572394426],[-68.8244853611913,-21.0051321535042],[-68.8242050916223,-21.0050678029347],[-68.8240800571543,-21.0053232168523],[-68.8239628132955,-21.0056295147173],[-68.8239469435361,-21.0056712702835],[-68.8237858414331,-21.0061892381397],[-68.8240494717998,-21.0062995017559]]]}},{"type":"Feature","id":"626617414","properties":{"name":"ZD_STK_DIN_13-AutoClean-1","oid":"626617414","speedLimit":5},"geometry":{"type":"Polygon","coordinates":[[[-68.8257974536622,-21.0059029142576],[-68.8259348953966,-21.0056644917825],[-68.8255795089664,-21.0053447272954],[-68.8255066042536,-21.0053373161343],[-68.8252909678865,-21.0053436427353],[-68.8252499950531,-21.0054612271326],[-68.8252898137222,-21.0056147827752],[-68.8253817621463,-21.0057023610081],[-68.8254741914723,-21.0057723151384],[-68.8257974536622,-21.0059029142576]]]}},{"type":"Feature","id":"626734706","properties":{"name":"ZD_STK_MAR_02-AutoClean-1","oid":"626734706","speedLimit":5},"geometry":{"type":"Polygon","coordinates":[[[-68.8068167405209,-20.9870499146232],[-68.8072750399363,-20.9869960481353],[-68.8075040453734,-20.9869421816474],[-68.8076190770839,-20.9868915688399],[-68.8077246831192,-20.9867673867017],[-68.8078791487773,-20.986470488358],[-68.8076395635006,-20.9863192825957],[-68.806752107319,-20.9867857338444],[-68.8068167405209,-20.9870499146232]]]}}]}