{"type":"FeatureCollection","features":[{"type":"Feature","id":"553267213","properties":{"name":"ZD_BOT_PAD59_02-AutoClean-1","oid":"553267213","speedLimit":5},"geometry":{"type":"Polygon","coordinates":[[[-68.8183530141681,-20.9849455472441],[-68.8183530141681,-20.9849455472441]]]}},{"type":"Feature","id":"553508825","properties":{"name":"ZD_STK_HG_02-AutoClean-1","oid":"553508825","speedLimit":5},"geometry":{"type":"Polygon","coordinates":[[[-68.8157274192182,-21.0200493806198],[-68.8159962399766,-21.0199508695469],[-68.8158663981076,-21.0189963966654],[-68.8155898830162,-21.0189188530869],[-68.8155460253182,-21.0190273056442],[-68.8155148632696,-21.0191375657442],[-68.815487836925,-21.0192528869634],[-68.815484278296,-21.0194072511033],[-68.81548956815,-21.019606894186],[-68.815496108333,-21.019640695233],[-68.815531694623,-21.0197554741895],[-68.8155926722119,-21.0198601309073],[-68.8157274192182,-21.0200493806198]]]}},{"type":"Feature","id":"558966402","properties":{"name":"ZD_STK_BL_02-AutoClean-1","oid":"558966402","speedLimit":5},"geometry":{"type":"Polygon","coordinates":[[[-68.8233382686844,-20.9923445422129],[-68.823530723188,-20.9921424589477],[-68.8232687311501,-20.9918875050609],[-68.8231547588428,-20.9917788717493],[-68.8230892608333,-20.9917205784998],[-68.8229886574296,-20.9916471922693],[-68.8229584571727,-20.9916301109915],[-68.8228461199112,-20.9915745290559],[-68.8227266653917,-20.9915336785926],[-68.8226058643639,-20.9917799562749],[-68.8232122739818,-20.9922475675512],[-68.8233382686844,-20.9923445422129]]]}},{"type":"Feature","id":"570805601","properties":{"name":"ZD_STK_MAR_02-AutoClean-1-tmp-1","oid":"570805601","speedLimit":5},"geometry":{"type":"Polygon","coordinates":[[[-68.8065068191136,-20.9867049188552],[-68.8068589310266,-20.986699315473],[-68.8068632590889,-20.9864281840797],[-68.8062846452488,-20.9862063082229],[-68.8060023594077,-20.9862623420442],[-68.8060104384573,-20.9863770306235],[-68.8060393883851,-20.9864999435218],[-68.8060619904883,-20.9865276893011],[-68.8061473975843,-20.9866156262496],[-68.8062250141682,-20.9866467159827],[-68.8063405253421,-20.9866808785383],[-68.8063882302066,-20.9866900066285],[-68.8065068191136,-20.9867049188552]]]}},{"type":"Feature","id":"592941111","properties":{"name":"INFO_ESTACION","oid":"592941111","speedLimit":5.5555553},"geometry":{"type":"Polygon","coordinates":[[[-68.8219777182554,-21.010729058221],[-68.8222568301842,-21.0106303663938],[-68.821834026587,-21.0097469299373],[-68.8212852282872,-21.0090453322686],[-68.8208552112529,-21.0093298394773],[-68.821866631323,-21.0107677396331],[-68.8219777182554,-21.010729058221]]]}},{"type":"Feature","id":"602013008","properties":{"name":"ZD_STK_3C_01-AutoClean-1","oid":"602013008","speedLimit":5},"geometry":{"type":"Polygon","coordinates":[[[-68.8048618669019,-20.9854524725724],[-68.8051264557772,-20.9853443815236],[-68.8047556851067,-20.9850910544251],[-68.8047426047407,-20.9852508411929],[-68.8047868471553,-20.9853605590301],[-68.8048618669019,-20.9854524725724]]]}},{"type":"Feature","id":"607546676","properties":{"name":"ZD_STK_HG_01-AutoClean-1","oid":"607546676","speedLimit":5},"geometry":{"type":"Polygon","coordinates":[[[-68.8168109736599,-21.0205958007544],[-68.817092009172,-21.0205347058138],[-68.8173097587953,-21.0203997727571],[-68.8171833793761,-21.0201560256345],[-68.8158425456754,-21.0198710665401],[-68.8156215259606,-21.0200453136489],[-68.8156874086867,-21.0201347870087],[-68.8157637749415,-21.0202166686895],[-68.8158069593854,-21.0202530002962],[-68.8158961174687,-21.0203220484243],[-68.8160458684243,-21.0204074548132],[-68.8160974204553,-21.0204292357018],[-68.8163652794221,-21.0205296446945],[-68.8164755969212,-21.0205659763012],[-68.8165911080951,-21.0205921856692],[-68.8168109736599,-21.0205958007544]]]}},{"type":"Feature","id":"620970737","properties":{"name":"ZD_BOT_NRT_02-AutoClean-1","oid":"620970737","speedLimit":5},"geometry":{"type":"Polygon","coordinates":[[[-68.793704891724,-20.9903848948792],[-68.7937917415075,-20.9901263259072],[-68.7936841170249,-20.9900861080838],[-68.7932998812718,-20.9899743115727],[-68.7932412119828,-20.9899652738596],[-68.7931259893464,-20.9899536152096],[-68.7930681856699,-20.9899516269128],[-68.7926644255469,-20.9899439448566]]]}},{"type":"Feature","id":"621174471","properties":{"name":"ZD_STK_MAR_01-AutoClean-1","oid":"621174471","speedLimit":5},"geometry":{"type":"Polygon","coordinates":[[[-68.8066916754634,-20.9870471770506],[-68.8068549876809,-20.9870459117708],[-68.8069794435168,-20.9870280170988],[-68.8069591497136,-20.9867576087226],[-68.8062348244428,-20.9863335592235],[-68.8059573475597,-20.9864078492252],[-68.8060379456977,-20.9867512823234],[-68.8060947875826,-20.986870941645],[-68.8062187625227,-20.9869625840559],[-68.8066916754634,-20.9870471770506]]]}},{"type":"Feature","id":"623885777","properties":{"name":"VEL_15_KPH_902_001","oid":"623885777","speedLimit":4.1666665},"geometry":{"type":"Polygon","coordinates":[[[-68.8077586870893,-20.9984534940124],[-68.8090665313374,-20.9979551545115],[-68.8094228751335,-20.9981522670344],[-68.807583641014,-20.9992063355144],[-68.8077586870893,-20.9984534940124]]]}},{"type":"Feature","id":"624057522","properties":{"name":"VEL_10KPH","oid":"624057522","speedLimit":2.7777777},"geometry":{"type":"Polygon","coordinates":[[[-68.8103167642673,-21.0005566602302],[-68.8104423742532,-21.000971581639],[-68.8108474808846,-21.0014283476596],[-68.810519317583,-21.0017366240538],[-68.8100656404747,-21.0013179971825],[-68.8098468328806,-21.0004728806296],[-68.8103167642673,-21.0005566602302]]]}},{"type":"Feature","id":"624400171","properties":{"name":"VEL_15KPH","oid":"624400171","speedLimit":4.1666665},"geometry":{"type":"Polygon","coordinates":[[[-68.8092504258956,-21.0025790292928],[-68.8091219305348,-21.0027433349171],[-68.8095053968547,-21.0029947640958],[-68.8096191768036,-21.0028423882528],[-68.8092504258956,-21.0025790292928]]]}},{"type":"Feature","id":"625094199","properties":{"name":"VEL_30_KPH_PI02","oid":"625094199","speedLimit":8.333333},"geometry":{"type":"Polygon","coordinates":[[[-68.8168397312294,-20.9975049860215],[-68.8164729039047,-20.9973358000321],[-68.8162392847196,-20.9970952161091],[-68.8158531253832,-20.9968562589744],[-68.8154858171626,-20.9972811218677],[-68.8179546400781,-20.9991484941505],[-68.8183407032353,-20.9985328451335],[-68.8168397312294,-20.9975049860215]]]}},{"type":"Feature","id":"625102060","properties":{"name":"VEL_15KPH_","oid":"625102060","speedLimit":4.1666665},"geometry":{"type":"Polygon","coordinates":[[[-68.8204226935603,-20.9998684383768],[-68.820324109919,-21.0001521321914],[-68.8202840032084,-21.000218740137],[-68.8197294341589,-21.000045035291],[-68.8190114567128,-20.999639693858],[-68.8184352473518,-20.9992372444932],[-68.8178190274594,-20.9988057840694],[-68.8181179522956,-20.998481510923],[-68.8186478994795,-20.9988231364786],[-68.8195075488316,-20.9993790462119],[-68.8200036409504,-20.9996281255852],[-68.8204720334705,-20.999798938363],[-68.8204226935603,-20.9998684383768]]]}},{"type":"Feature","id":"625497864","properties":{"name":"ZD_STK_DIN_21-AutoClean-1","oid":"625497864","speedLimit":5},"geometry":{"type":"Polygon","coordinates":[[[-68.8245424317956,-21.0044877943016],[-68.8248095213291,-21.0043850355035],[-68.8247770127723,-21.0042803787857],[-68.8247350786575,-21.0041736433939],[-68.8246696768272,-21.0040712461043],[-68.8245205991258,-21.0039923468689],[-68.8243944120649,-21.0039897259321],[-68.8243077546397,-21.0042483852813],[-68.8245424317956,-21.0044877943016]]]}},{"type":"Feature","id":"625872519","properties":{"name":"VEL_15_4_ESQ","oid":"625872519","speedLimit":4.1666665},"geometry":{"type":"Polygon","coordinates":[[[-68.8228155349376,-21.0050166812728],[-68.8223766694203,-21.0050688288774],[-68.8224533242126,-21.0048949432772],[-68.8226251963755,-21.0046688196952],[-68.822818131775,-21.0045421109574],[-68.8230138563701,-21.0044278742636],[-68.82321477464,-21.0046837319218],[-68.8228155349376,-21.0050166812728]]]}},{"type":"Feature","id":"626412337","properties":{"name":"ZD_STK_DIN_22-AutoClean-2","oid":"626412337","speedLimit":5},"geometry":{"type":"Polygon","coordinates":[[[-68.8238928377338,-21.0062707543439],[-68.8239604516849,-21.0061812809841],[-68.8240365294022,-21.0060355930488],[-68.8242745728288,-21.0054303374018],[-68.8240109457451,-21.0053200773018],[-68.8239491025437,-21.0054340428642],[-68.8238552316814,-21.0056412776258],[-68.8236425795537,-21.0061358212872],[-68.8238928377338,-21.0062707543439]]]}},{"type":"Feature","id":"626412789","properties":{"name":"ZD_STK_DIN_22-AutoClean-1","oid":"626412789","speedLimit":5},"geometry":{"type":"Polygon","coordinates":[[[-68.8241955135574,-21.0055826228677],[-68.8244759719945,-21.0051736663495],[-68.8242396597928,-21.005018217684],[-68.8240744239921,-21.0052164147325],[-68.8240074832952,-21.0053148354282],[-68.8239401578816,-21.0054564563927],[-68.8241955135574,-21.0055826228677]]]}},{"type":"Feature","id":"626574737","properties":{"name":"VEL_20_KPH_RS_001","oid":"626574737","speedLimit":5.5555553},"geometry":{"type":"Polygon","coordinates":[[[-68.8175788680912,-21.0044310374632],[-68.8174814385999,-21.0045682299482],[-68.8168335757631,-21.0044547162716],[-68.8167882753777,-21.004276492569],[-68.8175788680912,-21.0044310374632]]]}},{"type":"Feature","id":"626575078","properties":{"name":"VEL_20_KPH_RS_002","oid":"626575078","speedLimit":5.5555553},"geometry":{"type":"Polygon","coordinates":[[[-68.812036351509,-21.0036576803524],[-68.8119146848687,-21.0037765262798],[-68.811298272618,-21.0035577232454],[-68.8112869234768,-21.0033748903092],[-68.812036351509,-21.0036576803524]]]}},{"type":"Feature","id":"626617414","properties":{"name":"ZD_STK_DIN_13-AutoClean-1","oid":"626617414","speedLimit":5},"geometry":{"type":"Polygon","coordinates":[[[-68.8257881443049,-21.0058428186281],[-68.8258999044914,-21.0058308888468],[-68.825905579062,-21.0055598478307],[-68.8256012681926,-21.0053351702827],[-68.8255092247344,-21.005299471316],[-68.8253142695726,-21.0053067014864],[-68.8252522340129,-21.0054226553456],[-68.8252840693156,-21.0055763868456],[-68.8253227333388,-21.0056542015555],[-68.8254030429393,-21.005733100791],[-68.8254415146042,-21.0057577737478],[-68.8256113670047,-21.0058256469732],[-68.8257881443049,-21.0058428186281]]]}},{"type":"Feature","id":"626734706","properties":{"name":"ZD_STK_MAR_02-AutoClean-1","oid":"626734706","speedLimit":5},"geometry":{"type":"Polygon","coordinates":[[[-68.806817093091,-20.9870507017587],[-68.807275386799,-20.9869968369886],[-68.8075043893843,-20.9869429722185],[-68.8076194196624,-20.9868923610251],[-68.8077250243825,-20.9867681828469],[-68.8078794881171,-20.9864712939713],[-68.8076399058239,-20.9863200930309],[-68.806752460694,-20.9867865294046],[-68.806817093091,-20.9870507017587]]]}}]}