{"type":"FeatureCollection","features":[{"type":"Feature","id":"553508825","properties":{"name":"ZD_STK_HG_02-AutoClean-1","oid":"553508825","speedLimit":5},"geometry":{"type":"Polygon","coordinates":[[[-68.8157272091574,-21.0200493026465],[-68.8159960332895,-21.0199507895049],[-68.815866189791,-21.0189962965802],[-68.8155896712294,-21.0189187513733],[-68.815545812981,-21.0190272062081],[-68.8155146505413,-21.0191374686234],[-68.8154876238576,-21.0192527922643],[-68.8154840651839,-21.0194071596458],[-68.8154893551042,-21.0196068069208],[-68.8154958953693,-21.0196406086776],[-68.815531482106,-21.0197553900443],[-68.8155924604601,-21.0198600489599],[-68.8157272091574,-21.0200493026465]]]}},{"type":"Feature","id":"558966402","properties":{"name":"ZD_STK_BL_02-AutoClean-1","oid":"558966402","speedLimit":5},"geometry":{"type":"Polygon","coordinates":[[[-68.8233381541385,-20.9923438824583],[-68.8235306110574,-20.9921417949495],[-68.8232686157315,-20.9918868357088],[-68.8231546419939,-20.991778200116],[-68.8230891431624,-20.9917199056424],[-68.8229885384962,-20.9916465178709],[-68.8229583378602,-20.9916294362344],[-68.8228459991889,-20.9915738531316],[-68.8227265431703,-20.9915330018105],[-68.8226057406265,-20.9917792846644],[-68.8232121578547,-20.9922469057602],[-68.8233381541385,-20.9923438824583]]]}},{"type":"Feature","id":"570805601","properties":{"name":"ZD_STK_MAR_02-AutoClean-1-tmp-1","oid":"570805601","speedLimit":5},"geometry":{"type":"Polygon","coordinates":[[[-68.8065064933359,-20.9867041406726],[-68.8068586096678,-20.9866985371728],[-68.8068629377844,-20.986427400086],[-68.8062843166829,-20.9862055195699],[-68.8060020272991,-20.9862615545678],[-68.8060101064501,-20.9863762455556],[-68.8060390567412,-20.986499161035],[-68.806061659128,-20.9865269073968],[-68.8061470672959,-20.986614846192],[-68.8062246848539,-20.986645936578],[-68.8063401974774,-20.9866800998509],[-68.8063879029406,-20.9866892281328],[-68.8065064933359,-20.9867041406726]]]}},{"type":"Feature","id":"592941111","properties":{"name":"INFO_ESTACION","oid":"592941111","speedLimit":5.5555553},"geometry":{"type":"Polygon","coordinates":[[[-68.8219775866348,-21.0107287845277],[-68.8222567020664,-21.0106300906281],[-68.8218338931631,-21.0097466356201],[-68.821285087976,-21.0090450232184],[-68.820855065545,-21.0093295364015],[-68.8218664983083,-21.0107674667521],[-68.8219775866348,-21.0107287845277]]]}},{"type":"Feature","id":"607546676","properties":{"name":"ZD_STK_HG_01-AutoClean-1","oid":"607546676","speedLimit":5},"geometry":{"type":"Polygon","coordinates":[[[-68.8168107771976,-21.0205957342555],[-68.8170918162366,-21.020534638032],[-68.8173095685926,-21.0203997021417],[-68.8171831875874,-21.0201559499007],[-68.8158423370594,-21.0198709848224],[-68.8156213145708,-21.0200452355902],[-68.8156871981238,-21.0201347108289],[-68.815763565337,-21.0202165942291],[-68.8158067503228,-21.0202529265987],[-68.8158959095251,-21.0203219761768],[-68.8160456623601,-21.0204073843592],[-68.816097215038,-21.0204291657052],[-68.8163650773664,-21.0205295768064],[-68.81647539625,-21.020565909176],[-68.8165909088735,-21.0205921190944],[-68.8168107771976,-21.0205957342555]]]}},{"type":"Feature","id":"620970737","properties":{"name":"ZD_BOT_NRT_02-AutoClean-1","oid":"620970737","speedLimit":5},"geometry":{"type":"Polygon","coordinates":[[[-68.7937044052842,-20.9903841939735],[-68.7937912561577,-20.9901256195717],[-68.7936836303245,-20.9900854009038],[-68.7932993897492,-20.989973602045],[-68.793240719724,-20.9899645641421],[-68.7931254956416,-20.9899529052473],[-68.7930676912397,-20.9899509169087],[-68.7926639260495,-20.9899432346912],[-68.7924927249922,-20.989967456271]]]}},{"type":"Feature","id":"621174471","properties":{"name":"ZD_STK_MAR_01-AutoClean-1","oid":"621174471","speedLimit":5},"geometry":{"type":"Polygon","coordinates":[[[-68.8066913520056,-20.9870464060553],[-68.8068546662726,-20.9870451407488],[-68.8069791236705,-20.9870272457011],[-68.8069588296126,-20.9867568316465],[-68.8062344952516,-20.9863327732426],[-68.8059570148862,-20.9864070648044],[-68.8060376140357,-20.9867505051145],[-68.806094456634,-20.9868701669488],[-68.8062184331299,-20.9869618112842],[-68.8066913520056,-20.9870464060553]]]}},{"type":"Feature","id":"623885777","properties":{"name":"VEL_15_KPH_902_001","oid":"623885777","speedLimit":4.1666665},"geometry":{"type":"Polygon","coordinates":[[[-68.8077583770223,-20.9984529625413],[-68.8090662376836,-20.9979546125756],[-68.8094225859518,-20.9981517292378],[-68.8075833287502,-20.9992058198524],[-68.8077583770223,-20.9984529625413]]]}},{"type":"Feature","id":"624057522","properties":{"name":"VEL_10KPH","oid":"624057522","speedLimit":2.7777777},"geometry":{"type":"Polygon","coordinates":[[[-68.8103164863038,-21.000556172924],[-68.810442097866,-21.0009711030459],[-68.8108472095814,-21.0014278786583],[-68.8105190421615,-21.001736161526],[-68.8100653593596,-21.0013175258639],[-68.8098465490195,-21.0004723915642],[-68.8103164863038,-21.000556172924]]]}},{"type":"Feature","id":"624400171","properties":{"name":"VEL_15KPH","oid":"624400171","speedLimit":4.1666665},"geometry":{"type":"Polygon","coordinates":[[[-68.8092501345497,-21.0025785844549],[-68.8091216375763,-21.0027428935295],[-68.8095051087086,-21.0029943279881],[-68.8096188900855,-21.0028419489452],[-68.8092501345497,-21.0025785844549]]]}},{"type":"Feature","id":"625102060","properties":{"name":"VEL_15KPH_","oid":"625102060","speedLimit":8.333333},"geometry":{"type":"Polygon","coordinates":[[[-68.8204225424244,-20.9998679366185],[-68.8203239575459,-21.0001516363904],[-68.820283850332,-21.0002182457348],[-68.8197292743227,-21.0000445372411],[-68.8190112878661,-20.9996391872963],[-68.8184350712738,-20.9992367294803],[-68.8178188436479,-20.9988052599961],[-68.8181177722356,-20.9984809800402],[-68.8186477260703,-20.9988226127697],[-68.8195073862108,-20.9993785341768],[-68.8200034845555,-20.9996276187806],[-68.8204718829539,-20.9997984351453],[-68.8204225424244,-20.9998679366185]]]}},{"type":"Feature","id":"625497864","properties":{"name":"ZD_STK_DIN_21-AutoClean-1","oid":"625497864","speedLimit":5},"geometry":{"type":"Polygon","coordinates":[[[-68.8245423323617,-21.0044873895463],[-68.8248094252472,-21.0043846285904],[-68.8247769162824,-21.0042799696749],[-68.8247349816414,-21.0041732320417],[-68.8246695789903,-21.0040708326019],[-68.8245204994179,-21.0039919317096],[-68.8243943107734,-21.0039893107178],[-68.8243076522607,-21.0042479754987],[-68.8245423323617,-21.0044873895463]]]}},{"type":"Feature","id":"625872519","properties":{"name":"VEL_15_4_ESQ","oid":"625872519","speedLimit":4.1666665},"geometry":{"type":"Polygon","coordinates":[[[-68.8228154138315,-21.0050162876238],[-68.8223765428065,-21.0050684363235],[-68.8224531985608,-21.0048945470718],[-68.8226250728807,-21.0046684187413],[-68.8228180107015,-21.0045417073428],[-68.8230137377529,-21.0044274682502],[-68.8232146585443,-21.0046833312811],[-68.8228154138315,-21.0050162876238]]]}},{"type":"Feature","id":"626412789","properties":{"name":"ZD_STK_DIN_22-AutoClean-1","oid":"626412789","speedLimit":5},"geometry":{"type":"Polygon","coordinates":[[[-68.8241954097698,-21.0055822411031],[-68.8244758717266,-21.0051732759971],[-68.8242395565593,-21.0050178240673],[-68.8240743186849,-21.0052160252778],[-68.8240073771478,-21.0053144480403],[-68.8239400508894,-21.0054560719787],[-68.8241954097698,-21.0055822411031]]]}},{"type":"Feature","id":"626617414","properties":{"name":"ZD_STK_DIN_13-AutoClean-1","oid":"626617414","speedLimit":5},"geometry":{"type":"Polygon","coordinates":[[[-68.8257880605045,-21.0058424423274],[-68.8258998220936,-21.0058305122956],[-68.8259054967354,-21.0055594655878],[-68.825601182047,-21.0053347833218],[-68.8255091374336,-21.0052990836054],[-68.8253141798251,-21.0053063139277],[-68.825252143487,-21.0054222702218],[-68.8252839791892,-21.0055760049501],[-68.8253226436976,-21.005653821294],[-68.825402954306,-21.0057327221863],[-68.8254414264537,-21.0057573956612],[-68.8256112809858,-21.0058252703119],[-68.8257880605045,-21.0058424423274]]]}},{"type":"Feature","id":"626734706","properties":{"name":"ZD_STK_MAR_02-AutoClean-1","oid":"626734706","speedLimit":5},"geometry":{"type":"Polygon","coordinates":[[[-68.8068167712072,-20.9870499308374],[-68.8072750706667,-20.9869960649361],[-68.807504076126,-20.9869421990349],[-68.8076191078476,-20.9868915867787],[-68.8077247138931,-20.9867674059929],[-68.8078791795661,-20.9864705108828],[-68.8076395942663,-20.9863193067673],[-68.806752137999,-20.9867857529358],[-68.8068167712072,-20.9870499308374]]]}}]}