{"type":"FeatureCollection","features":[{"type":"Feature","id":"592941111","properties":{"name":"INFO_ESTACION","oid":"592941111","speedLimit":5.5555553},"geometry":{"type":"Polygon","coordinates":[[[-68.8203747804944,-21.0085408346972],[-68.8205671131315,-21.0083660556149],[-68.8202272837797,-21.0080526648753],[-68.819880911847,-21.0077031067106],[-68.819502596725,-21.0078537440366],[-68.8202849162208,-21.0086131695477],[-68.8203747804944,-21.0085408346972]]]}},{"type":"Feature","id":"600880362","properties":{"name":"VEL_15_KPH_RC_002","oid":"600880362","speedLimit":4.1666665},"geometry":{"type":"Polygon","coordinates":[[[-68.8105434942563,-21.0009391652644],[-68.8108583078574,-21.0010379023352],[-68.8107823946754,-21.0012966802627],[-68.8107728694473,-21.0014364673612],[-68.8108246328084,-21.0015434325213],[-68.8109849260417,-21.0015663084177],[-68.8111110631538,-21.0015722760429],[-68.8112056419344,-21.001601842913],[-68.8111930378446,-21.0017677609762],[-68.8110197556638,-21.0019449813598],[-68.8103108477748,-21.0017546502845],[-68.8102443636066,-21.0013382728017],[-68.8103678067149,-21.0008505550726],[-68.8105434942563,-21.0009391652644]]]}},{"type":"Feature","id":"604050980","properties":{"name":"VEL_10_KPH_901_002","oid":"604050980","speedLimit":2.7777777},"geometry":{"type":"Polygon","coordinates":[[[-68.816556222365,-21.001475618599],[-68.8166451244944,-21.001647775543],[-68.8166985235007,-21.0018415425236],[-68.8164703028828,-21.0018721944165],[-68.8161651107244,-21.0020069180755],[-68.8160229058031,-21.0020620733989],[-68.8157188682177,-21.0021089102146],[-68.8153241966432,-21.0021271747643],[-68.8151623639791,-21.0018833158998],[-68.8151701573476,-21.0017308702024],[-68.8151841084393,-21.0016652263257],[-68.8153407455245,-21.0016704706023],[-68.8155784913705,-21.001683581294],[-68.8158273980899,-21.001683581294],[-68.8159699878689,-21.0016572694921],[-68.8161238347357,-21.0015836687818],[-68.816556222365,-21.001475618599]]]}},{"type":"Feature","id":"607457029","properties":{"name":"ZD_STK_DIN_21-AutoClean-1","oid":"607457029","speedLimit":5},"geometry":{"type":"Polygon","coordinates":[[[-68.823975316735,-21.0061943825675],[-68.8240292930279,-21.0060842527577],[-68.8240510374881,-21.0059619164419],[-68.8239985044116,-21.0058146246027],[-68.8239171070074,-21.0057215839013],[-68.8238219509404,-21.005645089797],[-68.8236004653323,-21.0058189646937],[-68.8236924463233,-21.0061405835225],[-68.823975316735,-21.0061943825675]]]}},{"type":"Feature","id":"607691021","properties":{"name":"VEL_13_KPH_901_001","oid":"607691021","speedLimit":3.6111112},"geometry":{"type":"Polygon","coordinates":[[[-68.8148976780939,-21.0017899135241],[-68.8151835311528,-21.0021683152105],[-68.8145287919855,-21.0025755604185],[-68.8143228931144,-21.0021480614524],[-68.8148976780939,-21.0017899135241]]]}},{"type":"Feature","id":"608715834","properties":{"name":"INFO_RESTRICCION VELOCIDAD","oid":"608715834","speedLimit":2.7777777},"geometry":{"type":"Polygon","coordinates":[[[-68.8173401775061,-21.0015007549595],[-68.817485461289,-21.0011549943744],[-68.8172345340666,-21.0010786811072],[-68.8167232506082,-21.0012343818727],[-68.8166004810009,-21.0014617845588],[-68.8164551010036,-21.0015540114931],[-68.8158041141989,-21.0017366569905],[-68.8158437545423,-21.0019707506502],[-68.8165325536163,-21.0018447975919],[-68.8170702960418,-21.0017827704576],[-68.8173929992258,-21.0016444300562],[-68.8173401775061,-21.0015007549595]]]}},{"type":"Feature","id":"610544737","properties":{"name":"ZD_STK_DIN_22-AutoClean-1","oid":"610544737","speedLimit":5},"geometry":{"type":"Polygon","coordinates":[[[-68.8235971940418,-21.0058287298985],[-68.8238589934943,-21.0057144408348],[-68.8238329193849,-21.0056051247921],[-68.8237373784601,-21.0054685023433],[-68.8236953327561,-21.005425734363],[-68.8236026782641,-21.0053532186754],[-68.8235528391915,-21.0053328744987],[-68.8234943408207,-21.0053097273466],[-68.8234432509606,-21.0052937232609],[-68.8233261580044,-21.005281697592],[-68.8232056975434,-21.0053144291119],[-68.823107751258,-21.0054589179756],[-68.823210796908,-21.005585684801],[-68.8232963315325,-21.0056642585323],[-68.8235971940418,-21.0058287298985]]]}},{"type":"Feature","id":"610786215","properties":{"name":"VEL_20_KPH_F03_001","oid":"610786215","speedLimit":5.5555553},"geometry":{"type":"Polygon","coordinates":[[[-68.8063690389661,-20.999435052468],[-68.806190946064,-20.9993860456068],[-68.806132640122,-20.9996948249997],[-68.8060436417782,-21.0000497178596],[-68.8059176970948,-21.0002314591714],[-68.8056905348356,-21.0003613002279],[-68.8053864972502,-21.0005690820858],[-68.8052114832098,-21.0007133901124],[-68.8050733192944,-21.0008951314242],[-68.8049627689192,-21.0011837474774],[-68.8049320765174,-21.0013972257048],[-68.8050333903077,-21.0014895430577],[-68.8051316252364,-21.0014635929301],[-68.8051931062545,-21.0011230766216],[-68.8053681202949,-21.000846124563],[-68.8057119906526,-21.0005950322134],[-68.8060405629165,-21.0003382434943],[-68.8062247173274,-21.0001131916909],[-68.8063076541624,-20.9996370475379],[-68.8063690389661,-20.999435052468]]]}},{"type":"Feature","id":"610889233","properties":{"name":"VEL_15_KMH","oid":"610889233","speedLimit":4.1666665},"geometry":{"type":"Polygon","coordinates":[[[-68.8112794383989,-20.9972010810307],[-68.8112637554475,-20.9974177239078],[-68.80999834332,-20.9973323687842],[-68.8100388495932,-20.9971744075546],[-68.8105398381081,-20.9971338096198],[-68.8112794383989,-20.9972010810307]]]}},{"type":"Feature","id":"611100742","properties":{"name":"TRAC_CAM_CH","oid":"611100742","speedLimit":5.5555553},"geometry":{"type":"Polygon","coordinates":[[[-68.8258410106648,-21.0027038643595],[-68.8249116755265,-21.002001221706],[-68.8222074728762,-21.0045643167128],[-68.8235015569026,-21.0047465101174],[-68.8258410106648,-21.0027038643595]]]}},{"type":"Feature","id":"611101069","properties":{"name":"TRAC_RPA_SUR","oid":"611101069","speedLimit":2.7777777},"geometry":{"type":"Polygon","coordinates":[[[-68.8219104589439,-21.0048560974158],[-68.8221449334995,-21.0056477119353],[-68.8212417686849,-21.0061455565434],[-68.8203367757962,-21.0062022489825],[-68.8203465896677,-21.0053251889209],[-68.8213112355003,-21.0052804317322],[-68.8218670662379,-21.0050029371622],[-68.8219104589439,-21.0048560974158]]]}},{"type":"Feature","id":"611176514","properties":{"name":"TRC_40%_FM_001","oid":"611176514","speedLimit":5.5555553},"geometry":{"type":"Polygon","coordinates":[[[-68.8148144526156,-21.0023582846115],[-68.8141351787698,-21.0029946504582],[-68.8116306210529,-21.0030111066367],[-68.811105675146,-21.0031468248998],[-68.8109662604431,-21.0032470086677],[-68.8098235217084,-21.002164065538],[-68.8103803145902,-21.0023899311085],[-68.8115013088647,-21.0024342362044],[-68.8122832435028,-21.0025050339393],[-68.813472646234,-21.0025625401454],[-68.8148144526156,-21.0023582846115]]]}},{"type":"Feature","id":"611187609","properties":{"name":"TR_INT NORTESUR","oid":"611187609","speedLimit":5.5555553},"geometry":{"type":"Polygon","coordinates":[[[-68.8109662604431,-21.0032470086677],[-68.8103049786949,-21.0037222486351],[-68.8097774349984,-21.0036116667325],[-68.8081194680138,-21.0031645469382],[-68.8086234391759,-21.0016773424131],[-68.8098235217084,-21.002164065538],[-68.8109662604431,-21.0032470086677]]]}},{"type":"Feature","id":"611197820","properties":{"name":"TRAC_CAM_CH1","oid":"611197820","speedLimit":5.5555553},"geometry":{"type":"Polygon","coordinates":[[[-68.8222817504129,-21.0076663063554],[-68.8234331484459,-21.01250487492],[-68.8246206268886,-21.0142904607031],[-68.8238170440046,-21.0104464059135],[-68.8232193599919,-21.0088892174207],[-68.823157686545,-21.0076853846722],[-68.8222817504129,-21.0076663063554]]]}},{"type":"Feature","id":"611225942","properties":{"name":"TRAC_CAM_CH2","oid":"611225942","speedLimit":2.7777777},"geometry":{"type":"Polygon","coordinates":[[[-68.8222074728762,-21.0045643167128],[-68.8216519307819,-21.0049834067525],[-68.8221743751137,-21.0072152985629],[-68.8222817504129,-21.0076663063554],[-68.823157686545,-21.0076853846722],[-68.8231243963536,-21.0070367219009],[-68.8235015569026,-21.0047465101174],[-68.8222074728762,-21.0045643167128]]]}},{"type":"Feature","id":"611506423","properties":{"name":"TRAC_RPA_SUR1","oid":"611506423","speedLimit":4.1666665},"geometry":{"type":"Polygon","coordinates":[[[-68.8203367757962,-21.0062022489825],[-68.8200692996926,-21.0062189764166],[-68.8186624523592,-21.0056967187965],[-68.8170818417729,-21.0048233658959],[-68.8140769690422,-21.0044805891234],[-68.8113500597874,-21.0041133993389],[-68.810333939237,-21.003631830072],[-68.8098997235336,-21.0033461978314],[-68.810333939237,-21.0029789176283],[-68.8119579425293,-21.0034604868951],[-68.8136254347421,-21.0037706225663],[-68.8158400021797,-21.0039011869714],[-68.8172989977319,-21.0041868192121],[-68.8180979623233,-21.004611243947],[-68.8187840673934,-21.005060081694],[-68.8199042919525,-21.0053457139347],[-68.8203465896677,-21.0053251889209],[-68.8203367757962,-21.0062022489825]]]}},{"type":"Feature","id":"611524503","properties":{"name":"TRC_40%_F03_001","oid":"611524503","speedLimit":2.2222223},"geometry":{"type":"Polygon","coordinates":[[[-68.8074319197274,-20.9948643941058],[-68.8064706413996,-20.9956031137659],[-68.8063297834804,-20.9958337715202],[-68.8062292394054,-20.9959774466169],[-68.8060763546829,-20.9960946290746],[-68.8061648719546,-20.9962723919696],[-68.8064545735906,-20.9960795291746],[-68.8066517169489,-20.9957656863423],[-68.8067885338624,-20.9955161311082],[-68.8074857998058,-20.9951939697681],[-68.8074319197274,-20.9948643941058]]]}},{"type":"Feature","id":"611624297","properties":{"name":"ZD_STK_DIN_13-AutoClean-1","oid":"611624297","speedLimit":5},"geometry":{"type":"Polygon","coordinates":[[[-68.8257790485746,-21.0037262270519],[-68.825910862338,-21.0037236953321],[-68.8261451444647,-21.0036803848404],[-68.8263084203452,-21.0036316492349],[-68.8264028066968,-21.003557958106],[-68.8262725323644,-21.0033159076127],[-68.825728054929,-21.0034592210352],[-68.8257790485746,-21.0037262270519]]]}},{"type":"Feature","id":"611713611","properties":{"name":"VEL_15_KMH_F03_001","oid":"611713611","speedLimit":4.1666665},"geometry":{"type":"Polygon","coordinates":[[[-68.8046836508701,-20.9995308057263],[-68.8045356730833,-20.9995277314951],[-68.804259441467,-21.0004734192461],[-68.8044535059637,-21.0005259524312],[-68.8047494615373,-20.9995369541886],[-68.8046836508701,-20.9995308057263]]]}}]}