{"type":"FeatureCollection","features":[{"type":"Feature","id":"553508825","properties":{"name":"ZD_STK_HG_02-AutoClean-1","oid":"553508825","speedLimit":5},"geometry":{"type":"Polygon","coordinates":[[[-68.81572726357,-21.0200492655843],[-68.8159960860818,-21.019950752786],[-68.8158662433659,-21.0189962631873],[-68.8155897264709,-21.0189187182507],[-68.8155458684868,-21.0190271727075],[-68.815514706235,-21.0191374347386],[-68.8154876797142,-21.0192527579777],[-68.815484121062,-21.0194071248212],[-68.8154894109504,-21.0196067714005],[-68.8154959511761,-21.0196405730395],[-68.8155315376982,-21.0197553540063],[-68.8155925156848,-21.0198600125571],[-68.81572726357,-21.0200492655843]]]}},{"type":"Feature","id":"558966402","properties":{"name":"ZD_STK_BL_02-AutoClean-1","oid":"558966402","speedLimit":5},"geometry":{"type":"Polygon","coordinates":[[[-68.8233381626772,-20.992343941939],[-68.8235306184361,-20.9921418551345],[-68.8232686246894,-20.9918868967823],[-68.8231546516388,-20.991778261568],[-68.8230891532021,-20.9917199672975],[-68.8229885491422,-20.9916465797817],[-68.8229583486883,-20.9916294982048],[-68.8228460106941,-20.9915739152956],[-68.8227265553954,-20.9915330641169],[-68.8226057535798,-20.9917793461126],[-68.8232121671529,-20.9922469655789],[-68.8233381626772,-20.992343941939]]]}},{"type":"Feature","id":"570805601","properties":{"name":"ZD_STK_MAR_02-AutoClean-1-tmp-1","oid":"570805601","speedLimit":5},"geometry":{"type":"Polygon","coordinates":[[[-68.8065066033249,-20.9867042198058],[-68.8068587175344,-20.9866986163255],[-68.806863045625,-20.9864274801835],[-68.806284428011,-20.9862056004406],[-68.8060021403286,-20.9862616352433],[-68.806010219431,-20.9863763258313],[-68.8060391695476,-20.9864992408824],[-68.8060617717982,-20.9865269871476],[-68.8061471794513,-20.9866149256363],[-68.8062247965415,-20.986646015914],[-68.8063403084687,-20.9866801790679],[-68.8063880136443,-20.986689307318],[-68.8065066033249,-20.9867042198058]]]}},{"type":"Feature","id":"592941111","properties":{"name":"INFO_ESTACION","oid":"592941111","speedLimit":5.5555553},"geometry":{"type":"Polygon","coordinates":[[[-68.8219776033742,-21.010728779944],[-68.8222567171234,-21.0106300863883],[-68.8218339107686,-21.0097466344588],[-68.8212851088894,-21.0090450245019],[-68.8208550890502,-21.0093295366937],[-68.8218665157172,-21.0107674620336],[-68.8219776033742,-21.010728779944]]]}},{"type":"Feature","id":"600121666","properties":{"name":"ZD_STK_3C_02-AutoClean-1","oid":"600121666","speedLimit":5},"geometry":{"type":"Polygon","coordinates":[[[-68.8050766022137,-20.9853142855629],[-68.8048043172295,-20.9850286888267],[-68.8047715199212,-20.9851911897545],[-68.804788543744,-20.9852994634539],[-68.8050766022137,-20.9853142855629]]]}},{"type":"Feature","id":"602013008","properties":{"name":"ZD_STK_3C_01-AutoClean-1","oid":"602013008","speedLimit":5},"geometry":{"type":"Polygon","coordinates":[[[-68.8048616403841,-20.985451751587],[-68.8051262309851,-20.985343658645],[-68.8047554578964,-20.9850903271096],[-68.804742377445,-20.985250116676],[-68.8047866201482,-20.9853598364348],[-68.8048616403841,-20.985451751587]]]}},{"type":"Feature","id":"607546676","properties":{"name":"ZD_STK_HG_01-AutoClean-1","oid":"607546676","speedLimit":5},"geometry":{"type":"Polygon","coordinates":[[[-68.8168108250791,-21.0205956952892],[-68.8170918624242,-21.0205345992785],[-68.8173096134678,-21.0203996638585],[-68.8171832332243,-21.0201559124668],[-68.8158423907781,-21.0198709483815],[-68.8156213696216,-21.0200451985422],[-68.8156872527775,-21.020134673469],[-68.8157636195304,-21.0202165565839],[-68.8158068042559,-21.020252888827],[-68.8158959629208,-21.0203219381645],[-68.8160457148532,-21.0204073460492],[-68.8160972672204,-21.0204291273193],[-68.8163651279343,-21.0205295380706],[-68.8164754461529,-21.0205658703136],[-68.8165909580802,-21.0205920801407],[-68.8168108250791,-21.0205956952892]]]}},{"type":"Feature","id":"619770241","properties":{"name":"VEL_10_KMH_02","oid":"619770241","speedLimit":2.7777777},"geometry":{"type":"Polygon","coordinates":[[[-68.8105590425781,-20.9969858830696],[-68.8103009922027,-20.9972283691593],[-68.8099579188934,-20.99719529055],[-68.8095883961419,-20.9972696722316],[-68.8095737768138,-20.9969666324035],[-68.8105590425781,-20.9969858830696]]]}},{"type":"Feature","id":"621013260","properties":{"name":"ZD_STK_3C_04_-AutoClean-2","oid":"621013260","speedLimit":5},"geometry":{"type":"Polygon","coordinates":[[[-68.8078272480153,-20.9864034394455],[-68.8079022682511,-20.986141612311],[-68.8071978474724,-20.9857988058488],[-68.8070035642975,-20.9859991754578],[-68.8071214807195,-20.9861088048379],[-68.807216794891,-20.9861818308388],[-68.8072750798434,-20.9862210552007],[-68.8073570250241,-20.9862654311492],[-68.8075486151649,-20.9863328536699],[-68.8076658583284,-20.9863716261382],[-68.8078272480153,-20.9864034394455]]]}},{"type":"Feature","id":"621013480","properties":{"name":"ZD_STK_3C_04_-AutoClean-1","oid":"621013480","speedLimit":5},"geometry":{"type":"Polygon","coordinates":[[[-68.8071187876854,-20.9861031109789],[-68.8073251895138,-20.9859135868156],[-68.8070530007094,-20.9855621943755],[-68.8069224847349,-20.985455547493],[-68.8067220460535,-20.9853447431896],[-68.8066164406445,-20.9853109415505],[-68.806488713884,-20.9855541506699],[-68.8069934654196,-20.9859973678835],[-68.8071187876854,-20.9861031109789]]]}},{"type":"Feature","id":"621174471","properties":{"name":"ZD_STK_MAR_01-AutoClean-1","oid":"621174471","speedLimit":5},"geometry":{"type":"Polygon","coordinates":[[[-68.8069176757454,-20.9870372653669],[-68.8072899877108,-20.9870011138813],[-68.8074494538019,-20.9869694813314],[-68.807536688871,-20.9869389333261],[-68.8076426789991,-20.9868705166396],[-68.8076699940594,-20.9868502718076],[-68.8077461684527,-20.9867523916604],[-68.8077667509276,-20.986625771082],[-68.8075061998777,-20.9865092729197],[-68.8068742986604,-20.9867692021012],[-68.8069176757454,-20.9870372653669]]]}},{"type":"Feature","id":"621174472","properties":{"name":"ZD_STK_MAR_01-AutoClean-2","oid":"621174472","speedLimit":5},"geometry":{"type":"Polygon","coordinates":[[[-68.8066082653624,-20.9870640174663],[-68.80695672474,-20.987061577241],[-68.8069678815956,-20.9867906218564],[-68.8062258545191,-20.986600826557],[-68.8060456135935,-20.9868125838839],[-68.8061290976508,-20.9868893154121],[-68.8062172945179,-20.9869694813314],[-68.8063780109462,-20.9870265103],[-68.8066082653624,-20.9870640174663]]]}},{"type":"Feature","id":"622898566","properties":{"name":"INFO_RED_VEL_20KPH_902","oid":"622898566","speedLimit":3.6111112},"geometry":{"type":"Polygon","coordinates":[[[-68.8075774691018,-21.0003373065427],[-68.8076003598917,-21.0000146545337],[-68.8076815356341,-21.0000010073479],[-68.8078396552081,-21.0005719296843],[-68.8079519932023,-21.0008202000117],[-68.8078021450902,-21.0008886166982],[-68.8075774691018,-21.0003373065427]]]}},{"type":"Feature","id":"623520976","properties":{"name":"ZD_STK_DIN_22-AutoClean-1","oid":"623520976","speedLimit":5},"geometry":{"type":"Polygon","coordinates":[[[-68.8242326347201,-21.0047416420341],[-68.824463947114,-21.0045795929999],[-68.8244088360946,-21.0044813513377],[-68.8242914005715,-21.004362141814],[-68.8241264522324,-21.0042283813172],[-68.8239652549052,-21.0042381422183],[-68.8238800396116,-21.0043695528685],[-68.8238585915185,-21.0044900276943],[-68.8242326347201,-21.0047416420341]]]}},{"type":"Feature","id":"623816501","properties":{"name":"ZD_STK_DIN_21-AutoClean-1","oid":"623816501","speedLimit":5},"geometry":{"type":"Polygon","coordinates":[[[-68.8243688253021,-21.0049657812449],[-68.8246272603967,-21.0048451256616],[-68.8245924433128,-21.0047420939277],[-68.8244989565574,-21.0046023684358],[-68.8244297071089,-21.0045183162318],[-68.82435151294,-21.004440500159],[-68.824123470659,-21.0046066162354],[-68.8243688253021,-21.0049657812449]]]}},{"type":"Feature","id":"623885777","properties":{"name":"VELO_REDUC_15KM_901","oid":"623885777","speedLimit":4.1666665},"geometry":{"type":"Polygon","coordinates":[[[-68.807406461436,-20.9981610774879],[-68.8091219241625,-20.9979166934452],[-68.8077217387861,-20.9991838030157],[-68.8075834322488,-20.9992058554219],[-68.807406461436,-20.9981610774879]]]}},{"type":"Feature","id":"624057522","properties":{"name":"VEL_10KPH","oid":"624057522","speedLimit":2.7777777},"geometry":{"type":"Polygon","coordinates":[[[-68.8103175351265,-21.0009234125031],[-68.810725914513,-21.0014403787473],[-68.8106442578716,-21.0016029700538],[-68.8104544951468,-21.0014584544901],[-68.8102405912949,-21.0011740326771],[-68.810163743643,-21.0009798991994],[-68.8103175351265,-21.0009234125031]]]}},{"type":"Feature","id":"624400171","properties":{"name":"VEL_15KPH","oid":"624400171","speedLimit":4.1666665},"geometry":{"type":"Polygon","coordinates":[[[-68.8092502280018,-21.0025786082716],[-68.8091217318029,-21.0027429167737],[-68.8095052006239,-21.002994350356],[-68.8096189813149,-21.0028419718442],[-68.8092502280018,-21.0025786082716]]]}},{"type":"Feature","id":"624681300","properties":{"name":"ZD_STK_DIN_13-AutoClean-1","oid":"624681300","speedLimit":5},"geometry":{"type":"Polygon","coordinates":[[[-68.8258513405784,-21.0053890247626],[-68.8259692570004,-21.0053615496335],[-68.8259724309334,-21.0050904134915],[-68.8256182007685,-21.0049438192173],[-68.8254166079296,-21.0051377719376],[-68.8254848955802,-21.0052317658002],[-68.825623009758,-21.0053272057222],[-68.8256807176317,-21.0053584767572],[-68.8258513405784,-21.0053890247626]]]}},{"type":"Feature","id":"624692864","properties":{"name":"TRC_10_02","oid":"624692864","speedLimit":8.333333},"geometry":{"type":"Polygon","coordinates":[[[-68.8246785242245,-21.0141281041356],[-68.8244204738491,-21.0117527707738],[-68.8225134209818,-21.0043222848011],[-68.8217157058072,-21.004964787079],[-68.8232815127812,-21.013800571676],[-68.8198767482308,-21.0195912262617],[-68.8180396180705,-21.0223314184919],[-68.8152985902479,-21.0232356575256],[-68.8143071689771,-21.0230437835158],[-68.8137823158655,-21.0225779716237],[-68.8143071689771,-21.021591578339],[-68.8152403052954,-21.0193994426305],[-68.816056775529,-21.017947147075],[-68.8168441032863,-21.017125152671],[-68.817077339276,-21.0163030678884],[-68.8163775351272,-21.0156454723652],[-68.8159401094443,-21.0158647311254],[-68.8152111628192,-21.0170977679207],[-68.8134031751351,-21.0198652545226],[-68.8123534689118,-21.0224958173727],[-68.8188853269601,-21.0234274411567],[-68.8207806458931,-21.0210435218172],[-68.8229093931754,-21.0169881385406],[-68.8235228278732,-21.0157190406384],[-68.8246785242245,-21.0141281041356]]]}},{"type":"Feature","id":"624708321","properties":{"name":"ZD_STK_DIN_12-AutoClean-1","oid":"624708321","speedLimit":5},"geometry":{"type":"Polygon","coordinates":[[[-68.8261515177016,-21.0053970684681],[-68.8263124264895,-21.0053559461533],[-68.826416396842,-21.0052895177985],[-68.8263019428924,-21.0050406148201],[-68.8258092138306,-21.0050724281274],[-68.8257832452874,-21.0053424797249],[-68.8261515177016,-21.0053970684681]]]}},{"type":"Feature","id":"624724475","properties":{"name":"TRC_20_01","oid":"624724475","speedLimit":2.7777777},"geometry":{"type":"Polygon","coordinates":[[[-68.8246183156762,-21.0067524780422],[-68.8236417060931,-21.0064501612438],[-68.8232740107576,-21.0066067875552],[-68.8226937580872,-21.0067471456981],[-68.822837354513,-21.0073193333365],[-68.8233372008793,-21.0073355111263],[-68.8240954823402,-21.0074219131769],[-68.8247101673753,-21.007222176219],[-68.8246183156762,-21.0067524780422]]]}},{"type":"Feature","id":"624737604","properties":{"name":"New Zone1140","oid":"624737604","speedLimit":8.333333},"geometry":{"type":"Polygon","coordinates":[[[-68.8079278520752,-21.0002568694872],[-68.8081705136842,-20.9993011145865],[-68.8085461919422,-20.9988340373925],[-68.8097771970688,-20.9983181556929],[-68.8105862614585,-20.9981443574258],[-68.8114878508058,-20.9983398465842],[-68.8114531299018,-20.9987254021782],[-68.8113028970705,-20.9990024129367],[-68.8105457697671,-20.9991979020951],[-68.8100025463157,-20.9994477088606],[-68.8108058399181,-20.9992630651479],[-68.811279813921,-20.9993444963692],[-68.8112739469539,-20.9997246292404],[-68.8111006309731,-21.0001156979359],[-68.8104880618934,-21.0005664165827],[-68.8109561689292,-21.0013212596022],[-68.8113837842736,-21.001587424915],[-68.8118518913093,-21.0016308066977],[-68.8121292738224,-21.0017340191891],[-68.811782545681,-21.0022336327202],[-68.8109445311746,-21.0020598344531],[-68.8102163539879,-21.0017557100805],[-68.8098523134844,-21.0013104141565],[-68.8098175925804,-21.0003600819786],[-68.810106612848,-21.0000287536131],[-68.8103031081581,-20.9998604684476],[-68.8098175925804,-21.0000342667146],[-68.809389977236,-21.0001754382659],[-68.8091645318093,-20.999996217276],[-68.8091703987764,-20.9993988139764],[-68.8096789013238,-20.9990567305438],[-68.8102741580414,-20.9987742970625],[-68.8101586461142,-20.9987037112869],[-68.8095807017587,-20.9988612413854],[-68.8088871492962,-20.9992305288109],[-68.8085519627296,-20.9995400759064],[-68.8084595339518,-21.0001373888273],[-68.8084595339518,-21.0001591700974],[-68.8079278520752,-21.0002568694872]]]}},{"type":"Feature","id":"624741573","properties":{"name":"TRC_10_01","oid":"624741573","speedLimit":8.333333},"geometry":{"type":"Polygon","coordinates":[[[-68.825117969683,-21.0014218511109],[-68.8243585340646,-21.0030531868989],[-68.8230565482534,-21.0039834550022],[-68.8220257894487,-21.0044295643346],[-68.8226632690939,-21.0051049644644],[-68.8233820206613,-21.0043658473412],[-68.8241822365104,-21.0040216851983],[-68.8248738653771,-21.0035756662446],[-68.8260673603857,-21.0029256625334],[-68.8264335168446,-21.00200804745],[-68.825117969683,-21.0014218511109]]]}},{"type":"Feature","id":"624790435","properties":{"name":"VELO_REDUC_15KM_9011","oid":"624790435","speedLimit":4.1666665},"geometry":{"type":"Polygon","coordinates":[[[-68.8077217387861,-20.9991838030157],[-68.8077046187836,-20.9994470762097],[-68.8077050035028,-20.9997367399881],[-68.8076871140619,-21.0000093221895],[-68.807478211559,-21.0000424007989],[-68.8075834322488,-20.9992058554219],[-68.8077217387861,-20.9991838030157]]]}}]}