{"type":"FeatureCollection","features":[{"type":"Feature","id":"553508825","properties":{"name":"ZD_STK_HG_02-AutoClean-1","oid":"553508825","speedLimit":5},"geometry":{"type":"Polygon","coordinates":[[[-68.8157262731668,-21.0200482535489],[-68.815995108012,-21.0199497081217],[-68.815865259339,-21.0189949023816],[-68.8155887297577,-21.0189173317609],[-68.8155448697615,-21.0190258221395],[-68.81551370608,-21.019136120691],[-68.8154866783191,-21.0192514821269],[-68.8154831195036,-21.0194059000991],[-68.8154884096348,-21.0196056128043],[-68.8154949501605,-21.019639425639],[-68.8155305383154,-21.0197542446229],[-68.8155915190995,-21.0198589378383],[-68.8157262731668,-21.0200482535489]]]}},{"type":"Feature","id":"558966402","properties":{"name":"ZD_STK_BL_02-AutoClean-1","oid":"558966402","speedLimit":5},"geometry":{"type":"Polygon","coordinates":[[[-68.8233375214564,-20.992333753483],[-68.8235299860451,-20.9921315997443],[-68.8232679802783,-20.991876556946],[-68.8231540019986,-20.9917678857501],[-68.8230885005569,-20.9917095721716],[-68.8229878918814,-20.9916361603488],[-68.8229576900419,-20.9916190731142],[-68.8228453468937,-20.9915634717952],[-68.8227258861146,-20.9915226070859],[-68.8226050787566,-20.9917689706539],[-68.8232115201516,-20.9922367450028],[-68.8233375214564,-20.992333753483]]]}},{"type":"Feature","id":"592941111","properties":{"name":"INFO_ESTACION","oid":"592941111","speedLimit":5.5555553},"geometry":{"type":"Polygon","coordinates":[[[-68.8219768997319,-21.0107246808233],[-68.8222560262868,-21.0106259545788],[-68.8218332005338,-21.0097422100367],[-68.821284373476,-21.0090403676961],[-68.8208543339079,-21.0093249741225],[-68.8218658069784,-21.010763375725],[-68.8219768997319,-21.0107246808233]]]}},{"type":"Feature","id":"607546676","properties":{"name":"ZD_STK_HG_01-AutoClean-1","oid":"607546676","speedLimit":5},"geometry":{"type":"Polygon","coordinates":[[[-68.816809884389,-21.0205948642395],[-68.8170909346279,-21.020533747993],[-68.8173086956617,-21.0203987678803],[-68.81718230962,-21.0201549357544],[-68.8158414056569,-21.0198698772848],[-68.8156203743602,-21.0200441851597],[-68.8156862605387,-21.020133689722],[-68.8157626307953,-21.0202155999578],[-68.8158058175021,-21.0202519442346],[-68.8158949802575,-21.0203210164423],[-68.8160447390604,-21.0204064526154],[-68.8160962937928,-21.0204282410998],[-68.8163641667959,-21.0205286851086],[-68.8164744900759,-21.0205650293854],[-68.8165900073027,-21.0205912478936],[-68.816809884389,-21.0205948642395]]]}},{"type":"Feature","id":"619770241","properties":{"name":"VEL_10_KMH_02","oid":"619770241","speedLimit":2.7777777},"geometry":{"type":"Polygon","coordinates":[[[-68.8105578150609,-20.9969772320944],[-68.8102997528463,-20.9972197984991],[-68.809956663797,-20.9971867089337],[-68.8095871240921,-20.9972611152516],[-68.8095725040934,-20.9969579750522],[-68.8105578150609,-20.9969772320944]]]}},{"type":"Feature","id":"620034757","properties":{"name":"VEL_10_KMH_03","oid":"620034757","speedLimit":2.7777777},"geometry":{"type":"Polygon","coordinates":[[[-68.8141379834357,-21.0025022854403],[-68.814195213036,-21.0028463807576],[-68.8147072977286,-21.0027949382365],[-68.8148729269248,-21.0027863494148],[-68.8150750099336,-21.0024436102272],[-68.8152953679409,-21.0022850334572],[-68.8154488779276,-21.002225092523],[-68.8154154058253,-21.0020450889033],[-68.8153409592528,-21.0018309108142],[-68.8150796267754,-21.0018794602586],[-68.8149059181062,-21.002068595152],[-68.8146964289137,-21.0023053754032],[-68.8145916843175,-21.0024195615266],[-68.8141748219851,-21.0024928829408],[-68.8141379834357,-21.0025022854403]]]}},{"type":"Feature","id":"620970737","properties":{"name":"ZD_BOT_NRT_02-AutoClean-1","oid":"620970737","speedLimit":5},"geometry":{"type":"Polygon","coordinates":[[[-68.793702591649,-20.9903734227509],[-68.7937894459836,-20.9901147636067],[-68.7936818158614,-20.990074531758],[-68.7932975599735,-20.9899626962594],[-68.7932388876102,-20.9899536553945]]]}},{"type":"Feature","id":"621174471","properties":{"name":"ZD_STK_MAR_01-AutoClean-1","oid":"621174471","speedLimit":5},"geometry":{"type":"Polygon","coordinates":[[[-68.806916281165,-20.9870253192596],[-68.806916281165,-20.9870253192596]]]}},{"type":"Feature","id":"621174472","properties":{"name":"ZD_STK_MAR_01-AutoClean-2","oid":"621174472","speedLimit":5},"geometry":{"type":"Polygon","coordinates":[[[-68.8066068565865,-20.9870520802197],[-68.8069553319511,-20.9870496391862],[-68.8063765916064,-20.9870145606304],[-68.8066068565865,-20.9870520802197]]]}},{"type":"Feature","id":"622898566","properties":{"name":"INFO_RED_VEL_20KPH_902","oid":"622898566","speedLimit":3.6111112},"geometry":{"type":"Polygon","coordinates":[[[-68.8075761047922,-21.000333472364],[-68.8075989966324,-21.0000107134878],[-68.807680176099,-20.9999970617818],[-68.8078383029275,-21.0005681732164],[-68.8079506460756,-21.0008165257746],[-68.8078007910886,-21.0008849651218],[-68.8075761047922,-21.000333472364]]]}},{"type":"Feature","id":"623314189","properties":{"name":"ZD_STK_DIN_13-AutoClean-1","oid":"623314189","speedLimit":5},"geometry":{"type":"Polygon","coordinates":[[[-68.8260099033308,-21.0046691999349],[-68.8261747630534,-21.0044465234329],[-68.8258531230812,-21.0041709578713],[-68.8257300073023,-21.0041735797221],[-68.8255824607361,-21.0042649828661],[-68.825575727842,-21.0044027656468],[-68.8256824923064,-21.0045193928038],[-68.8260099033308,-21.0046691999349]]]}},{"type":"Feature","id":"623520976","properties":{"name":"ZD_STK_DIN_22-AutoClean-1","oid":"623520976","speedLimit":5},"geometry":{"type":"Polygon","coordinates":[[[-68.8240751581032,-21.0049117663396],[-68.8243120597933,-21.0047569867329],[-68.8242596394031,-21.0046573564019],[-68.8241473924391,-21.0045342198222],[-68.8241062256006,-21.0044994124924],[-68.8240104261352,-21.004435945621],[-68.8239588714028,-21.0044080093485],[-68.8238422961497,-21.0043898372101],[-68.8237243743178,-21.004400143796],[-68.8236862853737,-21.0046689287089],[-68.8240751581032,-21.0049117663396]]]}},{"type":"Feature","id":"623816501","properties":{"name":"ZD_STK_DIN_21-AutoClean-1","oid":"623816501","speedLimit":5},"geometry":{"type":"Polygon","coordinates":[[[-68.82424675072,-21.0051650913736],[-68.824527416222,-21.0051022573627],[-68.8245182787228,-21.0050026270317],[-68.8244973105668,-21.0048977529991],[-68.8244537391231,-21.0047902571156],[-68.824421325047,-21.0047471321902],[-68.8243361058438,-21.0046728162808],[-68.8242271291427,-21.0046224586635],[-68.8240485150792,-21.00483546144],[-68.82424675072,-21.0051650913736]]]}},{"type":"Feature","id":"623885777","properties":{"name":"VELO_REDUC_15KM_901","oid":"623885777","speedLimit":4.1666665},"geometry":{"type":"Polygon","coordinates":[[[-68.8075900515016,-20.9991332071425],[-68.8077233628058,-20.9991299524311],[-68.8077032603076,-20.9994392404187],[-68.8077036450444,-20.9997290001381],[-68.8077187459641,-20.9998535832562],[-68.8075037742722,-20.9998316139545],[-68.8075900515016,-20.9991332071425]]]}},{"type":"Feature","id":"624057522","properties":{"name":"VEL_10KPH","oid":"624057522","speedLimit":2.7777777},"geometry":{"type":"Polygon","coordinates":[[[-68.8103162965291,-21.000916065697],[-68.8107246946517,-21.0014332031681],[-68.810643034264,-21.0015958483273],[-68.810453262833,-21.0014512848979],[-68.8102393491673,-21.0011667688801],[-68.8101624979898,-21.0009725711025],[-68.8103162965291,-21.000916065697]]]}},{"type":"Feature","id":"624293930","properties":{"name":"ZD_STK_DIN_12-AutoClean-1","oid":"624293930","speedLimit":5},"geometry":{"type":"Polygon","coordinates":[[[-68.8263470289595,-21.0047434254356],[-68.8264270542158,-21.004482777301],[-68.8258595674227,-21.0041838863081],[-68.8255884241567,-21.0042767359904],[-68.8255895783671,-21.004396798676],[-68.8256547912562,-21.0044919085746],[-68.8256871091482,-21.0045315075628],[-68.825785986508,-21.0045955168861],[-68.8260074987257,-21.0046762518095],[-68.8261212846369,-21.0046996676495],[-68.8263470289595,-21.0047434254356]]]}}]}