{"type":"FeatureCollection","features":[{"type":"Feature","id":"551760555","properties":{"name":"ZD_BOT_PAD59_01-AutoClean-1","oid":"551760555","speedLimit":5},"geometry":{"type":"Polygon","coordinates":[[[-68.81953885841,-20.9847267371615],[-68.8197129153172,-20.9845105671156],[-68.8194275619448,-20.9842821013249],[-68.8192906999702,-20.9842199897308],[-68.8190238960086,-20.9842249622747],[-68.8189037573371,-20.9842399703164],[-68.8187851564406,-20.9842623015591],[-68.8185569890758,-20.9843355335696],[-68.8186336856036,-20.98459699897],[-68.81953885841,-20.9847267371615]]]}},{"type":"Feature","id":"553267213","properties":{"name":"ZD_BOT_PAD59_02-AutoClean-1","oid":"553267213","speedLimit":5},"geometry":{"type":"Polygon","coordinates":[[[-68.818339393914,-20.984947246882],[-68.8186122528646,-20.9848595492891],[-68.8187529592767,-20.9845753005965],[-68.8187231648862,-20.9843055174862],[-68.8185953373397,-20.9842916847732],[-68.8184363698496,-20.984333544552],[-68.8183555405514,-20.9843740481825],[-68.8182557773986,-20.9844621074149],[-68.8182157952488,-20.9846112837326],[-68.8182507796299,-20.9847333370834],[-68.8182836495704,-20.9848441796079],[-68.818339393914,-20.984947246882]]]}},{"type":"Feature","id":"553508825","properties":{"name":"ZD_STK_HG_02-AutoClean-1","oid":"553508825","speedLimit":5},"geometry":{"type":"Polygon","coordinates":[[[-68.8157156614399,-21.0200638041146],[-68.8159842915093,-21.019965257335],[-68.8158545417441,-21.0190104384919],[-68.8155782227997,-21.0189328668067],[-68.8155343962124,-21.0190413586741],[-68.8155032562687,-21.0191516587393],[-68.8154762490954,-21.0192670217583],[-68.8154726929907,-21.0194214418496],[-68.8154779790923,-21.0196211572955],[-68.815484514636,-21.0196549705942],[-68.8155200756827,-21.0197697911539],[-68.8155810100169,-21.0198744858059],[-68.8157156614399,-21.0200638041146]]]}},{"type":"Feature","id":"558966402","properties":{"name":"ZD_STK_BL_02-AutoClean-1","oid":"558966402","speedLimit":5},"geometry":{"type":"Polygon","coordinates":[[[-68.8233211121209,-20.9923489237161],[-68.8235134301062,-20.9921467672031],[-68.8232516239133,-20.9918917209048],[-68.8231377324527,-20.9917830482176],[-68.8230722809045,-20.9917247338389],[-68.8229717488642,-20.9916513210086],[-68.82294157003,-20.9916342335395],[-68.8228293124553,-20.9915786314575],[-68.8227099426713,-20.9915377661874],[-68.8225892273342,-20.9917841331363],[-68.8231952067932,-20.9922519139046],[-68.8233211121209,-20.9923489237161]]]}},{"type":"Feature","id":"570805601","properties":{"name":"ZD_STK_MAR_02-AutoClean-1-tmp-1","oid":"570805601","speedLimit":5},"geometry":{"type":"Polygon","coordinates":[[[-68.8065016020034,-20.986707256201],[-68.8068534641444,-20.9867016507878],[-68.8068577891366,-20.9864304211193],[-68.8062795857385,-20.9862084648406],[-68.8059975001378,-20.9862645189721],[-68.8060055734566,-20.9863792491218],[-68.8060345028486,-20.9865022065716],[-68.8060570889189,-20.9865299624077],[-68.8061424354311,-20.9866179312301],[-68.8062199969574,-20.9866490322321],[-68.806335426193,-20.9866832071704],[-68.8063830972178,-20.9866923385692],[-68.8065016020034,-20.986707256201]]]}},{"type":"Feature","id":"592941111","properties":{"name":"INFO_ESTACION CAMINO 9","oid":"592941111","speedLimit":5.5555553},"geometry":{"type":"Polygon","coordinates":[[[-68.8219615268035,-21.0107401034394],[-68.8222404407432,-21.0106413758401],[-68.8218179370634,-21.0097576191702],[-68.8212695280558,-21.0090557671979],[-68.8208398160557,-21.0093403775301],[-68.8218505186711,-21.0107787988722],[-68.8219615268035,-21.0107401034394]]]}},{"type":"Feature","id":"602013008","properties":{"name":"ZD_STK_3C_01-AutoClean-1","oid":"602013008","speedLimit":5},"geometry":{"type":"Polygon","coordinates":[[[-68.8048578166448,-20.9854543559522],[-68.8051222178329,-20.9853462257244],[-68.8054187200741,-20.9845734019889],[-68.8051702733015,-20.9844358885469],[-68.8048465716651,-20.9848873051252],[-68.8047517101701,-20.9850928068041],[-68.8047386390826,-20.9852526514887],[-68.8047828501138,-20.9853624090946],[-68.8048578166448,-20.9854543559522]]]}},{"type":"Feature","id":"605133231","properties":{"name":"LIMP_903.","oid":"605133231","speedLimit":2.7777777},"geometry":{"type":"Polygon","coordinates":[[[-68.8161047185136,-21.001603189596],[-68.8157962985162,-21.0015012976506],[-68.8157145081086,-21.0016435124068],[-68.8156899998197,-21.0021259395772],[-68.8165174188779,-21.0021336244178],[-68.8165828704261,-21.0018222527583],[-68.8161047185136,-21.001603189596]]]}},{"type":"Feature","id":"607546676","properties":{"name":"ZD_STK_HG_01-AutoClean-1","oid":"607546676","speedLimit":5},"geometry":{"type":"Polygon","coordinates":[[[-68.8167984472582,-21.0206104223065],[-68.8170792834166,-21.0205493052212],[-68.8172968785784,-21.0204143232562],[-68.817170588807,-21.0201704877842],[-68.8158307062317,-21.0198854254026],[-68.8156098432981,-21.0200597356695],[-68.81567567929,-21.0201492414601],[-68.8157519913742,-21.02023115282],[-68.815795145185,-21.0202674975956],[-68.8158842400237,-21.0203365707512],[-68.8160338847529,-21.0204220080968],[-68.8160854002152,-21.0204437968802],[-68.8163530691753,-21.0205442422674],[-68.8164633084202,-21.020580587043],[-68.8165787376558,-21.0206068059109],[-68.8167984472582,-21.0206104223065]]]}},{"type":"Feature","id":"621174471","properties":{"name":"ZD_STK_MAR_01-AutoClean-1","oid":"621174471","speedLimit":5},"geometry":{"type":"Polygon","coordinates":[[[-68.806730057701,-20.9870996351214],[-68.8068568280272,-20.9870690765788],[-68.8069782161408,-20.9870381563966],[-68.8069262201238,-20.9867714472225],[-68.8062477730183,-20.9863306990112],[-68.8059594402067,-20.9863298853222],[-68.8059429091255,-20.9864487743269],[-68.8059586713192,-20.9866011149907],[-68.8059748179567,-20.9866859194671],[-68.80601720288,-20.986805441341],[-68.8060325806299,-20.9868281342232],[-68.8061224443562,-20.9869188153424],[-68.8063637789194,-20.9870164580231],[-68.8065690718813,-20.9870849887193],[-68.806730057701,-20.9870996351214]]]}},{"type":"Feature","id":"625872519","properties":{"name":"VEL_15_4_ESQ","oid":"625872519","speedLimit":8.333333},"geometry":{"type":"Polygon","coordinates":[[[-68.8227987491773,-21.0050256559633],[-68.8223601949709,-21.0050778224696],[-68.8224367953879,-21.0049038738421],[-68.8226085456326,-21.0046776682986],[-68.8228013441726,-21.0045509136335],[-68.8229969299298,-21.0044366355332],[-68.8231977056775,-21.0046925859304],[-68.8227987491773,-21.0050256559633]]]}},{"type":"Feature","id":"626734706","properties":{"name":"ZD_STK_MAR_02-AutoClean-1","oid":"626734706","speedLimit":5},"geometry":{"type":"Polygon","coordinates":[[[-68.8067743648431,-20.987095928316],[-68.8068898901896,-20.9870849887193],[-68.807117192556,-20.9870599451799],[-68.8072320451259,-20.9870467453361],[-68.8073493004693,-20.9870330030329],[-68.8075101901781,-20.9869751407036],[-68.8075678567404,-20.9869492834752],[-68.8076590660198,-20.9868795774504],[-68.8076998170572,-20.9868453121023],[-68.8077664219366,-20.9867525515556],[-68.807796408549,-20.9867034589856],[-68.807874546741,-20.9865587127525],[-68.8079105883424,-20.9864544701499],[-68.8076458027105,-20.9863470632012],[-68.806736208801,-20.9868270493046],[-68.8067743648431,-20.987095928316]]]}},{"type":"Feature","id":"627372043","properties":{"name":"INFO_RED_VEL_15KPH","oid":"627372043","speedLimit":4.1666665},"geometry":{"type":"Polygon","coordinates":[[[-68.8087272429756,-21.002353591679],[-68.8088385394409,-21.0022981704167],[-68.8092902608456,-21.0026636071901],[-68.8091310050227,-21.0027230968974],[-68.8088669882783,-21.0025054802933],[-68.8087272429756,-21.002353591679]]]}},{"type":"Feature","id":"627775409","properties":{"name":"VEL_10KM_ZIG_ZAG","oid":"627775409","speedLimit":2.7777777},"geometry":{"type":"Polygon","coordinates":[[[-68.8111657696738,-20.999653409919],[-68.8110519743242,-20.9996824314935],[-68.8110162210555,-20.9995616438811],[-68.8108764757529,-20.9994760257157],[-68.8106520567146,-20.9994499876676],[-68.8106536906005,-20.9993307370233],[-68.8108715740951,-20.9993475532628],[-68.8110471687773,-20.9994347083962],[-68.8110488026632,-20.9994347083962],[-68.8111657696738,-20.999653409919]]]}},{"type":"Feature","id":"628576537","properties":{"name":"INFO_RED_VEL_20KPH","oid":"628576537","speedLimit":5.5555553},"geometry":{"type":"Polygon","coordinates":[[[-68.8087026385757,-20.9994625546422],[-68.8085336755482,-20.9993433944078],[-68.8083576003112,-20.9998764511164],[-68.8085231033451,-20.9999460667313],[-68.8087026385757,-20.9994625546422]]]}},{"type":"Feature","id":"628602625","properties":{"name":"INFO_RED_VEL_15_KPH_901","oid":"628602625","speedLimit":4.1666665},"geometry":{"type":"Polygon","coordinates":[[[-68.8141021510265,-21.001899462804],[-68.8154680796657,-21.001617926408],[-68.815879242255,-21.0015644941633],[-68.8157158536618,-21.0019512676706],[-68.8148803612849,-21.002195645602],[-68.8134421572209,-21.0023974404754],[-68.8141021510265,-21.001899462804]]]}},{"type":"Feature","id":"628617966","properties":{"name":"info_red_vel_15_kph_906","oid":"628617966","speedLimit":4.1666665},"geometry":{"type":"Polygon","coordinates":[[[-68.8254692876778,-21.0039415509782],[-68.8253187779502,-21.0038371275559],[-68.825444587167,-21.0036305409583],[-68.8254396855091,-21.0034309159223],[-68.8255827946946,-21.0034424883882],[-68.8254692876778,-21.0039415509782]]]}},{"type":"Feature","id":"629088680","properties":{"name":"ZD_BOT_NRT_02-AutoClean-1","oid":"629088680","speedLimit":5},"geometry":{"type":"Polygon","coordinates":[[[-68.7916839865964,-20.9913479958293],[-68.7919542505517,-20.9912535174948],[-68.7920642975748,-20.9906150428551],[-68.7918672701536,-20.9904169547872],[-68.7917582803508,-20.9904730993286],[-68.7916567872011,-20.9906022950607],[-68.7915978711966,-20.99088102875],[-68.7915864339951,-20.9910420487632],[-68.7915834545561,-20.99109376322],[-68.7916217067091,-20.9912594845475],[-68.7916839865964,-20.9913479958293]]]}},{"type":"Feature","id":"629237286","properties":{"name":"REDU_VELO_15","oid":"629237286","speedLimit":9.722222},"geometry":{"type":"Polygon","coordinates":[[[-68.8122738326685,-20.9969338804426],[-68.8122617226904,-20.9971278096556],[-68.8118755489448,-20.997303385661],[-68.8108397613749,-20.9972209318418],[-68.8106000606975,-20.9971363081852],[-68.8089754975264,-20.9974307731953],[-68.8091508038758,-20.9970560242033],[-68.8109912322119,-20.9967798219909],[-68.8121191901706,-20.996891026155],[-68.8121222657206,-20.9968939192714],[-68.8122738326685,-20.9969338804426]]]}},{"type":"Feature","id":"629873883","properties":{"name":"ZD_BOT_NRT_03-AutoClean-1","oid":"629873883","speedLimit":5},"geometry":{"type":"Polygon","coordinates":[[[-68.7923260076567,-20.9921134059539],[-68.7924990073436,-20.991896512629],[-68.7919533855533,-20.9912710570134],[-68.7918745745848,-20.9912233205917],[-68.791699844901,-20.991142042101],[-68.791588163992,-20.9912546024135],[-68.7915625984827,-20.9913805433896],[-68.7915822051139,-20.9914895777163],[-68.7916090200654,-20.9916375787054],[-68.791721181529,-20.9917271749059],[-68.7923260076567,-20.9921134059539]]]}},{"type":"Feature","id":"630010528","properties":{"name":"VEL_15_KMPH","oid":"630010528","speedLimit":4.1666665},"geometry":{"type":"Polygon","coordinates":[[[-68.8100338711666,-20.9990669209657],[-68.8099229591451,-20.9988881806142],[-68.8092064521084,-20.9993909500097],[-68.8090718006854,-20.999916050648],[-68.8092578714598,-21.0002176580394],[-68.8093001602722,-21.0002391755931],[-68.8094796955028,-21.0000139645583],[-68.8093291857752,-20.9999011330162],[-68.8094004039796,-20.9995398550977],[-68.8095033387934,-20.9994020704261],[-68.8099427579982,-20.999119087472],[-68.8100338711666,-20.9990669209657]]]}},{"type":"Feature","id":"630216104","properties":{"name":"REDU_VELO_15_904","oid":"630216104","speedLimit":4.1666665},"geometry":{"type":"Polygon","coordinates":[[[-68.8136491801796,-21.0161449874539],[-68.813764801637,-21.016692328925],[-68.8140612077673,-21.0171615562515],[-68.8143322406101,-21.01767824877],[-68.8142021064012,-21.0177054621468],[-68.8138009393494,-21.0172805356661],[-68.8135516275784,-21.0167535364202],[-68.813425145585,-21.016318393622],[-68.8136491801796,-21.0161449874539]]]}},{"type":"Feature","id":"630611948","properties":{"name":"TR_60","oid":"630611948","speedLimit":2.7777777},"geometry":{"type":"Polygon","coordinates":[[[-68.8265671629132,-21.0003217198222],[-68.8265658173601,-21.0006404146827],[-68.8262756584407,-21.0006478282936],[-68.8261994424676,-21.0004711673695],[-68.8263347666671,-21.0002364632964],[-68.8265671629132,-21.0003217198222]]]}},{"type":"Feature","id":"630768411","properties":{"name":"REDU_VELO_15KM_902","oid":"630768411","speedLimit":9.722222},"geometry":{"type":"Polygon","coordinates":[[[-68.8114230586526,-20.9979214276657],[-68.8116073033192,-20.997343527652],[-68.8103653577889,-20.9973187553422],[-68.8098387659641,-20.9974681124797],[-68.8101020138211,-20.9980912174382],[-68.8114230586526,-20.9979214276657]]]}},{"type":"Feature","id":"630795558","properties":{"name":"INFO_RED_VEL_15","oid":"630795558","speedLimit":4.1666665},"geometry":{"type":"Polygon","coordinates":[[[-68.8107915136844,-20.9997290829965],[-68.8106998238503,-20.9998152436212],[-68.809909407503,-21.0001026566599],[-68.8098674070234,-20.9999302450006],[-68.810356131139,-20.999714707824],[-68.8106082301272,-20.9996535907387],[-68.8107189499268,-20.9996715823067],[-68.8107799803719,-20.9997003326516],[-68.8107915136844,-20.9997290829965]]]}},{"type":"Feature","id":"631033311","properties":{"name":"INFO_SL","oid":"631033311","speedLimit":4.1666665},"geometry":{"type":"Polygon","coordinates":[[[-68.8159595909985,-21.004043171694],[-68.8158060057209,-21.0045932254618],[-68.8185042241713,-21.0056171174605],[-68.8187842914422,-21.005035691461],[-68.8184849058729,-21.004772237043],[-68.81764470406,-21.0043272395669],[-68.8167658656505,-21.0041273433012],[-68.8159595909985,-21.004043171694]]]}},{"type":"Feature","id":"631627204","properties":{"name":"INFO_RED_VEL_15KPH_RPACONECCION","oid":"631627204","speedLimit":5.5555553},"geometry":{"type":"Polygon","coordinates":[[[-68.8144497842863,-21.0027496774049],[-68.8133874700976,-21.0027598033125],[-68.8146250906357,-21.0021103890762],[-68.8147824242399,-21.0022920225442],[-68.8144497842863,-21.0027496774049]]]}},{"type":"Feature","id":"631678552","properties":{"name":"New Zone3205","oid":"631678552","speedLimit":4.1666665},"geometry":{"type":"Polygon","coordinates":[[[-68.8101519915084,-21.002668579734],[-68.8101069154789,-21.002612073553],[-68.8099190185967,-21.002723368127],[-68.8098946064186,-21.0028029288298],[-68.8098570270422,-21.0029425216992],[-68.8098570270422,-21.0031033608926],[-68.8099115219436,-21.0031882557789],[-68.8099810101512,-21.0032377099884],[-68.8100280083994,-21.0031847297932],[-68.8099565979731,-21.0030274165854],[-68.8099546757544,-21.0028948756874],[-68.8100129189823,-21.0027481404368],[-68.8100937482805,-21.0027004040151],[-68.8101519915084,-21.002668579734]]]}},{"type":"Feature","id":"631941986","properties":{"name":"ZD_STK_DIN_21-AutoClean-1","oid":"631941986","speedLimit":5},"geometry":{"type":"Polygon","coordinates":[[[-68.8239204599251,-21.0056789578249],[-68.8239790875968,-21.0054134239794],[-68.8238675027988,-21.0053860297829],[-68.8236967136634,-21.0053582739468],[-68.8233564809458,-21.0053135210515],[-68.8232446078149,-21.0053038471933],[-68.8232074128822,-21.0055728166146],[-68.8235799388747,-21.0056343857494],[-68.8239204599251,-21.0056789578249]]]}},{"type":"Feature","id":"631961248","properties":{"name":"ZD_STK_DIN_11-AutoClean-1","oid":"631961248","speedLimit":5},"geometry":{"type":"Polygon","coordinates":[[[-68.8262180879894,-21.005237034285],[-68.8263588905123,-21.0050003411942],[-68.8260494132946,-21.0047651850716],[-68.8258961163498,-21.0047571385915],[-68.825777996008,-21.0048565894699],[-68.8257690576909,-21.0050006124239],[-68.8258750680546,-21.0051119069979],[-68.8262180879894,-21.005237034285]]]}}]}