{"type":"FeatureCollection","features":[{"type":"Feature","id":"553267213","properties":{"name":"ZD_BOT_PAD59_02-AutoClean-1","oid":"553267213","speedLimit":5},"geometry":{"type":"Polygon","coordinates":[[[-68.8183521285647,-20.9849456221039],[-68.8183521285647,-20.9849456221039]]]}},{"type":"Feature","id":"553508825","properties":{"name":"ZD_STK_HG_02-AutoClean-1","oid":"553508825","speedLimit":5},"geometry":{"type":"Polygon","coordinates":[[[-68.8157264058805,-21.0200494473077],[-68.815995239717,-21.0199509362577],[-68.8158653915312,-21.0189964635984],[-68.8155888629874,-21.0189189200379],[-68.8155450031558,-21.01902737257],[-68.8155138395912,-21.0191376326443],[-68.8154868119318,-21.0192529538367],[-68.8154832531297,-21.0194073179407],[-68.815488543241,-21.0196069609768],[-68.8154950837422,-21.019640762016],[-68.8155306717634,-21.0197555409458],[-68.8155916523189,-21.0198601976392],[-68.8157264058805,-21.0200494473077]]]}},{"type":"Feature","id":"558966402","properties":{"name":"ZD_STK_BL_02-AutoClean-1","oid":"558966402","speedLimit":5},"geometry":{"type":"Polygon","coordinates":[[[-68.8233376256117,-20.9923446153502],[-68.8235300894782,-20.9921425321322],[-68.8232680846944,-20.9918875783047],[-68.8231541068425,-20.9917789450184],[-68.8230886056465,-20.9917206517824],[-68.8229879973485,-20.991647265569],[-68.8229577956224,-20.9916301842952],[-68.8228454528957,-20.9915746023725],[-68.8227259925648,-20.9915337519188],[-68.8226051856601,-20.9917800295437],[-68.8232116247796,-20.9922476407112],[-68.8233376256117,-20.9923446153502]]]}},{"type":"Feature","id":"570805601","properties":{"name":"ZD_STK_MAR_02-AutoClean-1-tmp-1","oid":"570805601","speedLimit":5},"geometry":{"type":"Polygon","coordinates":[[[-68.8065053571972,-20.9867049933054],[-68.8068574862403,-20.9866993899246],[-68.8068618145132,-20.9864282585944],[-68.8062831725238,-20.9862063827892],[-68.8060008729495,-20.9862624165975],[-68.8060089523922,-20.9863771051501],[-68.8060379037284,-20.9865000180198],[-68.8060605069312,-20.9865277637926],[-68.8061459181822,-20.9866157007207],[-68.8062235385422,-20.9866467904466],[-68.8063390553356,-20.9866809529941],[-68.8063867625209,-20.9866900810823],[-68.8065053571972,-20.9867049933054]]]}},{"type":"Feature","id":"592941111","properties":{"name":"INFO_ESTACION","oid":"592941111","speedLimit":5.5555553},"geometry":{"type":"Polygon","coordinates":[[[-68.8219770089924,-21.0107291270786],[-68.8222561344999,-21.0106304352744],[-68.8218333103335,-21.0097469990235],[-68.8212844853349,-21.0090454015182],[-68.8208544473804,-21.0093299086606],[-68.8218659166557,-21.0107678084817],[-68.8219770089924,-21.0107291270786]]]}},{"type":"Feature","id":"600121666","properties":{"name":"ZD_STK_3C_02-AutoClean-1","oid":"600121666","speedLimit":5},"geometry":{"type":"Polygon","coordinates":[[[-68.8050752958445,-20.9853150837298],[-68.8048029993898,-20.985029492062],[-68.8047702006999,-20.9851919901059],[-68.8047872252398,-20.9853002618838],[-68.8050752958445,-20.9853150837298]]]}},{"type":"Feature","id":"602013008","properties":{"name":"ZD_STK_3C_01-AutoClean-1","oid":"602013008","speedLimit":5},"geometry":{"type":"Polygon","coordinates":[[[-68.8048603249592,-20.9854525473142],[-68.8051249267066,-20.9853444562906],[-68.8047541379984,-20.9850911292511],[-68.804741056996,-20.9852509159817],[-68.804785301563,-20.9853606337933],[-68.8048603249592,-20.9854525473142]]]}},{"type":"Feature","id":"607546676","properties":{"name":"ZD_STK_HG_01-AutoClean-1","oid":"607546676","speedLimit":5},"geometry":{"type":"Polygon","coordinates":[[[-68.8168100130368,-21.0205958673151],[-68.8170910622212,-21.0205347723887],[-68.8173088224379,-21.0203998393634],[-68.8171824368704,-21.0201560922975],[-68.8158415379386,-21.0198711332695],[-68.8156205074712,-21.0200453803377],[-68.8156863934026,-21.0201348536767],[-68.8157627633726,-21.0202167353384],[-68.8158059499173,-21.0202530669366],[-68.8158951123382,-21.0203221150487],[-68.8160448705792,-21.0204075214177],[-68.8160964251181,-21.0204293023012],[-68.8163642971162,-21.0205297112705],[-68.8164746199822,-21.0205660428688],[-68.8165901367756,-21.0205922522307],[-68.8168100130368,-21.0205958673151]]]}},{"type":"Feature","id":"619770241","properties":{"name":"VEL_10_KMH_02","oid":"619770241","speedLimit":2.7777777},"geometry":{"type":"Polygon","coordinates":[[[-68.8105579671673,-20.9969864741],[-68.8102999059211,-20.9972289558863],[-68.8099568181591,-20.997195877864],[-68.8095872798408,-20.9972702582256],[-68.8095726598969,-20.9969672237756],[-68.8105579671673,-20.9969864741]]]}},{"type":"Feature","id":"620970737","properties":{"name":"ZD_BOT_NRT_02-AutoClean-1","oid":"620970737","speedLimit":5},"geometry":{"type":"Polygon","coordinates":[[[-68.7937028069986,-20.9903849684728],[-68.7937896610074,-20.990126399561],[-68.7936820312889,-20.990086181747]]]}},{"type":"Feature","id":"621174471","properties":{"name":"ZD_STK_MAR_01-AutoClean-1","oid":"621174471","speedLimit":5},"geometry":{"type":"Polygon","coordinates":[[[-68.806916446935,-20.987038032956],[-68.8072887745848,-20.987001882112],[-68.8074482473937,-20.9869702501235],[-68.8075354861378,-20.9869397026602],[-68.8076414807309,-20.9868712871879],[-68.8076687969418,-20.9868510427153],[-68.8077449745442,-20.9867531643051],[-68.8077655578862,-20.9866265459739],[-68.80750499586,-20.986510049879],[-68.8068730680226,-20.9867699744476],[-68.806916446935,-20.987038032956]]]}},{"type":"Feature","id":"621174472","properties":{"name":"ZD_STK_MAR_01-AutoClean-2","oid":"621174472","speedLimit":5},"geometry":{"type":"Polygon","coordinates":[[[-68.8066070235175,-20.9870647845806],[-68.8069554975746,-20.9870623443986],[-68.8069666549002,-20.9867913938226],[-68.8062245965644,-20.9866016018915],[-68.8060443480458,-20.9868133554604],[-68.8061278356201,-20.9868900856268],[-68.8062160362026,-20.9869702501235],[-68.8063767594014,-20.9870272780799],[-68.8066070235175,-20.9870647845806]]]}},{"type":"Feature","id":"622898566","properties":{"name":"INFO_RED_VEL_20KPH_902","oid":"622898566","speedLimit":3.6111112},"geometry":{"type":"Polygon","coordinates":[[[-68.8075762680865,-21.0003378380952],[-68.8075991598407,-21.0000151918123],[-68.8076803390028,-21.0000015448687],[-68.8078384652379,-21.000572457073],[-68.8079508079646,-21.0008207229943],[-68.8078009535398,-21.0008891384666],[-68.8075762680865,-21.0003378380952]]]}},{"type":"Feature","id":"623520976","properties":{"name":"ZD_STK_DIN_22-AutoClean-1","oid":"623520976","speedLimit":5},"geometry":{"type":"Polygon","coordinates":[[[-68.824433351932,-21.0046090603167],[-68.8247114194172,-21.0045364874973],[-68.8247089186374,-21.0044192683855],[-68.8246340876088,-21.0042752976492],[-68.8245089524313,-21.004142081789],[-68.8243598674772,-21.0040619172924],[-68.8242355979542,-21.0040553197633],[-68.8241432614666,-21.0043121715101],[-68.824433351932,-21.0046090603167]]]}},{"type":"Feature","id":"623885777","properties":{"name":"VELO_REDUC_15KM_901","oid":"623885777","speedLimit":4.1666665},"geometry":{"type":"Polygon","coordinates":[[[-68.8074052532166,-20.9981616476621],[-68.80996961061,-20.9974714376726],[-68.8094215550822,-20.9981523388198],[-68.8075822314846,-20.9992064070544],[-68.8074052532166,-20.9981616476621]]]}},{"type":"Feature","id":"624057522","properties":{"name":"VEL_10KPH","oid":"624057522","speedLimit":2.7777777},"geometry":{"type":"Polygon","coordinates":[[[-68.8103154877034,-21.0005567314558],[-68.8104411038001,-21.0009716527681],[-68.8108462301398,-21.0014284186823],[-68.8105180508732,-21.0017366950047],[-68.8100643516937,-21.001318068231],[-68.8098455334547,-21.0004729518748],[-68.8103154877034,-21.0005567314558]]]}},{"type":"Feature","id":"624400171","properties":{"name":"VEL_15KPH","oid":"624400171","speedLimit":4.1666665},"geometry":{"type":"Polygon","coordinates":[[[-68.8092490974547,-21.0025791000476],[-68.8091205958427,-21.0027434056337],[-68.809504080818,-21.0029948347539],[-68.8096178663023,-21.0028424589463],[-68.8092490974547,-21.0025791000476]]]}},{"type":"Feature","id":"624790435","properties":{"name":"VELO_REDUC_15KM_9011","oid":"624790435","speedLimit":4.1666665},"geometry":{"type":"Polygon","coordinates":[[[-68.8077205438484,-20.9991843550396],[-68.8077034231247,-20.9994476235612],[-68.8077038078601,-20.9997372821989],[-68.8076859176656,-21.0000098595628],[-68.8074770063622,-21.0000429375851],[-68.8075822314846,-20.9992064070544],[-68.8077205438484,-20.9991843550396]]]}},{"type":"Feature","id":"625094199","properties":{"name":"VEL_15_KPH_","oid":"625094199","speedLimit":2.7777777},"geometry":{"type":"Polygon","coordinates":[[[-68.8168283841505,-20.9975050579575],[-68.8164615389797,-20.9973358720075],[-68.8160319819444,-20.9970714285835],[-68.8156453229023,-20.9968332848985],[-68.815183640464,-20.997300173049],[-68.8187272455458,-20.9996611846722],[-68.8192491390688,-20.9991798361841],[-68.8168283841505,-20.9975050579575]]]}},{"type":"Feature","id":"625102060","properties":{"name":"VEL_15KPH_","oid":"625102060","speedLimit":4.1666665},"geometry":{"type":"Polygon","coordinates":[[[-68.820421908646,-20.9998685097627],[-68.8203233202086,-21.0001522035112],[-68.8202832115468,-21.0002188114413],[-68.8197286155178,-21.0000451066358],[-68.8190106031424,-20.9996397652971],[-68.818434365749,-20.999237316026],[-68.8178181158777,-20.9988058557026],[-68.8181170552565,-20.9984815826317],[-68.8186470282222,-20.9988232081078],[-68.8195067193959,-20.9993791177117],[-68.8200028356494,-20.9996281970271],[-68.8204712509566,-20.9997990097651],[-68.820421908646,-20.9998685097627]]]}},{"type":"Feature","id":"625262401","properties":{"name":"VEL_15_KMPH_2","oid":"625262401","speedLimit":3.3333333},"geometry":{"type":"Polygon","coordinates":[[[-68.8102995211857,-21.0029149413886],[-68.810280572969,-21.0032507827296],[-68.8100253010541,-21.0034966084689],[-68.8092315919956,-21.0029421448987],[-68.8086674737662,-21.0024116312627],[-68.809070676429,-21.002398797713],[-68.8092909374256,-21.0022318711908],[-68.8102995211857,-21.0029149413886]]]}},{"type":"Feature","id":"625497864","properties":{"name":"ZD_STK_DIN_21-AutoClean-1","oid":"625497864","speedLimit":5},"geometry":{"type":"Polygon","coordinates":[[[-68.8244287351076,-21.0048556090729],[-68.8247124774395,-21.0048062631708],[-68.824712765991,-21.0046935629146],[-68.8246845841255,-21.0045842066114],[-68.8246599610621,-21.0045396506961],[-68.8245965759107,-21.0044453873703],[-68.8245072211221,-21.004370374369],[-68.8244147884506,-21.0043031337991],[-68.824214533693,-21.0044984387339],[-68.8244287351076,-21.0048556090729]]]}},{"type":"Feature","id":"625542651","properties":{"name":"ZD_STK_DIN_12-AutoClean-1","oid":"625542651","speedLimit":5},"geometry":{"type":"Polygon","coordinates":[[[-68.8260397182658,-21.0057287423332],[-68.8260481824439,-21.0054577013801],[-68.8254484761933,-21.0053351500189],[-68.8253027576737,-21.0055692267339],[-68.8254010575595,-21.005639901634],[-68.8255117651608,-21.0056923203578],[-68.8255518738227,-21.0057060576786],[-68.8256746044042,-21.005726121397],[-68.8257978159049,-21.0057282904476],[-68.8260397182658,-21.0057287423332]]]}},{"type":"Feature","id":"625562777","properties":{"name":"VEL_15 KPH","oid":"625562777","speedLimit":4.1666665},"geometry":{"type":"Polygon","coordinates":[[[-68.8090394166806,-20.9979319994255],[-68.8090856811083,-20.9980065605413],[-68.8087021961329,-20.9982259961645],[-68.8086250566922,-20.99807696431],[-68.8090394166806,-20.9979319994255]]]}},{"type":"Feature","id":"625872519","properties":{"name":"VEL_15_4_ESQ","oid":"625872519","speedLimit":4.1666665},"geometry":{"type":"Polygon","coordinates":[[[-68.8228148664341,-21.0050167514601],[-68.8223759795662,-21.0050688990526],[-68.8224526380877,-21.0048950134929],[-68.8226245186122,-21.0046688899635],[-68.8228174633978,-21.0045421812552],[-68.8230131975149,-21.0044279445881],[-68.8232141255594,-21.0046838021867],[-68.8228148664341,-21.0050167514601]]]}}]}