{"type":"FeatureCollection","features":[{"type":"Feature","id":"553508825","properties":{"name":"ZD_STK_HG_02-AutoClean-1","oid":"553508825","speedLimit":5},"geometry":{"type":"Polygon","coordinates":[[[-68.81572726357,-21.0200492693908],[-68.8159960860818,-21.0199507566932],[-68.8158662433659,-21.01899626807],[-68.8155897264709,-21.0189187232126],[-68.8155458684868,-21.0190271775586],[-68.815514706235,-21.019137439477],[-68.8154876797142,-21.0192527625982],[-68.815484121062,-21.019407129284],[-68.8154894109504,-21.0196067756592],[-68.8154959511761,-21.0196405772637],[-68.8155315376982,-21.0197553581132],[-68.8155925156848,-21.0198600165571],[-68.81572726357,-21.0200492693908]]]}},{"type":"Feature","id":"558966402","properties":{"name":"ZD_STK_BL_02-AutoClean-1","oid":"558966402","speedLimit":5},"geometry":{"type":"Polygon","coordinates":[[[-68.8233381626772,-20.9923439740592],[-68.8235306184361,-20.9921418874612],[-68.8232686246894,-20.9918869293695],[-68.8231546516388,-20.9917782942663],[-68.8230891532021,-20.9917200000553],[-68.8229885491422,-20.9916466126145],[-68.8229583486883,-20.991629531055],[-68.8228460106941,-20.9915739482027],[-68.8227265553954,-20.9915330970657],[-68.8226057535798,-20.9917793788097],[-68.8232121671529,-20.9922469977982],[-68.8233381626772,-20.9923439740592]]]}},{"type":"Feature","id":"570805601","properties":{"name":"ZD_STK_MAR_02-AutoClean-1-tmp-1","oid":"570805601","speedLimit":5},"geometry":{"type":"Polygon","coordinates":[[[-68.8065066033249,-20.9867042576895],[-68.8068587175344,-20.9866986542149],[-68.806863045625,-20.98642751835],[-68.806284428011,-20.9862056388338],[-68.8060021403286,-20.9862616735792],[-68.806010219431,-20.9863763640501],[-68.8060391695476,-20.9864992789756],[-68.8060617717982,-20.9865270252124],[-68.8061471794513,-20.9866149636113],[-68.8062247965415,-20.9866460538571],[-68.8063403084687,-20.9866802169761],[-68.8063880136443,-20.9866893452169],[-68.8065066033249,-20.9867042576895]]]}},{"type":"Feature","id":"592941111","properties":{"name":"INFO_ESTACION","oid":"592941111","speedLimit":5.5555553},"geometry":{"type":"Polygon","coordinates":[[[-68.8219776033742,-21.0107287932757],[-68.8222567171234,-21.0106300998209],[-68.8218339107686,-21.0097466487942],[-68.8212851088894,-21.0090450395543],[-68.8208550890502,-21.0093295514553],[-68.8218665157172,-21.0107674753258],[-68.8219776033742,-21.0107287932757]]]}},{"type":"Feature","id":"600121666","properties":{"name":"ZD_STK_3C_02-AutoClean-1","oid":"600121666","speedLimit":5},"geometry":{"type":"Polygon","coordinates":[[[-68.8050766022137,-20.9853143248671],[-68.8048043172295,-20.9850287284226],[-68.8047715199212,-20.9851912291844],[-68.804788543744,-20.9852995027731],[-68.8050766022137,-20.9853143248671]]]}},{"type":"Feature","id":"602013008","properties":{"name":"ZD_STK_3C_01-AutoClean-1","oid":"602013008","speedLimit":5},"geometry":{"type":"Polygon","coordinates":[[[-68.8048616403841,-20.9854517907506],[-68.8051262309851,-20.9853436979191],[-68.8047554578964,-20.9850903666426],[-68.804742377445,-20.9852501560457],[-68.8047866201482,-20.9853598756924],[-68.8048616403841,-20.9854517907506]]]}},{"type":"Feature","id":"607546676","properties":{"name":"ZD_STK_HG_01-AutoClean-1","oid":"607546676","speedLimit":5},"geometry":{"type":"Polygon","coordinates":[[[-68.8168108250791,-21.0205956985374],[-68.8170918624242,-21.0205346025891],[-68.8173096134678,-21.020399667307],[-68.8171832332243,-21.0201559161644],[-68.8158423907781,-21.0198709523703],[-68.8156213696216,-21.0200452023529],[-68.8156872527775,-21.0201346771883],[-68.8157636195304,-21.0202165602195],[-68.8158068042559,-21.0202528924254],[-68.8158959629208,-21.0203219416924],[-68.8160457148532,-21.0204073494898],[-68.8160972672204,-21.0204291307376],[-68.8163651279343,-21.0205295413863],[-68.8164754461529,-21.0205658735922],[-68.8165909580802,-21.0205920833925],[-68.8168108250791,-21.0205956985374]]]}},{"type":"Feature","id":"619770241","properties":{"name":"VEL_10_KMH_02","oid":"619770241","speedLimit":2.7777777},"geometry":{"type":"Polygon","coordinates":[[[-68.8105590425781,-20.9969859104459],[-68.8103009922027,-20.9972283962878],[-68.8099579188934,-20.9971953177122],[-68.8095883961419,-20.9972696993179],[-68.8095737768138,-20.9969666597995],[-68.8105590425781,-20.9969859104459]]]}},{"type":"Feature","id":"621013260","properties":{"name":"ZD_STK_3C_04_-AutoClean-2","oid":"621013260","speedLimit":5},"geometry":{"type":"Polygon","coordinates":[[[-68.8078272480153,-20.9864034776366],[-68.8079022682511,-20.9861416507697],[-68.8071978474724,-20.9857988446577],[-68.8070035642975,-20.985999214062],[-68.8071214807195,-20.98610884333],[-68.807216794891,-20.9861818692563],[-68.8072750798434,-20.9862210935781],[-68.8073570250241,-20.9862654694813],[-68.8075486151649,-20.9863328919331],[-68.8076658583284,-20.9863716643618],[-68.8078272480153,-20.9864034776366]]]}},{"type":"Feature","id":"621013480","properties":{"name":"ZD_STK_3C_04_-AutoClean-1","oid":"621013480","speedLimit":5},"geometry":{"type":"Polygon","coordinates":[[[-68.8071187876854,-20.9861031494768],[-68.8073251895138,-20.9859136255072],[-68.8070530007094,-20.9855622334263],[-68.8069224847349,-20.9854555866527],[-68.8067220460535,-20.9853447824626],[-68.8066164406445,-20.9853109808581],[-68.806488713884,-20.9855541897289],[-68.8069934654196,-20.9859974064895],[-68.8071187876854,-20.9861031494768]]]}},{"type":"Feature","id":"621174471","properties":{"name":"ZD_STK_MAR_01-AutoClean-1","oid":"621174471","speedLimit":5},"geometry":{"type":"Polygon","coordinates":[[[-68.8069176757454,-20.9870373029103],[-68.8072899877108,-20.9870011514616],[-68.8074494538019,-20.986969518944],[-68.807536688871,-20.9869389709699],[-68.8076426789991,-20.9868705543533],[-68.8076699940594,-20.986850309542],[-68.8077461684527,-20.9867524294948],[-68.8077667509276,-20.9866258090459],[-68.8075061998777,-20.9865093110026],[-68.8068742986604,-20.9867692399184],[-68.8069176757454,-20.9870373029103]]]}},{"type":"Feature","id":"621174472","properties":{"name":"ZD_STK_MAR_01-AutoClean-2","oid":"621174472","speedLimit":5},"geometry":{"type":"Polygon","coordinates":[[[-68.8066082653624,-20.9870640549823],[-68.80695672474,-20.9870616147595],[-68.8069678815956,-20.9867906596518],[-68.8062258545191,-20.9866008645463],[-68.8060456135935,-20.9868126216568],[-68.8061290976508,-20.9868893531066],[-68.8062172945179,-20.986969518944],[-68.8063780109462,-20.9870265478543],[-68.8066082653624,-20.9870640549823]]]}},{"type":"Feature","id":"622898566","properties":{"name":"INFO_RED_VEL_20KPH_902","oid":"622898566","speedLimit":3.6111112},"geometry":{"type":"Polygon","coordinates":[[[-68.8075774691018,-21.000337330494],[-68.8076003598917,-21.0000146788147],[-68.8076815356341,-21.0000010316428],[-68.8078396552081,-21.0005719533958],[-68.8079519932023,-21.0008202234695],[-68.8078021450902,-21.0008886400861],[-68.8075774691018,-21.000337330494]]]}},{"type":"Feature","id":"623520976","properties":{"name":"ZD_STK_DIN_22-AutoClean-1","oid":"623520976","speedLimit":5},"geometry":{"type":"Polygon","coordinates":[[[-68.8242326347201,-21.0047416614843],[-68.824463947114,-21.0045796126157],[-68.8244088360946,-21.004481371054],[-68.8242914005715,-21.004362161652],[-68.8241264522324,-21.004228401292],[-68.8239652549052,-21.0042381621831],[-68.8238800396116,-21.004369572699],[-68.8238585915185,-21.0044900474017],[-68.8242326347201,-21.0047416614843]]]}},{"type":"Feature","id":"623816501","properties":{"name":"ZD_STK_DIN_21-AutoClean-1","oid":"623816501","speedLimit":5},"geometry":{"type":"Polygon","coordinates":[[[-68.8243688253021,-21.004965800466],[-68.8246272603967,-21.0048451450061],[-68.8245924433128,-21.0047421133775],[-68.8244989565574,-21.0046023880284],[-68.8244297071089,-21.0045183359102],[-68.82435151294,-21.004440519917],[-68.824123470659,-21.0046066358236],[-68.8243688253021,-21.004965800466]]]}},{"type":"Feature","id":"623885777","properties":{"name":"VELO_REDUC_15KM_901","oid":"623885777","speedLimit":4.1666665},"geometry":{"type":"Polygon","coordinates":[[[-68.807406461436,-20.9981611036632],[-68.8091219241625,-20.9979167198703],[-68.8077217387861,-20.9991838281458],[-68.8075834322488,-20.9992058805295],[-68.807406461436,-20.9981611036632]]]}},{"type":"Feature","id":"624057522","properties":{"name":"VEL_10KPH","oid":"624057522","speedLimit":2.7777777},"geometry":{"type":"Polygon","coordinates":[[[-68.8103175351265,-21.0009234358554],[-68.810725914513,-21.0014404015712],[-68.8106442578716,-21.0016029927116],[-68.8104544951468,-21.0014584772956],[-68.8102405912949,-21.0011740557732],[-68.810163743643,-21.0009799224939],[-68.8103175351265,-21.0009234358554]]]}},{"type":"Feature","id":"624400171","properties":{"name":"VEL_15KPH","oid":"624400171","speedLimit":4.1666665},"geometry":{"type":"Polygon","coordinates":[[[-68.8092502280018,-21.0025786299323],[-68.8091217318029,-21.0027429382665],[-68.8095052006239,-21.0029943715919],[-68.8096189813149,-21.0028419932358],[-68.8092502280018,-21.0025786299323]]]}},{"type":"Feature","id":"624681300","properties":{"name":"ZD_STK_DIN_13-AutoClean-1","oid":"624681300","speedLimit":5},"geometry":{"type":"Polygon","coordinates":[[[-68.8258513405784,-21.0053890435512],[-68.8259692570004,-21.0053615684503],[-68.8259724309334,-21.0050904325853],[-68.8256182007685,-21.004943838461],[-68.8254166079296,-21.005137790983],[-68.8254848955802,-21.0052317847496],[-68.825623009758,-21.005327224574],[-68.8256807176317,-21.0053584955771],[-68.8258513405784,-21.0053890435512]]]}},{"type":"Feature","id":"624692864","properties":{"name":"TRC_10_02","oid":"624692864","speedLimit":8.333333},"geometry":{"type":"Polygon","coordinates":[[[-68.8246785242245,-21.0141281139933],[-68.8244204738491,-21.011752783059],[-68.8225134209818,-21.0043223046799],[-68.8217157058072,-21.0049648063012],[-68.8232815127812,-21.0138005818684],[-68.8198767482308,-21.0195912305363],[-68.8180396180705,-21.0223314199662],[-68.8152985902479,-21.0232356580758],[-68.8143071689771,-21.023043784262],[-68.8137823158655,-21.0225779728461],[-68.8143071689771,-21.0215915805693],[-68.8152403052954,-21.0193994471012],[-68.816056775529,-21.0179471530298],[-68.8168441032863,-21.0171251594659],[-68.817077339276,-21.0163030755234],[-68.8163775351272,-21.0156454806722],[-68.8159401094443,-21.0158647392083],[-68.8152111628192,-21.0170977747435],[-68.8134031751351,-21.0198652585172],[-68.8123534689118,-21.022495818679],[-68.8188853269601,-21.023427441511],[-68.8207806458931,-21.0210435246076],[-68.8229093931754,-21.0169881454755],[-68.8235228278732,-21.0157190488702],[-68.8246785242245,-21.0141281139933]]]}},{"type":"Feature","id":"624708321","properties":{"name":"ZD_STK_DIN_12-AutoClean-1","oid":"624708321","speedLimit":5},"geometry":{"type":"Polygon","coordinates":[[[-68.8261515177016,-21.0053970872486],[-68.8263124264895,-21.0053559649757],[-68.826416396842,-21.0052895366888],[-68.8263019428924,-21.0050406339648],[-68.8258092138306,-21.0050724472396],[-68.8257832452874,-21.0053424985611],[-68.8261515177016,-21.0053970872486]]]}},{"type":"Feature","id":"624724475","properties":{"name":"TRC_20_01","oid":"624724475","speedLimit":2.7777777},"geometry":{"type":"Polygon","coordinates":[[[-68.8246183156762,-21.0067524954375],[-68.8236417060931,-21.0064501789481],[-68.8232740107576,-21.0066068050994],[-68.8226937580872,-21.0067471630988],[-68.822837354513,-21.0073193501525],[-68.8233372008793,-21.0073355279258],[-68.8240954823402,-21.0074219298881],[-68.8247101673753,-21.0072221931342],[-68.8246183156762,-21.0067524954375]]]}},{"type":"Feature","id":"624737604","properties":{"name":"New Zone1140","oid":"624737604","speedLimit":8.333333},"geometry":{"type":"Polygon","coordinates":[[[-68.8079278520752,-21.0002568935207],[-68.8081705136842,-20.9993011395967],[-68.8085461919422,-20.99883406288],[-68.8097771970688,-20.9983181817076],[-68.8105862614585,-20.9981443836182],[-68.8114878508058,-20.9983398725768],[-68.8114531299018,-20.9987254277768],[-68.8113028970705,-20.9990024382522],[-68.8105457697671,-20.9991979272108],[-68.8100025463157,-20.9994477337211],[-68.8108058399181,-20.999263090197],[-68.811279813921,-20.9993445213351],[-68.8112739469539,-20.9997246538178],[-68.8111006309731,-21.0001157221137],[-68.8104880618934,-21.0005664402999],[-68.8109561689292,-21.0013212825479],[-68.8113837842736,-21.0015874475887],[-68.8118518913093,-21.0016308293271],[-68.8121292738224,-21.001734041713],[-68.811782545681,-21.0022336547335],[-68.8109445311746,-21.0020598566441],[-68.8102163539879,-21.0017557325822],[-68.8098523134844,-21.0013104371133],[-68.8098175925804,-21.0003601059066],[-68.810106612848,-21.0000287778797],[-68.8103031081581,-20.9998604928861],[-68.8098175925804,-21.0000342909756],[-68.809389977236,-21.0001754623826],[-68.8091645318093,-20.9999962415759],[-68.8091703987764,-20.9993988388867],[-68.8096789013238,-20.9990567558038],[-68.8102741580414,-20.9987743226111],[-68.8101586461142,-20.9987037369076],[-68.8095807017587,-20.9988612668452],[-68.8088871492962,-20.9992305538932],[-68.8085519627296,-20.9995401006724],[-68.8084595339518,-21.0001374129829],[-68.8084595339518,-21.0001591942307],[-68.8079278520752,-21.0002568935207]]]}},{"type":"Feature","id":"624741573","properties":{"name":"TRC_10_01","oid":"624741573","speedLimit":8.333333},"geometry":{"type":"Polygon","coordinates":[[[-68.825117969683,-21.0014218739538],[-68.8243585340646,-21.0030532080746],[-68.8230565482534,-21.0039834752273],[-68.8220257894487,-21.0044295841038],[-68.8226632690939,-21.0051049835434],[-68.8233820206613,-21.0043658671755],[-68.8241822365104,-21.0040217053843],[-68.8248738653771,-21.0035756868864],[-68.8260673603857,-21.0029256838395],[-68.8264335168446,-21.0020080696938],[-68.825117969683,-21.0014218739538]]]}},{"type":"Feature","id":"624790435","properties":{"name":"VELO_REDUC_15KM_9011","oid":"624790435","speedLimit":4.1666665},"geometry":{"type":"Polygon","coordinates":[[[-68.8077217387861,-20.9991838281458],[-68.8077046187836,-20.9994471010707],[-68.8077050035028,-20.9997367645531],[-68.8076871140619,-21.000009346476],[-68.807478211559,-21.0000424250515],[-68.8075834322488,-20.9992058805295],[-68.8077217387861,-20.9991838281458]]]}}]}