{"type":"FeatureCollection","features":[{"type":"Feature","id":"553267213","properties":{"name":"ZD_BOT_PAD59_02-AutoClean-1","oid":"553267213","speedLimit":5},"geometry":{"type":"Polygon","coordinates":[[[-68.8183528756451,-20.9849450178829],[-68.8183528756451,-20.9849450178829]]]}},{"type":"Feature","id":"553508825","properties":{"name":"ZD_STK_HG_02-AutoClean-1","oid":"553508825","speedLimit":5},"geometry":{"type":"Polygon","coordinates":[[[-68.81572726357,-21.020049284818],[-68.8159960860818,-21.0199507725284],[-68.8158662433659,-21.0189962878584],[-68.8155897264709,-21.0189187433222],[-68.8155458684868,-21.019027197219],[-68.815514706235,-21.0191374586807],[-68.8154876797142,-21.0192527813243],[-68.815484121062,-21.0194071473707],[-68.8154894109504,-21.0196067929191],[-68.8154959511761,-21.0196405943836],[-68.8155315376982,-21.0197553747577],[-68.8155925156848,-21.0198600327681],[-68.81572726357,-21.020049284818]]]}},{"type":"Feature","id":"558966402","properties":{"name":"ZD_STK_BL_02-AutoClean-1","oid":"558966402","speedLimit":5},"geometry":{"type":"Polygon","coordinates":[[[-68.8233381626772,-20.992344104235],[-68.8235306184361,-20.992142018474],[-68.8232686246894,-20.9918870614383],[-68.8231546516388,-20.991778426785],[-68.8230891532021,-20.9917201328155],[-68.8229885491422,-20.9916467456786],[-68.8229583486883,-20.9916296641899],[-68.8228460106941,-20.9915740815678],[-68.8227265553954,-20.9915332306],[-68.8226057535798,-20.991779511324],[-68.8232121671529,-20.9922471283756],[-68.8233381626772,-20.992344104235]]]}},{"type":"Feature","id":"570805601","properties":{"name":"ZD_STK_MAR_02-AutoClean-1-tmp-1","oid":"570805601","speedLimit":5},"geometry":{"type":"Polygon","coordinates":[[[-68.8065066033249,-20.9867044112236],[-68.8068587175344,-20.9866988077723],[-68.806863045625,-20.9864276730303],[-68.806284428011,-20.9862057944331],[-68.8060021403286,-20.9862618289465],[-68.806010219431,-20.9863765189423],[-68.8060391695476,-20.9864994333587],[-68.8060617717982,-20.9865271794806],[-68.8061471794513,-20.9866151175153],[-68.8062247965415,-20.9866462076324],[-68.8063403084687,-20.9866803706098],[-68.8063880136443,-20.9866894988128],[-68.8065066033249,-20.9867044112236]]]}},{"type":"Feature","id":"592941111","properties":{"name":"INFO_ESTACION","oid":"592941111","speedLimit":5.5555553},"geometry":{"type":"Polygon","coordinates":[[[-68.8219776033742,-21.010728847306],[-68.8222567171234,-21.0106301542599],[-68.8218339107686,-21.0097467068923],[-68.8212851088894,-21.0090451005583],[-68.8208550890502,-21.0093296112809],[-68.8218665157172,-21.0107675291959],[-68.8219776033742,-21.010728847306]]]}},{"type":"Feature","id":"600121666","properties":{"name":"ZD_STK_3C_02-AutoClean-1","oid":"600121666","speedLimit":5},"geometry":{"type":"Polygon","coordinates":[[[-68.8050766022137,-20.985314484158],[-68.8048043172295,-20.9850288888965],[-68.8047715199212,-20.9851913889851],[-68.804788543744,-20.9852996621254],[-68.8050766022137,-20.985314484158]]]}},{"type":"Feature","id":"602013008","properties":{"name":"ZD_STK_3C_01-AutoClean-1","oid":"602013008","speedLimit":5},"geometry":{"type":"Polygon","coordinates":[[[-68.8048616403841,-20.9854519494722],[-68.8051262309851,-20.9853438570884],[-68.8047554578964,-20.9850905268611],[-68.804742377445,-20.9852503156024],[-68.8047866201482,-20.9853600347947],[-68.8048616403841,-20.9854519494722]]]}},{"type":"Feature","id":"607546676","properties":{"name":"ZD_STK_HG_01-AutoClean-1","oid":"607546676","speedLimit":5},"geometry":{"type":"Polygon","coordinates":[[[-68.8168108250791,-21.0205957117013],[-68.8170918624242,-21.0205346160061],[-68.8173096134678,-21.0203996812828],[-68.8171832332243,-21.0201559311498],[-68.8158423907781,-21.019870968536],[-68.8156213696216,-21.0200452177968],[-68.8156872527775,-21.0201346922617],[-68.8157636195304,-21.0202165749538],[-68.8158068042559,-21.0202529070092],[-68.8158959629208,-21.0203219559901],[-68.8160457148532,-21.0204073634339],[-68.8160972672204,-21.0204291445915],[-68.8163651279343,-21.0205295548242],[-68.8164754461529,-21.0205658868797],[-68.8165909580802,-21.0205920965714],[-68.8168108250791,-21.0205957117013]]]}},{"type":"Feature","id":"619770241","properties":{"name":"VEL_10_KMH_02","oid":"619770241","speedLimit":2.7777777},"geometry":{"type":"Polygon","coordinates":[[[-68.8105590425781,-20.9969860213959],[-68.8103009922027,-20.9972285062335],[-68.8099579188934,-20.997195427795],[-68.8095883961419,-20.9972698090925],[-68.8095737768138,-20.9969667708292],[-68.8105590425781,-20.9969860213959]]]}},{"type":"Feature","id":"621013260","properties":{"name":"ZD_STK_3C_04_-AutoClean-2","oid":"621013260","speedLimit":5},"geometry":{"type":"Polygon","coordinates":[[[-68.8078272480153,-20.9864036324165],[-68.8079022682511,-20.986141806634],[-68.8071978474724,-20.9857990019419],[-68.8070035642975,-20.9859993705162],[-68.8071214807195,-20.9861089993302],[-68.807216794891,-20.9861820249541],[-68.8072750798434,-20.9862212491134],[-68.8073570250241,-20.9862656248329],[-68.8075486151649,-20.9863330470054],[-68.8076658583284,-20.9863718192735],[-68.8078272480153,-20.9864036324165]]]}},{"type":"Feature","id":"621013480","properties":{"name":"ZD_STK_3C_04_-AutoClean-1","oid":"621013480","speedLimit":5},"geometry":{"type":"Polygon","coordinates":[[[-68.8071187876854,-20.9861033055007],[-68.8073251895138,-20.985913782316],[-68.8070530007094,-20.9855623916904],[-68.8069224847349,-20.9854557453586],[-68.8067220460535,-20.9853449416274],[-68.8066164406445,-20.9853111401628],[-68.806488713884,-20.9855543480264],[-68.8069934654196,-20.9859975629513],[-68.8071187876854,-20.9861033055007]]]}},{"type":"Feature","id":"621174471","properties":{"name":"ZD_STK_MAR_01-AutoClean-1","oid":"621174471","speedLimit":5},"geometry":{"type":"Polygon","coordinates":[[[-68.8069176757454,-20.987037455065],[-68.8072899877108,-20.9870013037661],[-68.8074494538019,-20.9869696713795],[-68.807536688871,-20.9869391235319],[-68.8076426789991,-20.9868707071987],[-68.8076699940594,-20.9868504624713],[-68.8077461684527,-20.9867525828294],[-68.8077667509276,-20.986625962905],[-68.8075061998777,-20.9865094653441],[-68.8068742986604,-20.9867693931835],[-68.8069176757454,-20.987037455065]]]}},{"type":"Feature","id":"621174472","properties":{"name":"ZD_STK_MAR_01-AutoClean-2","oid":"621174472","speedLimit":5},"geometry":{"type":"Polygon","coordinates":[[[-68.8066082653624,-20.9870642070262],[-68.80695672474,-20.9870617668136],[-68.8069678815956,-20.9867908128281],[-68.8062258545191,-20.9866010185087],[-68.8060456135935,-20.9868127747422],[-68.8061290976508,-20.9868895058742],[-68.8062172945179,-20.9869696713795],[-68.8063780109462,-20.9870267000536],[-68.8066082653624,-20.9870642070262]]]}},{"type":"Feature","id":"622898566","properties":{"name":"INFO_RED_VEL_20KPH_902","oid":"622898566","speedLimit":3.6111112},"geometry":{"type":"Polygon","coordinates":[[[-68.8075774691018,-21.0003374275632],[-68.8076003598917,-21.0000147772203],[-68.8076815356341,-21.0000011301049],[-68.8078396552081,-21.0005720494933],[-68.8079519932023,-21.0008203185387],[-68.8078021450902,-21.0008887348719],[-68.8075774691018,-21.0003374275632]]]}},{"type":"Feature","id":"623520976","properties":{"name":"ZD_STK_DIN_22-AutoClean-1","oid":"623520976","speedLimit":5},"geometry":{"type":"Polygon","coordinates":[[[-68.8242326347201,-21.0047417403119],[-68.824463947114,-21.0045796921144],[-68.8244088360946,-21.0044814509596],[-68.8242914005715,-21.0043622420514],[-68.8241264522324,-21.0042284822453],[-68.8239652549052,-21.004238243096],[-68.8238800396116,-21.0043696530677],[-68.8238585915185,-21.0044901272714],[-68.8242326347201,-21.0047417403119]]]}},{"type":"Feature","id":"623816501","properties":{"name":"ZD_STK_DIN_21-AutoClean-1","oid":"623816501","speedLimit":5},"geometry":{"type":"Polygon","coordinates":[[[-68.8243688253021,-21.0049658783653],[-68.8246272603967,-21.0048452234051],[-68.8245924433128,-21.0047421922031],[-68.8244989565574,-21.0046024674328],[-68.8244297071089,-21.0045184156628],[-68.82435151294,-21.0044405999918],[-68.824123470659,-21.0046067152104],[-68.8243688253021,-21.0049658783653]]]}},{"type":"Feature","id":"623885777","properties":{"name":"VELO_REDUC_15KM_901","oid":"623885777","speedLimit":4.1666665},"geometry":{"type":"Polygon","coordinates":[[[-68.807406461436,-20.9981612097459],[-68.8091219241625,-20.9979168269651],[-68.8077217387861,-20.9991839299926],[-68.8075834322488,-20.999205982285],[-68.807406461436,-20.9981612097459]]]}},{"type":"Feature","id":"624057522","properties":{"name":"VEL_10KPH","oid":"624057522","speedLimit":2.7777777},"geometry":{"type":"Polygon","coordinates":[[[-68.8103175351265,-21.0009235304971],[-68.810725914513,-21.0014404940718],[-68.8106442578716,-21.0016030845388],[-68.8104544951468,-21.0014585697213],[-68.8102405912949,-21.001174149377],[-68.810163743643,-21.0009800169017],[-68.8103175351265,-21.0009235304971]]]}},{"type":"Feature","id":"624400171","properties":{"name":"VEL_15KPH","oid":"624400171","speedLimit":4.1666665},"geometry":{"type":"Polygon","coordinates":[[[-68.8092502280018,-21.0025787177187],[-68.8091217318029,-21.0027430253723],[-68.8095052006239,-21.0029944576564],[-68.8096189813149,-21.0028420799314],[-68.8092502280018,-21.0025787177187]]]}},{"type":"Feature","id":"624681300","properties":{"name":"ZD_STK_DIN_13-AutoClean-1","oid":"624681300","speedLimit":5},"geometry":{"type":"Polygon","coordinates":[[[-68.8258513405784,-21.0053891196975],[-68.8259692570004,-21.0053616447103],[-68.8259724309334,-21.0050905099683],[-68.8256182007685,-21.0049439164512],[-68.8254166079296,-21.0051378681699],[-68.8254848955802,-21.0052318615472],[-68.825623009758,-21.0053273009763],[-68.8256807176317,-21.0053585718499],[-68.8258513405784,-21.0053891196975]]]}},{"type":"Feature","id":"624692864","properties":{"name":"TRC_10_02","oid":"624692864","speedLimit":8.333333},"geometry":{"type":"Polygon","coordinates":[[[-68.8246785242245,-21.0141281539444],[-68.8244204738491,-21.0117528328482],[-68.8225134209818,-21.0043223852443],[-68.8217157058072,-21.0049648842046],[-68.8232815127812,-21.0138006231761],[-68.8198767482308,-21.0195912478605],[-68.8180396180705,-21.0223314259412],[-68.8152985902479,-21.0232356603057],[-68.8143071689771,-21.0230437872866],[-68.8137823158655,-21.0225779777999],[-68.8143071689771,-21.0215915896086],[-68.8152403052954,-21.0193994652197],[-68.816056775529,-21.0179471771634],[-68.8168441032863,-21.017125187004],[-68.817077339276,-21.0163031064663],[-68.8163775351272,-21.0156455143388],[-68.8159401094443,-21.0158647719668],[-68.8152111628192,-21.017097802395],[-68.8134031751351,-21.0198652747064],[-68.8123534689118,-21.0224958239731],[-68.8188853269601,-21.0234274429465],[-68.8207806458931,-21.0210435359168],[-68.8229093931754,-21.016988173581],[-68.8235228278732,-21.0157190822321],[-68.8246785242245,-21.0141281539444]]]}},{"type":"Feature","id":"624708321","properties":{"name":"ZD_STK_DIN_12-AutoClean-1","oid":"624708321","speedLimit":5},"geometry":{"type":"Polygon","coordinates":[[[-68.8261515177016,-21.0053971633615],[-68.8263124264895,-21.005356041259],[-68.826416396842,-21.0052896132472],[-68.8263019428924,-21.0050407115541],[-68.8258092138306,-21.0050725246971],[-68.8257832452874,-21.0053425749001],[-68.8261515177016,-21.0053971633615]]]}},{"type":"Feature","id":"624724475","properties":{"name":"TRC_20_01","oid":"624724475","speedLimit":2.7777777},"geometry":{"type":"Polygon","coordinates":[[[-68.8246183156762,-21.0067525659367],[-68.8236417060931,-21.0064502506994],[-68.8232740107576,-21.006606876202],[-68.8226937580872,-21.0067472336201],[-68.822837354513,-21.0073194183039],[-68.8233372008793,-21.0073355960102],[-68.8240954823402,-21.0074219976146],[-68.8247101673753,-21.007222261688],[-68.8246183156762,-21.0067525659367]]]}},{"type":"Feature","id":"624737604","properties":{"name":"New Zone1140","oid":"624737604","speedLimit":8.333333},"geometry":{"type":"Polygon","coordinates":[[[-68.8079278520752,-21.0002569909231],[-68.8081705136842,-20.9993012409576],[-68.8085461919422,-20.9988341661755],[-68.8097771970688,-20.9983182871397],[-68.8105862614585,-20.9981444897701],[-68.8114878508058,-20.9983399779191],[-68.8114531299018,-20.9987255315222],[-68.8113028970705,-20.9990025408502],[-68.8105457697671,-20.9991980289992],[-68.8100025463157,-20.9994478344748],[-68.8108058399181,-20.9992631917155],[-68.811279813921,-20.9993446225164],[-68.8112739469539,-20.9997247534246],[-68.8111006309731,-21.0001158201008],[-68.8104880618934,-21.0005665364202],[-68.8109561689292,-21.0013213755419],[-68.8113837842736,-21.0015875394802],[-68.8118518913093,-21.001630921039],[-68.8121292738224,-21.0017341329974],[-68.811782545681,-21.0022337439486],[-68.8109445311746,-21.002059946579],[-68.8102163539879,-21.0017558237768],[-68.8098523134844,-21.0013105301522],[-68.8098175925804,-21.0003602028816],[-68.810106612848,-21.0000288762269],[-68.8103031081581,-20.9998605919303],[-68.8098175925804,-21.0000343892999],[-68.809389977236,-21.0001755601223],[-68.8091645318093,-20.9999963400578],[-68.8091703987764,-20.999398939843],[-68.8096789013238,-20.9990568581769],[-68.8102741580414,-20.998774426154],[-68.8101586461142,-20.9987038407428],[-68.8095807017587,-20.9988613700279],[-68.8088871492962,-20.9992306555465],[-68.8085519627296,-20.9995402010436],[-68.8084595339518,-21.0001375108801],[-68.8084595339518,-21.0001592920378],[-68.8079278520752,-21.0002569909231]]]}},{"type":"Feature","id":"624741573","properties":{"name":"TRC_10_01","oid":"624741573","speedLimit":8.333333},"geometry":{"type":"Polygon","coordinates":[[[-68.825117969683,-21.0014219665311],[-68.8243585340646,-21.0030532938954],[-68.8230565482534,-21.0039835571951],[-68.8220257894487,-21.0044296642239],[-68.8226632690939,-21.0051050608662],[-68.8233820206613,-21.0043659475595],[-68.8241822365104,-21.0040217871937],[-68.8248738653771,-21.0035757705432],[-68.8260673603857,-21.0029257701884],[-68.8264335168446,-21.0020081598433],[-68.825117969683,-21.0014219665311]]]}},{"type":"Feature","id":"624790435","properties":{"name":"VELO_REDUC_15KM_9011","oid":"624790435","speedLimit":4.1666665},"geometry":{"type":"Polygon","coordinates":[[[-68.8077217387861,-20.9991839299926],[-68.8077046187836,-20.9994472018271],[-68.8077050035028,-20.9997368641098],[-68.8076871140619,-21.0000094449037],[-68.807478211559,-21.0000425233422],[-68.8075834322488,-20.999205982285],[-68.8077217387861,-20.9991839299926]]]}}]}