{"type":"FeatureCollection","features":[{"type":"Feature","id":"553508825","properties":{"name":"ZD_STK_HG_02-AutoClean-1","oid":"553508825","speedLimit":5},"geometry":{"type":"Polygon","coordinates":[[[-68.816372833367,-21.0204836474365],[-68.8164575711884,-21.020224439171],[-68.8158827775216,-21.01970764947],[-68.8156045181378,-21.0197795011336],[-68.8156396251807,-21.0200165664336],[-68.815718976716,-21.0201498761239],[-68.8157859205567,-21.0202107918739],[-68.8159805001397,-21.0203629908694],[-68.8161241985564,-21.0204332157029],[-68.816372833367,-21.0204836474365]]]}},{"type":"Feature","id":"558966402","properties":{"name":"ZD_STK_BL_02-AutoClean-1","oid":"558966402","speedLimit":5},"geometry":{"type":"Polygon","coordinates":[[[-68.8233376859436,-20.9923439149788],[-68.8235301494857,-20.9921418265263],[-68.8232681451436,-20.9918868660949],[-68.8231541674838,-20.9917782299948],[-68.8230886663982,-20.9917199352489],[-68.8229880582698,-20.9916465471346],[-68.8229578565946,-20.9916294654184],[-68.8228455140573,-20.991573882056],[-68.8227260539277,-20.9915330305441],[-68.8226052472267,-20.9917793145482],[-68.8232116853239,-20.9922469378278],[-68.8233376859436,-20.9923439149788]]]}},{"type":"Feature","id":"570805601","properties":{"name":"ZD_STK_MAR_02-AutoClean-1-tmp-1","oid":"570805601","speedLimit":5},"geometry":{"type":"Polygon","coordinates":[[[-68.806505445904,-20.986704146855],[-68.8068575743534,-20.9866985433291],[-68.806861902619,-20.986427404976],[-68.8062832616051,-20.9862055234237],[-68.8060009625067,-20.9862615586833],[-68.8060090419357,-20.9863762502067],[-68.8060379932232,-20.9864991662601],[-68.8060605963878,-20.9865269127516],[-68.8061460074949,-20.9866148519574],[-68.806223627724,-20.9866459424886],[-68.8063391443227,-20.986680105921],[-68.8063868514275,-20.9866892342456],[-68.806505445904,-20.986704146855]]]}},{"type":"Feature","id":"592941111","properties":{"name":"INFO_ESTACION","oid":"592941111","speedLimit":5.5555553},"geometry":{"type":"Polygon","coordinates":[[[-68.8203801339926,-21.0085318688323],[-68.8205724051673,-21.0083571653534],[-68.8202326844124,-21.0080439101762],[-68.8198864231674,-21.0076945032185],[-68.8195082289409,-21.0078450753839],[-68.8202902984363,-21.0086041723931],[-68.8203801339926,-21.0085318688323]]]}},{"type":"Feature","id":"600880362","properties":{"name":"VEL_15_KPH_RC_002","oid":"600880362","speedLimit":4.1666665},"geometry":{"type":"Polygon","coordinates":[[[-68.8105519894706,-21.0009334876252],[-68.8108667024689,-21.0010321819858],[-68.810790813546,-21.0012908479746],[-68.8107812913618,-21.0014305746059],[-68.8108330381812,-21.0015374934965],[-68.8109932801907,-21.0015603594976],[-68.8111193769941,-21.0015663245414],[-68.8112139255507,-21.0015958786219],[-68.8112013254887,-21.0017617249145],[-68.8110280986825,-21.0019388686385],[-68.8103194173344,-21.0017486198941],[-68.8102529544121,-21.0013324225221],[-68.8103763580724,-21.0008449157632],[-68.8105519894706,-21.0009334876252]]]}},{"type":"Feature","id":"603087867","properties":{"name":"ZD_BOT_NRT_04-AutoClean-1","oid":"603087867","speedLimit":5},"geometry":{"type":"Polygon","coordinates":[[[-68.793371372145,-20.9926181262332],[-68.7935191102762,-20.9926173128181],[-68.7935321912566,-20.9926149629524],[-68.7937934261292,-20.9925332599287],[-68.7937039753076,-20.9922754977343],[-68.7925573696681,-20.9917799472043],[-68.7923454770229,-20.9919640501461],[-68.792656919776,-20.9923598217622],[-68.7927697432317,-20.9924565277748],[-68.7929884649182,-20.9925626332503],[-68.7931378381719,-20.9926052923511],[-68.793371372145,-20.9926181262332]]]}},{"type":"Feature","id":"604050980","properties":{"name":"VEL_10_KPH_901_002","oid":"604050980","speedLimit":2.7777777},"geometry":{"type":"Polygon","coordinates":[[[-68.8165627961334,-21.0014697089082],[-68.816651669853,-21.001641791383],[-68.8167050517949,-21.0018354745465],[-68.8164769041079,-21.0018661131804],[-68.8161718094776,-21.0020007785625],[-68.8160296499998,-21.0020559100276],[-68.8157257095736,-21.0021027265832],[-68.8153311641216,-21.0021209832323],[-68.8151693831732,-21.0018772298529],[-68.8151771740512,-21.0017248500985],[-68.8151911206847,-21.001659234617],[-68.8153477077144,-21.0016644766252],[-68.8155853775856,-21.0016775816456],[-68.8158342047637,-21.0016775816456],[-68.8159767489762,-21.0016512812253],[-68.8161305466792,-21.0015777123522],[-68.8165627961334,-21.0014697089082]]]}},{"type":"Feature","id":"606156222","properties":{"name":"VEL_30KMH","oid":"606156222","speedLimit":8.333333},"geometry":{"type":"Polygon","coordinates":[[[-68.8182928519708,-21.0229233503376],[-68.8181904163525,-21.0230008959066],[-68.8182818870314,-21.0230993191288],[-68.8184122159166,-21.0230222254571],[-68.8182928519708,-21.0229233503376]]]}},{"type":"Feature","id":"606156969","properties":{"name":"VEL_30KMH_2","oid":"606156969","speedLimit":8.333333},"geometry":{"type":"Polygon","coordinates":[[[-68.813189826872,-21.0229398897772],[-68.8130275650053,-21.0229705284111],[-68.8130898920294,-21.023118389193],[-68.8132435935487,-21.0230762723688],[-68.813189826872,-21.0229398897772]]]}},{"type":"Feature","id":"606157392","properties":{"name":"VEL_20KH","oid":"606157392","speedLimit":5.5555553},"geometry":{"type":"Polygon","coordinates":[[[-68.8236966434343,-21.0147530479645],[-68.8235411144251,-21.014663572308],[-68.8233971274574,-21.0148782235042],[-68.8235593893241,-21.0149642647416],[-68.8236966434343,-21.0147530479645]]]}},{"type":"Feature","id":"606157536","properties":{"name":"VEL_20KMH_2","oid":"606157536","speedLimit":5.5555553},"geometry":{"type":"Polygon","coordinates":[[[-68.8218515519167,-21.0175109769127],[-68.821692271744,-21.0174470786408],[-68.8216059949837,-21.0176133768307],[-68.8217501743188,-21.0176846862176],[-68.8218515519167,-21.0175109769127]]]}},{"type":"Feature","id":"606221546","properties":{"name":"ZD_BOT_NRT_03-AutoClean-1","oid":"606221546","speedLimit":5},"geometry":{"type":"Polygon","coordinates":[[[-68.7924214621294,-20.9920471088616],[-68.7926611518579,-20.9918960847989],[-68.7924829235004,-20.990410246624],[-68.7922826690804,-20.9902149366303],[-68.7921785983395,-20.990274587068],[-68.7920969383959,-20.9903583688191],[-68.7920749123334,-20.9904031066474],[-68.7920729886598,-20.9914827795694],[-68.7922242855871,-20.9917775973386],[-68.7922894019379,-20.9918688805842],[-68.7923546144724,-20.991958627379],[-68.7924214621294,-20.9920471088616]]]}},{"type":"Feature","id":"606796346","properties":{"name":"ZD_STK_HG_03-AutoClean-1","oid":"606796346","speedLimit":5},"geometry":{"type":"Polygon","coordinates":[[[-68.8156300068128,-21.0198923850679],[-68.8158932615427,-21.019781399102],[-68.815952510689,-21.0188818524259],[-68.8157028178579,-21.0187459217316],[-68.81562365869,-21.0188352166292],[-68.8155680645234,-21.0189393337568],[-68.8155581576044,-21.0189805467864],[-68.8155117970711,-21.019189865595],[-68.8155018901521,-21.0194161757404],[-68.8155118932547,-21.0196451068899],[-68.8155635438905,-21.0197951367786],[-68.8156300068128,-21.0198923850679]]]}},{"type":"Feature","id":"607457029","properties":{"name":"ZD_STK_DIN_21-AutoClean-1","oid":"607457029","speedLimit":5},"geometry":{"type":"Polygon","coordinates":[[[-68.8238705435263,-21.0061474781552],[-68.8239777883286,-21.0060044074842],[-68.8239699974505,-21.0058929696211],[-68.8238300501973,-21.0057714092595],[-68.8237240557829,-21.0056969365918],[-68.8236212354298,-21.0056335805966],[-68.8234364665821,-21.0058418148518],[-68.8235996902857,-21.0060540258028],[-68.8237298268036,-21.0061431399415],[-68.8238705435263,-21.0061474781552]]]}},{"type":"Feature","id":"607546676","properties":{"name":"ZD_STK_HG_01-AutoClean-1","oid":"607546676","speedLimit":5},"geometry":{"type":"Polygon","coordinates":[[[-68.8167378504295,-21.020563090974],[-68.8169103077663,-21.0205567644124],[-68.816971865321,-21.0205543241672],[-68.8171381669023,-21.0205146475882],[-68.8172381017449,-21.020449484004],[-68.8173263021787,-21.0203770900638],[-68.8171669258224,-21.0201510510567],[-68.816369563122,-21.020202205826],[-68.8162890573825,-21.0204625890244],[-68.8165071057832,-21.0205377847277],[-68.81667773563,-21.0205618256617],[-68.8167378504295,-21.020563090974]]]}},{"type":"Feature","id":"607691021","properties":{"name":"VEL_13_KPH_901_001","oid":"607691021","speedLimit":3.6111112},"geometry":{"type":"Polygon","coordinates":[[[-68.8149047818718,-21.00178386788],[-68.8151905435826,-21.0021621058826],[-68.8145360136458,-21.00256917493],[-68.8143301805724,-21.0021418608855],[-68.8149047818718,-21.00178386788]]]}},{"type":"Feature","id":"608715834","properties":{"name":"INFO_RESTRICCION VELOCIDAD","oid":"608715834","speedLimit":2.7777777},"geometry":{"type":"Polygon","coordinates":[[[-68.8173465007514,-21.0014948343956],[-68.8174917381069,-21.0011492233749],[-68.8172408910716,-21.0010729431182],[-68.8167297710005,-21.0012285765329],[-68.8166070406258,-21.0014558808522],[-68.8164617070866,-21.0015480678923],[-68.8158109283133,-21.0017306343833],[-68.8158505559891,-21.0019646267821],[-68.8165391349484,-21.0018387282068],[-68.8170767055313,-21.0017767279034],[-68.8173993055912,-21.0016384473433],[-68.8173465007514,-21.0014948343956]]]}},{"type":"Feature","id":"610258504","properties":{"name":"ZD_STK_MAR_01-AutoClean-1","oid":"610258504","speedLimit":5},"geometry":{"type":"Polygon","coordinates":[[[-68.8066185579107,-20.9870422563813],[-68.8067988061254,-20.9870354779225],[-68.8070082941787,-20.9869730257218],[-68.8069512572569,-20.9867073101358],[-68.806254214134,-20.9865788809359],[-68.8060332802229,-20.9867532228969],[-68.8060898362262,-20.98685643623],[-68.8062189147237,-20.9869609148754],[-68.8062832616051,-20.9869832385998],[-68.8064446578187,-20.9870364720965],[-68.8066185579107,-20.9870422563813]]]}},{"type":"Feature","id":"610291621","properties":{"name":"ZD_STK_MAR_02-AutoClean-1","oid":"610291621","speedLimit":5},"geometry":{"type":"Polygon","coordinates":[[[-68.8068599789454,-20.9870357490609],[-68.8070899541223,-20.9870187577241],[-68.8072605839692,-20.9869947167901],[-68.8074343878774,-20.9869505212385],[-68.807585011519,-20.9868739698435],[-68.8077469848348,-20.9867121002467],[-68.8075555793132,-20.9865091983792],[-68.8068094825138,-20.9867687681625],[-68.8068599789454,-20.9870357490609]]]}},{"type":"Feature","id":"610367080","properties":{"name":"ZD_STK_MAR_03-AutoClean-1","oid":"610367080","speedLimit":5},"geometry":{"type":"Polygon","coordinates":[[[-68.8077179373637,-20.9864283991499],[-68.8080034105235,-20.9863889937093],[-68.8079830195835,-20.986170727335],[-68.8079346391928,-20.9860150939204],[-68.8078446112692,-20.9858165302665],[-68.8075712572529,-20.9859033849189],[-68.8077179373637,-20.9864283991499]]]}},{"type":"Feature","id":"610544737","properties":{"name":"ZD_STK_DIN_22.-AutoClean-1","oid":"610544737","speedLimit":5},"geometry":{"type":"Polygon","coordinates":[[[-68.8235458274254,-21.0058870045773],[-68.823733000865,-21.0056806682906],[-68.8236561501054,-21.0055957116067],[-68.8235618900998,-21.0055261194294],[-68.8234507979504,-21.0054689092369],[-68.8233346080659,-21.0054589674972],[-68.8232808413892,-21.0054650229205],[-68.8231659018926,-21.0055121106144],[-68.8230729884585,-21.0055735686411],[-68.82319485318,-21.0058193103685],[-68.8235458274254,-21.0058870045773]]]}},{"type":"Feature","id":"610786215","properties":{"name":"VELO_20KH_","oid":"610786215","speedLimit":5.5555553},"geometry":{"type":"Polygon","coordinates":[[[-68.8056807670387,-21.0009149598378],[-68.8049522718526,-21.0015778931111],[-68.8050670189819,-21.0009149598378],[-68.8053366218346,-21.0006130924713],[-68.8060250084265,-21.0001765597229],[-68.8061569724343,-20.9995997580664],[-68.8062429606435,-20.9994110457726],[-68.8064552380234,-20.9994919353813],[-68.806351936752,-21.0002466037974],[-68.8059503698914,-21.0006239380055],[-68.8056807670387,-21.0009149598378]]]}},{"type":"Feature","id":"610889233","properties":{"name":"VEL_15_KMH","oid":"610889233","speedLimit":4.1666665},"geometry":{"type":"Polygon","coordinates":[[[-68.8112876984326,-20.9971970203608],[-68.8112720204929,-20.9974135695254],[-68.8100070127444,-20.9973282513236],[-68.8100475060733,-20.9971703584227],[-68.8105483344908,-20.9971297780492],[-68.8112876984326,-20.9971970203608]]]}}]}