{"type":"FeatureCollection","features":[{"type":"Feature","id":"553267213","properties":{"name":"ZD_BOT_PAD59_02-AutoClean-1","oid":"553267213","speedLimit":5},"geometry":{"type":"Polygon","coordinates":[[[-68.8183521258089,-20.9849455473307],[-68.8183521258089,-20.9849455473307]]]}},{"type":"Feature","id":"553508825","properties":{"name":"ZD_STK_HG_02-AutoClean-1","oid":"553508825","speedLimit":5},"geometry":{"type":"Polygon","coordinates":[[[-68.815726403415,-21.0200494344726],[-68.8159952372218,-21.0199509232488],[-68.8158653890504,-21.0189964489053],[-68.8155888605372,-21.0189189052081],[-68.8155450007104,-21.0190273579315],[-68.8155138371493,-21.0191376182003],[-68.8154868094928,-21.0192529395963],[-68.8154832506911,-21.0194073039726],[-68.8154885408018,-21.019606947361],[-68.8154950813023,-21.0196407484598],[-68.8155306693196,-21.0197555275921],[-68.8155916498683,-21.0198601844702],[-68.815726403415,-21.0200494344726]]]}},{"type":"Feature","id":"558966402","properties":{"name":"ZD_STK_BL_02-AutoClean-1","oid":"558966402","speedLimit":5},"geometry":{"type":"Polygon","coordinates":[[[-68.8233376223047,-20.992344553632],[-68.8235300861499,-20.9921424700574],[-68.8232680813952,-20.9918875157801],[-68.8231541035558,-20.9917788823021],[-68.8230886023671,-20.9917205889632],[-68.8229879940802,-20.9916472026204],[-68.8229577923574,-20.9916301213165],[-68.8228454496431,-20.9915745392957],[-68.8227259893254,-20.9915336887699],[-68.8226051824341,-20.9917799668293],[-68.8232116214865,-20.9922475788218],[-68.8233376223047,-20.992344553632]]]}},{"type":"Feature","id":"570805601","properties":{"name":"ZD_STK_MAR_02-AutoClean-1-tmp-1","oid":"570805601","speedLimit":5},"geometry":{"type":"Polygon","coordinates":[[[-68.8065053557512,-20.9867049216365],[-68.8068574847554,-20.9866993182458],[-68.8068618130277,-20.9864281864372],[-68.8062831711024,-20.9862063102406],[-68.8060008715593,-20.9862623441477],[-68.8060089510011,-20.9863770329027],[-68.8060379023341,-20.9864999459893],[-68.8060605055343,-20.986527691811],[-68.806145916776,-20.9866156288942],[-68.8062235371273,-20.986646718675],[-68.806339053908,-20.9866808812828],[-68.806386761088,-20.9866900093871],[-68.8065053557512,-20.9867049216365]]]}},{"type":"Feature","id":"592941111","properties":{"name":"INFO_ESTACION","oid":"592941111","speedLimit":5.5555553},"geometry":{"type":"Polygon","coordinates":[[[-68.8219770058359,-21.0107290977984],[-68.8222561313125,-21.0106304058201],[-68.8218333071928,-21.0097469680105],[-68.821284482255,-21.0090453692672],[-68.820854444348,-21.0093298769117],[-68.8218659135114,-21.0107677792698],[-68.8219770058359,-21.0107290977984]]]}},{"type":"Feature","id":"600121666","properties":{"name":"ZD_STK_3C_02-AutoClean-1","oid":"600121666","speedLimit":5},"geometry":{"type":"Polygon","coordinates":[[[-68.8050752945566,-20.9853150096085],[-68.804802998132,-20.9850294174368],[-68.8047701994457,-20.9851919157674],[-68.8047872239837,-20.9853001877363],[-68.8050752945566,-20.9853150096085]]]}},{"type":"Feature","id":"602013008","properties":{"name":"ZD_STK_3C_01-AutoClean-1","oid":"602013008","speedLimit":5},"geometry":{"type":"Polygon","coordinates":[[[-68.804860323695,-20.9854524734355],[-68.8051249254132,-20.9853443822211],[-68.804754136746,-20.9850910547346],[-68.804741055745,-20.9852508417472],[-68.8047853003071,-20.9853605597524],[-68.804860323695,-20.9854524734355]]]}},{"type":"Feature","id":"607546676","properties":{"name":"ZD_STK_HG_01-AutoClean-1","oid":"607546676","speedLimit":5},"geometry":{"type":"Polygon","coordinates":[[[-68.8168100104516,-21.0205958554441],[-68.8170910596048,-21.0205347604099],[-68.8173088197975,-21.0203998271465],[-68.817182434244,-21.0201560796506],[-68.8158415354604,-21.0198711201198],[-68.8156205050175,-21.0200453674954],[-68.8156863909415,-21.0201348409923],[-68.815762760903,-21.0202167227985],[-68.815805947443,-21.0202530544608],[-68.8158951098541,-21.0203221026947],[-68.8160448680784,-21.0204075092144],[-68.8160964226117,-21.0204292901364],[-68.8163642945802,-21.0205296992828],[-68.816474617434,-21.0205660309452],[-68.8165901342146,-21.0205922403533],[-68.8168100104516,-21.0205958554441]]]}},{"type":"Feature","id":"619770241","properties":{"name":"VEL_10_KMH_02","oid":"619770241","speedLimit":2.7777777},"geometry":{"type":"Polygon","coordinates":[[[-68.8105579652733,-20.996986420572],[-68.8102999040555,-20.9972289027862],[-68.8099568163315,-20.9971958247055],[-68.809587278054,-20.9972702051983],[-68.8095726581117,-20.9969671702136],[-68.8105579652733,-20.996986420572]]]}},{"type":"Feature","id":"620970737","properties":{"name":"ZD_BOT_NRT_02-AutoClean-1","oid":"620970737","speedLimit":5},"geometry":{"type":"Polygon","coordinates":[[[-68.793702806968,-20.990384903297],[-68.7937896609672,-20.9901263339289],[-68.7936820312606,-20.9900861160439]]]}},{"type":"Feature","id":"621174471","properties":{"name":"ZD_STK_MAR_01-AutoClean-1","oid":"621174471","speedLimit":5},"geometry":{"type":"Polygon","coordinates":[[[-68.8069164454436,-20.9870379618747],[-68.8072887730522,-20.9870018109669],[-68.8074482458434,-20.9869701789226],[-68.8075354845778,-20.9869396314055],[-68.8076414791593,-20.9868712158125],[-68.8076687953672,-20.9868509713041],[-68.8077449729611,-20.9867530927212],[-68.8077655563008,-20.9866264741666],[-68.8075049943035,-20.9865099778662],[-68.8068730665359,-20.9867699028933],[-68.8069164454436,-20.9870379618747]]]}},{"type":"Feature","id":"621174472","properties":{"name":"ZD_STK_MAR_01-AutoClean-2","oid":"621174472","speedLimit":5},"geometry":{"type":"Polygon","coordinates":[[[-68.8066070220603,-20.9870647135465],[-68.8069554960788,-20.9870622733602],[-68.8069666534032,-20.9867913223062],[-68.8062245951495,-20.9866015300402],[-68.8060443466508,-20.9868132839827],[-68.8061278342158,-20.9868900142845],[-68.8062160347885,-20.9869701789226],[-68.8063767579696,-20.9870272069796],[-68.8066070220603,-20.9870647135465]]]}},{"type":"Feature","id":"622898566","properties":{"name":"INFO_RED_VEL_20KPH_902","oid":"622898566","speedLimit":3.6111112},"geometry":{"type":"Polygon","coordinates":[[[-68.8075762665221,-21.0003377904805],[-68.8075991582738,-21.0000151436283],[-68.8076803374269,-21.0000014966606],[-68.8078384636445,-21.0005724098722],[-68.8079508063588,-21.0008206762315],[-68.8078009519505,-21.0008890918246],[-68.8075762665221,-21.0003377904805]]]}},{"type":"Feature","id":"623520976","properties":{"name":"ZD_STK_DIN_22-AutoClean-1","oid":"623520976","speedLimit":5},"geometry":{"type":"Polygon","coordinates":[[[-68.8244333485039,-21.0046090202381],[-68.8247114159584,-21.0045364472907],[-68.8247089151788,-21.0044192279721],[-68.8246340841585,-21.0042752569818],[-68.8245089489948,-21.0041420408865],[-68.8243598640572,-21.0040618762484],[-68.824235594548,-21.0040552787078],[-68.8241432580706,-21.0043121309078],[-68.8244333485039,-21.0046090202381]]]}},{"type":"Feature","id":"623885777","properties":{"name":"VELO_REDUC_15KM_901","oid":"623885777","speedLimit":4.1666665},"geometry":{"type":"Polygon","coordinates":[[[-68.8074052516711,-20.9981615962076],[-68.809969608781,-20.9974713850003],[-68.8094215533137,-20.9981522873489],[-68.8075822299196,-20.9992063574433],[-68.8074052516711,-20.9981615962076]]]}},{"type":"Feature","id":"624057522","properties":{"name":"VEL_10KPH","oid":"624057522","speedLimit":2.7777777},"geometry":{"type":"Polygon","coordinates":[[[-68.8103154858361,-21.0005566842273],[-68.810441101919,-21.0009716062716],[-68.8108462282138,-21.0014283729918],[-68.8105180489835,-21.0017366498582],[-68.8100643498542,-21.0013180223457],[-68.8098455316394,-21.0004729044984],[-68.8103154858361,-21.0005566842273]]]}},{"type":"Feature","id":"624400171","properties":{"name":"VEL_15KPH","oid":"624400171","speedLimit":4.1666665},"geometry":{"type":"Polygon","coordinates":[[[-68.8092490957053,-21.0025790563874],[-68.8091205941075,-21.0027433622634],[-68.8095040790405,-21.0029947918272],[-68.8096178645122,-21.0028424157508],[-68.8092490957053,-21.0025790563874]]]}},{"type":"Feature","id":"624790435","properties":{"name":"VELO_REDUC_15KM_9011","oid":"624790435","speedLimit":4.1666665},"geometry":{"type":"Polygon","coordinates":[[[-68.8077205422681,-20.9991843053896],[-68.8077034215462,-20.9994475743757],[-68.8077038062816,-20.9997372335245],[-68.807685916089,-21.0000098113694],[-68.8074770048088,-21.00004288945],[-68.8075822299196,-20.9992063574433],[-68.8077205422681,-20.9991843053896]]]}},{"type":"Feature","id":"625094199","properties":{"name":"VEL_15_KPH_","oid":"625094199","speedLimit":2.7777777},"geometry":{"type":"Polygon","coordinates":[[[-68.8168283815632,-20.9975050053445],[-68.816461536433,-20.997335819096],[-68.8160319794451,-20.9970713752054],[-68.8156453204458,-20.9968332311002],[-68.8151836380585,-20.9973001200745],[-68.8187272427486,-20.9996611358636],[-68.8192491362138,-20.9991797865261],[-68.8168283815632,-20.9975050053445]]]}},{"type":"Feature","id":"625102060","properties":{"name":"VEL_15KPH_","oid":"625102060","speedLimit":4.1666665},"geometry":{"type":"Polygon","coordinates":[[[-68.8204219056614,-20.9998684613198],[-68.8203233172349,-21.0001521555689],[-68.8202832085775,-21.0002187636165],[-68.8197286126098,-21.0000450585045],[-68.8190106003138,-20.9996397164507],[-68.8184343629841,-20.9992372664695],[-68.817818113181,-20.9988058053848],[-68.8181170525267,-20.9984815317417],[-68.8186470254338,-20.9988231578205],[-68.8195067165124,-20.9993790684054],[-68.8200028327111,-20.9996281481602],[-68.8204712479665,-20.9997989611996],[-68.8204219056614,-20.9998684613198]]]}},{"type":"Feature","id":"625262401","properties":{"name":"VEL_15_KMPH_2","oid":"625262401","speedLimit":3.3333333},"geometry":{"type":"Polygon","coordinates":[[[-68.8102995193202,-21.0029148983209],[-68.8102805711056,-21.0032507402545],[-68.8100252992189,-21.0034965664276],[-68.8092315902481,-21.0029421018791],[-68.8086674720812,-21.002411587307],[-68.8090706746994,-21.0023987537347],[-68.8092909356717,-21.0022318269179],[-68.8102995193202,-21.0029148983209]]]}},{"type":"Feature","id":"625497864","properties":{"name":"ZD_STK_DIN_21-AutoClean-1","oid":"625497864","speedLimit":5},"geometry":{"type":"Polygon","coordinates":[[[-68.82442873168,-21.0048555694294],[-68.8247124739805,-21.0048062234402],[-68.824712762532,-21.0046935229852],[-68.8246845806696,-21.004584166489],[-68.824659957609,-21.0045396104952],[-68.8245965724646,-21.004445347003],[-68.8245072176858,-21.0043703338693],[-68.8244147850246,-21.0043030931808],[-68.8242145302891,-21.0044983984602],[-68.82442873168,-21.0048555694294]]]}},{"type":"Feature","id":"625542651","properties":{"name":"ZD_STK_DIN_12-AutoClean-1","oid":"625542651","speedLimit":5},"geometry":{"type":"Polygon","coordinates":[[[-68.8260397146601,-21.0057287042303],[-68.8260481788372,-21.005457662799],[-68.8254484726529,-21.0053351112215],[-68.8253027541494,-21.0055691883496],[-68.8254010540244,-21.0056398633743],[-68.8255117616135,-21.0056922821906],[-68.8255518702709,-21.0057060195356],[-68.8256746008389,-21.0057260832895],[-68.825797812326,-21.0057282523439],[-68.8260397146601,-21.0057287042303]]]}},{"type":"Feature","id":"625562777","properties":{"name":"VEL_15 KPH","oid":"625562777","speedLimit":4.1666665},"geometry":{"type":"Polygon","coordinates":[[[-68.8090394149544,-20.9979319475658],[-68.809085679377,-20.9980065088131],[-68.808702194444,-20.9982259448235],[-68.8086250550118,-20.9980769127061],[-68.8090394149544,-20.9979319475658]]]}},{"type":"Feature","id":"625872519","properties":{"name":"VEL_15_4_ESQ","oid":"625872519","speedLimit":4.1666665},"geometry":{"type":"Polygon","coordinates":[[[-68.822814863185,-21.005016712101],[-68.8223759763656,-21.0050688597855],[-68.8224526348786,-21.0048949739189],[-68.822624515384,-21.0046688499906],[-68.8228174601484,-21.0045421410587],[-68.8230131942438,-21.00442790419],[-68.8232141222661,-21.00468376224],[-68.822814863185,-21.005016712101]]]}}]}