{"type":"FeatureCollection","features":[{"type":"Feature","id":"551760555","properties":{"name":"ZD_BOT_PAD59_01-AutoClean-1","oid":"551760555","speedLimit":5},"geometry":{"type":"Polygon","coordinates":[[[-68.8195525019504,-20.9847239116466],[-68.8195525019504,-20.9847239116466]]]}},{"type":"Feature","id":"553267213","properties":{"name":"ZD_BOT_PAD59_02-AutoClean-1","oid":"553267213","speedLimit":5},"geometry":{"type":"Polygon","coordinates":[[[-68.8183521263663,-20.9849443489814],[-68.8186251925749,-20.9848566801766],[-68.8182634447726,-20.984730509402],[-68.8182963396805,-20.9848413155408],[-68.8183521263663,-20.9849443489814]]]}},{"type":"Feature","id":"553508825","properties":{"name":"ZD_STK_HG_02-AutoClean-1","oid":"553508825","speedLimit":5},"geometry":{"type":"Polygon","coordinates":[[[-68.8163727570436,-21.0204835652024],[-68.8164574950957,-21.020224354757],[-68.8158826998641,-21.0197075607101],[-68.8156044397226,-21.0197794129779],[-68.8156395468611,-21.0200164802716],[-68.8157188986125,-21.0201497910829],[-68.8157858426354,-21.0202107073452],[-68.8159804227482,-21.0203629076206],[-68.8161241215561,-21.0204331330446],[-68.8163727570436,-21.0204835652024]]]}},{"type":"Feature","id":"558966402","properties":{"name":"ZD_STK_BL_02-AutoClean-1","oid":"558966402","speedLimit":5},"geometry":{"type":"Polygon","coordinates":[[[-68.8233376285821,-20.9923435961022],[-68.8235300926482,-20.9921415059502],[-68.8232680875928,-20.9918865433747],[-68.8231541096226,-20.991777906361],[-68.8230886083588,-20.9917196111249],[-68.8229879999565,-20.9916462223935],[-68.822957798199,-20.9916291405336],[-68.8228454553558,-20.9915735567038],[-68.8227259949011,-20.9915327048483],[-68.8226051878711,-20.9917789909235],[-68.8232116276194,-20.9922466181357],[-68.8233376285821,-20.9923435961022]]]}},{"type":"Feature","id":"570805601","properties":{"name":"ZD_STK_MAR_02-AutoClean-1-tmp-1","oid":"570805601","speedLimit":5},"geometry":{"type":"Polygon","coordinates":[[[-68.8065053427165,-20.9867037805505],[-68.8068574721246,-20.9866981769774],[-68.806861800402,-20.9864270363442],[-68.8062831578126,-20.986205152926],[-68.8060008579457,-20.9862611886568],[-68.8060089373968,-20.9863758811447],[-68.806037888763,-20.9864987982318],[-68.8060604919892,-20.9865265449566],[-68.8061459033288,-20.986614484902],[-68.8062235237692,-20.9866455756946],[-68.8063390406824,-20.9866797394144],[-68.8063867479172,-20.9866888678157],[-68.8065053427165,-20.9867037805505]]]}},{"type":"Feature","id":"592941111","properties":{"name":"INFO_ESTACION","oid":"592941111","speedLimit":5.5555553},"geometry":{"type":"Polygon","coordinates":[[[-68.8219770105522,-21.0107287386402],[-68.8222217986822,-21.0106274224236],[-68.822018081095,-21.0102230613592],[-68.8218222505911,-21.0097827289709],[-68.8214119298986,-21.0098012569141],[-68.8218659181003,-21.0107674213706],[-68.8219770105522,-21.0107287386402]]]}},{"type":"Feature","id":"600121666","properties":{"name":"ZD_STK_3C_02-AutoClean-1","oid":"600121666","speedLimit":5},"geometry":{"type":"Polygon","coordinates":[[[-68.8050752798811,-20.9853138232843],[-68.804974286743,-20.9847121622191],[-68.804802983144,-20.9850282218173],[-68.8047701844201,-20.9851907254368],[-68.8047872089777,-20.9852990009297],[-68.8050752798811,-20.9853138232843]]]}},{"type":"Feature","id":"602013008","properties":{"name":"ZD_STK_3C_01-AutoClean-1","oid":"602013008","speedLimit":5},"geometry":{"type":"Polygon","coordinates":[[[-68.8048603087729,-20.9854512915853],[-68.8051249107947,-20.9853431968529],[-68.8048490552518,-20.9848844269014],[-68.804754121702,-20.9850898611212],[-68.804741040686,-20.9852496533344],[-68.8047852852989,-20.9853593749107],[-68.8048603087729,-20.9854512915853]]]}},{"type":"Feature","id":"606156222","properties":{"name":"VEL_30KMH","oid":"606156222","speedLimit":8.333333},"geometry":{"type":"Polygon","coordinates":[[[-68.8182927808747,-21.0229232886203],[-68.8181903449775,-21.0230008348414],[-68.8182818159054,-21.0230992588913],[-68.8184121451455,-21.0230221645713],[-68.8182927808747,-21.0229232886203]]]}},{"type":"Feature","id":"606156969","properties":{"name":"VEL_30KMH_2","oid":"606156969","speedLimit":8.333333},"geometry":{"type":"Polygon","coordinates":[[[-68.8131897418829,-21.022939828199],[-68.8130274795744,-21.0229704670905],[-68.8130898067681,-21.0231183291158],[-68.8132435087059,-21.0230762119375],[-68.8131897418829,-21.022939828199]]]}},{"type":"Feature","id":"606157392","properties":{"name":"VEL_20KH","oid":"606157392","speedLimit":5.5555553},"geometry":{"type":"Polygon","coordinates":[[[-68.8236965870501,-21.0147529175386],[-68.8235410576174,-21.0146634411297],[-68.8233970702577,-21.014878094131],[-68.8235593325662,-21.0149641360919],[-68.8236965870501,-21.0147529175386]]]}},{"type":"Feature","id":"606157536","properties":{"name":"VEL_20KMH_2","oid":"606157536","speedLimit":5.5555553},"geometry":{"type":"Polygon","coordinates":[[[-68.8218514905092,-21.0175108696798],[-68.8216922099028,-21.0174469708705],[-68.8216059329077,-21.0176132704589],[-68.8217501126353,-21.0176845804455],[-68.8218514905092,-21.0175108696798]]]}},{"type":"Feature","id":"606796346","properties":{"name":"ZD_STK_HG_03-AutoClean-1","oid":"606796346","speedLimit":5},"geometry":{"type":"Polygon","coordinates":[[[-68.815629928467,-21.0198922978615],[-68.8158931839136,-21.0197813109623],[-68.8159524332213,-21.0188817567214],[-68.8157027397104,-21.018745824884],[-68.8156235803269,-21.0188351205325],[-68.815567986009,-21.0189392385357],[-68.8155580790631,-21.0189804519119],[-68.8155117184035,-21.0191897724808],[-68.8155018114576,-21.0194160845293],[-68.8155118145874,-21.019645017604],[-68.8155634653638,-21.0197950487544],[-68.815629928467,-21.0198922978615]]]}},{"type":"Feature","id":"607546676","properties":{"name":"ZD_STK_HG_01-AutoClean-1","oid":"607546676","speedLimit":5},"geometry":{"type":"Polygon","coordinates":[[[-68.8167377750999,-21.020563009408],[-68.8169102329062,-21.0205566827932],[-68.8169717906284,-21.0205542425275],[-68.8171380926625,-21.0205145656148],[-68.8172380277772,-21.0204494014826],[-68.8173262284512,-21.0203770069336],[-68.8171668516609,-21.0201509660256],[-68.8163694867897,-21.0202021212251],[-68.816288980831,-21.0204625066132],[-68.8165070298254,-21.0205377029489],[-68.8166776601368,-21.020561744085],[-68.8167377750999,-21.020563009408]]]}},{"type":"Feature","id":"615608482","properties":{"name":"INFO_SINGLE_LANE_903","oid":"615608482","speedLimit":3.6111112},"geometry":{"type":"Polygon","coordinates":[[[-68.8107987052926,-21.0010985463892],[-68.810372321882,-21.0010070816155],[-68.8103387536866,-21.0013604682409],[-68.8103790547578,-21.0015939203261],[-68.8107786028489,-21.001858915105],[-68.8110236795307,-21.0019189275651],[-68.8113863891724,-21.0020072290314],[-68.8115127748709,-21.0020357891781],[-68.8116051114543,-21.0016503175778],[-68.8110103099629,-21.0014866390155],[-68.8107617706592,-21.0013604682409],[-68.8108725745593,-21.0010670036955],[-68.8107987052926,-21.0010985463892]]]}},{"type":"Feature","id":"617114544","properties":{"name":"VEL_10_KPH_903_001","oid":"617114544","speedLimit":2.7777777},"geometry":{"type":"Polygon","coordinates":[[[-68.8146091283008,-21.0006469164744],[-68.8142182367644,-21.0009047712166],[-68.8139485369937,-21.0008502719493],[-68.8135822685463,-21.0007851078171],[-68.8130907686075,-21.0007380197271],[-68.8128093343961,-21.0007560957694],[-68.8123929541153,-21.0006909316372],[-68.8121597080583,-21.0006148314994],[-68.8117799738591,-21.0005006812928],[-68.8115274910138,-21.0005858194517],[-68.8113014587524,-21.0003416121213],[-68.8114107237094,-21.0003069061203],[-68.8116419499037,-21.0003229034176],[-68.8117711249365,-21.0003175709852],[-68.8120762203975,-21.0003402564182],[-68.8125330941174,-21.0003589651219],[-68.8129757326141,-21.0003869829873],[-68.8136270902628,-21.0003816505549],[-68.8138895762379,-21.0004109337432],[-68.8146485637166,-21.0004932701155],[-68.8146091283008,-21.0006469164744]]]}},{"type":"Feature","id":"618760827","properties":{"name":"VEL_15_KMH","oid":"618760827","speedLimit":4.1666665},"geometry":{"type":"Polygon","coordinates":[[[-68.8153930274202,-21.0021954006308],[-68.8153860059926,-21.0021268924308],[-68.8150537866602,-21.0021743420416],[-68.814832275044,-21.0022533343461],[-68.8146388491386,-21.0023310613277],[-68.8145281414224,-21.0023719131831],[-68.8145645951361,-21.0025049528538],[-68.8153930274202,-21.0021954006308]]]}},{"type":"Feature","id":"619354898","properties":{"name":"New Zone11446","oid":"619354898","speedLimit":5.5555553},"geometry":{"type":"Polygon","coordinates":[[[-68.8036910967856,-20.9912026363175],[-68.8035644225353,-20.9909355627937],[-68.8032917410624,-20.9909572540444],[-68.8030229069472,-20.9910113917908],[-68.8026389406546,-20.9910871304077],[-68.8026927074776,-20.9913108214301],[-68.8036910967856,-20.9912026363175]]]}},{"type":"Feature","id":"619355510","properties":{"name":"VEL_10KMH","oid":"619355510","speedLimit":2.7777777},"geometry":{"type":"Polygon","coordinates":[[[-68.815701681687,-21.0023132564261],[-68.815657725626,-21.0017254235332],[-68.817089904508,-21.0016636034688],[-68.8170623959009,-21.0022617397058],[-68.8158715425269,-21.0023829395688],[-68.815701681687,-21.0023132564261]]]}},{"type":"Feature","id":"619524295","properties":{"name":"ZD_STK_DIN_21-AutoClean-1","oid":"619524295","speedLimit":5},"geometry":{"type":"Polygon","coordinates":[[[-68.823944645434,-21.0062551893324],[-68.824006684076,-21.0061688762308],[-68.8240689150859,-21.0060104397208],[-68.824080072423,-21.0059658822767],[-68.8240988282915,-21.0058524551118],[-68.8240567959093,-21.0056956454456],[-68.8239237735188,-21.0055103660129],[-68.8238246078756,-21.005444478839],[-68.8236108871586,-21.0056266853445],[-68.8236841793217,-21.0061384180997],[-68.823944645434,-21.0062551893324]]]}},{"type":"Feature","id":"619770241","properties":{"name":"New Zone11516","oid":"619770241","speedLimit":2.7777777},"geometry":{"type":"Polygon","coordinates":[[[-68.8105579568882,-20.9969856141235],[-68.8102998953744,-20.9972281042298],[-68.8099568072567,-20.9971950250726],[-68.8095872685552,-20.9972694079863],[-68.8095726485962,-20.9969663631385],[-68.8105579568882,-20.9969856141235]]]}},{"type":"Feature","id":"619848433","properties":{"name":"ZD_BOT_NRT_02-AutoClean-1","oid":"619848433","speedLimit":5},"geometry":{"type":"Polygon","coordinates":[[[-68.7921044906963,-20.9906430924307],[-68.793697008208,-20.9904072000797],[-68.7938215664117,-20.9901626312286],[-68.7937239397116,-20.990087886794],[-68.7933754652932,-20.9899929875724],[-68.7932072395803,-20.9899571066286],[-68.793147316985,-20.9899516838159],[-68.793031607704,-20.9899459898626],[-68.7929746668109,-20.9899449956803],[-68.7926297511983,-20.9899648793267],[-68.7925161579639,-20.9899928971922],[-68.7922340504649,-20.9900713472154],[-68.7920876585066,-20.9901572084159],[-68.7919671400285,-20.9902819331072],[-68.7918807668494,-20.9904237396584],[-68.7918436398482,-20.9905270442396],[-68.7921044906963,-20.9906430924307]]]}},{"type":"Feature","id":"619990689","properties":{"name":"ZD_BOT_NRT_03-AutoClean-1","oid":"619990689","speedLimit":5},"geometry":{"type":"Polygon","coordinates":[[[-68.7920213877712,-20.9917814311892],[-68.7922522292297,-20.9916187468093],[-68.7921762439163,-20.9904673933003],[-68.7918971181194,-20.9903986139597],[-68.7918562399445,-20.9905013762597],[-68.7918240183242,-20.9906608973323],[-68.7917839096208,-20.9909301399811],[-68.7917907386806,-20.9915256551919],[-68.7918660507065,-20.9916186564291],[-68.7920213877712,-20.9917814311892]]]}},{"type":"Feature","id":"620034757","properties":{"name":"VEL_10KPH","oid":"620034757","speedLimit":2.7777777},"geometry":{"type":"Polygon","coordinates":[[[-68.8141376346218,-21.0024916669627],[-68.8141953449864,-21.0028529166664],[-68.8147074282885,-21.0028014903263],[-68.814873057035,-21.0027929042063],[-68.8150751394951,-21.0024502728261],[-68.815295496904,-21.0022917459358],[-68.8154490064739,-21.0022318238559],[-68.8154155344624,-21.0020518768556],[-68.8153410880921,-21.0018377661356],[-68.8150797563243,-21.0018863003089],[-68.8148639195606,-21.0020562151058],[-68.8146754952201,-21.002304670306],[-68.8144597546403,-21.0024402406226],[-68.8141756272785,-21.0024802790562],[-68.8141376346218,-21.0024916669627]]]}},{"type":"Feature","id":"620050007","properties":{"name":"ZD_STK_DIN_22-AutoClean-1","oid":"620050007","speedLimit":5},"geometry":{"type":"Polygon","coordinates":[[[-68.8237504500571,-21.0057603576767],[-68.823956187507,-21.0055701977126],[-68.8238235498523,-21.0054238721508],[-68.8236464752168,-21.005273208339],[-68.823535286581,-21.0052333506659],[-68.8234857518513,-21.0052178956498],[-68.8234077466752,-21.005194848696],[-68.8232471194936,-21.0052465461767],[-68.823166517351,-21.0053436145234],[-68.823261162349,-21.0055173252891],[-68.823324836118,-21.0055702880928],[-68.8237504500571,-21.0057603576767]]]}}]}