{"type":"FeatureCollection","features":[{"type":"Feature","id":"553267213","properties":{"name":"ZD_BOT_PAD59_02-AutoClean-1","oid":"553267213","speedLimit":5},"geometry":{"type":"Polygon","coordinates":[[[-68.8183524191237,-20.9849453021712],[-68.8186254804745,-20.98485763574],[-68.8182966334304,-20.98484227152],[-68.8183524191237,-20.9849453021712]]]}},{"type":"Feature","id":"553508825","properties":{"name":"ZD_STK_HG_02-AutoClean-1","oid":"553508825","speedLimit":5},"geometry":{"type":"Polygon","coordinates":[[[-68.8157267404286,-21.0200493814542],[-68.8159955697613,-21.0199508696912],[-68.8158657237508,-21.0189963901235],[-68.8155891998398,-21.0189188460018],[-68.8155453407429,-21.0190272993189],[-68.8155141777004,-21.0191375601912],[-68.8154871504938,-21.0192528822183],[-68.8154835917513,-21.0194072474396],[-68.8154888817739,-21.0196068919207],[-68.8154954221656,-21.0196406932045],[-68.8155310095906,-21.019755472965],[-68.8155919891244,-21.019860130416],[-68.8157267404286,-21.0200493814542]]]}},{"type":"Feature","id":"558966402","properties":{"name":"ZD_STK_BL_02-AutoClean-1","oid":"558966402","speedLimit":5},"geometry":{"type":"Polygon","coordinates":[[[-68.8233378326482,-20.992344348971],[-68.8235302932903,-20.9921422642903],[-68.823268292896,-20.9918873086175],[-68.8231543169535,-20.9917786745449],[-68.8230888168549,-20.991720380887],[-68.8229882102424,-20.9916469941424],[-68.8229580090222,-20.991629912745],[-68.8228456681776,-20.99157433042],[-68.822726209848,-20.9915334796706],[-68.8226054049672,-20.991779759078],[-68.823211833927,-20.99224737363],[-68.8233378326482,-20.992344348971]]]}},{"type":"Feature","id":"570805601","properties":{"name":"ZD_STK_MAR_02-AutoClean-1-tmp-1","oid":"570805601","speedLimit":5},"geometry":{"type":"Polygon","coordinates":[[[-68.8065058462264,-20.986704686107],[-68.8068579693702,-20.9866990826856],[-68.8068622975706,-20.986427949393],[-68.8062836652752,-20.9862060719819],[-68.8060013704304,-20.9862621061957],[-68.8060094497377,-20.9863767955784],[-68.8060384005889,-20.9864997093378],[-68.8060610034129,-20.9865274553114],[-68.8061464132331,-20.9866153928759],[-68.8062240322927,-20.9866464828268],[-68.8063395471508,-20.9866806456217],[-68.8063872535369,-20.9866897737759],[-68.8065058462264,-20.986704686107]]]}},{"type":"Feature","id":"592941111","properties":{"name":"INFO_ESTACION CAMINO 9","oid":"592941111","speedLimit":5.5555553},"geometry":{"type":"Polygon","coordinates":[[[-68.8219772388235,-21.0107289937652],[-68.8222563596548,-21.0106303012467],[-68.821833542572,-21.0097468586016],[-68.8212847267679,-21.0090452560181],[-68.8208546960178,-21.0093297652199],[-68.8218661483479,-21.0107676754483],[-68.8219772388235,-21.0107289937652]]]}},{"type":"Feature","id":"602013008","properties":{"name":"ZD_STK_3C_01-AutoClean-1","oid":"602013008","speedLimit":5},"geometry":{"type":"Polygon","coordinates":[[[-68.8048608415477,-20.9854522310506],[-68.8051254388623,-20.9853441392447],[-68.8048495882268,-20.9848853817136],[-68.8047546563659,-20.9850908103716],[-68.8047415755826,-20.9852505982587],[-68.8047858194084,-20.9853603168645],[-68.8048608415477,-20.9854522310506]]]}},{"type":"Feature","id":"605133231","properties":{"name":"LIMP_903.","oid":"605133231","speedLimit":2.7777777},"geometry":{"type":"Polygon","coordinates":[[[-68.8161160860954,-21.0015953265371],[-68.8158074373195,-21.0014934707968],[-68.8157255862418,-21.0016356350199],[-68.8157010597732,-21.0021178907697],[-68.8165290925907,-21.0021255728797],[-68.8165945926893,-21.0018143118598],[-68.8161160860954,-21.0015953265371]]]}},{"type":"Feature","id":"607546676","properties":{"name":"ZD_STK_HG_01-AutoClean-1","oid":"607546676","speedLimit":5},"geometry":{"type":"Polygon","coordinates":[[[-68.8168103294311,-21.0205958054166],[-68.817091373907,-21.020534710048],[-68.8173091304756,-21.020399776046],[-68.8171827470254,-21.020156027216],[-68.8158418705578,-21.0198710661255],[-68.8156208437934,-21.0200453144548],[-68.8156867286209,-21.0201347884414],[-68.8157630973115,-21.0202166706958],[-68.8158062831327,-21.020253002557],[-68.8158954440599,-21.0203220511688],[-68.8160451997919,-21.020407458156],[-68.8160967534672,-21.0204292391972],[-68.8163646209775,-21.0205296488932],[-68.8164749419953,-21.0205659807544],[-68.8165904568534,-21.020592190306],[-68.8168103294311,-21.0205958054166]]]}},{"type":"Feature","id":"621174471","properties":{"name":"ZD_STK_MAR_01-AutoClean-1","oid":"621174471","speedLimit":5},"geometry":{"type":"Polygon","coordinates":[[[-68.806734471387,-20.9870969256036],[-68.8068613357483,-20.9870663779193],[-68.8069828139047,-20.987035468724],[-68.8069307793183,-20.9867688543196],[-68.8062518289571,-20.9863282627191],[-68.8059632822673,-20.9863274493192],[-68.8059467389238,-20.9864462960791],[-68.8059625128095,-20.9865985826118],[-68.8059786714241,-20.9866833569546],[-68.8060210877875,-20.9868028363589],[-68.8060364769443,-20.9868255211777],[-68.8061264073293,-20.9869161700752],[-68.8063679209087,-20.9870137780606],[-68.8065733661518,-20.9870822844058],[-68.806734471387,-20.9870969256036]]]}},{"type":"Feature","id":"625872519","properties":{"name":"VEL_15_4_ESQ","oid":"625872519","speedLimit":8.333333},"geometry":{"type":"Polygon","coordinates":[[[-68.8228150822285,-21.005016576801],[-68.8223762027133,-21.005068724771],[-68.8224528599506,-21.0048948379526],[-68.8226247375954,-21.0046687127866],[-68.8228176791487,-21.0045420031612],[-68.8230134099866,-21.0044277656672],[-68.823214334665,-21.0046836251177],[-68.8228150822285,-21.005016576801]]]}},{"type":"Feature","id":"626734706","properties":{"name":"ZD_STK_MAR_02-AutoClean-1","oid":"626734706","speedLimit":5},"geometry":{"type":"Polygon","coordinates":[[[-68.806778811395,-20.9870932201153],[-68.8068944224354,-20.9870822844058],[-68.8071218934092,-20.9870572497651],[-68.807236831174,-20.9870440546116],[-68.8073541734945,-20.9870303171914],[-68.8075151825474,-20.9869724754223],[-68.8075728918854,-20.9869466273818],[-68.8076641688216,-20.9868769461256],[-68.8077049500871,-20.9868426929529],[-68.8077716043724,-20.9867499653668],[-68.8078016132282,-20.9867008902409],[-68.8078798093811,-20.9865561954404],[-68.8079158777173,-20.9864519898783],[-68.8076508956738,-20.9863446210944],[-68.8067406270497,-20.9868244366446],[-68.806778811395,-20.9870932201153]]]}},{"type":"Feature","id":"627372043","properties":{"name":"INFO_RED_VEL_15KPH","oid":"627372043","speedLimit":4.1666665},"geometry":{"type":"Polygon","coordinates":[[[-68.8087331381251,-21.00234546198],[-68.8088445171474,-21.0022900604105],[-68.8092965736281,-21.0026553673334],[-68.8091371996731,-21.0027148359023],[-68.8088729870875,-21.0024972966239],[-68.8087331381251,-21.00234546198]]]}},{"type":"Feature","id":"627414835","properties":{"name":"INFO_RED_VEL_20KPH_MARGINAL","oid":"627414835","speedLimit":5.5555553},"geometry":{"type":"Polygon","coordinates":[[[-68.8061752679021,-20.9854217737441],[-68.8054321639936,-20.9855000408879],[-68.8055987516158,-20.9861080121077],[-68.8059958880433,-20.985993684236],[-68.8061752679021,-20.9854217737441]]]}},{"type":"Feature","id":"627775409","properties":{"name":"VEL_10KM_ZIG_ZAG","oid":"627775409","speedLimit":2.7777777},"geometry":{"type":"Polygon","coordinates":[[[-68.8111734736632,-20.9996462396743],[-68.8110595939029,-20.9996752509366],[-68.8110238141134,-20.9995545062436],[-68.8108839651511,-20.9994689185009],[-68.8106593796442,-20.9994428897048],[-68.8106610147421,-20.9993236814339],[-68.8108790598574,-20.999340491698],[-68.8110547847914,-20.9994276158627],[-68.8110564198894,-20.9994276158627],[-68.8111734736632,-20.9996462396743]]]}},{"type":"Feature","id":"628576537","properties":{"name":"INFO_RED_VEL_20KPH","oid":"628576537","speedLimit":5.5555553},"geometry":{"type":"Polygon","coordinates":[[[-68.8087085154743,-20.9994554522141],[-68.808539427114,-20.9993363343208],[-68.8083632212688,-20.9998692016186],[-68.8085288470687,-20.999938792497],[-68.8087085154743,-20.9994554522141]]]}},{"type":"Feature","id":"628602625","properties":{"name":"INFO_RED_VEL_15_KPH_901","oid":"628602625","speedLimit":4.1666665},"geometry":{"type":"Polygon","coordinates":[[[-68.8141132835213,-21.0018903195595],[-68.8154802253732,-21.0016088832017],[-68.8158916929529,-21.0015554699431],[-68.815728183162,-21.0019421060183],[-68.8148920710372,-21.002186397115],[-68.8134528001483,-21.0023881202847],[-68.8141132835213,-21.0018903195595]]]}},{"type":"Feature","id":"628617966","properties":{"name":"info_red_vel_15_kph_906","oid":"628617966","speedLimit":4.1666665},"geometry":{"type":"Polygon","coordinates":[[[-68.8254876016696,-21.0039328570305],[-68.8253369802975,-21.0038284707128],[-68.8254628828365,-21.0036219575216],[-68.8254579775428,-21.0034224034182],[-68.8256011928832,-21.0034339717721],[-68.8254876016696,-21.0039328570305]]]}},{"type":"Feature","id":"628644340","properties":{"name":"INFO_RED_VEL_10KPH_903","oid":"628644340","speedLimit":2.7777777},"geometry":{"type":"Polygon","coordinates":[[[-68.8129111018293,-21.0005529997826],[-68.8127748116095,-21.0005980982869],[-68.8124239388346,-21.0003799263641],[-68.8120250711271,-21.0003679964992],[-68.8120705653218,-21.000180643394],[-68.8127723108715,-21.0003229883727],[-68.8129111018293,-21.0005529997826]]]}},{"type":"Feature","id":"629237286","properties":{"name":"REDU_VELO_15","oid":"629237286","speedLimit":4.1666665},"geometry":{"type":"Polygon","coordinates":[[[-68.8122823585922,-20.9969276765271],[-68.8122702396312,-20.9971215368313],[-68.8118837794313,-20.9972970504494],[-68.8108472235392,-20.9972146259284],[-68.8106073450578,-20.9971300323411],[-68.8089815768251,-20.9974243927191],[-68.8091570132125,-20.9970497768865],[-68.8109988067336,-20.9967736728169],[-68.8121276013842,-20.9968848374668],[-68.8121306792156,-20.9968877295553],[-68.8122823585922,-20.9969276765271]]]}},{"type":"Feature","id":"629873883","properties":{"name":"ZD_BOT_NRT_03-AutoClean-1","oid":"629873883","speedLimit":5},"geometry":{"type":"Polygon","coordinates":[[[-68.792319736768,-20.9921089148953],[-68.7924928647819,-20.991892098639],[-68.792319736768,-20.9921089148953]]]}},{"type":"Feature","id":"630010528","properties":{"name":"VEL_15_KMPH","oid":"630010528","speedLimit":4.1666665},"geometry":{"type":"Polygon","coordinates":[[[-68.8100407355412,-20.9990599591179],[-68.8099297412478,-20.9988812822781],[-68.8092127027236,-20.9993838730248],[-68.8090779514195,-20.9999087870793],[-68.8092641602166,-21.0002102873007],[-68.8093064803978,-21.0002317972086],[-68.8094861488034,-21.0000066661979],[-68.8093355274313,-20.9998938747482],[-68.8094067984636,-20.9995327252025],[-68.8095098096319,-20.9993949894898],[-68.8099495547872,-20.9991121070879],[-68.8100407355412,-20.9990599591179]]]}},{"type":"Feature","id":"630216104","properties":{"name":"REDU_VELO_15_904","oid":"630216104","speedLimit":4.1666665},"geometry":{"type":"Polygon","coordinates":[[[-68.8136587263026,-21.0161319572648],[-68.8137744335252,-21.0166791042493],[-68.8140710595224,-21.0171481648455],[-68.8143422934108,-21.017664673768],[-68.8142120626715,-21.017691877475],[-68.8138105980437,-21.0172671019832],[-68.8135611013392,-21.0167402899957],[-68.8134345255246,-21.0163053018166],[-68.8136587263026,-21.0161319572648]]]}},{"type":"Feature","id":"630611948","properties":{"name":"TR_60","oid":"630611948","speedLimit":2.7777777},"geometry":{"type":"Polygon","coordinates":[[[-68.8265862912822,-21.0003143121073],[-68.826584944731,-21.0006328937261],[-68.8262945705788,-21.0006403047028],[-68.8262182980705,-21.0004637065515],[-68.8263537226502,-21.0002290858756],[-68.8265862912822,-21.0003143121073]]]}},{"type":"Feature","id":"630768411","properties":{"name":"REDU_VELO_15KM_902","oid":"630768411","speedLimit":4.1666665},"geometry":{"type":"Polygon","coordinates":[[[-68.8114309534927,-20.9979148728455],[-68.8116153348275,-20.9973371781767],[-68.8103724680522,-20.9973124146693],[-68.8098454856144,-20.9974617187357],[-68.8101089287422,-20.9980846022866],[-68.8114309534927,-20.9979148728455]]]}},{"type":"Feature","id":"630795558","properties":{"name":"INFO_RED_VEL_15","oid":"630795558","speedLimit":4.1666665},"geometry":{"type":"Polygon","coordinates":[[[-68.8107989400598,-20.9997218858629],[-68.8107071822124,-20.9998080158722],[-68.8099161795534,-21.0000953267846],[-68.8098741479189,-20.9999229763883],[-68.8103632345582,-20.9997075157984],[-68.8106155205473,-20.9996464204298],[-68.8107263224762,-20.9996644056049],[-68.8107873981922,-20.9996931457339],[-68.8107989400598,-20.9997218858629]]]}},{"type":"Feature","id":"630912563","properties":{"name":"ZD_STK_DIN_22-AutoClean-1","oid":"630912563","speedLimit":5},"geometry":{"type":"Polygon","coordinates":[[[-68.825099602554,-21.0054887102412],[-68.8253310169993,-21.0053267532878],[-68.8252849457112,-21.0051998629068],[-68.8251586584432,-21.0051093043871],[-68.8250760379077,-21.0050704419485],[-68.8249281096381,-21.0050055507138],[-68.8248414494489,-21.0049750030295],[-68.8246820754939,-21.0049515951886],[-68.8245529027591,-21.0049681343194],[-68.8245455929096,-21.0052391772343],[-68.825099602554,-21.0054887102412]]]}},{"type":"Feature","id":"631033311","properties":{"name":"INFO_SL","oid":"631033311","speedLimit":4.1666665},"geometry":{"type":"Polygon","coordinates":[[[-68.8159708509282,-21.0040344416374],[-68.8158171517247,-21.0045842999548],[-68.8185173716481,-21.0056078281344],[-68.8187976466661,-21.0050266087328],[-68.8184980390199,-21.004763247928],[-68.8176572139657,-21.0043184085726],[-68.8167777236551,-21.0041185833359],[-68.8159708509282,-21.0040344416374]]]}},{"type":"Feature","id":"631627204","properties":{"name":"INFO_RED_VEL_15KPH_RPACONECCION","oid":"631627204","speedLimit":4.1666665},"geometry":{"type":"Polygon","coordinates":[[[-68.8140850059457,-21.0027943683348],[-68.8140522078053,-21.0026963988384],[-68.8143859601432,-21.0026359361141],[-68.8144421305655,-21.0027613804509],[-68.8140850059457,-21.0027943683348]]]}},{"type":"Feature","id":"631675188","properties":{"name":"ZD_STK_DIN_21-AutoClean-1","oid":"631675188","speedLimit":5},"geometry":{"type":"Polygon","coordinates":[[[-68.8236401333969,-21.0058081956377],[-68.8239217549662,-21.0057492693354],[-68.8238590441523,-21.0054846432418],[-68.82320721718,-21.0053850469457],[-68.8230534217943,-21.0056144257112],[-68.8232767569322,-21.0057600242894],[-68.8234609459026,-21.0057861434632],[-68.8236401333969,-21.0058081956377]]]}},{"type":"Feature","id":"631678552","properties":{"name":"New Zone3205","oid":"631678552","speedLimit":4.1666665},"geometry":{"type":"Polygon","coordinates":[[[-68.8101589435018,-21.0026603381105],[-68.8101138340359,-21.0026038520078],[-68.8099257977764,-21.0027151070356],[-68.80990136749,-21.0027946394681],[-68.8098637602381,-21.002934182736],[-68.8098637602381,-21.0030949647785],[-68.8099182955625,-21.0031798294991],[-68.8099878353147,-21.0032292661361],[-68.8100348684252,-21.0031763047663],[-68.8099634050283,-21.0030190474566],[-68.8099614813837,-21.0028865536543],[-68.810019767815,-21.002739870543],[-68.8101006570704,-21.0026921510835],[-68.8101589435018,-21.0026603381105]]]}}]}