{"type":"FeatureCollection","features":[{"type":"Feature","id":"553267213","properties":{"name":"ZD_BOT_PAD59_02-AutoClean-1","oid":"553267213","speedLimit":5},"geometry":{"type":"Polygon","coordinates":[[[-68.8183529493549,-20.9849453021712],[-68.8186260030353,-20.98485763574],[-68.8182971652286,-20.98484227152],[-68.8183529493549,-20.9849453021712]]]}},{"type":"Feature","id":"553508825","properties":{"name":"ZD_STK_HG_02-AutoClean-1","oid":"553508825","speedLimit":5},"geometry":{"type":"Polygon","coordinates":[[[-68.8157273444158,-21.0200493814542],[-68.815996166197,-21.0199508696912],[-68.815866323834,-21.0189963901235],[-68.8155898076906,-21.0189188460018],[-68.8155459498257,-21.0190272993189],[-68.8155147876586,-21.0191375601912],[-68.8154877612112,-21.0192528822183],[-68.8154842025686,-21.0194072474396],[-68.8154894924427,-21.0196068919207],[-68.8154960326506,-21.0196406932045],[-68.815531619076,-21.019755472965],[-68.8155925968969,-21.019860130416],[-68.8157273444158,-21.0200493814542]]]}},{"type":"Feature","id":"558966402","properties":{"name":"ZD_STK_BL_02-AutoClean-1","oid":"558966402","speedLimit":5},"geometry":{"type":"Polygon","coordinates":[[[-68.8233382228376,-20.992344348971],[-68.8235306780735,-20.9921422642903],[-68.8232686850388,-20.9918873086175],[-68.8231547122979,-20.9917786745449],[-68.8230892140393,-20.991720380887],[-68.8229886102528,-20.9916469941424],[-68.822958409881,-20.991629912745],[-68.8228460721921,-20.99157433042],[-68.8227266172181,-20.9915334796706],[-68.8226058157308,-20.991779759078],[-68.8232122276558,-20.99224737363],[-68.8233382228376,-20.992344348971]]]}},{"type":"Feature","id":"570805601","properties":{"name":"ZD_STK_MAR_02-AutoClean-1-tmp-1","oid":"570805601","speedLimit":5},"geometry":{"type":"Polygon","coordinates":[[[-68.8065067092313,-20.986704686107],[-68.8068588224839,-20.9866990826856],[-68.8068631505626,-20.986427949393],[-68.8062845345213,-20.9862060719819],[-68.8060022476061,-20.9862621061957],[-68.8060103266865,-20.9863767955784],[-68.8060392767245,-20.9864997093378],[-68.8060618789136,-20.9865274553114],[-68.8061472863346,-20.9866153928759],[-68.8062249032138,-20.9866464828268],[-68.8063404148271,-20.9866806456217],[-68.8063881198731,-20.9866897737759],[-68.8065067092313,-20.986704686107]]]}},{"type":"Feature","id":"592941111","properties":{"name":"INFO_ESTACION CAMINO 9","oid":"592941111","speedLimit":5.5555553},"geometry":{"type":"Polygon","coordinates":[[[-68.8219776672324,-21.0107289937652],[-68.8222567802231,-21.0106303012467],[-68.8218339750173,-21.0097468586016],[-68.8212851746297,-21.0090452560181],[-68.8208551559593,-21.0093297652199],[-68.8218665798774,-21.0107676754483],[-68.8219776672324,-21.0107289937652]]]}},{"type":"Feature","id":"602013008","properties":{"name":"ZD_STK_3C_01-AutoClean-1","oid":"602013008","speedLimit":5},"geometry":{"type":"Polygon","coordinates":[[[-68.8048617507613,-20.9854522310506],[-68.8051263406432,-20.9853441392447],[-68.8048504977565,-20.9848853817136],[-68.8047555685622,-20.9850908103716],[-68.8047424881464,-20.9852505982587],[-68.8047867307293,-20.9853603168645],[-68.8048617507613,-20.9854522310506]]]}},{"type":"Feature","id":"605133231","properties":{"name":"LIMP_903.","oid":"605133231","speedLimit":2.7777777},"geometry":{"type":"Polygon","coordinates":[[[-68.8161166791458,-21.0015953265371],[-68.81580803904,-21.0014934707968],[-68.8157261902615,-21.0016356350199],[-68.8157016644818,-21.0021178907697],[-68.8165296740397,-21.0021255728797],[-68.8165951722984,-21.0018143118598],[-68.8161166791458,-21.0015953265371]]]}},{"type":"Feature","id":"607546676","properties":{"name":"ZD_STK_HG_01-AutoClean-1","oid":"607546676","speedLimit":5},"geometry":{"type":"Polygon","coordinates":[[[-68.81681090298,-21.0205958054166],[-68.8170919395613,-21.020534710048],[-68.817309690013,-21.020399776046],[-68.817183310113,-21.020156027216],[-68.815842471311,-21.0198710661255],[-68.8156214507553,-21.0200453144548],[-68.8156873337321,-21.0201347884414],[-68.8157637002775,-21.0202166706958],[-68.8158068848856,-21.020253002557],[-68.8158960433082,-21.0203220511688],[-68.8160457948335,-21.020407458156],[-68.8160973470606,-21.0204292391972],[-68.8163652070465,-21.0205296488932],[-68.8164755249653,-21.0205659807544],[-68.8165910365786,-21.020592190306],[-68.81681090298,-21.0205958054166]]]}},{"type":"Feature","id":"621174471","properties":{"name":"ZD_STK_MAR_01-AutoClean-1","oid":"621174471","speedLimit":5},"geometry":{"type":"Polygon","coordinates":[[[-68.8067353279697,-20.9870969256036],[-68.8068621887674,-20.9870663779193],[-68.8069836635114,-20.987035468724],[-68.8069316303867,-20.9867688543196],[-68.8062526990974,-20.9863282627191],[-68.805964160513,-20.9863274493192],[-68.8059476176342,-20.9864462960791],[-68.8059633910768,-20.9865985826118],[-68.8059795492375,-20.9866833569546],[-68.8060219644094,-20.9868028363589],[-68.8060373531339,-20.9868255211777],[-68.8061272809927,-20.9869161700752],[-68.8063687877879,-20.9870137780606],[-68.8065742272601,-20.9870822844058],[-68.8067353279697,-20.9870969256036]]]}},{"type":"Feature","id":"625872519","properties":{"name":"VEL_15_4_ESQ","oid":"625872519","speedLimit":8.333333},"geometry":{"type":"Polygon","coordinates":[[[-68.8228154871021,-21.005016576801],[-68.8223766199152,-21.005068724771],[-68.8224532749991,-21.0048948379526],[-68.8226251478159,-21.0046687127866],[-68.8228180839494,-21.0045420031612],[-68.8230138092892,-21.0044277656672],[-68.8232147283235,-21.0046836251177],[-68.8228154871021,-21.005016576801]]]}},{"type":"Feature","id":"626734706","properties":{"name":"ZD_STK_MAR_02-AutoClean-1","oid":"626734706","speedLimit":5},"geometry":{"type":"Polygon","coordinates":[[[-68.8067796667322,-20.9870932201153],[-68.806895274525,-20.9870822844058],[-68.8071227391091,-20.9870572497651],[-68.8072376736453,-20.9870440546116],[-68.8073550126696,-20.9870303171914],[-68.8075160171997,-20.9869724754223],[-68.8075737249166,-20.9869466273818],[-68.8076649992888,-20.9868769461256],[-68.8077057794088,-20.9868426929529],[-68.8077724318218,-20.9867499653668],[-68.8078024398346,-20.9867008902409],[-68.807880633791,-20.9865561954404],[-68.807916701114,-20.9864519898783],[-68.807651726514,-20.9863446210944],[-68.8067414834595,-20.9868244366446],[-68.8067796667322,-20.9870932201153]]]}},{"type":"Feature","id":"627372043","properties":{"name":"INFO_RED_VEL_15KPH","oid":"627372043","speedLimit":4.1666665},"geometry":{"type":"Polygon","coordinates":[[[-68.8087339385647,-21.00234546198],[-68.8088453144584,-21.0022900604105],[-68.8092973582407,-21.0026553673334],[-68.8091379887625,-21.0027148359023],[-68.8088737835987,-21.0024972966239],[-68.8087339385647,-21.00234546198]]]}},{"type":"Feature","id":"627414835","properties":{"name":"INFO_RED_VEL_20KPH_MARGINAL","oid":"627414835","speedLimit":5.5555553},"geometry":{"type":"Polygon","coordinates":[[[-68.806176140193,-20.9854217737441],[-68.8054330571585,-20.9855000408879],[-68.8055996401013,-20.9861080121077],[-68.805996765373,-20.985993684236],[-68.806176140193,-20.9854217737441]]]}},{"type":"Feature","id":"627775409","properties":{"name":"VEL_10KM_ZIG_ZAG","oid":"627775409","speedLimit":2.7777777},"geometry":{"type":"Polygon","coordinates":[[[-68.811174205553,-20.9996462396743],[-68.8110603289917,-20.9996752509366],[-68.8110245502072,-20.9995545062436],[-68.8108847051733,-20.9994689185009],[-68.8106601259751,-20.9994428897048],[-68.810661761027,-20.9993236814339],[-68.8108798000174,-20.999340491698],[-68.8110555200153,-20.9994276158627],[-68.8110571550673,-20.9994276158627],[-68.811174205553,-20.9996462396743]]]}},{"type":"Feature","id":"628576537","properties":{"name":"INFO_RED_VEL_20KPH","oid":"628576537","speedLimit":5.5555553},"geometry":{"type":"Polygon","coordinates":[[[-68.8087093166056,-20.9994554522141],[-68.808540232995,-20.9993363343208],[-68.8083640320995,-20.9998692016186],[-68.808529653247,-20.999938792497],[-68.8087093166056,-20.9994554522141]]]}},{"type":"Feature","id":"628602625","properties":{"name":"INFO_RED_VEL_15_KPH_901","oid":"628602625","speedLimit":4.1666665},"geometry":{"type":"Polygon","coordinates":[[[-68.814113932831,-21.0018903195595],[-68.8154808362852,-21.0016088832017],[-68.8158922923066,-21.0015554699431],[-68.8157287871087,-21.0019421060183],[-68.8148926984705,-21.002186397115],[-68.8134534680112,-21.0023881202847],[-68.814113932831,-21.0018903195595]]]}},{"type":"Feature","id":"628617966","properties":{"name":"info_red_vel_15_kph_906","oid":"628617966","speedLimit":4.1666665},"geometry":{"type":"Polygon","coordinates":[[[-68.8254879314714,-21.0039328570305],[-68.8253373143303,-21.0038284707128],[-68.8254632133327,-21.0036219575216],[-68.8254583081767,-21.0034224034182],[-68.8256015194941,-21.0034339717721],[-68.8254879314714,-21.0039328570305]]]}},{"type":"Feature","id":"628644340","properties":{"name":"INFO_RED_VEL_10KPH_903","oid":"628644340","speedLimit":2.7777777},"geometry":{"type":"Polygon","coordinates":[[[-68.8129117849087,-21.0005529997826],[-68.8127754985173,-21.0005980982869],[-68.8124246355986,-21.0003799263641],[-68.8120257790953,-21.0003679964992],[-68.8120712720121,-21.000180643394],[-68.8127729978495,-21.0003229883727],[-68.8129117849087,-21.0005529997826]]]}},{"type":"Feature","id":"629237286","properties":{"name":"REDU_VELO_15","oid":"629237286","speedLimit":4.1666665},"geometry":{"type":"Polygon","coordinates":[[[-68.8122830593331,-20.9969276765271],[-68.8122709407126,-20.9971215368313],[-68.8118844913685,-20.9972970504494],[-68.8108479645936,-20.9972146259284],[-68.8106080928504,-20.9971300323411],[-68.808982370286,-20.9974243927191],[-68.8091578017453,-20.9970497768865],[-68.8109995435299,-20.9967736728169],[-68.8121283064723,-20.9968848374668],[-68.8121313842172,-20.9968877295553],[-68.8122830593331,-20.9969276765271]]]}},{"type":"Feature","id":"630010528","properties":{"name":"VEL_15_KMPH","oid":"630010528","speedLimit":4.1666665},"geometry":{"type":"Polygon","coordinates":[[[-68.81004149925,-20.9990599591179],[-68.8099305080745,-20.9988812822781],[-68.8092134896921,-20.9993838730248],[-68.8090787421732,-20.9999087870793],[-68.8092649457397,-21.0002102873007],[-68.8093072647321,-21.0002317972086],[-68.8094869280907,-21.0000066661979],[-68.8093363109496,-20.9998938747482],[-68.8094075799799,-20.9995327252025],[-68.8095105882546,-20.9993949894898],[-68.8099503210573,-20.9991121070879],[-68.81004149925,-20.9990599591179]]]}},{"type":"Feature","id":"630216104","properties":{"name":"REDU_VELO_15_904","oid":"630216104","speedLimit":4.1666665},"geometry":{"type":"Polygon","coordinates":[[[-68.813659388381,-21.0161319572648],[-68.8137750923534,-21.0166791042493],[-68.8140717100182,-21.0171481648455],[-68.8143429362876,-21.017664673768],[-68.8142127092065,-21.017691877475],[-68.813811255856,-21.0172671019832],[-68.8135617661599,-21.0167402899957],[-68.8134351939009,-21.0163053018166],[-68.813659388381,-21.0161319572648]]]}},{"type":"Feature","id":"630611948","properties":{"name":"TR_60","oid":"630611948","speedLimit":2.7777777},"geometry":{"type":"Polygon","coordinates":[[[-68.8265865902215,-21.0003143121073],[-68.8265852437081,-21.0006328937261],[-68.8262948777126,-21.0006403047028],[-68.8262186073468,-21.0004637065515],[-68.8263540281224,-21.0002290858756],[-68.8265865902215,-21.0003143121073]]]}},{"type":"Feature","id":"630768411","properties":{"name":"REDU_VELO_15KM_902","oid":"630768411","speedLimit":4.1666665},"geometry":{"type":"Polygon","coordinates":[[[-68.8114316781499,-20.9979148728455],[-68.8116160543054,-20.9973371781767],[-68.8103732224426,-20.9973124146693],[-68.8098462548078,-20.9974617187357],[-68.8101096905354,-20.9980846022866],[-68.8114316781499,-20.9979148728455]]]}},{"type":"Feature","id":"630795558","properties":{"name":"INFO_RED_VEL_15","oid":"630795558","speedLimit":4.1666665},"geometry":{"type":"Polygon","coordinates":[[[-68.8107996824704,-20.9997218858629],[-68.8107079272006,-20.9998080158722],[-68.809916946761,-21.0000953267846],[-68.8098749163072,-20.9999229763883],[-68.8103639892079,-20.9997075157984],[-68.8106162681102,-20.9996464204298],[-68.8107270669266,-20.9996644056049],[-68.810788140927,-20.9996931457339],[-68.8107996824704,-20.9997218858629]]]}},{"type":"Feature","id":"630912563","properties":{"name":"ZD_STK_DIN_22-AutoClean-1","oid":"630912563","speedLimit":5},"geometry":{"type":"Polygon","coordinates":[[[-68.8250999432548,-21.0054887102412],[-68.8253313511996,-21.0053267532878],[-68.8252852812056,-21.0051998629068],[-68.8251589974851,-21.0051093043871],[-68.8250763792704,-21.0050704419485],[-68.8249284551561,-21.0050055507138],[-68.8248417974013,-21.0049750030295],[-68.8246824279231,-21.0049515951886],[-68.8245532588168,-21.0049681343194],[-68.8245459491726,-21.0052391772343],[-68.8250999432548,-21.0054887102412]]]}},{"type":"Feature","id":"631033311","properties":{"name":"INFO_SL","oid":"631033311","speedLimit":4.1666665},"geometry":{"type":"Polygon","coordinates":[[[-68.8159714480583,-21.0040344416374],[-68.8158177531723,-21.0045842999548],[-68.8185178972456,-21.0056078281344],[-68.8187981643907,-21.0050266087328],[-68.8184985651605,-21.004763247928],[-68.8176577637254,-21.0043184085726],[-68.81677829812,-21.0041185833359],[-68.8159714480583,-21.0040344416374]]]}},{"type":"Feature","id":"631627204","properties":{"name":"INFO_RED_VEL_15KPH_RPACONECCION","oid":"631627204","speedLimit":4.1666665},"geometry":{"type":"Polygon","coordinates":[[[-68.8140856560498,-21.0027943683348],[-68.8140528588307,-21.0026963988384],[-68.8143866017934,-21.0026359361141],[-68.8144427706378,-21.0027613804509],[-68.8140856560498,-21.0027943683348]]]}},{"type":"Feature","id":"631675188","properties":{"name":"ZD_STK_DIN_21-AutoClean-1","oid":"631675188","speedLimit":5},"geometry":{"type":"Polygon","coordinates":[[[-68.8236405150946,-21.0058081956377],[-68.8239221287531,-21.0057492693354],[-68.8238594197007,-21.0054846432418],[-68.8232076110384,-21.0053850469457],[-68.8230538199729,-21.0056144257112],[-68.8232771488373,-21.0057600242894],[-68.8234613326337,-21.0057861434632],[-68.8236405150946,-21.0058081956377]]]}},{"type":"Feature","id":"631678552","properties":{"name":"New Zone3205","oid":"631678552","speedLimit":4.1666665},"geometry":{"type":"Polygon","coordinates":[[[-68.8101597038901,-21.0026603381105],[-68.8101145956914,-21.0026038520078],[-68.8099265647138,-21.0027151070356],[-68.8099021351137,-21.0027946394681],[-68.8098645289182,-21.002934182736],[-68.8098645289182,-21.0030949647785],[-68.8099190627106,-21.0031798294991],[-68.8099886005095,-21.0032292661361],[-68.8100356322988,-21.0031763047663],[-68.8099641709094,-21.0030190474566],[-68.8099622473188,-21.0028865536543],[-68.8100205321129,-21.002739870543],[-68.810101419096,-21.0026921510835],[-68.8101597038901,-21.0026603381105]]]}}]}