{"type":"FeatureCollection","features":[{"type":"Feature","id":"551760555","properties":{"name":"ZD_BOT_PAD59_01-AutoClean-1","oid":"551760555","speedLimit":5},"geometry":{"type":"Polygon","coordinates":[[[-68.81953885841,-20.9847267371615],[-68.8197129153172,-20.9845105671156],[-68.8194275619448,-20.9842821013249],[-68.8192906999702,-20.9842199897308],[-68.8190238960086,-20.9842249622747],[-68.8189037573371,-20.9842399703164],[-68.8187851564406,-20.9842623015591],[-68.8185569890758,-20.9843355335696],[-68.8186336856036,-20.98459699897],[-68.81953885841,-20.9847267371615]]]}},{"type":"Feature","id":"553267213","properties":{"name":"ZD_BOT_PAD59_02-AutoClean-1","oid":"553267213","speedLimit":5},"geometry":{"type":"Polygon","coordinates":[[[-68.818339393914,-20.984947246882],[-68.8186122528646,-20.9848595492891],[-68.8187529592767,-20.9845753005965],[-68.8187231648862,-20.9843055174862],[-68.8185953373397,-20.9842916847732],[-68.8184363698496,-20.984333544552],[-68.8183555405514,-20.9843740481825],[-68.8182557773986,-20.9844621074149],[-68.8182157952488,-20.9846112837326],[-68.8182507796299,-20.9847333370834],[-68.8182836495704,-20.9848441796079],[-68.818339393914,-20.984947246882]]]}},{"type":"Feature","id":"553508825","properties":{"name":"ZD_STK_HG_02-AutoClean-1","oid":"553508825","speedLimit":5},"geometry":{"type":"Polygon","coordinates":[[[-68.8163615269378,-21.0204981332238],[-68.8164462006734,-21.0202388376606],[-68.8158718417128,-21.0197218739124],[-68.8155937927716,-21.0197937497746],[-68.8156288732636,-21.0200308949148],[-68.8157081647868,-21.0201642495018],[-68.8157750579991,-21.0202251857673],[-68.815969490425,-21.0203774360213],[-68.8161130801652,-21.0204476845054],[-68.8163615269378,-21.0204981332238]]]}},{"type":"Feature","id":"558966402","properties":{"name":"ZD_STK_BL_02-AutoClean-1","oid":"558966402","speedLimit":5},"geometry":{"type":"Polygon","coordinates":[[[-68.8233211121209,-20.9923489237161],[-68.8235134301062,-20.9921467672031],[-68.8232516239133,-20.9918917209048],[-68.8231377324527,-20.9917830482176],[-68.8230722809045,-20.9917247338389],[-68.8229717488642,-20.9916513210086],[-68.82294157003,-20.9916342335395],[-68.8228293124553,-20.9915786314575],[-68.8227099426713,-20.9915377661874],[-68.8225892273342,-20.9917841331363],[-68.8231952067932,-20.9922519139046],[-68.8233211121209,-20.9923489237161]]]}},{"type":"Feature","id":"570805601","properties":{"name":"ZD_STK_MAR_02-AutoClean-1-tmp-1","oid":"570805601","speedLimit":5},"geometry":{"type":"Polygon","coordinates":[[[-68.8065016020034,-20.986707256201],[-68.8068534641444,-20.9867016507878],[-68.8068577891366,-20.9864304211193],[-68.8062795857385,-20.9862084648406],[-68.8059975001378,-20.9862645189721],[-68.8060055734566,-20.9863792491218],[-68.8060345028486,-20.9865022065716],[-68.8060570889189,-20.9865299624077],[-68.8061424354311,-20.9866179312301],[-68.8062199969574,-20.9866490322321],[-68.806335426193,-20.9866832071704],[-68.8063830972178,-20.9866923385692],[-68.8065016020034,-20.986707256201]]]}},{"type":"Feature","id":"592941111","properties":{"name":"INFO_ESTACION","oid":"592941111","speedLimit":5.5555553},"geometry":{"type":"Polygon","coordinates":[[[-68.8219615268035,-21.0107401034394],[-68.8222061291386,-21.0106387539533],[-68.8220025661737,-21.0102342601076],[-68.8218068843056,-21.009793783126],[-68.8213968750476,-21.0098123171533],[-68.8218505186711,-21.0107787988722],[-68.8219615268035,-21.0107401034394]]]}},{"type":"Feature","id":"600121666","properties":{"name":"ZD_STK_3C_02-AutoClean-1","oid":"600121666","speedLimit":5},"geometry":{"type":"Polygon","coordinates":[[[-68.8050726245894,-20.9853168425103],[-68.805552025944,-20.9844696114357],[-68.8053601885134,-20.9842670932832],[-68.8051449000141,-20.9844475514227],[-68.8049717081053,-20.9847149838758],[-68.8048005345262,-20.9850311472594],[-68.8047677606966,-20.9851937042408],[-68.8047847723325,-20.9853020152884],[-68.8050726245894,-20.9853168425103]]]}},{"type":"Feature","id":"602013008","properties":{"name":"ZD_STK_3C_01-AutoClean-1","oid":"602013008","speedLimit":5},"geometry":{"type":"Polygon","coordinates":[[[-68.8048578166448,-20.9854543559522],[-68.8051222178329,-20.9853462257244],[-68.8054187200741,-20.9845734019889],[-68.8051702733015,-20.9844358885469],[-68.8048465716651,-20.9848873051252],[-68.8047517101701,-20.9850928068041],[-68.8047386390826,-20.9852526514887],[-68.8047828501138,-20.9853624090946],[-68.8048578166448,-20.9854543559522]]]}},{"type":"Feature","id":"606796346","properties":{"name":"ZD_STK_HG_03-AutoClean-1","oid":"606796346","speedLimit":5},"geometry":{"type":"Polygon","coordinates":[[[-68.8156322371464,-21.0199181537826],[-68.8158891416815,-21.0197950155131],[-68.815914418858,-21.0189055630201],[-68.8156498254479,-21.0187977944318],[-68.8155878338935,-21.0188969740806],[-68.8155352612108,-21.0190466024477],[-68.8154995079422,-21.0192276030465],[-68.815496816836,-21.0192715422528],[-68.815493645175,-21.0193852778938],[-68.81550133405,-21.0196765785578],[-68.8155591928342,-21.0198242179074],[-68.8156322371464,-21.0199181537826]]]}},{"type":"Feature","id":"607546676","properties":{"name":"ZD_STK_HG_01-AutoClean-1","oid":"607546676","speedLimit":5},"geometry":{"type":"Polygon","coordinates":[[[-68.8167262679444,-21.0205776035166],[-68.8168985948547,-21.0205712748244],[-68.8169601058545,-21.0205688337573],[-68.8171262816649,-21.0205291438158],[-68.8172261409286,-21.0204639582855],[-68.817314274658,-21.020391539964],[-68.8171550188351,-21.0201654248304],[-68.8163582591659,-21.0202165968278],[-68.8162778143115,-21.0204770677195],[-68.8164956978061,-21.0205522887476],[-68.8166661986086,-21.0205763377782],[-68.8167262679444,-21.0205776035166]]]}},{"type":"Feature","id":"615608482","properties":{"name":"INFO_SINGLE_LANE_903","oid":"615608482","speedLimit":3.6111112},"geometry":{"type":"Polygon","coordinates":[[[-68.8107917059063,-21.0011067488928],[-68.8103656461218,-21.0010152540846],[-68.8103321034047,-21.0013687567526],[-68.8103723738874,-21.0016022854971],[-68.8107716187204,-21.0018673672932],[-68.8110165093883,-21.0019273994598],[-68.8113789437324,-21.0020157299219],[-68.8115052335039,-21.0020442994469],[-68.8115975000036,-21.0016587012682],[-68.8110031499681,-21.0014949689583],[-68.8107547993064,-21.0013687567526],[-68.810865519106,-21.0010751958413],[-68.8107917059063,-21.0011067488928]]]}},{"type":"Feature","id":"619355510","properties":{"name":"VEL_10_KMH","oid":"619355510","speedLimit":2.7777777},"geometry":{"type":"Polygon","coordinates":[[[-68.815690960929,-21.0023218578077],[-68.8156470382308,-21.0017338318864],[-68.8170781300854,-21.001671991522],[-68.8170506423574,-21.0022703241707],[-68.8158606928441,-21.0023915638325],[-68.815690960929,-21.0023218578077]]]}},{"type":"Feature","id":"619770241","properties":{"name":"VEL_10_KMH_02","oid":"619770241","speedLimit":2.7777777},"geometry":{"type":"Polygon","coordinates":[[[-68.8105511402305,-20.996992466051],[-68.810293274586,-20.9972350357845],[-68.8099504468731,-20.997201945765],[-68.8095811886525,-20.9972763531041],[-68.80956657979,-20.9969732087445],[-68.8105511402305,-20.996992466051]]]}},{"type":"Feature","id":"619990689","properties":{"name":"ZD_BOT_NRT_03-AutoClean-1","oid":"619990689","speedLimit":5},"geometry":{"type":"Polygon","coordinates":[[[-68.7920185487687,-20.9917292543334],[-68.7921386874402,-20.9915812533443],[-68.7921672323885,-20.9914969009174],[-68.7921767473713,-20.9905151399272],[-68.7919133072925,-20.9904049302719],[-68.7918565057286,-20.9905004935251],[-68.7917960519491,-20.9906526533692],[-68.7917821158632,-20.990706808893],[-68.7917511681414,-20.9908669248073],[-68.7917213737509,-20.9912474600322],[-68.7917286781821,-20.9913571272282],[-68.7917715436601,-20.9915894806442],[-68.7918827440144,-20.9917061094017],[-68.7920185487687,-20.9917292543334]]]}},{"type":"Feature","id":"620034757","properties":{"name":"VEL_10_KMH_03","oid":"620034757","speedLimit":2.7777777},"geometry":{"type":"Polygon","coordinates":[[[-68.8141285815342,-21.0025175952185],[-68.8141857675419,-21.002861695258],[-68.8146974621714,-21.0028102520308],[-68.8148629652052,-21.0028016630913],[-68.8150648942843,-21.0024589192002],[-68.8152850844414,-21.002300340254],[-68.8154384774971,-21.0022403984973],[-68.815405030891,-21.0020603924073],[-68.8153306410256,-21.001846211379],[-68.8150695076092,-21.0018947614897],[-68.8148959312567,-21.0020838989786],[-68.8146866016355,-21.0023206824792],[-68.8145819368249,-21.0024348701696],[-68.8141653920232,-21.00250819259],[-68.8141285815342,-21.0025175952185]]]}},{"type":"Feature","id":"620143635","properties":{"name":"VEL_20_KMH_04","oid":"620143635","speedLimit":5.5555553},"geometry":{"type":"Polygon","coordinates":[[[-68.8061317671171,-21.0002959530037],[-68.8063267762086,-20.9999671322355],[-68.8060643933501,-20.9999477845192],[-68.8059113847381,-21.0002167539405],[-68.8056985951232,-21.0003606864846],[-68.8058316126603,-21.0005483774152],[-68.8061317671171,-21.0002959530037]]]}},{"type":"Feature","id":"620143794","properties":{"name":"VEL_20_ KMH_02","oid":"620143794","speedLimit":5.5555553},"geometry":{"type":"Polygon","coordinates":[[[-68.807062024878,-20.9983711264561],[-68.8067560076541,-20.9982272843219],[-68.80648997258,-20.9985024920255],[-68.8063902094272,-20.9987277934702],[-68.8065365863845,-20.9989217226832],[-68.807062024878,-20.9983711264561]]]}},{"type":"Feature","id":"620970737","properties":{"name":"ZD_BOT_NRT_02-AutoClean-1","oid":"620970737","speedLimit":5},"geometry":{"type":"Polygon","coordinates":[[[-68.7921060097215,-20.9906520204999],[-68.79370875571,-20.9903885660819],[-68.7937955438862,-20.990129903388],[-68.7936879957475,-20.9900896709872],[-68.7933040325535,-20.9899778339539],[-68.7932454048818,-20.9899687929649],[-68.793130263979,-20.9899571300892],[-68.7930725013058,-20.9899551410716],[-68.7926690275915,-20.989947456231],[-68.7924979501233,-20.9899716860814],[-68.792388383655,-20.9900098390548],[-68.7922280706117,-20.9900733067972],[-68.7921191769199,-20.9901214952683],[-68.7919927910375,-20.9902302583654],[-68.7918901445566,-20.9904316011893],[-68.7918470868568,-20.9905327698557],[-68.7921060097215,-20.9906520204999]]]}},{"type":"Feature","id":"621013260","properties":{"name":"ZD_STK_3C_04_-AutoClean-2","oid":"621013260","speedLimit":5},"geometry":{"type":"Polygon","coordinates":[[[-68.8078953067034,-20.9864302402995],[-68.8079233710971,-20.9861602763695],[-68.80713708752,-20.9858404061804],[-68.8069404445425,-20.9860386750681],[-68.807069713753,-20.9861686844892],[-68.8071512158278,-20.9862237441119],[-68.8074826063392,-20.9863844928954],[-68.8075579573139,-20.9863985968382],[-68.807608319445,-20.9864038406118],[-68.8077684402663,-20.9864202952117],[-68.8078953067034,-20.9864302402995]]]}},{"type":"Feature","id":"621013480","properties":{"name":"ZD_STK_3C_04_-AutoClean-1","oid":"621013480","speedLimit":5},"geometry":{"type":"Polygon","coordinates":[[[-68.8070244455016,-20.9861232083148],[-68.8072434823274,-20.9859467282104],[-68.8068048320102,-20.9854382629919],[-68.8066723911387,-20.9853372751453],[-68.8065455247016,-20.9853198260366],[-68.8064196193739,-20.9855638423284],[-68.8070244455016,-20.9861232083148]]]}},{"type":"Feature","id":"621174471","properties":{"name":"ZD_STK_MAR_01-AutoClean-1","oid":"621174471","speedLimit":5},"geometry":{"type":"Polygon","coordinates":[[[-68.8068855651974,-20.9870294770472],[-68.8071347808575,-20.9870090444122],[-68.807296247232,-20.98698626112],[-68.8075074990719,-20.9869353603522],[-68.8076458027105,-20.9868553476],[-68.8077314375555,-20.9867646664808],[-68.8075499801061,-20.9865539210284],[-68.8068471208225,-20.9867606884457],[-68.8068855651974,-20.9870294770472]]]}},{"type":"Feature","id":"621174472","properties":{"name":"ZD_STK_MAR_01-AutoClean-2","oid":"621174472","speedLimit":5},"geometry":{"type":"Polygon","coordinates":[[[-68.806603191264,-20.9870671779711],[-68.8069514011894,-20.9870647369041],[-68.8069625500581,-20.9867936880554],[-68.8062210541777,-20.9866038272874],[-68.8060409422814,-20.9868156576585],[-68.8061243665749,-20.9868924156547],[-68.8062125003043,-20.9869726092267],[-68.8063731016803,-20.987029657867],[-68.806603191264,-20.9870671779711]]]}},{"type":"Feature","id":"621228408","properties":{"name":"ZD_STK_DIN_21-AutoClean-1","oid":"621228408","speedLimit":5},"geometry":{"type":"Polygon","coordinates":[[[-68.8244868416779,-21.0058480243183],[-68.8247643139536,-21.0057743402583],[-68.8247447073224,-21.0056660292107],[-68.8245874698292,-21.0052444478959],[-68.8244611800577,-21.0051381258658],[-68.82433527473,-21.0051131727363],[-68.8242258043726,-21.0052948062044],[-68.8241956255383,-21.0053504082864],[-68.8244868416779,-21.0058480243183]]]}},{"type":"Feature","id":"621341013","properties":{"name":"ZD_STK_DIN_22-AutoClean-1","oid":"621341013","speedLimit":5},"geometry":{"type":"Polygon","coordinates":[[[-68.8241641011509,-21.0053595396852],[-68.8243901540751,-21.005191196471],[-68.8242019688601,-21.0049168928662],[-68.8241304623229,-21.0048220528921],[-68.8240879812886,-21.0047951107451],[-68.823986488139,-21.0047366155465],[-68.823813584563,-21.0046811942843],[-68.823758416885,-21.0046750464118],[-68.8236432759823,-21.0046632931262],[-68.8235254439733,-21.0046931283897],[-68.823538226728,-21.0049640868285],[-68.8241641011509,-21.0053595396852]]]}},{"type":"Feature","id":"621360195","properties":{"name":"ZD_STK_DIN_21-AutoClean-2","oid":"621360195","speedLimit":5},"geometry":{"type":"Polygon","coordinates":[[[-68.8244847272373,-21.0063441937919],[-68.8245929481526,-21.006290038268],[-68.8246992468491,-21.0061630123733],[-68.8247894950191,-21.005889974507],[-68.8247764239317,-21.0057285024443],[-68.824716258485,-21.0056276050076],[-68.8244373445453,-21.0056965877533],[-68.8242920248083,-21.0061424893284],[-68.8244847272373,-21.0063441937919]]]}}]}