{"type":"FeatureCollection","features":[{"type":"Feature","id":"553508825","properties":{"name":"ZD_STK_HG_02-AutoClean-1","oid":"553508825","speedLimit":5},"geometry":{"type":"Polygon","coordinates":[[[-68.81572726357,-21.0200480375603],[-68.8159960860818,-21.0199494922833],[-68.8158662433659,-21.0189946879984],[-68.8155897264709,-21.018917117496],[-68.8155458684868,-21.0190256077092],[-68.815514706235,-21.0191359060927],[-68.8154876797142,-21.0192512673527],[-68.815484121062,-21.0194056850895],[-68.8154894109504,-21.0196053974904],[-68.8154959511761,-21.0196392102735],[-68.8155315376982,-21.0197540290825],[-68.8155925156848,-21.0198587221383],[-68.81572726357,-21.0200480375603]]]}},{"type":"Feature","id":"558966402","properties":{"name":"ZD_STK_BL_02-AutoClean-1","oid":"558966402","speedLimit":5},"geometry":{"type":"Polygon","coordinates":[[[-68.8233381626772,-20.9923335797327],[-68.8235306184361,-20.9921314263021],[-68.8232686246894,-20.9918763838925],[-68.8231546516388,-20.9917677128623],[-68.8230891532021,-20.9917093993727],[-68.8229885491422,-20.9916359876617],[-68.8229583486883,-20.9916189004531],[-68.8228460106941,-20.9915632992189],[-68.8227265553954,-20.9915224345719],[-68.8226057535798,-20.9917687977644],[-68.8232121671529,-20.9922365714004],[-68.8233381626772,-20.9923335797327]]]}},{"type":"Feature","id":"592941111","properties":{"name":"INFO_ESTACION","oid":"592941111","speedLimit":5.5555553},"geometry":{"type":"Polygon","coordinates":[[[-68.8219776033742,-21.0107244790444],[-68.8222567171234,-21.0106257529504],[-68.8218339107686,-21.0097420097551],[-68.8212851088894,-21.0090401684841],[-68.8208550890502,-21.0093247744768],[-68.8218665157172,-21.0107631738871],[-68.8219776033742,-21.0107244790444]]]}},{"type":"Feature","id":"607546676","properties":{"name":"ZD_STK_HG_01-AutoClean-1","oid":"607546676","speedLimit":5},"geometry":{"type":"Polygon","coordinates":[[[-68.8168108250791,-21.020594647418],[-68.8170918624242,-21.0205335312645],[-68.8173096134678,-21.0203985513576],[-68.8171832332243,-21.0201547196033],[-68.8158423907781,-21.0198696615681],[-68.8156213696216,-21.0200439691773],[-68.8156872527775,-21.0201334736032],[-68.8157636195304,-21.0202153837142],[-68.8158068042559,-21.0202517279357],[-68.8158959629208,-21.0203208000381],[-68.8160457148532,-21.020406236081],[-68.8160972672204,-21.0204280245322],[-68.8163651279343,-21.0205284683879],[-68.8164754461529,-21.0205648126093],[-68.8165909580802,-21.0205910310775],[-68.8168108250791,-21.020594647418]]]}},{"type":"Feature","id":"619770241","properties":{"name":"VEL_10_KMH_02","oid":"619770241","speedLimit":2.7777777},"geometry":{"type":"Polygon","coordinates":[[[-68.8105590425781,-20.9969770512672],[-68.8103009922027,-20.9972196173023],[-68.8099579188934,-20.9971865277873],[-68.8095883961419,-20.9972609339918],[-68.8095737768138,-20.9969577942544],[-68.8105590425781,-20.9969770512672]]]}},{"type":"Feature","id":"622898566","properties":{"name":"INFO_RED_VEL_20KPH_902","oid":"622898566","speedLimit":3.6111112},"geometry":{"type":"Polygon","coordinates":[[[-68.8075774691018,-21.0003332864218],[-68.8076003598917,-21.0000105280375],[-68.8076815356341,-20.9999968763523],[-68.8078396552081,-21.0005679869164],[-68.8079519932023,-21.0008163390962],[-68.8078021450902,-21.000884778339],[-68.8075774691018,-21.0003332864218]]]}},{"type":"Feature","id":"623520976","properties":{"name":"ZD_STK_DIN_22-AutoClean-1","oid":"623520976","speedLimit":5},"geometry":{"type":"Polygon","coordinates":[[[-68.8241976252767,-21.0047793961768],[-68.8244015264306,-21.0045874589079],[-68.8242516783184,-21.0044174909071],[-68.8240340234547,-21.0042789850683],[-68.8238762885998,-21.0042868506087],[-68.8237699137526,-21.0043880177325],[-68.823800787465,-21.0045486736566],[-68.823885810399,-21.0046363699123],[-68.8241976252767,-21.0047793961768]]]}},{"type":"Feature","id":"623816501","properties":{"name":"ZD_STK_DIN_21-AutoClean-1","oid":"623816501","speedLimit":5},"geometry":{"type":"Polygon","coordinates":[[[-68.8243080396751,-21.0050215101693],[-68.8245921547735,-21.0049743169265],[-68.8245995606173,-21.0048578707643],[-68.8245419489234,-21.004707250185],[-68.8243766158651,-21.0045419834268],[-68.8242796666372,-21.0044788782861],[-68.8240853834623,-21.0046794043636],[-68.8243080396751,-21.0050215101693]]]}},{"type":"Feature","id":"623885777","properties":{"name":"VELO_REDUC_15KM_901","oid":"623885777","speedLimit":4.1666665},"geometry":{"type":"Polygon","coordinates":[[[-68.8075914151713,-20.9991330230295],[-68.8077247203596,-20.9991297683231],[-68.8077046187836,-20.9994390558393],[-68.8077050035028,-20.9997288151171],[-68.8077201037297,-20.9998533980453],[-68.8075051419,-20.9998314287772],[-68.8075914151713,-20.9991330230295]]]}},{"type":"Feature","id":"624057522","properties":{"name":"VEL_10KPH","oid":"624057522","speedLimit":2.7777777},"geometry":{"type":"Polygon","coordinates":[[[-68.8103175351265,-21.0009158788668],[-68.810725914513,-21.0014330155499],[-68.8106442578716,-21.0015956604612],[-68.8104544951468,-21.0014510972521],[-68.8102405912949,-21.0011665816679],[-68.810163743643,-21.0009723841862],[-68.8103175351265,-21.0009158788668]]]}},{"type":"Feature","id":"624400171","properties":{"name":"VEL_15KPH","oid":"624400171","speedLimit":4.1666665},"geometry":{"type":"Polygon","coordinates":[[[-68.8092502280018,-21.0025716203376],[-68.8091217318029,-21.0027359830107],[-68.8095052006239,-21.0029874994883],[-68.8096189813149,-21.0028350707388],[-68.8092502280018,-21.0025716203376]]]}},{"type":"Feature","id":"624681300","properties":{"name":"ZD_STK_DIN_13-AutoClean-1","oid":"624681300","speedLimit":5},"geometry":{"type":"Polygon","coordinates":[[[-68.8258865423814,-21.0051042339569],[-68.825998688016,-21.0048543448324],[-68.8256323391976,-21.0046596048996],[-68.825442480293,-21.004863837726],[-68.8255129800787,-21.0049602131988],[-68.8256596542578,-21.0050423041268],[-68.8258865423814,-21.0051042339569]]]}},{"type":"Feature","id":"624692864","properties":{"name":"TRC_10_02","oid":"624692864","speedLimit":8.333333},"geometry":{"type":"Polygon","coordinates":[[[-68.8240757654834,-21.0150397676839],[-68.8227927270906,-21.0146560739631],[-68.8198767482308,-21.0195898472265],[-68.8180396180705,-21.0223309428721],[-68.8152985902479,-21.0232354800248],[-68.8143071689771,-21.023043542756],[-68.8137823158655,-21.0225775772902],[-68.8143071689771,-21.0215908588009],[-68.8152403052954,-21.0193980003661],[-68.816056775529,-21.0179452260025],[-68.8168441032863,-21.0171229605948],[-68.817077339276,-21.0163006047786],[-68.8163775351272,-21.0156427924524],[-68.8159401094443,-21.0158621235001],[-68.8152111628192,-21.017095566816],[-68.8134031751351,-21.0198639658319],[-68.8123534689118,-21.0224953959536],[-68.8188853269601,-21.0234273268852],[-68.8207806458931,-21.0210426215901],[-68.8229093931754,-21.0169859012921],[-68.8233467226785,-21.0158072455339],[-68.8240757654834,-21.0150397676839]]]}},{"type":"Feature","id":"624708321","properties":{"name":"ZD_STK_DIN_12-AutoClean-1","oid":"624708321","speedLimit":5},"geometry":{"type":"Polygon","coordinates":[[[-68.8264601586463,-21.0051997053445],[-68.8264741047158,-21.0049288414455],[-68.8259205900268,-21.0048450327558],[-68.8258234484394,-21.0051004367994],[-68.8259329972197,-21.005154501089],[-68.8260515869002,-21.0051818948678],[-68.8260950601651,-21.0051917493955],[-68.8262176893968,-21.0051980779913],[-68.8264601586463,-21.0051997053445]]]}}]}