{"type":"FeatureCollection","features":[{"type":"Feature","id":"553508825","properties":{"name":"ZD_STK_HG_02-AutoClean-1","oid":"553508825","speedLimit":5},"geometry":{"type":"Polygon","coordinates":[[[-68.816372833367,-21.0204834123016],[-68.8164575711884,-21.0202242057761],[-68.8158827775216,-21.0197074195443],[-68.8156045181378,-21.0197792707256],[-68.8156396251807,-21.0200163344342],[-68.815718976716,-21.0201496432296],[-68.8157859205567,-21.0202105585706],[-68.8159805001397,-21.0203627565445],[-68.8161241985564,-21.0204329809065],[-68.816372833367,-21.0204834123016]]]}},{"type":"Feature","id":"558966402","properties":{"name":"ZD_STK_BL_02-AutoClean-1","oid":"558966402","speedLimit":5},"geometry":{"type":"Polygon","coordinates":[[[-68.8233376859436,-20.9923438687443],[-68.8235301494857,-20.9921417816484],[-68.8232681451436,-20.9918868229286],[-68.8231541674838,-20.9917781875577],[-68.8230886663982,-20.9917198932031],[-68.8229880582698,-20.9916465055815],[-68.8229578565946,-20.9916294239799],[-68.8228455140573,-20.9915738409907],[-68.8227260539277,-20.9915329897531],[-68.8226052472267,-20.9917792721038],[-68.8232116853239,-20.9922468922443],[-68.8233376859436,-20.9923438687443]]]}},{"type":"Feature","id":"570805601","properties":{"name":"ZD_STK_MAR_02-AutoClean-1-tmp-1","oid":"570805601","speedLimit":5},"geometry":{"type":"Polygon","coordinates":[[[-68.806505445904,-20.98670413848],[-68.8068575743534,-20.9866985349916],[-68.806861902619,-20.9864273984587],[-68.8062832616051,-20.9862055183959],[-68.8060009625067,-20.9862615532793],[-68.8060090419357,-20.9863762440328],[-68.8060379932232,-20.9864991592611],[-68.8060605963878,-20.9865269055663],[-68.8061460074949,-20.9866148441818],[-68.806223627724,-20.9866459345042],[-68.8063391443227,-20.9866800977074],[-68.8063868514275,-20.9866892259707],[-68.806505445904,-20.98670413848]]]}},{"type":"Feature","id":"592941111","properties":{"name":"INFO_ESTACION","oid":"592941111","speedLimit":5.5555553},"geometry":{"type":"Polygon","coordinates":[[[-68.8203801339926,-21.008531713929],[-68.8205724051673,-21.0083570116229],[-68.8202326844124,-21.0080437585485],[-68.8198864231674,-21.0076943539364],[-68.8195082289409,-21.007844925091],[-68.8202902984363,-21.0086040170044],[-68.8203801339926,-21.008531713929]]]}},{"type":"Feature","id":"600880362","properties":{"name":"VEL_15_KPH_RC_002","oid":"600880362","speedLimit":4.1666665},"geometry":{"type":"Polygon","coordinates":[[[-68.8105519894706,-21.0009333837294],[-68.8108667024689,-21.0010320774274],[-68.810790813546,-21.0012907416799],[-68.8107812913618,-21.0014304673732],[-68.8108330381812,-21.001537385546],[-68.8109932801907,-21.0015602513936],[-68.8111193769941,-21.0015662163974],[-68.8112139255507,-21.0015957702795],[-68.8112013254887,-21.0017616154588],[-68.8110280986825,-21.0019387579936],[-68.8103194173344,-21.0017485105264],[-68.8102529544121,-21.0013323159483],[-68.8103763580724,-21.000844812462],[-68.8105519894706,-21.0009333837294]]]}},{"type":"Feature","id":"603087867","properties":{"name":"ZD_BOT_NRT_04-AutoClean-1","oid":"603087867","speedLimit":5},"geometry":{"type":"Polygon","coordinates":[[[-68.793371372145,-20.9926180781579],[-68.7935191102762,-20.9926172647483],[-68.7935321912566,-20.9926149148984],[-68.7937934261292,-20.9925332124231],[-68.7937039753076,-20.9922754519591],[-68.7925573696681,-20.9917799047557],[-68.7923454770229,-20.9919640064616],[-68.792656919776,-20.9923597754209],[-68.7927697432317,-20.9924564807843],[-68.7929884649182,-20.9925625855475],[-68.7931378381719,-20.992605244362],[-68.793371372145,-20.9926180781579]]]}},{"type":"Feature","id":"604050980","properties":{"name":"VEL_10_KPH_901_002","oid":"604050980","speedLimit":2.7777777},"geometry":{"type":"Polygon","coordinates":[[[-68.8165627961334,-21.0014696014128],[-68.816651669853,-21.0016416827324],[-68.8167050517949,-21.0018353645957],[-68.8164769041079,-21.001866003024],[-68.8161718094776,-21.002000667502],[-68.8160296499998,-21.002055798597],[-68.8157257095736,-21.0021026148384],[-68.8153311641216,-21.0021208713649],[-68.8151693831732,-21.0018771196218],[-68.8151771740512,-21.0017247408903],[-68.8151911206847,-21.0016591258493],[-68.8153477077144,-21.0016643678223],[-68.8155853775856,-21.0016774727547],[-68.8158342047637,-21.0016774727547],[-68.8159767489762,-21.001651172511],[-68.8161305466792,-21.0015776041317],[-68.8165627961334,-21.0014696014128]]]}},{"type":"Feature","id":"606156222","properties":{"name":"VEL_30KMH","oid":"606156222","speedLimit":8.333333},"geometry":{"type":"Polygon","coordinates":[[[-68.8182928519708,-21.0229230988252],[-68.8181904163525,-21.0230006438736],[-68.8182818870314,-21.023099066435],[-68.8184122159166,-21.0230219732808],[-68.8182928519708,-21.0229230988252]]]}},{"type":"Feature","id":"606156969","properties":{"name":"VEL_30KMH_2","oid":"606156969","speedLimit":8.333333},"geometry":{"type":"Polygon","coordinates":[[[-68.813189826872,-21.0229396381537],[-68.8130275650053,-21.0229702765819],[-68.8130898920294,-21.0231181363712],[-68.8132435935487,-21.0230760198297],[-68.813189826872,-21.0229396381537]]]}},{"type":"Feature","id":"606157392","properties":{"name":"VEL_20KH","oid":"606157392","speedLimit":5.5555553},"geometry":{"type":"Polygon","coordinates":[[[-68.8236966434343,-21.0147528512988],[-68.8235411144251,-21.0146633762429],[-68.8233971274574,-21.0148780259982],[-68.8235593893241,-21.014964066658],[-68.8236966434343,-21.0147528512988]]]}},{"type":"Feature","id":"606157536","properties":{"name":"VEL_20KMH_2","oid":"606157536","speedLimit":5.5555553},"geometry":{"type":"Polygon","coordinates":[[[-68.8218515519167,-21.0175107617332],[-68.821692271744,-21.0174468638902],[-68.8216059949837,-21.0176131609638],[-68.8217501743188,-21.0176844698719],[-68.8218515519167,-21.0175107617332]]]}},{"type":"Feature","id":"606221546","properties":{"name":"ZD_BOT_NRT_03-AutoClean-1","oid":"606221546","speedLimit":5},"geometry":{"type":"Polygon","coordinates":[[[-68.7924214621294,-20.9920470646195],[-68.7926611518579,-20.9918960415707],[-68.7924829235004,-20.9904102133701],[-68.7922826690804,-20.9902149046875],[-68.7921785983395,-20.9902745547248],[-68.7920969383959,-20.9903583359135],[-68.7920749123334,-20.9904030734414],[-68.7920729886598,-20.9914827391156],[-68.7922242855871,-20.9917775549058],[-68.7922894019379,-20.9918688375385],[-68.7923546144724,-20.9919585837309],[-68.7924214621294,-20.9920470646195]]]}},{"type":"Feature","id":"606796346","properties":{"name":"ZD_STK_HG_03-AutoClean-1","oid":"606796346","speedLimit":5},"geometry":{"type":"Polygon","coordinates":[[[-68.8156300068128,-21.0198921539021],[-68.8158932615427,-21.0197811686813],[-68.815952510689,-21.0188816280438],[-68.8157028178579,-21.0187456982619],[-68.81562365869,-21.0188349925601],[-68.8155680645234,-21.0189391089888],[-68.8155581576044,-21.0189803217418],[-68.8155117970711,-21.0191896391452],[-68.8155018901521,-21.0194159477714],[-68.8155118932547,-21.019644877384],[-68.8155635438905,-21.0197949062656],[-68.8156300068128,-21.0198921539021]]]}},{"type":"Feature","id":"607457029","properties":{"name":"ZD_STK_DIN_21-AutoClean-1","oid":"607457029","speedLimit":5},"geometry":{"type":"Polygon","coordinates":[[[-68.8239234445498,-21.0062191904394],[-68.8239791349,-21.0061120915089],[-68.8240171274533,-21.0059879109768],[-68.8239741333487,-21.0058409549759],[-68.8238428426267,-21.0056885762444],[-68.8237256909054,-21.0055723490506],[-68.8236279682874,-21.0055076377981],[-68.823435312378,-21.0057094537575],[-68.8236450889823,-21.0061478815312],[-68.8239234445498,-21.0062191904394]]]}},{"type":"Feature","id":"607546676","properties":{"name":"ZD_STK_HG_01-AutoClean-1","oid":"607546676","speedLimit":5},"geometry":{"type":"Polygon","coordinates":[[[-68.8167378504295,-21.0205628553058],[-68.8169103077663,-21.0205565287867],[-68.816971865321,-21.0205540885579],[-68.8171381669023,-21.0205144122452],[-68.8172381017449,-21.0204492490985],[-68.8173263021787,-21.0203768556442],[-68.8171669258224,-21.0201508181545],[-68.816369563122,-21.0202019725804],[-68.8162890573825,-21.0204623540309],[-68.8165071057832,-21.0205375492294],[-68.81667773563,-21.020561590002],[-68.8167378504295,-21.0205628553058]]]}},{"type":"Feature","id":"607691021","properties":{"name":"VEL_13_KPH_901_001","oid":"607691021","speedLimit":3.6111112},"geometry":{"type":"Polygon","coordinates":[[[-68.8149047818718,-21.0017837582756],[-68.8151905435826,-21.0021619937391],[-68.8145360136458,-21.0025690600539],[-68.8143301805724,-21.002141748878],[-68.8149047818718,-21.0017837582756]]]}},{"type":"Feature","id":"608715834","properties":{"name":"INFO_RESTRICCION VELOCIDAD","oid":"608715834","speedLimit":2.7777777},"geometry":{"type":"Polygon","coordinates":[[[-68.8173465007514,-21.0014947267315],[-68.8174917381069,-21.0011491180308],[-68.8172408910716,-21.0010728382862],[-68.8167297710005,-21.0012284706561],[-68.8166070406258,-21.0014557734496],[-68.8164617070866,-21.0015479598708],[-68.8158109283133,-21.0017305251363],[-68.8158505559891,-21.0019645159643],[-68.8165391349484,-21.0018386182341],[-68.8170767055313,-21.0017766183469],[-68.8173993055912,-21.0016383387151],[-68.8173465007514,-21.0014947267315]]]}},{"type":"Feature","id":"610258504","properties":{"name":"ZD_STK_MAR_01-AutoClean-1","oid":"610258504","speedLimit":5},"geometry":{"type":"Polygon","coordinates":[[[-68.8067460012856,-20.9870610445362],[-68.8069167273161,-20.9870394439924],[-68.807025895792,-20.9869950679798],[-68.8069555855225,-20.9867320655429],[-68.8062822035846,-20.9864827103114],[-68.8060002892209,-20.9865407335294],[-68.8060021167108,-20.9866539782214],[-68.8060374161211,-20.9867608060154],[-68.806062039143,-20.9868055435433],[-68.8060990698594,-20.9868575113788],[-68.8061818840072,-20.9869426482501],[-68.8062267056017,-20.9869654237189],[-68.8063370282817,-20.9870107938987],[-68.806513236782,-20.9870419746],[-68.806684732282,-20.9870608637785],[-68.8067460012856,-20.9870610445362]]]}},{"type":"Feature","id":"610291621","properties":{"name":"ZD_STK_MAR_02-AutoClean-1","oid":"610291621","speedLimit":5},"geometry":{"type":"Polygon","coordinates":[[[-68.8068599789454,-20.9870357384598],[-68.8070899541223,-20.987018747237],[-68.8072605839692,-20.9869947064645],[-68.8074343878774,-20.9869505112096],[-68.807585011519,-20.9868739603284],[-68.8077469848348,-20.9867120918183],[-68.8075555793132,-20.9865091913128],[-68.8068094825138,-20.9867687593537],[-68.8068599789454,-20.9870357384598]]]}},{"type":"Feature","id":"610367080","properties":{"name":"ZD_STK_MAR_03-AutoClean-1","oid":"610367080","speedLimit":5},"geometry":{"type":"Polygon","coordinates":[[[-68.8077179373637,-20.986428392626],[-68.8080034105235,-20.9863889874498],[-68.8079830195835,-20.9861707225408],[-68.8079346391928,-20.9860150901709],[-68.8078446112692,-20.9858165278499],[-68.8075712572529,-20.9859033819193],[-68.8077179373637,-20.986428392626]]]}},{"type":"Feature","id":"610544737","properties":{"name":"ZD_STK_DIN_22.-AutoClean-1","oid":"610544737","speedLimit":5},"geometry":{"type":"Polygon","coordinates":[[[-68.8236473012069,-21.0058808120463],[-68.823832262422,-21.0056726695678],[-68.8236615363914,-21.0055242675054],[-68.8235648717938,-21.0054595562529],[-68.8235145677296,-21.0054390402552],[-68.823325278249,-21.0053704427124],[-68.8231661904436,-21.0054179819845],[-68.8230861656226,-21.0055220984132],[-68.823166382811,-21.0056891185175],[-68.8232475618362,-21.005746870599],[-68.8236473012069,-21.0058808120463]]]}},{"type":"Feature","id":"610786215","properties":{"name":"VELO_20KH_","oid":"610786215","speedLimit":5.5555553},"geometry":{"type":"Polygon","coordinates":[[[-68.8063788681822,-20.9994299316542],[-68.806200832192,-20.9993809463206],[-68.8061425448824,-20.9996895900739],[-68.8060535749792,-21.0000443270379],[-68.8059276705431,-21.000225988515],[-68.8057005808766,-21.0003557725354],[-68.8053966404504,-21.0005634631196],[-68.805221682338,-21.0007077077552],[-68.8050835625747,-21.0008893692323],[-68.8049730475273,-21.0011778585033],[-68.8049423649336,-21.0013912429548],[-68.8050436463478,-21.0014835197548],[-68.8051418498843,-21.0014575810265],[-68.8052033112553,-21.0011172142988],[-68.8053782693677,-21.0008403838986],[-68.805722029837,-21.000589401848],[-68.8060504971014,-21.0003327259301],[-68.8062345926634,-21.0001077729866],[-68.8063175029948,-20.9996318379924],[-68.8063788681822,-20.9994299316542]]]}},{"type":"Feature","id":"610889233","properties":{"name":"VEL_15_KMH","oid":"610889233","speedLimit":4.1666665},"geometry":{"type":"Polygon","coordinates":[[[-68.8112876984326,-20.9971969415476],[-68.8112720204929,-20.9974134892586],[-68.8100070127444,-20.9973281716296],[-68.8100475060733,-20.9971702797886],[-68.8105483344908,-20.9971296996875],[-68.8112876984326,-20.9971969415476]]]}},{"type":"Feature","id":"611100302","properties":{"name":"TRAC_BOT6","oid":"611100302","speedLimit":2.7777777},"geometry":{"type":"Polygon","coordinates":[[[-68.8241705404216,-21.0149696701463],[-68.8231294482782,-21.0147016968729],[-68.8216844808659,-21.01702380052],[-68.822694794232,-21.0170378996197],[-68.8237997523384,-21.0152511098675],[-68.8241705404216,-21.0149696701463]]]}},{"type":"Feature","id":"611100742","properties":{"name":"TRAC_CAM_CH","oid":"611100742","speedLimit":5.5555553},"geometry":{"type":"Polygon","coordinates":[[[-68.8258446173577,-21.002697307634],[-68.8249155792005,-21.0019949736348],[-68.8222122407136,-21.0045569427347],[-68.8235059111985,-21.004739056106],[-68.8258446173577,-21.002697307634]]]}},{"type":"Feature","id":"611101069","properties":{"name":"TRAC_RPA_SUR","oid":"611101069","speedLimit":4.1666665},"geometry":{"type":"Polygon","coordinates":[[[-68.821915321696,-21.0048485952653],[-68.8221497213221,-21.0056398620473],[-68.8212468451257,-21.0061374879641],[-68.8200747508112,-21.0062108755857],[-68.8186683530543,-21.005688847381],[-68.8170882475728,-21.0048158781237],[-68.8140843350884,-21.0044732519249],[-68.8113582972532,-21.0041062234381],[-68.8103425014174,-21.0036248657132],[-68.8099084244732,-21.003339358944],[-68.8103425014174,-21.0029722400784],[-68.8119659857382,-21.0034535978033],[-68.813632945082,-21.0037635972393],[-68.8158468048256,-21.0038941042905],[-68.8173053341367,-21.0041796110597],[-68.8181040434086,-21.0046038493549],[-68.8187899292248,-21.0050524899381],[-68.8199097958014,-21.0053379967073],[-68.821316289742,-21.0052727431817],[-68.8218719428566,-21.0049953705085],[-68.821915321696,-21.0048485952653]]]}},{"type":"Feature","id":"611176514","properties":{"name":"TR_RMP CORTA","oid":"611176514","speedLimit":5.5555553},"geometry":{"type":"Polygon","coordinates":[[[-68.8148215829893,-21.002351879691],[-68.8141425262143,-21.0029879659973],[-68.8116387688616,-21.003004414947],[-68.811113990708,-21.0031400735923],[-68.8109746205569,-21.0032402133518],[-68.8098322469993,-21.0021577459334],[-68.8103888619507,-21.0023835122865],[-68.8115094979968,-21.0024277979203],[-68.8122911827575,-21.0024985645554],[-68.8134802053995,-21.0025560455003],[-68.8148215829893,-21.002351879691]]]}},{"type":"Feature","id":"611187609","properties":{"name":"TR_INT NORTESUR","oid":"611187609","speedLimit":5.5555553},"geometry":{"type":"Polygon","coordinates":[[[-68.8109746205569,-21.0032402133518],[-68.8103135501299,-21.0037152445576],[-68.809786175017,-21.003604711231],[-68.8081287378574,-21.0031577878458],[-68.808632547969,-21.0016712366145],[-68.8098322469993,-21.0021577459334],[-68.8109746205569,-21.0032402133518]]]}},{"type":"Feature","id":"611197820","properties":{"name":"TRAC_CAM_CH1","oid":"611197820","speedLimit":2.7777777},"geometry":{"type":"Polygon","coordinates":[[[-68.8222864945139,-21.0076575697467],[-68.8234375246026,-21.0124940128427],[-68.8229626657785,-21.0146580438911],[-68.8240784926406,-21.0152604188885],[-68.824624623571,-21.0142788142603],[-68.8238212974825,-21.010436448073],[-68.8232238044675,-21.0088799436161],[-68.8231621507291,-21.0076766396829],[-68.8222864945139,-21.0076575697467]]]}},{"type":"Feature","id":"611200085","properties":{"name":"TRAC_BOT61","oid":"611200085","speedLimit":1.3888888},"geometry":{"type":"Polygon","coordinates":[[[-68.8216844808659,-21.01702380052],[-68.8196353837648,-21.0203166633339],[-68.8181236648791,-21.0225948428626],[-68.8157133980626,-21.0232112265808],[-68.8138879280155,-21.0231442558572],[-68.8136454489603,-21.0225010296222],[-68.814329988205,-21.021254705359],[-68.8147721445782,-21.0200754421984],[-68.8154994855601,-21.0188157418663],[-68.8162838634638,-21.0177838866007],[-68.816554812888,-21.017073689642],[-68.8155279559292,-21.0167922499208],[-68.8137452876193,-21.0190569630018],[-68.8129181079784,-21.0209465134999],[-68.8125901216324,-21.0227958454124],[-68.8186369971749,-21.0235997652326],[-68.822694794232,-21.0170378996197],[-68.8216844808659,-21.01702380052]]]}},{"type":"Feature","id":"611225942","properties":{"name":"TRAC_CAM_CH2","oid":"611225942","speedLimit":5.5555553},"geometry":{"type":"Polygon","coordinates":[[[-68.8222122407136,-21.0045569427347],[-68.82165687615,-21.0049758486781],[-68.8221791535279,-21.0072067600713],[-68.8222864945139,-21.0076575697467],[-68.8231621507291,-21.0076766396829],[-68.8231288711761,-21.0070282618537],[-68.8235059111985,-21.004739056106],[-68.8222122407136,-21.0045569427347]]]}}]}