{"type":"FeatureCollection","features":[{"type":"Feature","id":"448294843","properties":{"name":"INFO_TUBERIA_32","oid":"448294843","speedLimit":5.5555553},"geometry":{"type":"Polygon","coordinates":[[[-68.8083285334582,-21.0017294679208],[-68.8083407486678,-21.0017663419979],[-68.8084647282368,-21.0019512546497],[-68.808615158063,-21.0020464223048],[-68.808842437909,-21.0021397824071],[-68.8090440369598,-21.0021906650185],[-68.8092811274467,-21.0021933763477],[-68.8094104932499,-21.0021535198084],[-68.8093794262206,-21.0021437590233],[-68.8093649026248,-21.0021479163947],[-68.8093244096857,-21.0021576771799],[-68.8092805503502,-21.0021657207898],[-68.8092349597251,-21.0021710530706],[-68.8092075476404,-21.0021725894905],[-68.8091627264774,-21.0021717760917],[-68.809135602941,-21.0021723183576],[-68.8091093450493,-21.0021701492942],[-68.8090745268926,-21.0021679802308],[-68.8090497117423,-21.0021652689016],[-68.8090094111687,-21.0021602077538],[-68.8089719960776,-21.0021530679202],[-68.8089366008244,-21.0021454761985],[-68.808902840678,-21.0021372518332],[-68.8088705232729,-21.0021280333139],[-68.8088394562436,-21.00211745913],[-68.808820604424,-21.0021121268492],[-68.8087929999738,-21.0020987509585],[-68.8087658764374,-21.0020840194031],[-68.8087375025251,-21.0020699204913],[-68.8087074935061,-21.00205618309],[-68.8086894111485,-21.0020476875918],[-68.8086574784744,-21.0020341309458],[-68.8086260267141,-21.0020190378799],[-68.8086078481737,-21.0020098193606],[-68.808578512434,-21.0019949974276],[-68.8085516774458,-21.0019794524735],[-68.8085236882646,-21.0019622807218],[-68.8084976227385,-21.0019420361304],[-68.8084744426949,-21.001919532098],[-68.8084617465715,-21.0019055235638],[-68.8084439527621,-21.001882115755],[-68.8084271207803,-21.0018604251214],[-68.808412020088,-21.0018391863759],[-68.8083985545026,-21.0018193032951],[-68.8083848965516,-21.0017958051086],[-68.8083750859108,-21.0017787237346],[-68.8083624859701,-21.0017519719532],[-68.8083554646291,-21.0017284737667],[-68.8083487318364,-21.0017092233294],[-68.8083285334582,-21.0017294679208]]]}},{"type":"Feature","id":"553267213","properties":{"name":"ZD_BOT_PAD59_02-AutoClean-1","oid":"553267213","speedLimit":5},"geometry":{"type":"Polygon","coordinates":[[[-68.8183524114571,-20.9849452556094],[-68.8183524114571,-20.9849452556094]]]}},{"type":"Feature","id":"553508825","properties":{"name":"ZD_STK_HG_02-AutoClean-1","oid":"553508825","speedLimit":5},"geometry":{"type":"Polygon","coordinates":[[[-68.8163730665773,-21.0204834608996],[-68.8164578035829,-21.0202242578276],[-68.8158830154493,-21.0197074784811],[-68.815604758744,-21.019779328705],[-68.815639865449,-21.0200163892552],[-68.8157192162205,-21.0201496962744],[-68.8157861594167,-21.0202106108039],[-68.8159807371266,-21.0203628067499],[-68.81612443416,-21.0204330301764],[-68.8163730665773,-21.0204834608996]]]}},{"type":"Feature","id":"558966402","properties":{"name":"ZD_STK_BL_02-AutoClean-1","oid":"558966402","speedLimit":5},"geometry":{"type":"Polygon","coordinates":[[[-68.823337852108,-20.9923442922549],[-68.8235303137973,-20.9921422078515],[-68.8232683119774,-20.9918872525286],[-68.8231543354147,-20.9917786186051],[-68.8230888349598,-20.9917203250272],[-68.8229882277998,-20.9916469383834],[-68.8229580264153,-20.9916298570094],[-68.8228456849595,-20.9915742747607],[-68.8227262259799,-20.9915334240673],[-68.8226054204418,-20.9917797031368],[-68.8232118527012,-20.992247317047],[-68.823337852108,-20.9923442922549]]]}},{"type":"Feature","id":"570805601","properties":{"name":"ZD_STK_MAR_02-AutoClean-1-tmp-1","oid":"570805601","speedLimit":5},"geometry":{"type":"Polygon","coordinates":[[[-68.8065057741007,-20.9867046371306],[-68.8068578991605,-20.9866990337169],[-68.8068622273844,-20.9864279007964],[-68.8062835919406,-20.9862060236898],[-68.8060012955597,-20.9862620578267],[-68.806009374911,-20.9863767470521],[-68.8060383259198,-20.9864996606427],[-68.8060609288668,-20.9865274065783],[-68.8061463391517,-20.9866153440221],[-68.8062239586336,-20.9866464339304],[-68.8063394741203,-20.9866805966783],[-68.8063871807659,-20.98668972482],[-68.8065057741007,-20.9867046371306]]]}},{"type":"Feature","id":"592941111","properties":{"name":"INFO_ESTACION","oid":"592941111","speedLimit":5.5555553},"geometry":{"type":"Polygon","coordinates":[[[-68.8203803286273,-21.0085319217634],[-68.8205725979511,-21.008357221785],[-68.8202328804665,-21.0080439728842],[-68.8198866225547,-21.0076945729273],[-68.8195084319688,-21.0078451420758],[-68.8202904939357,-21.0086042238756],[-68.8203803286273,-21.0085319217634]]]}},{"type":"Feature","id":"600121666","properties":{"name":"ZD_STK_3C_02-AutoClean-1","oid":"600121666","speedLimit":5},"geometry":{"type":"Polygon","coordinates":[[[-68.8050757289249,-20.9853147194025],[-68.8048034355504,-20.9850291260595],[-68.8047706372315,-20.9851916250565],[-68.8047876615788,-20.9852998974695],[-68.8050757289249,-20.9853147194025]]]}},{"type":"Feature","id":"600880362","properties":{"name":"VEL_15_KPH_RC_002","oid":"600880362","speedLimit":4.1666665},"geometry":{"type":"Polygon","coordinates":[[[-68.8105522787141,-21.0009336927991],[-68.8105166910954,-21.0012098868674],[-68.810542564256,-21.0013130981325],[-68.8106782781209,-21.0014830984736],[-68.8108333247192,-21.0015376865683],[-68.8109935651862,-21.0015605521113],[-68.8111196607757,-21.0015665170355],[-68.8112142084222,-21.0015960705239],[-68.8112016084815,-21.0017619134936],[-68.810807643924,-21.0016908766684],[-68.8104515753714,-21.00151617669],[-68.8103790535754,-21.0012496530291],[-68.8103602017558,-21.0010601311176],[-68.8105522787141,-21.0009336927991]]]}},{"type":"Feature","id":"601703267","properties":{"name":"ZD_STK_MAR_02-AutoClean-1","oid":"601703267","speedLimit":5},"geometry":{"type":"Polygon","coordinates":[[[-68.8067058342276,-20.9869942070897],[-68.8072121402408,-20.9869513680883],[-68.8076029307674,-20.9868325214915],[-68.8075397386985,-20.9865678957611],[-68.8063712144289,-20.9866546582956],[-68.8063136971424,-20.9869203685577],[-68.8065332823682,-20.9869793851568],[-68.8067058342276,-20.9869942070897]]]}},{"type":"Feature","id":"602013008","properties":{"name":"ZD_STK_3C_01-AutoClean-1","oid":"602013008","speedLimit":5},"geometry":{"type":"Polygon","coordinates":[[[-68.8048467177893,-20.9854135021632],[-68.8051167027778,-20.9853176114869],[-68.8048245957561,-20.9849459786306],[-68.804762654063,-20.9850471112099],[-68.8047447640708,-20.9851599025048],[-68.8047566907323,-20.9852095198293],[-68.8047847760962,-20.9853175211093],[-68.8048467177893,-20.9854135021632]]]}},{"type":"Feature","id":"603087867","properties":{"name":"ZD_BOT_NRT_04-AutoClean-1","oid":"603087867","speedLimit":5},"geometry":{"type":"Polygon","coordinates":[[[-68.7933718267744,-20.9926184980152],[-68.7935195634834,-20.9926176846164],[-68.7935326443379,-20.9926153347978],[-68.7937938766958,-20.9925336334111],[-68.7937044267352,-20.9922758763813],[-68.7925578321334,-20.9917803357802],[-68.7923459415279,-20.9919644350333],[-68.792657381283,-20.9923601987196],[-68.7927702036526,-20.9924569027946],[-68.7929889232336,-20.9925630061441],[-68.7931382950494,-20.9926056643903],[-68.7933718267744,-20.9926184980152]]]}},{"type":"Feature","id":"604050980","properties":{"name":"VEL_10_KPH_901_002","oid":"604050980","speedLimit":2.7777777},"geometry":{"type":"Polygon","coordinates":[[[-68.816563027515,-21.0014699033382],[-68.816651900379,-21.0016419823651],[-68.8167052818071,-21.001835661648],[-68.8165838029897,-21.001927575708],[-68.8161720446229,-21.0020009623518],[-68.8160298865136,-21.0020560927123],[-68.8157259490132,-21.0021029083299],[-68.8153314073592,-21.0021211646132],[-68.8151696279682,-21.0018774161177],[-68.8151774187712,-21.0017250394164],[-68.8151913652704,-21.0016594252496],[-68.8153479507928,-21.0016646671528],[-68.8155856183762,-21.0016777719106],[-68.8158344431589,-21.0016777719106],[-68.8159769859993,-21.0016514720173],[-68.8161307822218,-21.0015779046182],[-68.816563027515,-21.0014699033382]]]}},{"type":"Feature","id":"605222454","properties":{"name":"ZD_STK_MAR_03-AutoClean-2","oid":"605222454","speedLimit":5},"geometry":{"type":"Polygon","coordinates":[[[-68.8075730179311,-20.9868358654642],[-68.8079919900044,-20.9864449821704],[-68.8080356569744,-20.9862914305598],[-68.80799218237,-20.9861738492499],[-68.8078706073698,-20.9858661133851],[-68.8075897537302,-20.9859283835792],[-68.8073265015345,-20.9866948763455],[-68.8075730179311,-20.9868358654642]]]}},{"type":"Feature","id":"605559780","properties":{"name":"ZD_BOT_NRT_02-AutoClean-1","oid":"605559780","speedLimit":5},"geometry":{"type":"Polygon","coordinates":[[[-68.7923194912707,-20.990878457309],[-68.7925360948311,-20.9903988231726],[-68.7923637353372,-20.9901813745704],[-68.7922501435056,-20.9902272864116],[-68.7921323196328,-20.9903433313015],[-68.7923194912707,-20.990878457309]]]}},{"type":"Feature","id":"606156222","properties":{"name":"VEL_30KMH","oid":"606156222","speedLimit":8.333333},"geometry":{"type":"Polygon","coordinates":[[[-68.8182930666983,-21.0229231149183],[-68.8181906320661,-21.0230006589336],[-68.8182821018644,-21.0230990801837],[-68.8184124294951,-21.0230219880567],[-68.8182930666983,-21.0229231149183]]]}},{"type":"Feature","id":"606156969","properties":{"name":"VEL_30KMH_2","oid":"606156969","speedLimit":8.333333},"geometry":{"type":"Polygon","coordinates":[[[-68.8131900907229,-21.0229396540265],[-68.8130278304181,-21.0229702920465],[-68.8130901568422,-21.0231181498658],[-68.813243856882,-21.0230760338855],[-68.8131900907229,-21.0229396540265]]]}},{"type":"Feature","id":"606157392","properties":{"name":"VEL_20KH","oid":"606157392","speedLimit":5.5555553},"geometry":{"type":"Polygon","coordinates":[[[-68.8236968061433,-21.0147529762469],[-68.8235412786312,-21.0146635023832],[-68.8233972930495,-21.0148781492786],[-68.8235595533543,-21.014964188792],[-68.8236968061433,-21.0147529762469]]]}},{"type":"Feature","id":"606157536","properties":{"name":"VEL_20KMH_2","oid":"606157536","speedLimit":5.5555553},"geometry":{"type":"Polygon","coordinates":[[[-68.821851732387,-21.0175108499367],[-68.8216924537476,-21.0174469529451],[-68.8216061778179,-21.017613247803],[-68.8217503557651,-21.0176845557611],[-68.821851732387,-21.0175108499367]]]}},{"type":"Feature","id":"606183924","properties":{"name":"ZD_STK_DIN_12-AutoClean-1","oid":"606183924","speedLimit":5},"geometry":{"type":"Polygon","coordinates":[[[-68.8259210323129,-21.0047287402874],[-68.8261079154026,-21.004522137002],[-68.8259757602996,-21.004243593115],[-68.8256875967707,-21.0042285000491],[-68.8256495084004,-21.0043364109515],[-68.8256429679732,-21.0044564324576],[-68.8257011585389,-21.0045532269102],[-68.8257278011616,-21.0045974215763],[-68.8258184053152,-21.0046717119965],[-68.8259210323129,-21.0047287402874]]]}},{"type":"Feature","id":"606221546","properties":{"name":"ZD_BOT_NRT_03-AutoClean-1","oid":"606221546","speedLimit":5},"geometry":{"type":"Polygon","coordinates":[[[-68.7925391726792,-20.9920749668872],[-68.792729133617,-20.9918708941757],[-68.7923035249337,-20.9907228270126],[-68.7921000984105,-20.9914602181788],[-68.7921775255269,-20.9916610372952],[-68.7923219920223,-20.9918963806702],[-68.7924339487471,-20.9920220055901],[-68.7925391726792,-20.9920749668872]]]}},{"type":"Feature","id":"606796346","properties":{"name":"ZD_STK_HG_03-AutoClean-1","oid":"606796346","speedLimit":5},"geometry":{"type":"Polygon","coordinates":[[[-68.8156302471737,-21.0198922103776],[-68.8158934993694,-21.0197812266354],[-68.8159527479454,-21.0188816979828],[-68.8157030575179,-21.018745770012],[-68.815623899112,-21.0188350631205],[-68.8155683054806,-21.018939178162],[-68.815558398657,-21.0189803903659],[-68.8155120385699,-21.0191897049805],[-68.8155021317463,-21.0194160105915],[-68.8155121347526,-21.0196449371541],[-68.8155637848912,-21.0197949640367],[-68.8156302471737,-21.0198922103776]]]}},{"type":"Feature","id":"607457029","properties":{"name":"ZD_STK_DIN_22-AutoClean-1","oid":"607457029","speedLimit":5},"geometry":{"type":"Polygon","coordinates":[[[-68.823573692219,-21.0061834587836],[-68.8238611824686,-21.006160502863],[-68.8238598359101,-21.0059437772819],[-68.8238517565588,-21.0058339684491],[-68.8238057812027,-21.005677524754],[-68.8237411463925,-21.0055836223858],[-68.8234746239832,-21.005687556672],[-68.823573692219,-21.0061834587836]]]}},{"type":"Feature","id":"607546676","properties":{"name":"ZD_STK_HG_01-AutoClean-1","oid":"607546676","speedLimit":5},"geometry":{"type":"Polygon","coordinates":[[[-68.816738080126,-21.0205629028453],[-68.8169105358026,-21.0205565764105],[-68.8169720927647,-21.0205541362142],[-68.8171383927452,-21.0205144604302],[-68.8172383266258,-21.0204492981516],[-68.8173265262106,-21.0203769056618],[-68.8171671513884,-21.0201508711837],[-68.8163697963636,-21.0202020249281],[-68.8162892913992,-21.0204624029094],[-68.8165073377008,-21.020537597106],[-68.8166779659052,-21.0205616375583],[-68.816738080126,-21.0205629028453]]]}},{"type":"Feature","id":"607690893","properties":{"name":"VEL_25KPH_RC_001","oid":"607690893","speedLimit":6.9444447},"geometry":{"type":"Polygon","coordinates":[[[-68.8114033998979,-21.0029763178445],[-68.8113531925007,-21.0027801079877],[-68.8108400575119,-21.0027540792274],[-68.81073204428,-21.0029042868653],[-68.8114033998979,-21.0029763178445]]]}},{"type":"Feature","id":"607691021","properties":{"name":"VEL_13_KPH_901_001","oid":"607691021","speedLimit":3.6111112},"geometry":{"type":"Polygon","coordinates":[[[-68.8149050292139,-21.0017840560154],[-68.8151907881739,-21.0021622864395],[-68.8145362645378,-21.0025693473308],[-68.8143304334458,-21.0021420418481],[-68.8149050292139,-21.0017840560154]]]}},{"type":"Feature","id":"608126433","properties":{"name":"VEL_25_KPH_DIN_001","oid":"608126433","speedLimit":6.9444447},"geometry":{"type":"Polygon","coordinates":[[[-68.8256281558292,-21.0031913262505],[-68.8254888832024,-21.003171352792],[-68.8254133797411,-21.0035927837281],[-68.8251702297408,-21.0039830343784],[-68.8254039538313,-21.0040939277429],[-68.8255667912326,-21.0037412741909],[-68.8256352733529,-21.0032534156893],[-68.8256281558292,-21.0031913262505]]]}},{"type":"Feature","id":"608641527","properties":{"name":"ZD_STK_MAR_01-AutoClean-1","oid":"608641527","speedLimit":5},"geometry":{"type":"Polygon","coordinates":[[[-68.8064856719053,-20.9869822772412],[-68.8068976226376,-20.986958236789],[-68.8074059484887,-20.9868633402668],[-68.8073605502291,-20.9865955513189],[-68.8061889481114,-20.986511409736],[-68.806038614468,-20.9867428668724],[-68.8061284491596,-20.9868084810392],[-68.8063260085348,-20.9869235317751],[-68.8064856719053,-20.9869822772412]]]}},{"type":"Feature","id":"608673986","properties":{"name":"New Zone7800","oid":"608673986","speedLimit":2.7777777},"geometry":{"type":"Polygon","coordinates":[[[-68.8096815362486,-21.0033295136623],[-68.8097372260628,-21.0029574289177],[-68.8095223537919,-21.0028283696476],[-68.8093531683289,-21.0027405225813],[-68.809122329721,-21.0029480296432],[-68.8096815362486,-21.0033295136623]]]}},{"type":"Feature","id":"608715834","properties":{"name":"INFO_RESTRICCION VELOCIDAD","oid":"608715834","speedLimit":2.7777777},"geometry":{"type":"Polygon","coordinates":[[[-68.8173467245888,-21.0014950283221],[-68.8174919605462,-21.0011494242261],[-68.8172411159256,-21.0010731454978],[-68.8168090629979,-21.0013301795065],[-68.8166072715815,-21.0014560755592],[-68.8164619394413,-21.0015482607522],[-68.8158111669326,-21.0017308235854],[-68.815850794227,-21.0019648112958],[-68.8165393665577,-21.001838915243],[-68.8170769319658,-21.0017769161818],[-68.8173995289203,-21.0016386383924],[-68.8173467245888,-21.0014950283221]]]}},{"type":"Feature","id":"608796655","properties":{"name":"ZD_STK_MAR_03-AutoClean-1","oid":"608796655","speedLimit":5},"geometry":{"type":"Polygon","coordinates":[[[-68.80743778498,-20.986880873529],[-68.8076784342287,-20.9867313889121],[-68.8075193479548,-20.9865051736788],[-68.8072786025233,-20.9866547486733],[-68.80743778498,-20.986880873529]]]}},{"type":"Feature","id":"608838475","properties":{"name":"ZD_STK_DIN_11-AutoClean-1","oid":"608838475","speedLimit":5},"geometry":{"type":"Polygon","coordinates":[[[-68.8261785135435,-21.0048606916421],[-68.8262354537334,-21.00485770918],[-68.8263457753514,-21.0048275230482],[-68.8264503260042,-21.0047695909808],[-68.8263533737889,-21.0045141837697],[-68.8260037494808,-21.0044249810388],[-68.8258002267748,-21.0046172142795],[-68.8258636112092,-21.0047175334601],[-68.8260049036738,-21.0048084533661],[-68.8260572270916,-21.0048262577612],[-68.8261785135435,-21.0048606916421]]]}},{"type":"Feature","id":"608878528","properties":{"name":"VEL_20_KMPH","oid":"608878528","speedLimit":5.5555553},"geometry":{"type":"Polygon","coordinates":[[[-68.8043365644659,-20.9989009189163],[-68.8045674992566,-20.9988351239943],[-68.8044695852137,-20.9997064548232],[-68.8041231349364,-20.9996735573622],[-68.8043365644659,-20.9989009189163]]]}}]}