{"type":"FeatureCollection","features":[{"type":"Feature","id":"702602533","properties":{"name":"iSP_4KPH_%TR_CR01_SLOW BUMP","oid":"702602533","speedLimit":1.1111112},"geometry":{"type":"Polygon","coordinates":[[[-121.033358532601,50.4648077653768],[-121.033653288671,50.4646907484553],[-121.03369668488,50.464731461716],[-121.033368818066,50.4648695992031],[-121.033358532601,50.4648077653768]]]}},{"type":"Feature","id":"707947583","properties":{"name":"iSP_25KPH_%TR_Permission Gate 1 from west dump_Jun","oid":"707947583","speedLimit":6.9444447},"geometry":{"type":"Polygon","coordinates":[[[-121.038628354081,50.4619778791978],[-121.038855057005,50.461799387949],[-121.038140005831,50.4614081631725],[-121.037992346002,50.4616708670598],[-121.038191855847,50.4615667921021],[-121.038666818903,50.4618459430682],[-121.038628354081,50.4619778791978]]]}},{"type":"Feature","id":"742345972","properties":{"name":"iSP_4KPH_%TR_CR01_PITSIDE_SLOW BUMP","oid":"742345972","speedLimit":1.1111112},"geometry":{"type":"Polygon","coordinates":[[[-121.03339840639,50.4648827209163],[-121.033705702274,50.4647442239302],[-121.033755861529,50.4647763092151],[-121.033474349756,50.4649182214416],[-121.03339840639,50.4648827209163]]]}},{"type":"Feature","id":"776427243","properties":{"name":"iSP_7KPH_%TR_CR1_PermissionBlocker_DO_NOT_DELETE","oid":"776427243","speedLimit":1.9444444},"geometry":{"type":"Polygon","coordinates":[[[-121.03409964968,50.4652127409896],[-121.034051181186,50.4652330526826],[-121.034030046669,50.4652744849413],[-121.034115711913,50.4652254133291],[-121.03409964968,50.4652127409896]]]}},{"type":"Feature","id":"794004438","properties":{"name":"iSP_11KPH_%TR_LOWER_FUEL_BAY","oid":"794004438","speedLimit":3.0555556},"geometry":{"type":"Polygon","coordinates":[[[-121.036776547661,50.4606953665489],[-121.036778661113,50.4607252049651],[-121.036748931892,50.4606707408681],[-121.037125126303,50.4605990208194],[-121.037535135941,50.4605559708153],[-121.037542885264,50.4605813154942],[-121.03694435573,50.4606501595508],[-121.036776547661,50.4606953665489]]]}},{"type":"Feature","id":"801543391","properties":{"name":"iSP_4KPH_%TR_CR1_PermissionBlocker_DO_NOT_DELETE_","oid":"801543391","speedLimit":1.1111112},"geometry":{"type":"Polygon","coordinates":[[[-121.033155077646,50.4645232219257],[-121.033154232265,50.4644737908145],[-121.033175789473,50.4644317294326],[-121.033107736327,50.4644593209802],[-121.033155077646,50.4645232219257]]]}},{"type":"Feature","id":"806473874","properties":{"name":"iSP_4KPH_%TR_Permission Blocker - DO NOT DELETE","oid":"806473874","speedLimit":1.1111112},"geometry":{"type":"Polygon","coordinates":[[[-121.022718571131,50.4815450497554],[-121.022685460387,50.4815427130119],[-121.02267785196,50.4815713830564],[-121.022699972755,50.4815724615534],[-121.022704058762,50.481548375121],[-121.022718571131,50.4815450497554]]]}},{"type":"Feature","id":"824566967","properties":{"name":"iSP_4Cr_3KPH","oid":"824566967","speedLimit":0.8333333},"geometry":{"type":"Polygon","coordinates":[[[-121.023301461122,50.4810681743444],[-121.023281312882,50.4810681743444],[-121.023278635843,50.4811862697628],[-121.023303715471,50.4811855507648],[-121.023301461122,50.4810681743444]]]}},{"type":"Feature","id":"826307302","properties":{"name":"iSP_4KPH_TR%_CRUSHER POCKETS","oid":"826307302","speedLimit":1.1111112},"geometry":{"type":"Polygon","coordinates":[[[-121.023296670632,50.4813213515085],[-121.023336121731,50.4814770145714],[-121.023540844757,50.4814375595572],[-121.023459829106,50.481188696381],[-121.023051510229,50.4811894153789],[-121.023056864307,50.4813600875247],[-121.023281735573,50.4813261148701],[-121.023296670632,50.4813213515085]]]}},{"type":"Feature","id":"883050998","properties":{"name":"iSP_22kph_%TR_4CR_Brake_Temp_CTRL_NOREMOVE","oid":"883050998","speedLimit":6.111111},"geometry":{"type":"Polygon","coordinates":[[[-121.031798664315,50.4745589058717],[-121.032187962127,50.4743122895641],[-121.03248962214,50.4745746339525],[-121.032791282152,50.474802017064],[-121.032969093892,50.4748844322076],[-121.033177902925,50.4749345823168],[-121.033461809943,50.4749593877472],[-121.033665687588,50.4749218201026],[-121.033826873508,50.4748624128944],[-121.033918033726,50.4748103754156],[-121.034007362287,50.474747193468],[-121.034057803335,50.4746580377183],[-121.034052026567,50.4745478512777],[-121.03405583078,50.4744835009584],[-121.033993695299,50.4743795158754],[-121.033875342001,50.4742594432125],[-121.033508446778,50.4739375118665],[-121.033060113214,50.4735598581769],[-121.032946832201,50.4734253156797],[-121.032821856754,50.473220760754],[-121.032605016605,50.4728147965189],[-121.032251506576,50.4722088609703],[-121.03248652241,50.4721560146187],[-121.032429459213,50.4722055356047],[-121.032902027024,50.473048740487],[-121.033041233045,50.4733094671299],[-121.0332490558,50.4735468263385],[-121.033742053644,50.4739615084241],[-121.034097113538,50.474271037055],[-121.034202504331,50.4743943452087],[-121.034255199728,50.47446157152],[-121.034262244567,50.4745926987768],[-121.034237305837,50.4746787089103],[-121.034182778782,50.4747915017186],[-121.034085278208,50.4748757143571],[-121.033972419885,50.4749375481835],[-121.033789817654,50.4750160088382],[-121.033530285779,50.4750642715776],[-121.033262300098,50.4750679564423],[-121.033070680473,50.4750261646846],[-121.032806921695,50.4749164276178],[-121.032656162137,50.4748350010964],[-121.032494553527,50.4747052219608],[-121.032144002331,50.4744129492815],[-121.031798664315,50.4745589058717]]]}},{"type":"Feature","id":"883053336","properties":{"name":"iSP_22kph_%TR_Brake_Temp_CTRL_NOREMOVE","oid":"883053336","speedLimit":6.111111},"geometry":{"type":"Polygon","coordinates":[[[-121.032465246996,50.4721451397742],[-121.032250379402,50.4722253979239],[-121.031487705115,50.4710082242166],[-121.030815768357,50.469923256263],[-121.030660500102,50.469660103002],[-121.030595687582,50.4694576151955],[-121.03054933254,50.4692566552598],[-121.030595687582,50.4689728308067],[-121.030721931099,50.4686242066606],[-121.030883680606,50.4683754333592],[-121.031088121838,50.4680977203889],[-121.031687496754,50.4675364525899],[-121.032431431768,50.46689357852],[-121.032787759733,50.4665560988426],[-121.033146905633,50.4662223040299],[-121.033483789841,50.4658706241424],[-121.033778827705,50.4660340164336],[-121.033586785389,50.4659932132982],[-121.032918652844,50.4666519951984],[-121.032553871073,50.466991182496],[-121.032177817559,50.4673076314824],[-121.031773584688,50.4676682988447],[-121.031381187147,50.4680343586918],[-121.03114631221,50.4682862776095],[-121.031007951569,50.4684698018442],[-121.030904251537,50.4686544045758],[-121.030827744583,50.4688529378934],[-121.030766877173,50.4691912264435],[-121.030775612774,50.4694005447308],[-121.030872831554,50.4696302645857],[-121.031026831738,50.469935029855],[-121.031329759821,50.4704037266639],[-121.031529833253,50.4707109185514],[-121.031749491338,50.4710828202571],[-121.032145270402,50.4717287500684],[-121.03238056803,50.4721450498995],[-121.032465246996,50.4721451397742]]]}},{"type":"Feature","id":"883059532","properties":{"name":"iSP_22kph_%TR_Brake_CTRL_NOREMOVE","oid":"883059532","speedLimit":6.111111},"geometry":{"type":"Polygon","coordinates":[[[-121.027261224314,50.4773219252384],[-121.027029026415,50.4772097615534],[-121.027333504363,50.4769440019246],[-121.027715475542,50.4766324061745],[-121.028032211511,50.4763226977941],[-121.02818945232,50.4761687423514],[-121.028620314683,50.4756923163142],[-121.028906335153,50.4753257172185],[-121.029262944911,50.4748875778238],[-121.029471753943,50.4746566895971],[-121.029690566647,50.4745403916736],[-121.029800607035,50.4744881744453],[-121.029951366593,50.474592608902],[-121.029787785428,50.4745420094191],[-121.029555164839,50.4747915017186],[-121.029250968684,50.4751730200223],[-121.02907202977,50.475477965041],[-121.028852230788,50.4757747314578],[-121.028695130875,50.4759747027713],[-121.028407983231,50.4762705704405],[-121.028040665318,50.4765699432249],[-121.027242907732,50.4772193781514],[-121.027261224314,50.4773219252384]]]}},{"type":"Feature","id":"884401102","properties":{"name":"iSP_30KPH_MAIN INT_LIMIT_POLICY_SEPT_8_NS","oid":"884401102","speedLimit":8.333333},"geometry":{"type":"Polygon","coordinates":[[[-121.036992119739,50.4611012409093],[-121.037108218689,50.4611077118911],[-121.038294569602,50.4609920430909],[-121.038278225575,50.4603978811342],[-121.038119716694,50.4605657671628],[-121.037032557116,50.4607083983873],[-121.036744845885,50.4605377262416],[-121.036992119739,50.4611012409093]]]}},{"type":"Feature","id":"910445950","properties":{"name":"SP_22KPH_%TR_1635_FLATS_SEP_13_DS","oid":"910445950","speedLimit":6.111111},"geometry":{"type":"Polygon","coordinates":[[[-121.018915344265,50.4576034056058],[-121.018252847591,50.4578015794244],[-121.01743959136,50.4564353035107],[-121.017479465149,50.4564157108157],[-121.017771825974,50.4542397533006],[-121.018178735884,50.4539930471183],[-121.018531259635,50.4537514637966],[-121.019040883299,50.4536551180671],[-121.019218554143,50.4539289664232],[-121.019243915564,50.4568507045943],[-121.019156559558,50.45707305472],[-121.019194601689,50.4574050520378],[-121.018915344265,50.4576034056058]]]}},{"type":"Feature","id":"915576987","properties":{"name":"iSP_15kph_prevent shifting","oid":"915576987","speedLimit":4.1666665},"geometry":{"type":"Polygon","coordinates":[[[-121.036997614714,50.4448632107538],[-121.037511747075,50.4453131237405],[-121.03798107426,50.4457955713859],[-121.038525076739,50.4462188814473],[-121.039457813443,50.4468499819252],[-121.039915164401,50.4470997438489],[-121.040471143107,50.4471951009561],[-121.041224377309,50.4473228129725],[-121.041642840755,50.4475096625729],[-121.042321399662,50.448095106679],[-121.042704075325,50.4485278535889],[-121.04284750825,50.4487948714642],[-121.043008975963,50.4493916397885],[-121.043188196671,50.4501981757738],[-121.043325711932,50.4505013232976],[-121.043687393974,50.4511687331736],[-121.043857879081,50.4514890467742],[-121.04412685104,50.4522536112524],[-121.044383987669,50.4529381872052],[-121.044697764805,50.4537981087906],[-121.044736652317,50.454194726052],[-121.044572225772,50.4550718137142],[-121.044216602291,50.4568392905014],[-121.044052175745,50.4572073275929],[-121.043005876234,50.4583989768719],[-121.041905895049,50.4595373304256],[-121.041343998678,50.4600006347496],[-121.040372515359,50.4605974929487],[-121.039924040898,50.460730956949],[-121.039134878016,50.460807170735],[-121.03849746097,50.4608387167714],[-121.038645261695,50.4611434820407],[-121.038758120018,50.4609495323352],[-121.039879235721,50.4608796996563],[-121.040707286115,50.4606318251023],[-121.041511384056,50.4600578849639],[-121.042874419536,50.458700237026],[-121.04424337268,50.4571424380251],[-121.044428792846,50.4562901557933],[-121.044814427342,50.454421569915],[-121.044811327612,50.4537866048229],[-121.044261407468,50.4523013347434],[-121.043833926628,50.4511858992504],[-121.043346705552,50.450337391758],[-121.043050822308,50.4493096740187],[-121.042928242107,50.4486918750034],[-121.042240665805,50.4478872263877],[-121.041547171839,50.4473914772797],[-121.041092779714,50.4472217937562],[-121.04045916688,50.4471303012631],[-121.039918123233,50.4470196654488],[-121.03882110088,50.446333292001],[-121.038196364544,50.4458717851719],[-121.037153164762,50.4449069797559],[-121.037377331544,50.4446973019697],[-121.036997614714,50.4448632107538]]]}},{"type":"Feature","id":"917773475","properties":{"name":"SP_15KPH_%TR_1200_CORNER_Sept_13_DS","oid":"917773475","speedLimit":4.1666665},"geometry":{"type":"Polygon","coordinates":[[[-121.037098496811,50.4446824726363],[-121.036924348387,50.4448620423821],[-121.036628746936,50.4448205202487],[-121.036414161135,50.4448698614852],[-121.036322578226,50.4449675553358],[-121.036253961493,50.4450820557643],[-121.036241703473,50.4451448782129],[-121.03626283799,50.4452671977445],[-121.036315533387,50.445351410383],[-121.036183653998,50.4453951793851],[-121.03608854867,50.4451942194494],[-121.036162519481,50.4449316054368],[-121.036259315571,50.4447913109557],[-121.036516170406,50.444715007295],[-121.036713285006,50.4447116819293],[-121.036922657625,50.4447700106405],[-121.03709328363,50.4446835511333],[-121.037098496811,50.4446824726363]]]}},{"type":"Feature","id":"929009157","properties":{"name":"iSP_22kph_Long_Single_Lane_Aug30","oid":"929009157","speedLimit":6.111111},"geometry":{"type":"Polygon","coordinates":[[[-121.00567837329,50.4380559176179],[-121.004748595418,50.438223983396],[-121.005173117426,50.4381974703455],[-121.0079335672,50.443170419882],[-121.008522374856,50.4445348084259],[-121.008209443101,50.4465096262559],[-121.007831417032,50.4466801186522],[-121.008932948082,50.4466468649955],[-121.00882220321,50.4465928502722],[-121.009402275266,50.444817554382],[-121.008763308355,50.4430683221687],[-121.008261574911,50.4415400919598],[-121.007257967125,50.4401561107208],[-121.006438229641,50.4389839642621],[-121.005859143863,50.4383129593962],[-121.00567837329,50.4380559176179]]]}},{"type":"Feature","id":"930116666","properties":{"name":"SP_35KPH_9023 Rough_SEP_13_DS","oid":"930116666","speedLimit":9.722222},"geometry":{"type":"Polygon","coordinates":[[[-121.043514513621,50.4685945479939],[-121.043672740708,50.4692895494174],[-121.04331570826,50.4693036597528],[-121.042344365838,50.4680405600494],[-121.042763674664,50.4680240230959],[-121.043514513621,50.4685945479939]]]}},{"type":"Feature","id":"933252378","properties":{"name":"SP_20KPH_%TR_1615_ROUGH_SECTION_SEP_13_DS","oid":"933252378","speedLimit":5.5555553},"geometry":{"type":"Polygon","coordinates":[[[-121.007360117293,50.4314118370238],[-121.007542578627,50.4321456643383],[-121.007051271544,50.4322076779141],[-121.007396609559,50.4321239146493],[-121.00725557188,50.4314847254441],[-121.006907697722,50.4314552465269],[-121.007360117293,50.4314118370238]]]}},{"type":"Feature","id":"933252478","properties":{"name":"SP_30KPH_%TR_1605_PATCH_SEP_13_DS","oid":"933252478","speedLimit":8.333333},"geometry":{"type":"Polygon","coordinates":[[[-121.006591384444,50.4333409086072],[-121.007209498631,50.4334384227084],[-121.006978568804,50.4339627519861],[-121.006676345204,50.4343787821929],[-121.006272112334,50.4347753095795],[-121.00573881801,50.4345239299104],[-121.00621096313,50.4346040981853],[-121.006700015864,50.4339779408184],[-121.006893608044,50.4335511256419],[-121.006591384444,50.4333409086072]]]}},{"type":"Feature","id":"933252549","properties":{"name":"SP_35KPH_%TR_1590_ROUGH_SEP_13_DS","oid":"933252549","speedLimit":9.722222},"geometry":{"type":"Polygon","coordinates":[[[-121.004360565678,50.4363928752876],[-121.004777197465,50.4364500356271],[-121.004881461085,50.4362112384226],[-121.005079421065,50.4359569827615],[-121.004581914524,50.4358324163613],[-121.004795936738,50.4359808894444],[-121.004624747146,50.436368159732],[-121.004360565678,50.4363928752876]]]}},{"type":"Feature","id":"933274269","properties":{"name":"SP_25KPH_%TR_21SH_EMPTY_LANE_SEP_13_DS1","oid":"933274269","speedLimit":6.9444447},"geometry":{"type":"Polygon","coordinates":[[[-121.039294514071,50.4524185314143],[-121.039544605861,50.4523080753495],[-121.039512622292,50.4511379960099],[-121.039185459961,50.4506000956453],[-121.039288173716,50.4512178047858],[-121.039294514071,50.4524185314143]]]}},{"type":"Feature","id":"933371104","properties":{"name":"SP_25KPH_1590_HMT_INTERSECT_SEPT_13_DS","oid":"933371104","speedLimit":6.9444447},"geometry":{"type":"Polygon","coordinates":[[[-121.006358200268,50.4374888079603],[-121.005860411934,50.437681229795],[-121.00606640303,50.4377779350235],[-121.006385956934,50.4379884216825],[-121.006551792448,50.4382643371577],[-121.007085368566,50.4381537013434],[-121.006743412073,50.4380710165755],[-121.006115012421,50.4376596598556],[-121.006358200268,50.4374888079603]]]}},{"type":"Feature","id":"934051091","properties":{"name":"iSP_17KPH_PERMISSIONS BLOCKER_SEPT 7_NS","oid":"934051091","speedLimit":4.7222223},"geometry":{"type":"Polygon","coordinates":[[[-121.039512763188,50.4610296107354],[-121.039464717385,50.4607715803349],[-121.039017229202,50.4607921616521],[-121.039076124058,50.4610448894425],[-121.03916362096,50.4608998315998],[-121.039379615728,50.4608867098866],[-121.039512763188,50.4610296107354]]]}},{"type":"Feature","id":"934773555","properties":{"name":"SP_10KPH_NEW RAMP_SEPT 12_DS","oid":"934773555","speedLimit":2.7777777},"geometry":{"type":"Polygon","coordinates":[[[-121.035774771534,50.4443191090316],[-121.036276786772,50.444473513848],[-121.03593173055,50.4447855589719],[-121.034507968557,50.4446689914242],[-121.034739743765,50.4441516723768],[-121.035774771534,50.4443191090316]]]}},{"type":"Feature","id":"935505135","properties":{"name":"SP_15KPH_%TR_1590_WATERHOLES_AUG_13_DS","oid":"935505135","speedLimit":4.1666665},"geometry":{"type":"Polygon","coordinates":[[[-121.013401489557,50.4441736018152],[-121.012717576572,50.4442019123607],[-121.012966259394,50.4452613558859],[-121.013108424248,50.4462074673543],[-121.013277077697,50.446989287784],[-121.013703431363,50.4470969577317],[-121.013792337233,50.4467740377634],[-121.013436995546,50.4437486740083],[-121.013383736562,50.444162277597],[-121.013401489557,50.4441736018152]]]}},{"type":"Feature","id":"936169885","properties":{"name":"SP_10KPH_%TR_Sept_13_DS","oid":"936169885","speedLimit":2.7777777},"geometry":{"type":"Polygon","coordinates":[[[-121.039172638354,50.4536480179621],[-121.038304009686,50.4537166822693],[-121.038710496906,50.4544374777454],[-121.039309167337,50.454335739531],[-121.03951445395,50.454404853212],[-121.039377643173,50.4538957127666],[-121.039280706187,50.4537247709966],[-121.039172638354,50.4536480179621]]]}},{"type":"Feature","id":"936513295","properties":{"name":"SP_27KPH_%TR_1635_FLATS_SEP_13_DS1","oid":"936513295","speedLimit":7.5},"geometry":{"type":"Polygon","coordinates":[[[-121.018252847591,50.4578015794244],[-121.015247096518,50.4587004167755],[-121.014496398458,50.4578795907053],[-121.01743959136,50.4564353035107],[-121.018252847591,50.4578015794244]]]}},{"type":"Feature","id":"937786749","properties":{"name":"SP_35KPH_%TR_24SH_Loaded_LANE_SEP_13_DS","oid":"937786749","speedLimit":9.722222},"geometry":{"type":"Polygon","coordinates":[[[-121.038518736384,50.4505394301906],[-121.038271744323,50.4509802658278],[-121.038253427741,50.4516607075422],[-121.038255963883,50.452973148482],[-121.038537193862,50.4526664059683],[-121.038463645742,50.4516540568109],[-121.038518736384,50.4505394301906]]]}},{"type":"Feature","id":"937793793","properties":{"name":"SP_10KPH_%TR_21SH_LOAD_AREA_SEP_13_DS1","oid":"937793793","speedLimit":2.7777777},"geometry":{"type":"Polygon","coordinates":[[[-121.039541506132,50.4523448341213],[-121.038961011386,50.4525984606591],[-121.03925604925,50.4533286929837],[-121.039708187026,50.4532448398442],[-121.039544605861,50.4524267100164],[-121.039541506132,50.4523448341213]]]}},{"type":"Feature","id":"937982457","properties":{"name":"SP_15KPH_%TR1_Sept13_DS","oid":"937982457","speedLimit":4.1666665},"geometry":{"type":"Polygon","coordinates":[[[-121.038656956128,50.4613338367562],[-121.038330216488,50.4616583744699],[-121.038694011982,50.4619807551897],[-121.039189264174,50.4616626884578],[-121.039192645697,50.4616626884578],[-121.038656956128,50.4613338367562]]]}}]}