{"type":"FeatureCollection","features":[{"type":"Feature","id":"702602533","properties":{"name":"iSP_4KPH_%TR_CR01_SLOW BUMP","oid":"702602533","speedLimit":1.1111112},"geometry":{"type":"Polygon","coordinates":[[[-121.033355853782,50.4648093265299],[-121.033650621023,50.4646923067968],[-121.033694018877,50.4647330210358],[-121.033366139637,50.464871161842],[-121.033355853782,50.4648093265299]]]}},{"type":"Feature","id":"707947583","properties":{"name":"iSP_22KPH_%TR_Permission Gate 1 from west dump_Jun","oid":"707947583","speedLimit":6.111111},"geometry":{"type":"Polygon","coordinates":[[[-121.03862587499,50.4619793723563],[-121.038852586506,50.4618008768188],[-121.037978288832,50.4613523910524],[-121.037741150559,50.4615436491107],[-121.037957294416,50.461497901765],[-121.038664341269,50.4618474330567],[-121.03862587499,50.4619793723563]]]}},{"type":"Feature","id":"742345972","properties":{"name":"iSP_4KPH_%TR_CR01_PITSIDE_SLOW BUMP","oid":"742345972","speedLimit":1.1111112},"geometry":{"type":"Polygon","coordinates":[[[-121.033395729083,50.4648842838704],[-121.033703036613,50.4647457835566],[-121.033753197769,50.4647778696124],[-121.033471675327,50.4649197852487],[-121.033395729083,50.4648842838704]]]}},{"type":"Feature","id":"776427243","properties":{"name":"iSP_7KPH_%TR_CR1_PermissionBlocker_DO_NOT_DELETE","oid":"776427243","speedLimit":1.9444444},"geometry":{"type":"Polygon","coordinates":[[[-121.034096998949,50.4652143118732],[-121.034048528619,50.4652346240542],[-121.0340273933,50.4652760573084],[-121.034113061791,50.4652269845171],[-121.034096998949,50.4652143118732]]]}},{"type":"Feature","id":"794004438","properties":{"name":"iSP_11KPH_%TR_LOWER_FUEL_BAY","oid":"794004438","speedLimit":3.0555556},"geometry":{"type":"Polygon","coordinates":[[[-121.036773998386,50.4606968288921],[-121.036776111918,50.4607266680253],[-121.03674638157,50.4606722026196],[-121.037122590238,50.4606004808477],[-121.037532615417,50.4605574298092],[-121.037540365033,50.460582775097],[-121.036941812814,50.4606516208079],[-121.036773998386,50.4606968288921]]]}},{"type":"Feature","id":"801543391","properties":{"name":"iSP_4KPH_%TR_CR1_PermissionBlocker_DO_NOT_DELETE_","oid":"801543391","speedLimit":1.1111112},"geometry":{"type":"Polygon","coordinates":[[[-121.033152391116,50.464524776242],[-121.033151545703,50.4644753439431],[-121.033173103728,50.4644332815506],[-121.033105048003,50.4644608737611],[-121.033152391116,50.464524776242]]]}},{"type":"Feature","id":"806473874","properties":{"name":"iSP_4KPH_%TR_Permission Blocker - DO NOT DELETE","oid":"806473874","speedLimit":1.1111112},"geometry":{"type":"Polygon","coordinates":[[[-121.022715489054,50.4815470130604],[-121.022682377056,50.4815446762608],[-121.022674768341,50.4815733469942],[-121.022696889974,50.4815744255171],[-121.022700976136,50.481550338506],[-121.022715489054,50.4815470130604]]]}},{"type":"Feature","id":"824566967","properties":{"name":"iSP_4Cr_3KPH","oid":"824566967","speedLimit":0.8333333},"geometry":{"type":"Polygon","coordinates":[[[-121.023298401138,50.4810701261914],[-121.023278252134,50.4810701261914],[-121.023275574994,50.4811882244473],[-121.023300655572,50.481187505432],[-121.023298401138,50.4810701261914]]]}},{"type":"Feature","id":"826307302","properties":{"name":"iSP_4KPH_TR%_CRUSHER POCKETS","oid":"826307302","speedLimit":1.1111112},"geometry":{"type":"Polygon","coordinates":[[[-121.023293610465,50.4813233094387],[-121.02333306306,50.4814789762417],[-121.023537793845,50.4814395202795],[-121.023456775124,50.4811906511238],[-121.023048440771,50.481191370139],[-121.023053795052,50.4813620463856],[-121.02327867484,50.4813280729147],[-121.023293610465,50.4813233094387]]]}},{"type":"Feature","id":"849417440","properties":{"name":"iSP_Permissions_35_KPH_June_19_NS","oid":"849417440","speedLimit":9.722222},"geometry":{"type":"Polygon","coordinates":[[[-121.032692345684,50.4660356070502],[-121.033006980125,50.4660162835152],[-121.033213965344,50.4658154086278],[-121.033802795316,50.465380943659],[-121.033723608323,50.4652521500511],[-121.033959760281,50.4654016153476],[-121.033423486801,50.4658099261365],[-121.033021070337,50.4661894763151],[-121.032692345684,50.4660356070502]]]}},{"type":"Feature","id":"853029148","properties":{"name":"SP_30KPH_%TR_1635 Flats_July_28_DS","oid":"853029148","speedLimit":8.333333},"geometry":{"type":"Polygon","coordinates":[[[-121.018585647827,50.4569721501085],[-121.017404324427,50.4572909434979],[-121.016425759182,50.4584588040287],[-121.018344705196,50.4588943475204],[-121.020688048405,50.4589884486422],[-121.020236316199,50.4572329728929],[-121.019418520276,50.4570977980246],[-121.018964251831,50.4570011803495],[-121.018585647827,50.4569721501085]]]}},{"type":"Feature","id":"883050998","properties":{"name":"iSP_22kph_%TR_4CR_Brake_Temp_CTRL_NOREMOVE","oid":"883050998","speedLimit":6.111111},"geometry":{"type":"Polygon","coordinates":[[[-121.031795926377,50.4745607013184],[-121.032185238943,50.4743140790854],[-121.032486910389,50.4745764297772],[-121.032788581834,50.4748038183521],[-121.032966400314,50.4748862354759],[-121.03317521726,50.4749363867901],[-121.033459135038,50.4749611928164],[-121.03366302041,50.4749236242693],[-121.033824212439,50.4748642156337],[-121.033915376113,50.4748121769045],[-121.034004708059,50.4747489934388],[-121.034055151019,50.474659835547],[-121.034049374032,50.4745496464589],[-121.034053178389,50.4744852945934],[-121.033991040553,50.4743813070119],[-121.033872682769,50.474261231464],[-121.033505773641,50.4739392923828],[-121.033057423085,50.4735616296192],[-121.032944137778,50.4734270838893],[-121.032819157595,50.4732225240488],[-121.032602309228,50.4728165500595],[-121.032248785801,50.4722105999519],[-121.032483810542,50.4721577523305],[-121.032426745182,50.4722072745063],[-121.032899330903,50.4730504996486],[-121.033038542201,50.4733112325561],[-121.033246372832,50.4735485974677],[-121.033739389361,50.473963289517],[-121.034094462711,50.474272825585],[-121.034199857499,50.4743961367016],[-121.034252554893,50.4744633646281],[-121.034259599999,50.4745944950355],[-121.034234660324,50.4746805072356],[-121.034180131202,50.474793302754],[-121.034082626933,50.474877517416],[-121.033969764332,50.474939352728],[-121.033787155181,50.4750178152679],[-121.03352761347,50.475066079167],[-121.033259617632,50.4750697641202],[-121.033067990744,50.4750279713584],[-121.03280422197,50.4749182316549],[-121.032653456698,50.474836803177],[-121.032491841963,50.4747070209232],[-121.032141277481,50.4744147412213],[-121.031795926377,50.4745607013184]]]}},{"type":"Feature","id":"883053336","properties":{"name":"iSP_22kph_%TR_Brake_Temp_CTRL_NOREMOVE","oid":"883053336","speedLimit":6.111111},"geometry":{"type":"Polygon","coordinates":[[[-121.032462534321,50.4721468772247],[-121.032247658584,50.4722271373028],[-121.031484955391,50.47100993435],[-121.030812993166,50.4699249403276],[-121.030657719027,50.4696617807437],[-121.03059290405,50.469459288072],[-121.030546547252,50.4692583233078],[-121.03059290405,50.4689744920352],[-121.030719152352,50.4686258595126],[-121.03088090799,50.4683770802337],[-121.03108535697,50.4680993605908],[-121.031684754602,50.467538079306],[-121.032428717812,50.4668951897896],[-121.032785059281,50.4665577020035],[-121.033144218793,50.4662238991706],[-121.033481115769,50.4658722108331],[-121.033776164815,50.4660356070502],[-121.033584115221,50.4659948029344],[-121.032915957354,50.4666536006634],[-121.032551161757,50.4669927961107],[-121.03217509399,50.4673092527006],[-121.031770845799,50.4676699287287],[-121.031378433386,50.4680359973713],[-121.031143549547,50.4682879223419],[-121.031005183662,50.4684714509862],[-121.0309014797,50.4686560581533],[-121.030824969847,50.4688545962411],[-121.03076410013,50.4691928929194],[-121.030772836061,50.469402216236],[-121.030870058526,50.4696319416105],[-121.031024064547,50.4699367142025],[-121.031327004111,50.4704054222729],[-121.031527085126,50.4707126215414],[-121.031746751536,50.4710845321829],[-121.0321425456,50.4717304775142],[-121.032377852145,50.4721467873478],[-121.032462534321,50.4721468772247]]]}},{"type":"Feature","id":"883059532","properties":{"name":"iSP_22kph_%TR_Brake_CTRL_NOREMOVE","oid":"883059532","speedLimit":6.111111},"geometry":{"type":"Polygon","coordinates":[[[-121.027258314405,50.4773237870731],[-121.027026107706,50.4772116206931],[-121.027330597194,50.4769458546788],[-121.02771258285,50.4766342514419],[-121.028029330823,50.4763245356201],[-121.028186577592,50.4761705764783],[-121.028617456284,50.4756941389938],[-121.028903487594,50.4753275310898],[-121.029260110868,50.4748893811677],[-121.029468927814,50.4746584873934],[-121.029687748811,50.4745421866756],[-121.02979779337,50.4744899681926],[-121.029948558641,50.4745944051586],[-121.029784971276,50.4745438044599],[-121.029552341871,50.474793302754],[-121.029248134187,50.4751748302246],[-121.029069188491,50.4754797825704],[-121.028849381179,50.4757765561176],[-121.028692275312,50.4759765322358],[-121.028405116785,50.476272407014],[-121.02803778495,50.4765717869915],[-121.027239997129,50.4772212375221],[-121.027258314405,50.4773237870731]]]}},{"type":"Feature","id":"884401102","properties":{"name":"SP_25KPH_MAIN INT. DUST_JULY 27_DS","oid":"884401102","speedLimit":6.9444447},"geometry":{"type":"Polygon","coordinates":[[[-121.036554331976,50.4607697190638],[-121.036676212312,50.4610416865846],[-121.03829207786,50.4609935125624],[-121.038275733214,50.4603993363297],[-121.038117218325,50.4605672263921],[-121.036684948244,50.4607390710385],[-121.03655193664,50.4606136028762],[-121.036554331976,50.4607697190638]]]}},{"type":"Feature","id":"886231481","properties":{"name":"SP_15KPH_%TR_1200_SWITCHBACK_July_28_DS","oid":"886231481","speedLimit":4.1666665},"geometry":{"type":"Polygon","coordinates":[[[-121.036906305479,50.4452285637973],[-121.036965343469,50.4446815729408],[-121.036280840955,50.4447468235753],[-121.03603693938,50.445276288435],[-121.036520797271,50.4453464822994],[-121.036615201693,50.445103095635],[-121.036769207714,50.4451323056298],[-121.036906305479,50.4452285637973]]]}},{"type":"Feature","id":"899288147","properties":{"name":"SP_30KPH_%TR_1185_BENCH_JULY_28_DS","oid":"899288147","speedLimit":8.333333},"geometry":{"type":"Polygon","coordinates":[[[-121.039757319038,50.4500572905077],[-121.039540752475,50.4496330715062],[-121.03983706964,50.4495904698522],[-121.040148181528,50.4505444233441],[-121.040331776994,50.4509546215481],[-121.040197638173,50.4511943232593],[-121.040015029021,50.4506018546877],[-121.039757319038,50.4500572905077]]]}},{"type":"Feature","id":"902669831","properties":{"name":"SP_15KPH_%TR_22 shovel loaded_Jul_28_DS","oid":"902669831","speedLimit":4.1666665},"geometry":{"type":"Polygon","coordinates":[[[-121.035360045581,50.4461866516269],[-121.035505456572,50.4460776309386],[-121.035375826618,50.4462996268991],[-121.035227174879,50.4462532504151],[-121.034193657806,50.4459471296695],[-121.034445308998,50.4457277401393],[-121.034380353119,50.4458894286952],[-121.035360045581,50.4461866516269]]]}},{"type":"Feature","id":"902935346","properties":{"name":"SP_20KPH_%TRX_NEW LANES_July28_DS","oid":"902935346","speedLimit":5.5555553},"geometry":{"type":"Polygon","coordinates":[[[-121.039149608181,50.4482807835621],[-121.039118468812,50.4482918384217],[-121.039073521035,50.4483249131235],[-121.039243448995,50.4487269325289],[-121.039507781378,50.4492688004018],[-121.039625716455,50.449584897484],[-121.039827488295,50.4495431047222],[-121.03970631247,50.4493146376244],[-121.039224145404,50.4482988488204],[-121.039149608181,50.4482807835621]]]}},{"type":"Feature","id":"908328496","properties":{"name":"SP_15KPH_%TR_9019_SOFT_GROUND_July 28_DS","oid":"908328496","speedLimit":4.1666665},"geometry":{"type":"Polygon","coordinates":[[[-121.038997152084,50.4644904432635],[-121.039321790576,50.4647040806717],[-121.039500877174,50.464879790025],[-121.039388859986,50.4652170081804],[-121.03853231598,50.4663464013949],[-121.0381022827,50.4665995846422],[-121.03802591375,50.4662279436314],[-121.037878530129,50.4651414217016],[-121.038517662159,50.4648158875441],[-121.038997152084,50.4644904432635]]]}},{"type":"Feature","id":"908575258","properties":{"name":"iSP_15km_permissions ","oid":"908575258","speedLimit":4.1666665},"geometry":{"type":"Polygon","coordinates":[[[-121.041867187429,50.4595517970958],[-121.041457021349,50.459914360539],[-121.041081376289,50.460207449133],[-121.040686004931,50.4604250411251],[-121.040344880891,50.4605858309119],[-121.039954441108,50.4607150739043],[-121.03951454468,50.4607812233079],[-121.039173561542,50.4607970416435],[-121.039119173323,50.4612131717234],[-121.039252607633,50.4609388674029],[-121.039801280501,50.4608474625884],[-121.040270766375,50.460705636829],[-121.04093807883,50.4603934943307],[-121.041540999014,50.459986891203],[-121.041941442848,50.4596526389856],[-121.042089671882,50.4595296873766],[-121.041941442848,50.4594918491988],[-121.041867187429,50.4595517970958]]]}},{"type":"Feature","id":"910445950","properties":{"name":"SP_30KPH_%TR_1635_FLATS_JULY28_DS","oid":"910445950","speedLimit":8.333333},"geometry":{"type":"Polygon","coordinates":[[[-121.020221098769,50.4571653854587],[-121.019039916271,50.4569625332794],[-121.01864623574,50.4569238862094],[-121.017449835812,50.4572329728929],[-121.018085867996,50.4544702466458],[-121.018767270663,50.453900337178],[-121.018933957875,50.4535139563544],[-121.019554772629,50.4545186004218],[-121.020221098769,50.4571460619237],[-121.020206022242,50.4571460619237],[-121.020221098769,50.4571653854587]]]}},{"type":"Feature","id":"911981461","properties":{"name":"SP_20KPH_%TR_NEWLANES_21SH_1185_JULY_28_DS","oid":"911981461","speedLimit":5.5555553},"geometry":{"type":"Polygon","coordinates":[[[-121.040576805786,50.4503989126315],[-121.040424772395,50.4504222806274],[-121.04045098019,50.4507097968532],[-121.040414345638,50.4509003358962],[-121.040236104452,50.451238093313],[-121.040456193569,50.451876578861],[-121.040964709331,50.4517863424463],[-121.040487755644,50.4504757573871],[-121.040597800202,50.4503989126315],[-121.040576805786,50.4503989126315]]]}},{"type":"Feature","id":"912904239","properties":{"name":"SP_15KPH_%TR_1445_BENCH_JULY_28_DS","oid":"912904239","speedLimit":4.1666665},"geometry":{"type":"Polygon","coordinates":[[[-121.039457761124,50.4653050875494],[-121.039020682739,50.4653009532116],[-121.038564300762,50.4663792963429],[-121.03893712778,50.4664325933488],[-121.039457761124,50.4653050875494]]]}}]}