{"type":"FeatureCollection","features":[{"type":"Feature","id":"702602533","properties":{"name":"iSP_4KPH_%TR_CR01_SLOW BUMP","oid":"702602533","speedLimit":1.1111112},"geometry":{"type":"Polygon","coordinates":[[[-121.033360521102,50.4648075627753],[-121.033655261198,50.4646905464937],[-121.033698655055,50.4647312595318],[-121.03337080601,50.4648693962636],[-121.033360521102,50.4648075627753]]]}},{"type":"Feature","id":"707947583","properties":{"name":"iSP_22KPH_%TR_Permission Gate 1 from west dump_Jun","oid":"707947583","speedLimit":6.111111},"geometry":{"type":"Polygon","coordinates":[[[-121.038630056983,50.4619776920684],[-121.038856747621,50.4617992017954],[-121.037982530463,50.4613507292567],[-121.037745414029,50.461541981674],[-121.03796153798,50.4614962356776],[-121.038668519721,50.4618457566602],[-121.038630056983,50.4619776920684]]]}},{"type":"Feature","id":"742345972","properties":{"name":"iSP_4KPH_%TR_CR01_PITSIDE_SLOW BUMP","oid":"742345972","speedLimit":1.1111112},"geometry":{"type":"Polygon","coordinates":[[[-121.03340039273,50.464882517905],[-121.03370767196,50.4647440216761],[-121.033757828497,50.4647761067856],[-121.033476331981,50.4649180182363],[-121.03340039273,50.464882517905]]]}},{"type":"Feature","id":"776427243","properties":{"name":"iSP_7KPH_%TR_CR1_PermissionBlocker_DO_NOT_DELETE","oid":"776427243","speedLimit":1.9444444},"geometry":{"type":"Polygon","coordinates":[[[-121.034101598016,50.465212536174],[-121.034053132149,50.465232847756],[-121.034031998777,50.4652742797881],[-121.034117659379,50.4652252084442],[-121.034101598016,50.465212536174]]]}},{"type":"Feature","id":"794004438","properties":{"name":"iSP_11KPH_%TR_LOWER_FUEL_BAY","oid":"794004438","speedLimit":3.0555556},"geometry":{"type":"Polygon","coordinates":[[[-121.036778350922,50.4606951864315],[-121.03678046426,50.4607250246846],[-121.03675073665,50.4606705608853],[-121.037126910673,50.4605988412288],[-121.037536898091,50.46055579146],[-121.037544646994,50.4605811360003],[-121.036946149897,50.4606499796806],[-121.036778350922,50.4606951864315]]]}},{"type":"Feature","id":"801543391","properties":{"name":"iSP_4KPH_%TR_CR1_PermissionBlocker_DO_NOT_DELETE_","oid":"801543391","speedLimit":1.1111112},"geometry":{"type":"Polygon","coordinates":[[[-121.033157077173,50.46452302088],[-121.033156231838,50.464473590039],[-121.033177787878,50.4644315288871],[-121.03310973842,50.4644591202838],[-121.033157077173,50.46452302088]]]}},{"type":"Feature","id":"806473874","properties":{"name":"iSP_4KPH_%TR_Permission Blocker - DO NOT DELETE","oid":"806473874","speedLimit":1.1111112},"geometry":{"type":"Polygon","coordinates":[[[-121.022721136266,50.4815447556449],[-121.022688027316,50.4815424189142],[-121.022680419302,50.481571088802],[-121.022702538898,50.4815721672931],[-121.022706624684,50.4815480809924],[-121.022721136266,50.4815447556449]]]}},{"type":"Feature","id":"824566967","properties":{"name":"iSP_4Cr_3KPH","oid":"824566967","speedLimit":0.8333333},"geometry":{"type":"Polygon","coordinates":[[[-121.023303994668,50.4810678828412],[-121.02328384752,50.4810678828412],[-121.023281170626,50.4811859776139],[-121.023306248894,50.4811852586198],[-121.023303994668,50.4810678828412]]]}},{"type":"Feature","id":"826307302","properties":{"name":"iSP_4KPH_TR%_CRUSHER POCKETS","oid":"826307302","speedLimit":1.1111112},"geometry":{"type":"Polygon","coordinates":[[[-121.023299204437,50.4813210586211],[-121.023338653398,50.4814767208329],[-121.023543365329,50.4814372660344],[-121.023462354069,50.4811884042188],[-121.023054057321,50.4811891232129],[-121.023059411108,50.4813597944255],[-121.023284270187,50.4813258219566],[-121.023299204437,50.4813210586211]]]}},{"type":"Feature","id":"849417440","properties":{"name":"iSP_Permissions_35_KPH_June_19_NS","oid":"849417440","speedLimit":9.722222},"geometry":{"type":"Polygon","coordinates":[[[-121.032697074108,50.4660338071278],[-121.033011679573,50.4660144841627],[-121.033218645731,50.4658136151999],[-121.033807421477,50.4653791630452],[-121.033728241776,50.4652503732359],[-121.033964371987,50.4653998341241],[-121.033428147892,50.4658081328703],[-121.033025768488,50.4661876718545],[-121.032697074108,50.4660338071278]]]}},{"type":"Feature","id":"853029148","properties":{"name":"SP_30KPH_%TR_1635 Flats_AUG_6_DS","oid":"853029148","speedLimit":8.333333},"geometry":{"type":"Polygon","coordinates":[[[-121.018591675363,50.4569706175034],[-121.017410460753,50.4572894014904],[-121.016431985626,50.4584572275763],[-121.018350754921,50.4588927582222],[-121.020693882328,50.4589868565685],[-121.020242191722,50.4572314325951],[-121.019424471112,50.4570962617137],[-121.018970244501,50.4569996468882],[-121.018591675363,50.4569706175034]]]}},{"type":"Feature","id":"883050998","properties":{"name":"iSP_22kph_%TR_4CR_Brake_Temp_CTRL_NOREMOVE","oid":"883050998","speedLimit":6.111111},"geometry":{"type":"Polygon","coordinates":[[[-121.031800737354,50.4745586499571],[-121.032190014067,50.4743120349979],[-121.032491657731,50.4745743779519],[-121.032793301395,50.4748017598203],[-121.032971103499,50.4748841745133],[-121.033179901215,50.4749343243483],[-121.033463792847,50.474959129643],[-121.033667659443,50.4749215622039],[-121.033828836627,50.4748621553205],[-121.033919991905,50.4748101181261],[-121.034009315624,50.4747469365239],[-121.034059753939,50.4746577812617],[-121.034053977484,50.4745475954236],[-121.034057781491,50.4744832454561],[-121.033995649377,50.4743792609416],[-121.033877302494,50.4742591889352],[-121.033510427154,50.4739372593493],[-121.033062117888,50.4735596077245],[-121.032948843014,50.4734250659628],[-121.03282387434,50.4732205121556],[-121.032607045943,50.47281455014],[-121.032253555073,50.4722086179043],[-121.03248855817,50.4721557718416],[-121.032431498066,50.4722052925568],[-121.032904040265,50.4730484928291],[-121.033043238742,50.4733092180465],[-121.033251050234,50.4735465759573],[-121.03374402136,50.4739612557757],[-121.034099062011,50.4742707827143],[-121.034204447093,50.4743940901939],[-121.034257139634,50.4744613161375],[-121.034264184092,50.4745924426774],[-121.034239246713,50.4746784523407],[-121.034184722613,50.4747912445323],[-121.034087227323,50.4748754567104],[-121.033974375116,50.4749372901987],[-121.033791782781,50.4750157504244],[-121.033532264972,50.4750640129],[-121.033264293814,50.4750676977446],[-121.033072684574,50.4750259062154],[-121.032808940091,50.4749161697485],[-121.032658188703,50.4748347436723],[-121.032496588852,50.4747049652463],[-121.032146056653,50.4744126941649],[-121.031800737354,50.4745586499571]]]}},{"type":"Feature","id":"883053336","properties":{"name":"iSP_22kph_%TR_Brake_Temp_CTRL_NOREMOVE","oid":"883053336","speedLimit":6.111111},"geometry":{"type":"Polygon","coordinates":[[[-121.032467283909,50.4721448970566],[-121.03225242796,50.4722251547675],[-121.031489795006,50.4710079877149],[-121.030817894663,50.4699230256933],[-121.030662634823,50.469659873871],[-121.030597825815,50.4694573871716],[-121.030551473286,50.4692564283346],[-121.030597825815,50.4689726054333],[-121.030724062491,50.4686239831933],[-121.030885803232,50.4683752112519],[-121.031090233385,50.4680974998001],[-121.031689575817,50.4675362350697],[-121.032433470514,50.4668933645147],[-121.032789779167,50.4665558866824],[-121.033148905603,50.4662220936946],[-121.033485771554,50.4658704157299],[-121.033780793428,50.4660338071278],[-121.03358876152,50.4659930042154],[-121.032920665184,50.4666517825138],[-121.032555903182,50.466990967957],[-121.032179870049,50.4673074152133],[-121.031775659086,50.4676680806036],[-121.031383282811,50.4680341384494],[-121.031148420602,50.4682860559897],[-121.03101006746,50.468469579221],[-121.030906373048,50.4686541809434],[-121.030829870241,50.4688527131755],[-121.030769006129,50.469190999876],[-121.030777741256,50.4694003170189],[-121.030874954768,50.4696300356179],[-121.031028946606,50.4699347992209],[-121.031331858272,50.4704034934673],[-121.031531920861,50.4707106836752],[-121.031751567041,50.4710825833476],[-121.032147324656,50.4717285096274],[-121.032382609531,50.4721448071824],[-121.032467283909,50.4721448970566]]]}},{"type":"Feature","id":"883059532","properties":{"name":"iSP_22kph_%TR_Brake_CTRL_NOREMOVE","oid":"883059532","speedLimit":6.111111},"geometry":{"type":"Polygon","coordinates":[[[-121.027263543259,50.4773216542174],[-121.027031357945,50.4772094911455],[-121.027335819392,50.4769437329698],[-121.027717769869,50.4766321389233],[-121.028034488672,50.4763224322362],[-121.02819172096,50.4761684776353],[-121.028622559972,50.4756920542028],[-121.028908564941,50.4753254571115],[-121.029265155373,50.4748873201122],[-121.029473953089,50.4746564331479],[-121.029692753934,50.4745401358603],[-121.029802788358,50.4744879189174],[-121.029953539746,50.4745923528032],[-121.029789967446,50.4745417535969],[-121.029557359464,50.4747912445323],[-121.029253179795,50.4751727607501],[-121.029074250578,50.4754777041016],[-121.028854463509,50.4757744688958],[-121.02869737211,50.475974439116],[-121.028410240028,50.4762703051676],[-121.028042942021,50.4765696763152],[-121.02724522767,50.477219107691],[-121.027263543259,50.4773216542174]]]}},{"type":"Feature","id":"884401102","properties":{"name":"SP_25KPH_MAIN INT. DUST_AUG_ 7_NS","oid":"884401102","speedLimit":6.9444447},"geometry":{"type":"Polygon","coordinates":[[[-121.035774093082,50.4609088175386],[-121.035955980971,50.4612023468596],[-121.038296290594,50.4609918613514],[-121.038279947453,50.4603977026433],[-121.038121447162,50.460565587754],[-121.03590483821,50.4608508486433],[-121.035711679189,50.4607566604228],[-121.035774093082,50.4609088175386]]]}},{"type":"Feature","id":"903864124","properties":{"name":"SP_20KPH_%TR_OLD_GARBAGEDUMP_AUG_7_NS","oid":"903864124","speedLimit":5.5555553},"geometry":{"type":"Polygon","coordinates":[[[-121.042586224235,50.467001842742],[-121.042133406516,50.4673284457892],[-121.040895131802,50.4666611294365],[-121.040724796823,50.4661226927672],[-121.042265419647,50.4668259588225],[-121.042586224235,50.467001842742]]]}},{"type":"Feature","id":"908328496","properties":{"name":"SP_12KPH_%TR_9019_SOFT_GROUND_AUG_7_NS","oid":"908328496","speedLimit":3.3333333},"geometry":{"type":"Polygon","coordinates":[[[-121.039001299886,50.4644886889141],[-121.039305761333,50.4646767058582],[-121.039205307371,50.4648764064556],[-121.039036803951,50.4652630455061],[-121.038207530431,50.46631026034],[-121.039220100732,50.4663022615312],[-121.039226299854,50.4665693678208],[-121.038258814081,50.4670759890034],[-121.03611462215,50.4667425555127],[-121.037882780947,50.4651396481522],[-121.038521854118,50.464814123596],[-121.039001299886,50.4644886889141]]]}},{"type":"Feature","id":"910445950","properties":{"name":"SP_30KPH_%TR_1635_FLATS_AUG_6_DS","oid":"910445950","speedLimit":8.333333},"geometry":{"type":"Polygon","coordinates":[[[-121.020226975694,50.4571638471544],[-121.019045901973,50.456961000958],[-121.018652257696,50.4569223550278],[-121.017455967948,50.4572314325951],[-121.018091941558,50.4544687878319],[-121.018773281474,50.4538988951729],[-121.018939953335,50.4535125257452],[-121.019560710917,50.4545171401817],[-121.020226975694,50.4571445241893],[-121.020211900555,50.4571445241893],[-121.020226975694,50.4571638471544]]]}},{"type":"Feature","id":"915576987","properties":{"name":"iSP_15kph_prevent shifting","oid":"915576987","speedLimit":4.1666665},"geometry":{"type":"Polygon","coordinates":[[[-121.036999405994,50.4448631171967],[-121.037513510492,50.4453130277236],[-121.037982812241,50.4457954727312],[-121.038526785239,50.4462187804782],[-121.039459471393,50.4468498775057],[-121.039916797564,50.4470996380638],[-121.040472746139,50.4471949946497],[-121.04122593952,50.4473227059679],[-121.041644380287,50.4475095545467],[-121.042322902419,50.448094995452],[-121.042705557343,50.4485277399959],[-121.042848982495,50.4487947564112],[-121.043010441457,50.4493915214728],[-121.043189652453,50.4501980530485],[-121.04332716026,50.4505011989149],[-121.043688822701,50.4511686051419],[-121.043859298569,50.4514889169912],[-121.044128255951,50.4522534772892],[-121.044385378644,50.4529380494992],[-121.044699138775,50.4537979663831],[-121.04473802418,50.454194581476],[-121.044573606545,50.4550716643429],[-121.044218002338,50.4568391314665],[-121.044053584703,50.4572071665459],[-121.043007341896,50.4583988093097],[-121.041907420324,50.4595371566396],[-121.041345554406,50.4600004584306],[-121.040374123736,50.4605973133664],[-121.039925673581,50.460730776637],[-121.039136553467,50.4608069900063],[-121.038945366895,50.4608051026469],[-121.039002145221,50.4612932097327],[-121.039061882219,50.4609271518869],[-121.039880870832,50.4608795185311],[-121.04070887635,50.4606316453323],[-121.041512930712,50.4600577083318],[-121.042875892322,50.4587000678167],[-121.044244771276,50.4571422773329],[-121.044430181393,50.4562899997608],[-121.044815794989,50.4544214240988],[-121.044812695428,50.4537864624783],[-121.044262805086,50.4523012005193],[-121.043835347414,50.4511857711248],[-121.043348152743,50.4503372682715],[-121.043052285534,50.4493095561511],[-121.042929711976,50.4486917605135],[-121.042242172938,50.4478871162972],[-121.041548716556,50.4473913698997],[-121.041094349056,50.4472216873038],[-121.040460770562,50.447130195311],[-121.039919756236,50.4470195601015],[-121.038822793337,50.4463331904064],[-121.038198090858,50.4458716861005],[-121.037154947613,50.4449068859596],[-121.037379102246,50.4446972093197],[-121.036999405994,50.4448631171967]]]}},{"type":"Feature","id":"917291012","properties":{"name":"SP_15KPH_%TR_CORNER_RUTS_AUG_7_NS","oid":"917291012","speedLimit":4.1666665},"geometry":{"type":"Polygon","coordinates":[[[-121.040556293403,50.4664418362512],[-121.04036524772,50.466312686945],[-121.040275219555,50.4660940228795],[-121.040331434324,50.4660007334015],[-121.039808594699,50.465975658484],[-121.040089668548,50.4660437831702],[-121.040095304114,50.466309181849],[-121.040230275917,50.4665135559077],[-121.040539386706,50.4666462103099],[-121.040713666581,50.4667251199069],[-121.040820460554,50.466581680594],[-121.040545022271,50.466438241281],[-121.040556293403,50.4664418362512]]]}},{"type":"Feature","id":"917665392","properties":{"name":"SP_15KPH_22SH RUTS_AUG 7_NS","oid":"917665392","speedLimit":4.1666665},"geometry":{"type":"Polygon","coordinates":[[[-121.035648983519,50.4455194688902],[-121.035216735616,50.445207605221],[-121.034708125794,50.4452030216339],[-121.035038510844,50.4456320813333],[-121.035587555851,50.4459565273984],[-121.036007828177,50.4464643169463],[-121.036510379765,50.4462079056932],[-121.035648983519,50.4455194688902]]]}},{"type":"Feature","id":"917773475","properties":{"name":"SP_15KPH_%TR_1200_CORNER_AUG_8_NS","oid":"917773475","speedLimit":4.1666665},"geometry":{"type":"Polygon","coordinates":[[[-121.037100282624,50.4446823800674],[-121.036926143638,50.4448619488314],[-121.036630558207,50.444820426925],[-121.036415984036,50.4448697678917],[-121.03632440609,50.4449674612083],[-121.036255793076,50.4450819610107],[-121.03624353572,50.4451447831159],[-121.036264669092,50.4452671019786],[-121.036317361633,50.4453513141568],[-121.036185489391,50.4453950829196],[-121.036090389217,50.4451941240826],[-121.036164356019,50.4449315115058],[-121.036261146863,50.4447912177917],[-121.036517987779,50.4447149145482],[-121.036715091695,50.4447115892007],[-121.036924452968,50.444769917593],[-121.037095069725,50.4446834585585],[-121.037100282624,50.4446823800674]]]}}]}