{"type":"FeatureCollection","features":[{"type":"Feature","id":"702602533","properties":{"name":"iSP_4KPH_%TR_CR01_SLOW BUMP","oid":"702602533","speedLimit":1.1111112},"geometry":{"type":"Polygon","coordinates":[[[-121.033359688318,50.4648079282247],[-121.033654424666,50.4646909105608],[-121.033697817971,50.4647316240798],[-121.033369973095,50.4648697624434],[-121.033359688318,50.4648079282247]]]}},{"type":"Feature","id":"707947583","properties":{"name":"iSP_25KPH_%TR_Permission Gate 1 from west dump_Jun","oid":"707947583","speedLimit":6.9444447},"geometry":{"type":"Polygon","coordinates":[[[-121.038629157189,50.46197802409],[-121.038855844944,50.4617995317087],[-121.038140841615,50.4614083044499],[-121.037993191666,50.4616710100041],[-121.038192688161,50.461566934386],[-121.038667619437,50.4618460871234],[-121.038629157189,50.46197802409]]]}},{"type":"Feature","id":"742345972","properties":{"name":"iSP_4KPH_%TR_CR01_PITSIDE_SLOW BUMP","oid":"742345972","speedLimit":1.1111112},"geometry":{"type":"Polygon","coordinates":[[[-121.03339955944,50.4648828842398],[-121.033706834762,50.4647443863749],[-121.033756990661,50.4647764718634],[-121.033475497724,50.4649183849904],[-121.03339955944,50.4648828842398]]]}},{"type":"Feature","id":"776427243","properties":{"name":"iSP_7KPH_%TR_CR1_PermissionBlocker_DO_NOT_DELETE","oid":"776427243","speedLimit":1.9444444},"geometry":{"type":"Polygon","coordinates":[[[-121.034100755808,50.4652129064071],[-121.034052290558,50.465233218229],[-121.034031157454,50.4652746507505],[-121.034116816967,50.4652255788269],[-121.034100755808,50.4652129064071]]]}},{"type":"Feature","id":"794004438","properties":{"name":"iSP_11KPH_%TR_LOWER_FUEL_BAY","oid":"794004438","speedLimit":3.0555556},"geometry":{"type":"Polygon","coordinates":[[[-121.036777474675,50.4606955033036],[-121.036779587986,50.4607253419092],[-121.036749860754,50.4606708774665],[-121.037126029993,50.4605991569629],[-121.037536012197,50.4605561066856],[-121.037543761002,50.4605814515252],[-121.036945271516,50.4606502960187],[-121.036777474675,50.4606955033036]]]}},{"type":"Feature","id":"801543391","properties":{"name":"iSP_4KPH_%TR_CR1_PermissionBlocker_DO_NOT_DELETE_","oid":"801543391","speedLimit":1.1111112},"geometry":{"type":"Polygon","coordinates":[[[-121.033156246977,50.4645233829682],[-121.033155401653,50.4644739515434],[-121.033176957418,50.4644318898946],[-121.033108908825,50.4644594816172],[-121.033156246977,50.4645233829682]]]}},{"type":"Feature","id":"806473874","properties":{"name":"iSP_4KPH_%TR_Permission Blocker - DO NOT DELETE","oid":"806473874","speedLimit":1.1111112},"geometry":{"type":"Polygon","coordinates":[[[-121.022720438779,50.4815453188014],[-121.022687330251,50.4815429820431],[-121.022679722334,50.4815716522695],[-121.022701841648,50.4815727307733],[-121.022705927382,50.4815486441881],[-121.022720438779,50.4815453188014]]]}},{"type":"Feature","id":"824566967","properties":{"name":"iSP_4Cr_3KPH","oid":"824566967","speedLimit":0.8333333},"geometry":{"type":"Polygon","coordinates":[[[-121.023303289769,50.4810684403646],[-121.023283142877,50.4810684403646],[-121.023280466018,50.4811865365323],[-121.023305543967,50.4811858175298],[-121.023303289769,50.4810684403646]]]}},{"type":"Feature","id":"826307302","properties":{"name":"iSP_4KPH_TR%_CRUSHER POCKETS","oid":"826307302","speedLimit":1.1111112},"geometry":{"type":"Polygon","coordinates":[[[-121.023298499599,50.4813216191351],[-121.023337948059,50.4814772831857],[-121.023542657386,50.4814378279212],[-121.023461647157,50.4811889631659],[-121.0230533556,50.4811896821685],[-121.02305870932,50.4813603553972],[-121.023283565539,50.481326382527],[-121.023298499599,50.4813216191351]]]}},{"type":"Feature","id":"835348611","properties":{"name":"SP_30KPH_%TR_switchback to 1 gate_SEP_6_DS","oid":"835348611","speedLimit":8.333333},"geometry":{"type":"Polygon","coordinates":[[[-121.039920953351,50.4634034466319],[-121.039548728958,50.4634579110745],[-121.039801903536,50.4633742371536],[-121.039545629436,50.4629227934318],[-121.039365716283,50.4625823457276],[-121.039179604087,50.4622612212167],[-121.038987433734,50.4620180186065],[-121.038746516356,50.4618370097163],[-121.038563503681,50.461730058088],[-121.038077301417,50.4614748121851],[-121.038039966268,50.4615169637092],[-121.037959378701,50.4615574076023],[-121.038034189886,50.4613738822031],[-121.038145631785,50.4613856558698],[-121.0384841841,50.4615704395234],[-121.038867961256,50.4617908138029],[-121.039055482327,50.4619262559069],[-121.039240044762,50.4621305425045],[-121.039454193543,50.4625356105623],[-121.039582260149,50.4627535582082],[-121.039759214667,50.4630610216707],[-121.039862907761,50.4632594663726],[-121.039944904202,50.4633239069756],[-121.039920953351,50.4634034466319]]]}},{"type":"Feature","id":"859384545","properties":{"name":"SP_30KPH_MAINT_CREW_L1590_ROUGH_SEP_6_DS","oid":"859384545","speedLimit":8.333333},"geometry":{"type":"Polygon","coordinates":[[[-121.0139735882,50.4518293031931],[-121.01391765592,50.4511529914259],[-121.013838195451,50.4497616316295],[-121.012656573201,50.4498957256038],[-121.013142352802,50.4500387172346],[-121.013401726424,50.451796768328],[-121.013225194567,50.4523054626273],[-121.012545413077,50.4524639128127],[-121.013761270955,50.452443061739],[-121.0139735882,50.4518293031931]]]}},{"type":"Feature","id":"875953603","properties":{"name":"SP_25_KPH_80%TR_CR01_YARD_LOADED_Sept_05_NS","oid":"875953603","speedLimit":6.9444447},"geometry":{"type":"Polygon","coordinates":[[[-121.038111537045,50.4622577160793],[-121.038365416059,50.462896010587],[-121.03831638726,50.4633433200442],[-121.038102238479,50.4637140557306],[-121.037626180105,50.4639750536537],[-121.037928947032,50.4642050445922],[-121.037829621446,50.4640213394424],[-121.038275670814,50.4637269977763],[-121.038557022863,50.4631644681616],[-121.038356540156,50.4621661331304],[-121.038111537045,50.4622577160793]]]}},{"type":"Feature","id":"878230085","properties":{"name":"SP_35KPH_TR%_PUNCH_OUT_L1590_DMP_Sep 5_NS","oid":"878230085","speedLimit":9.722222},"geometry":{"type":"Polygon","coordinates":[[[-121.013763243378,50.4533975376151],[-121.013625737319,50.4529077171325],[-121.01378606713,50.452512894861],[-121.013098677722,50.4524617558051],[-121.01306627363,50.4528629592242],[-121.013205752112,50.4533674293836],[-121.013611085034,50.4545820044296],[-121.013329732985,50.4549546274976],[-121.01304499964,50.4549500438564],[-121.013784094707,50.4551889324514],[-121.014084184774,50.4546990220935],[-121.013992467106,50.4541360431022],[-121.013763243378,50.4533975376151]]]}},{"type":"Feature","id":"883050998","properties":{"name":"iSP_22kph_%TR_4CR_Brake_Temp_CTRL_NOREMOVE","oid":"883050998","speedLimit":6.111111},"geometry":{"type":"Polygon","coordinates":[[[-121.031799924405,50.4745591305906],[-121.032189196168,50.4743125127183],[-121.032490835997,50.4745748587712],[-121.032792475825,50.4748022433255],[-121.032970275667,50.474884658992],[-121.033179070728,50.4749348094194],[-121.03346295875,50.4749596150071],[-121.033666822753,50.4749220471242],[-121.033827997888,50.4748626395391],[-121.033919152007,50.4748106017301],[-121.03400847459,50.4747474193816],[-121.034058912263,50.4746582630662],[-121.034053135882,50.4745480759265],[-121.03405693984,50.4744837251989],[-121.033994808517,50.4743797394561],[-121.033876463138,50.4742596660314],[-121.033509592464,50.4739377326426],[-121.033061288899,50.4735600765568],[-121.032948015465,50.473425533206],[-121.032823048381,50.4732209769824],[-121.032606222741,50.4728150101715],[-121.032252736366,50.4722090707782],[-121.032487736475,50.4721562240913],[-121.032430677096,50.4722057453914],[-121.032903213286,50.473048955624],[-121.033042409993,50.4733096839212],[-121.033250218843,50.4735470446357],[-121.0337431837,50.4739617293525],[-121.034098219836,50.4742712599474],[-121.034203603578,50.4743945688835],[-121.034256295448,50.4744617956213],[-121.034263339816,50.4745929237101],[-121.034238402754,50.4746789343893],[-121.034183879348,50.4747917279133],[-121.034086385298,50.4748759410862],[-121.033973534526,50.4749377753049],[-121.033790944513,50.4750162364574],[-121.033531430004,50.4750644995031],[-121.033263462254,50.4750681843912],[-121.033071855451,50.4750263923683],[-121.032808114321,50.4749166546052],[-121.032657364851,50.4748352275672],[-121.032495767054,50.4747054476081],[-121.032145239314,50.4744131730743],[-121.031799924405,50.4745591305906]]]}},{"type":"Feature","id":"883053336","properties":{"name":"iSP_22kph_%TR_Brake_Temp_CTRL_NOREMOVE","oid":"883053336","speedLimit":6.111111},"geometry":{"type":"Polygon","coordinates":[[[-121.032466462484,50.4721453491778],[-121.032251609267,50.4722256078367],[-121.031488986012,50.4710084264064],[-121.030817094213,50.4699234515688],[-121.030661836347,50.469660296638],[-121.030597028164,50.4694578075467],[-121.030550676224,50.4692568463359],[-121.030597028164,50.468973020082],[-121.030723263234,50.4686243937239],[-121.030885001918,50.4683756188439],[-121.031089429471,50.4680979041116],[-121.031688764282,50.4675366327514],[-121.032432649519,50.4668937546024],[-121.032788953641,50.4665562727837],[-121.03314807551,50.4662224758531],[-121.033484937177,50.4658707937341],[-121.0337799553,50.4660341870621],[-121.033587925834,50.4659933836677],[-121.032919837994,50.4666521697479],[-121.032555080631,50.4669913591977],[-121.032179052279,50.467307810192],[-121.031774846456,50.4676684798427],[-121.031382475171,50.4680345420125],[-121.031147615949,50.4682864625286],[-121.031009264566,50.4684699879277],[-121.030905571472,50.4686545918307],[-121.030829069638,50.4688531264079],[-121.030768206301,50.4691914171045],[-121.030776941317,50.4694007367199],[-121.030874153592,50.4696304580324],[-121.031028143472,50.4699352252354],[-121.031331051286,50.4704039250182],[-121.031531111331,50.4707111188548],[-121.031750754718,50.4710830229203],[-121.0321465073,50.47172895683],[-121.032381789183,50.4721452593025],[-121.032466462484,50.4721453491778]]]}},{"type":"Feature","id":"883059532","properties":{"name":"iSP_22kph_%TR_Brake_CTRL_NOREMOVE","oid":"883059532","speedLimit":6.111111},"geometry":{"type":"Polygon","coordinates":[[[-121.027262788008,50.4773221674887],[-121.027030605646,50.477210003092],[-121.027335063222,50.476944241777],[-121.027717008843,50.4766326440498],[-121.028033723618,50.4763229337043],[-121.028190953906,50.4761689772848],[-121.02862178744,50.4756925482246],[-121.028907788771,50.4753259468029],[-121.029264374668,50.4748878046281],[-121.029473169729,50.4746569149365],[-121.029691967792,50.4745406162751],[-121.029802000817,50.4744883987154],[-121.029952750287,50.4745928338348],[-121.029789180067,50.4745422340308],[-121.029556575043,50.4747917279133],[-121.029252399243,50.4751732486378],[-121.029073472301,50.4754781955914],[-121.028853688027,50.4757749638911],[-121.028696598625,50.4759749364734],[-121.028409470195,50.4762708060199],[-121.028042176859,50.4765701807039],[-121.027244472652,50.477219619751],[-121.027262788008,50.4773221674887]]]}},{"type":"Feature","id":"891249991","properties":{"name":"SP_20KPH_TR%_1590_rough section_ #1_SEPT 6_DS","oid":"891249991","speedLimit":5.5555553},"geometry":{"type":"Polygon","coordinates":[[[-121.012957790367,50.4498606742298],[-121.013848339341,50.4497487794591],[-121.013379747996,50.4450040816766],[-121.011853374387,50.4421437996845],[-121.007783702236,50.4388899536754],[-121.006732541676,50.4393240514608],[-121.01093098487,50.4427669052635],[-121.011093709766,50.4430957590517],[-121.011457199143,50.4435198806769],[-121.011775181905,50.444510576306],[-121.012957790367,50.4498606742298]]]}},{"type":"Feature","id":"901482363","properties":{"name":"SP_25KPH_1200-1185_%TRAC_RAMP_SEPT_5_NS","oid":"901482363","speedLimit":6.9444447},"geometry":{"type":"Polygon","coordinates":[[[-121.036667159876,50.4451090560479],[-121.036261967842,50.4451194815848],[-121.0390691484,50.4482665557163],[-121.039088027306,50.4482638594568],[-121.038804421059,50.4476152292875],[-121.038216498125,50.4469312781183],[-121.036577273743,50.4451796081725],[-121.036694914685,50.4451090560479],[-121.036667159876,50.4451090560479]]]}},{"type":"Feature","id":"903864124","properties":{"name":"SP_15KPH_%TR_OLD_GARBAGEDUMP_SEP_5_NS","oid":"903864124","speedLimit":4.1666665},"geometry":{"type":"Polygon","coordinates":[[[-121.042485666771,50.4669871350577],[-121.042132462171,50.4673288410164],[-121.042023978907,50.4669792260298],[-121.041686835465,50.4668099009308],[-121.041835330738,50.4667104089539],[-121.042485666771,50.4669871350577]]]}},{"type":"Feature","id":"908328496","properties":{"name":"SP_15KPH_%TR_1445_SOFT_GROUND_SEPT_5_NS","oid":"908328496","speedLimit":4.1666665},"geometry":{"type":"Polygon","coordinates":[[[-121.039332185093,50.4644968697494],[-121.039941241131,50.4647091552503],[-121.039189466202,50.466674818328],[-121.038827244811,50.4674278836167],[-121.038452484445,50.4678943365166],[-121.037915562733,50.4682380197322],[-121.037180553399,50.468025913982],[-121.038313569512,50.4667052860608],[-121.038794277169,50.4655660265311],[-121.039332185093,50.4644968697494]]]}},{"type":"Feature","id":"908544149","properties":{"name":"SP_25KPH_CR01_YARD_SEP_5_NS","oid":"908544149","speedLimit":6.9444447},"geometry":{"type":"Polygon","coordinates":[[[-121.035865369936,50.4644332380244],[-121.033943384632,50.4643577427573],[-121.035097533848,50.4651909768296],[-121.036121362261,50.4647326127083],[-121.036269012209,50.4648142194969],[-121.035996676951,50.4644144540829],[-121.035865369936,50.4644332380244]]]}},{"type":"Feature","id":"910445950","properties":{"name":"SP_22KPH_%TR_1635_FLATS_SEP_5_NS","oid":"910445950","speedLimit":6.111111},"geometry":{"type":"Polygon","coordinates":[[[-121.018917466392,50.457603522742],[-121.015249464091,50.4587005408723],[-121.014498816261,50.4578797095939],[-121.017481683352,50.456415820416],[-121.017774024615,50.4542398490944],[-121.01844183068,50.4540101277818],[-121.019220655981,50.4539290602451],[-121.019246015705,50.4568508169546],[-121.019158665545,50.4570731684911],[-121.019196705131,50.4574051679154],[-121.018917466392,50.457603522742]]]}},{"type":"Feature","id":"917773475","properties":{"name":"SP_15KPH_%TR_1200_CORNER_Sept_5_NS","oid":"917773475","speedLimit":4.1666665},"geometry":{"type":"Polygon","coordinates":[[[-121.037099402283,50.4446825077892],[-121.036925265511,50.4448620786744],[-121.036629683839,50.4448205562775],[-121.036415112397,50.444869897827],[-121.036323535616,50.4449675922976],[-121.036254923474,50.4450820934526],[-121.036242666274,50.4451449162998],[-121.036263799377,50.4452672366074],[-121.036316491248,50.4453514497803],[-121.036184620683,50.4453952190601],[-121.036089521718,50.4451942578493],[-121.03616348758,50.4449316421704],[-121.036260277193,50.4447913467992],[-121.036517114842,50.4447150426543],[-121.036714216253,50.4447117172675],[-121.036923574863,50.4447700463488],[-121.037094189451,50.444683586293],[-121.037099402283,50.4446825077892]]]}},{"type":"Feature","id":"921770139","properties":{"name":"SP_25KPH_%TR_HIGHMONT_SEPT 6_DS","oid":"921770139","speedLimit":6.9444447},"geometry":{"type":"Polygon","coordinates":[[[-121.002514092477,50.4281368212656],[-121.001469271849,50.4282385601254],[-121.001504775463,50.4285897928678],[-121.002055504135,50.4286074084301],[-121.002474080468,50.4285801762087],[-121.002750783235,50.4285621112698],[-121.002514092477,50.4281368212656]]]}},{"type":"Feature","id":"922260470","properties":{"name":"SP_35KPH_80%TR_ HIGHMONT _SEP_5_NS","oid":"922260470","speedLimit":9.722222},"geometry":{"type":"Polygon","coordinates":[[[-121.012470601891,50.4368571537352],[-121.00995336751,50.4368785440608],[-121.008990402436,50.4370413981369],[-121.008148459599,50.4371427774955],[-121.00644625857,50.4373441880829],[-121.00590708266,50.4374845733294],[-121.006854127464,50.4374355912812],[-121.009230051827,50.4371613816863],[-121.010011553988,50.4370556883124],[-121.010999033463,50.4369970896052],[-121.012053857094,50.4369999656153],[-121.012481450218,50.4372099143579],[-121.012461866875,50.4370309726],[-121.012470601891,50.4368571537352]]]}},{"type":"Feature","id":"922262468","properties":{"name":"SP_20kph_HMT_DUMP_SEP_5_NS","oid":"922262468","speedLimit":5.5555553},"geometry":{"type":"Polygon","coordinates":[[[-121.012502442434,50.4364263813365],[-121.012482577317,50.4374170769657],[-121.01476312094,50.4387148765561],[-121.017332906305,50.4379497679749],[-121.016524212884,50.4359056437446],[-121.014772137731,50.4353086918831],[-121.013004001419,50.4354273273028],[-121.012502442434,50.4364263813365]]]}},{"type":"Feature","id":"923351007","properties":{"name":"iSP_17KPH_PERMISSIONS_AUG 18_NS","oid":"923351007","speedLimit":4.7222223},"geometry":{"type":"Polygon","coordinates":[[[-121.038854154296,50.4608773210718],[-121.038873596751,50.4611349037328],[-121.038784274167,50.4608896339903],[-121.038539552831,50.4608896339903],[-121.038535748872,50.4608302264052],[-121.038881345555,50.4608227667538],[-121.038854154296,50.4608773210718]]]}},{"type":"Feature","id":"925542039","properties":{"name":"SP_12KPH_DRAINAGE DITCHSEPT_5_NS","oid":"925542039","speedLimit":3.3333333},"geometry":{"type":"Polygon","coordinates":[[[-121.018172313169,50.4555314472879],[-121.018489027944,50.4557207247074],[-121.01846902194,50.455835675239],[-121.018124975017,50.4556371406617],[-121.018172313169,50.4555314472879]]]}},{"type":"Feature","id":"926367691","properties":{"name":"SP_20KPH_%TR_24SH_SEP_6_DS","oid":"926367691","speedLimit":5.5555553},"geometry":{"type":"Polygon","coordinates":[[[-121.038704954586,50.4502080423335],[-121.038074624558,50.4496787665864],[-121.037543197453,50.449859595726],[-121.038245802694,50.4520114804624],[-121.038397397489,50.453130338295],[-121.038777793349,50.4530969046767],[-121.038843305969,50.4508309681619],[-121.038704954586,50.4502080423335]]]}},{"type":"Feature","id":"927549571","properties":{"name":"SP_25_KPH_TR70%_CRUSHER YARD EMPTY_SEPT_5_NS","oid":"927549571","speedLimit":6.9444447},"geometry":{"type":"Polygon","coordinates":[[[-121.037755514697,50.4619283230392],[-121.037449084699,50.4612608190532],[-121.036779165324,50.4614646562742],[-121.037247615781,50.4615093243072],[-121.037920634678,50.4626184756054],[-121.03794768505,50.4632583878688],[-121.03750177657,50.4637414677025],[-121.037078128292,50.4639814348013],[-121.036452447546,50.4642045952156],[-121.036236889892,50.4641031259817],[-121.0363994739,50.4643263762714],[-121.036721119733,50.4642316476863],[-121.03743147378,50.4639642686156],[-121.03784751414,50.4637352663056],[-121.037980511804,50.4635590208072],[-121.03821086263,50.4632688134057],[-121.038184516695,50.4627772852921],[-121.038027004631,50.4623109222675],[-121.037755514697,50.4619283230392]]]}},{"type":"Feature","id":"929009157","properties":{"name":"iSP_22kph_Long_Single_Lane_Aug30","oid":"929009157","speedLimit":6.111111},"geometry":{"type":"Polygon","coordinates":[[[-121.005870029286,50.4378881135068],[-121.00481069726,50.4381070497812],[-121.00517615906,50.438197464351],[-121.007936424129,50.4431704454409],[-121.008525192388,50.4445348426419],[-121.008212281571,50.446509673002],[-121.007834280796,50.4466801664801],[-121.008935738142,50.4466469126125],[-121.00882500068,50.4465928975464],[-121.009405033923,50.444817590392],[-121.008766109766,50.4430683470798],[-121.008264409893,50.4415401071742],[-121.007260869259,50.4401561171539],[-121.006441186625,50.4389839632579],[-121.005690961457,50.4380213986032],[-121.005870029286,50.4378881135068]]]}},{"type":"Feature","id":"930116666","properties":{"name":"SP_15KPH_9023 Rough_SEP_5_NS","oid":"930116666","speedLimit":4.1666665},"geometry":{"type":"Polygon","coordinates":[[[-121.043598254218,50.4685543808512],[-121.043298023263,50.4689180163874],[-121.042549488743,50.468462708027],[-121.042344920303,50.4680407434094],[-121.043036818106,50.467907458313],[-121.043598254218,50.4685543808512]]]}},{"type":"Feature","id":"930976872","properties":{"name":"SP_13KPH_%TR_21SH_SEP_5_NS","oid":"930976872","speedLimit":3.6111112},"geometry":{"type":"Polygon","coordinates":[[[-121.036323112954,50.4472476392373],[-121.036212798154,50.4473474008402],[-121.036121362261,50.4473525237333],[-121.036018796266,50.4473181913618],[-121.035311259967,50.4469667788689],[-121.035515828407,50.4467739064367],[-121.036323112954,50.4472476392373]]]}},{"type":"Feature","id":"931933206","properties":{"name":"SP_15KPH_PUNCH_OUT_SEPT_5_NS","oid":"931933206","speedLimit":4.1666665},"geometry":{"type":"Polygon","coordinates":[[[-121.012903971397,50.4365389052345],[-121.012960749001,50.4368160807149],[-121.013593474115,50.4368185073485],[-121.013568255278,50.4365706312217],[-121.013503447095,50.4366690446948],[-121.013008368927,50.4366706624505],[-121.012903971397,50.4365389052345]]]}},{"type":"Feature","id":"932114358","properties":{"name":"SP_35KPH_%TR_23SH_LOADED_LANES_SEP_6_DS","oid":"932114358","speedLimit":9.722222},"geometry":{"type":"Polygon","coordinates":[[[-121.042099071868,50.4671398332228],[-121.041266286709,50.4667317992796],[-121.040735141379,50.4664969550739],[-121.040511975808,50.4663968339698],[-121.040355027294,50.4663121714203],[-121.04036108545,50.466065823174],[-121.040451535132,50.4657770537776],[-121.040517893077,50.4655114722132],[-121.040445476976,50.46513031099],[-121.04023428683,50.4644142743323],[-121.039984070887,50.4634788520236],[-121.039865021071,50.4631628504059],[-121.039698210442,50.4628771367703],[-121.038921639339,50.4631294167876],[-121.039550560494,50.4630533822687],[-121.039764850162,50.4635153414027],[-121.039914472533,50.46422562604],[-121.040083396472,50.4647222770467],[-121.040276553037,50.4653843885137],[-121.040246403143,50.4657154891848],[-121.040101570941,50.4659579727925],[-121.039980830478,50.4662197795935],[-121.040161870729,50.4664854510332],[-121.041767141258,50.4671898937749],[-121.041839557359,50.4675478671661],[-121.042099071868,50.4671398332228]]]}},{"type":"Feature","id":"932118723","properties":{"name":"SP_30KPH_80%TR_1635_TO_1620_SEP_6_DS","oid":"932118723","speedLimit":8.333333},"geometry":{"type":"Polygon","coordinates":[[[-121.018237825789,50.4539384971535],[-121.018530448827,50.4537443664668],[-121.018241770635,50.453642357981],[-121.017621443609,50.4534681796149],[-121.017126083667,50.4534432841519],[-121.016412066549,50.453440767643],[-121.016060975259,50.4534805824088],[-121.015776241914,50.4535129375232],[-121.015503202219,50.4536050597241],[-121.015897123265,50.4538315455252],[-121.015823016516,50.4536672534441],[-121.016252159401,50.4536050597241],[-121.016614944341,50.453607576233],[-121.017325016613,50.4535950835638],[-121.017742465847,50.4536548506502],[-121.018120889284,50.4537145278613],[-121.018265157936,50.4537692619299],[-121.018237825789,50.4539384971535]]]}},{"type":"Feature","id":"932268643","properties":{"name":"SP_35KPH_80%traction_1185_1170_SEP_6_DS","oid":"932268643","speedLimit":9.722222},"geometry":{"type":"Polygon","coordinates":[[[-121.038729609873,50.4481974415968],[-121.038467841167,50.4482556808028],[-121.0389477035,50.4498293077439],[-121.039506885414,50.4497913803598],[-121.039106342662,50.4497306246448],[-121.038622535483,50.448344207991],[-121.038852604535,50.4481595142127],[-121.038729609873,50.4481974415968]]]}},{"type":"Feature","id":"932281958","properties":{"name":"SP_15KPH_70%TR_1185-1170_22shl_SEPT_5_NS","oid":"932281958","speedLimit":4.1666665},"geometry":{"type":"Polygon","coordinates":[[[-121.037375541499,50.4481142170525],[-121.03740907269,50.4479620581393],[-121.036982465778,50.4479087620758],[-121.036572483573,50.447740605356],[-121.035324503378,50.4471563259143],[-121.035098379172,50.4474260417433],[-121.035349017778,50.4473476704661],[-121.036815091599,50.4479514528518],[-121.037216620562,50.4480555284699],[-121.037334965941,50.4481911503246],[-121.037375541499,50.4481142170525]]]}},{"type":"Feature","id":"932364856","properties":{"name":"SP_12km_%_1170rOUGH_SPT_5_NS","oid":"932364856","speedLimit":3.3333333},"geometry":{"type":"Polygon","coordinates":[[[-121.038074342783,50.4473201686188],[-121.037832298306,50.4473891029877],[-121.037706767672,50.4473851484737],[-121.037727900776,50.4480410585437],[-121.03832540405,50.4498588767235],[-121.038776948025,50.4502069638297],[-121.038722565506,50.4496640270343],[-121.038331603094,50.4483823151258],[-121.038104633564,50.4473256510132],[-121.038074342783,50.4473201686188]]]}},{"type":"Feature","id":"932654885","properties":{"name":"SP_25KPH_LOTS OF MUD_SEPT 5_NS","oid":"932654885","speedLimit":6.9444447},"geometry":{"type":"Polygon","coordinates":[[[-121.03636594271,50.4453590891823],[-121.036058385613,50.4454651420574],[-121.036263376715,50.4454606482915],[-121.038010098149,50.4473914397459],[-121.038176345228,50.4473146862244],[-121.03636594271,50.4453590891823]]]}},{"type":"Feature","id":"933252285","properties":{"name":"SP_12KPH_%TR1645_PATCH_SEP_DS","oid":"933252285","speedLimit":3.3333333},"geometry":{"type":"Polygon","coordinates":[[[-121.004300403258,50.4287925515849],[-121.004057231682,50.4290157119993],[-121.005062040302,50.4295096667464],[-121.005320145937,50.4293123005483],[-121.005134456403,50.4293871666881],[-121.004308997387,50.4289749086049],[-121.004300403258,50.4287925515849]]]}},{"type":"Feature","id":"933252378","properties":{"name":"SP_20KPH_%TR_1615_ROUGH_SECTION_SEP6_DS","oid":"933252378","speedLimit":5.5555553},"geometry":{"type":"Polygon","coordinates":[[[-121.007363012592,50.4314117879744],[-121.007545461717,50.432145619945],[-121.007054187509,50.4322076339144],[-121.007399502417,50.4321238701181],[-121.007258474174,50.4314846768572],[-121.006910623294,50.431455197753],[-121.007363012592,50.4314117879744]]]}},{"type":"Feature","id":"933252478","properties":{"name":"SP_20KPH_%TR_1605_PATCH_SEP6_DS","oid":"933252478","speedLimit":5.5555553},"geometry":{"type":"Polygon","coordinates":[[[-121.00659433118,50.4333408717978],[-121.007212404009,50.4334383865177],[-121.006981489633,50.4339627191223],[-121.006679286256,50.4343787519688],[-121.006275080433,50.4347752818714],[-121.005741821792,50.4345239006072],[-121.00621393532,50.4346040693908],[-121.006702955331,50.433977908051],[-121.006896534558,50.4335510901663],[-121.00659433118,50.4333408717978]]]}},{"type":"Feature","id":"933252549","properties":{"name":"SP_35KPH_%TR_1590_ROUGH_SEP6_DS","oid":"933252549","speedLimit":9.722222},"geometry":{"type":"Polygon","coordinates":[[[-121.004363661681,50.4363928578429],[-121.004780265591,50.4364500185451],[-121.004884522234,50.4362112198254],[-121.005082468968,50.4359569625511],[-121.004584995716,50.4358323953605],[-121.004799003609,50.4359808693857],[-121.004627825472,50.4363681421305],[-121.004363661681,50.4363928578429]]]}},{"type":"Feature","id":"933277247","properties":{"name":"SP_10KPH_%TR_24SH_LOAD_AREA","oid":"933277247","speedLimit":2.7777777},"geometry":{"type":"Polygon","coordinates":[[[-121.039299921888,50.4531060719591],[-121.038322586303,50.4531903750073],[-121.038261018529,50.4540159696775],[-121.039440809244,50.4535975101974],[-121.039304289396,50.4531622440328],[-121.039299921888,50.4531060719591]]]}}]}