{"type":"FeatureCollection","features":[{"type":"Feature","id":"702602533","properties":{"name":"iSP_4KPH_%TR_CR01_Slow Bump","oid":"702602533","speedLimit":1.1111112},"geometry":{"type":"Polygon","coordinates":[[[-121.033357234344,50.4648076534118],[-121.033651984096,50.4646906358702],[-121.033695379375,50.4647313493466],[-121.033367519589,50.4648694875658],[-121.033357234344,50.4648076534118]]]}},{"type":"Feature","id":"707947583","properties":{"name":"iSP_25KPH_%TR_Permission Gate 1 From West Dump","oid":"707947583","speedLimit":6.9444447},"geometry":{"type":"Polygon","coordinates":[[[-121.038626942866,50.4619777522346],[-121.038853640931,50.4617992600398],[-121.038138605084,50.4614080331899],[-121.03799094842,50.4616707384696],[-121.038190453989,50.4615666629602],[-121.038665406864,50.4618458154058],[-121.038626942866,50.4619777522346]]]}},{"type":"Feature","id":"742345972","properties":{"name":"iSP_4KPH_%TR_CR01_Pit Side_Slow Bump","oid":"742345972","speedLimit":1.1111112},"geometry":{"type":"Polygon","coordinates":[[[-121.033397107279,50.4648826093486],[-121.033704396576,50.4647441116284],[-121.033754554756,50.4647761970834],[-121.033473049017,50.464918110062],[-121.033397107279,50.4648826093486]]]}},{"type":"Feature","id":"776427243","properties":{"name":"iSP_7KPH_%TR_CR1_PermissionBlocker","oid":"776427243","speedLimit":1.9444444},"geometry":{"type":"Polygon","coordinates":[[[-121.034098335537,50.465212631171],[-121.034049868083,50.4652329429716],[-121.034028734018,50.4652743754498],[-121.034114397426,50.4652253035775],[-121.034098335537,50.465212631171]]]}},{"type":"Feature","id":"794004438","properties":{"name":"iSP_11KPH_%TR_Lower_Fuel_Bay","oid":"794004438","speedLimit":3.0555556},"geometry":{"type":"Polygon","coordinates":[[[-121.03677517614,50.4606952327886],[-121.036777289546,50.4607250713629],[-121.036747560962,50.4606706069772],[-121.037123747309,50.4605988865485],[-121.037533748159,50.4605558363162],[-121.037541497316,50.4605811811294],[-121.036942980611,50.4606500255509],[-121.03677517614,50.4606952327886]]]}},{"type":"Feature","id":"801543391","properties":{"name":"iSP_4KPH_%TR_CR01_PermissionBlocker_2","oid":"801543391","speedLimit":1.1111112},"geometry":{"type":"Polygon","coordinates":[[[-121.03315378375,50.4645231084527],[-121.033152938388,50.4644736770795],[-121.033174495134,50.4644316154747],[-121.033106443446,50.4644592071684],[-121.03315378375,50.4645231084527]]]}},{"type":"Feature","id":"806473874","properties":{"name":"iSP_4KPH_%TR_CR04_PermissionBlocker","oid":"806473874","speedLimit":1.1111112},"geometry":{"type":"Polygon","coordinates":[[[-121.022717500941,50.4815450264964],[-121.022684390907,50.4815426897405],[-121.022676782643,50.481571359937],[-121.022698902964,50.4815724384397],[-121.022702988883,50.4815483518796],[-121.022717500941,50.4815450264964]]]}},{"type":"Feature","id":"824566967","properties":{"name":"iSP_3KPH_%TR_CR04","oid":"824566967","speedLimit":0.8333333},"geometry":{"type":"Polygon","coordinates":[[[-121.023300378438,50.481068148558],[-121.02328023063,50.481068148558],[-121.023277553649,50.4811862446023],[-121.023302632738,50.4811855256005],[-121.023300378438,50.481068148558]]]}},{"type":"Feature","id":"826307302","properties":{"name":"iSP_4KPH_%TR_CR04_Pockets","oid":"826307302","speedLimit":1.1111112},"geometry":{"type":"Polygon","coordinates":[[[-121.02329558805,50.4813213270639],[-121.023335038304,50.4814769909518],[-121.023539756942,50.4814375357285],[-121.023458743028,50.4811886712333],[-121.023050432903,50.4811893902351],[-121.023055786866,50.4813600632854],[-121.023280653311,50.4813260904508],[-121.02329558805,50.4813213270639]]]}},{"type":"Feature","id":"883050998","properties":{"name":"iSP_22KPH_%TR_4CR_Brake_Temp_Ctrl","oid":"883050998","speedLimit":6.111111},"geometry":{"type":"Polygon","coordinates":[[[-121.031797399495,50.4745588455868],[-121.032186688962,50.4743122279722],[-121.032488342508,50.474574573751],[-121.032789996055,50.4748019580676],[-121.032967803983,50.474884373648],[-121.03317660854,50.474934524023],[-121.033460509472,50.4749593295848],[-121.033664382747,50.4749217617412],[-121.033825565212,50.4748623542181],[-121.033916723477,50.4748103164634],[-121.034006050123,50.474747134181],[-121.03405649009,50.4746579779588],[-121.034050713445,50.4745477909342],[-121.034054517577,50.4744834402739],[-121.033992383428,50.4743794546397],[-121.033874032667,50.4742593813405],[-121.033507145308,50.4739374482882],[-121.033058821354,50.4735597925971],[-121.032945542769,50.4734252493868],[-121.032820570001,50.4732206933771],[-121.0326037345,50.4728147269904],[-121.032250232049,50.4722087882304],[-121.032485242845,50.4721559415987],[-121.032428180871,50.4722054628471],[-121.032900738552,50.4730486721984],[-121.03303994159,50.4733094002231],[-121.03324775989,50.4735467606896],[-121.033740747167,50.473961444973],[-121.03409579945,50.4742709752444],[-121.034201187984,50.4743942840517],[-121.034253882252,50.4744615107192],[-121.03426092694,50.474592638671],[-121.034235988744,50.4746786492603],[-121.034181462857,50.4747914426664],[-121.034083964374,50.4748756557513],[-121.033971108469,50.4749374899054],[-121.033788510153,50.4750159509759],[-121.033528983841,50.4750642139711],[-121.033261003904,50.4750678988553],[-121.033069388386,50.4750261068762],[-121.032805635262,50.4749163692277],[-121.032654878936,50.4748349422748],[-121.03249327379,50.4747051624514],[-121.032142730108,50.474412888223],[-121.031797399495,50.4745588455868]]]}},{"type":"Feature","id":"883053336","properties":{"name":"iSP_22KPH_%TR_Brake_Temp_Ctrl","oid":"883053336","speedLimit":6.111111},"geometry":{"type":"Polygon","coordinates":[[[-121.032463967887,50.4721450666966],[-121.032249104899,50.4722253252716],[-121.03148644696,50.4710081451134],[-121.030814524604,50.4699231714096],[-121.030659259677,50.4696600167539],[-121.030594448546,50.4694575278743],[-121.030548094498,50.4692565668735],[-121.030594448546,50.4689727409162],[-121.030720689358,50.4686241149224],[-121.030882435398,50.4683753403024],[-121.031086872248,50.4680976258604],[-121.031686234316,50.4675363550867],[-121.032430153384,50.4668934776096],[-121.03278647371,50.4665559961436],[-121.033145611912,50.4662221995618],[-121.033482488899,50.4658705178104],[-121.033777520439,50.4660339109676],[-121.03358548224,50.4659931076159],[-121.032917364016,50.4666518930076],[-121.032552590064,50.4669910821029],[-121.032176544611,50.4673075327665],[-121.031772320405,50.4676682020403],[-121.031379931275,50.4680342638275],[-121.031145061372,50.4682861840803],[-121.031006703697,50.4684697092876],[-121.030903005887,50.4686543129976],[-121.030826500574,50.4688528473674],[-121.030765634468,50.4691911377104],[-121.030774369882,50.469400457107],[-121.030871586578,50.4696301781795],[-121.031025583461,50.469934945064],[-121.031328505051,50.470403644357],[-121.031528574195,50.4707108378725],[-121.031748227571,50.4710827415493],[-121.032143998151,50.471728674784],[-121.032379290736,50.4721449768214],[-121.032463967887,50.4721450666966]]]}},{"type":"Feature","id":"883059532","properties":{"name":"iSP_22KPH_%TR_Brake_Ctrl","oid":"883059532","speedLimit":6.111111},"geometry":{"type":"Polygon","coordinates":[[[-121.027260056752,50.4773218795973],[-121.027027863831,50.4772097153177],[-121.027332335253,50.4769439542805],[-121.027714298244,50.476632356879],[-121.028031027423,50.4763226468572],[-121.028188264863,50.4761686905985],[-121.02861911799,50.4756922620362],[-121.028905132329,50.4753256609977],[-121.029261734443,50.4748875192808],[-121.029470538999,50.4746566298304],[-121.029689347013,50.4745403312906],[-121.029799385042,50.4744881137855],[-121.029950141368,50.4745925487958],[-121.02978656371,50.4745419490447],[-121.029553948107,50.4747914426664],[-121.029249758473,50.4751729629922],[-121.029070823394,50.4754779096271],[-121.028851029124,50.4757746776166],[-121.028693932578,50.47597464999],[-121.028406791089,50.4762705192273],[-121.028039481049,50.4765698935983],[-121.027241740563,50.4772193319667],[-121.027260056752,50.4773218795973]]]}},{"type":"Feature","id":"884401102","properties":{"name":"iSP_30KPH_%TR_Maint_Limit_Policy","oid":"884401102","speedLimit":8.333333},"geometry":{"type":"Polygon","coordinates":[[[-121.037217582555,50.4610266027394],[-121.037674219241,50.461079808872],[-121.03799320272,50.4608739946091],[-121.037906271269,50.4604832171352],[-121.037859071858,50.460670517102],[-121.03719940726,50.4607815130036],[-121.03697101847,50.4606590130733],[-121.037217582555,50.4610266027394]]]}},{"type":"Feature","id":"910445950","properties":{"name":"SP_30KPH_%TR_1635_FLATS_OCT_8_DS","oid":"910445950","speedLimit":8.333333},"geometry":{"type":"Polygon","coordinates":[[[-121.017633349505,50.4550417217],[-121.018000377757,50.4544139432606],[-121.018145639227,50.4539982703497],[-121.0185302792,50.4537512932343],[-121.018946338482,50.4536878413261],[-121.018864197418,50.4543414139548],[-121.018733448006,50.4547409992006],[-121.01850745441,50.4552109567467],[-121.017633349505,50.4550417217]]]}},{"type":"Feature","id":"915576987","properties":{"name":"iSP_15KPH_%TR_Preventing Shifting","oid":"915576987","speedLimit":4.1666665},"geometry":{"type":"Polygon","coordinates":[[[-121.036996238454,50.4448629930846],[-121.037510359795,50.4453129084558],[-121.037979676919,50.445795358658],[-121.038523667738,50.4462186709629],[-121.039456384449,50.4468497747856],[-121.039913725603,50.4470995380331],[-121.040469692392,50.4471948956457],[-121.041222910449,50.447322608339],[-121.041641364925,50.4475094589296],[-121.042319909287,50.4480949061385],[-121.042702576747,50.4485276553419],[-121.042846006598,50.4487946746323],[-121.04300747085,50.4493914461195],[-121.043186687717,50.4501979863794],[-121.043324200029,50.4505011355099],[-121.043685874319,50.451168548923],[-121.043856355772,50.4514888642213],[-121.044125321966,50.4522534327516],[-121.044382453083,50.4529380123326],[-121.044696223493,50.4537979384755],[-121.044735110172,50.4541945578389],[-121.04457068715,50.4550716501496],[-121.044215071293,50.4568391363042],[-121.044050648271,50.4572071753463],[-121.043004371187,50.4583988309409],[-121.04190441358,50.4595371905277],[-121.041342529253,50.4600004973073],[-121.040371066758,50.4605973586697],[-121.03992260191,50.4607308233773],[-121.039133455944,50.4608070375672],[-121.03849605256,50.4608385837708],[-121.038643850118,50.4611433506553],[-121.038756706022,50.460949399922],[-121.039877797694,50.460879566873],[-121.040705830339,50.4606316910052],[-121.041509911044,50.460057747825],[-121.042872917307,50.4587000926917],[-121.044241841108,50.4571422854346],[-121.0444272573,50.4562899986857],[-121.044812883529,50.4544214029042],[-121.044809783866,50.4537864344468],[-121.044259875509,50.4523011564955],[-121.043832403832,50.4511857150908],[-121.0433451932,50.4503372031013],[-121.043049316298,50.4493094799152],[-121.042926738724,50.4486916776257],[-121.042239177161,50.4478870247455],[-121.04154569806,50.4473912730101],[-121.041091315674,50.4472215885872],[-121.040457716422,50.4471300956092],[-121.039916684372,50.4470194592085],[-121.038819685534,50.446333082123],[-121.038194962589,50.445871572848],[-121.037151785168,50.4449067623186],[-121.037375947145,50.4446970834211],[-121.036996238454,50.4448629930846]]]}},{"type":"Feature","id":"917773475","properties":{"name":"SP_15KPH_%TR_1200_CORNER_OCT_8_DS","oid":"917773475","speedLimit":4.1666665},"geometry":{"type":"Polygon","coordinates":[[[-121.037097118388,50.4446822540092],[-121.036922973697,50.4448618247067],[-121.036627378582,50.4448203023532],[-121.036412797381,50.4448696438512],[-121.036321216435,50.4449673382196],[-121.036252601173,50.4450818392549],[-121.036240343416,50.4451446620365],[-121.03626147748,50.4452669822163],[-121.036314171747,50.4453511953012],[-121.036182295185,50.4453949645353],[-121.036087191895,50.4451940035345],[-121.036161161121,50.44493138813],[-121.036257955136,50.4447910929054],[-121.036514804466,50.4447147888403],[-121.03671191484,50.444711463457],[-121.036921282972,50.4447697924773],[-121.037091905319,50.4446833325119],[-121.037097118388,50.4446822540092]]]}},{"type":"Feature","id":"929009157","properties":{"name":"iSP_22KPH_%TR_Long_Single_Lane","oid":"929009157","speedLimit":6.111111},"geometry":{"type":"Polygon","coordinates":[[[-121.005677668355,50.4380556638707],[-121.004747910414,50.4382237305395],[-121.005172423321,50.4381972173484],[-121.007932813925,50.4431701932411],[-121.008521608961,50.4445345890162],[-121.008208683913,50.4465094173125],[-121.007830665947,50.4466799106123],[-121.008932173386,50.4466466567795],[-121.008821430888,50.4465926417699],[-121.00940149051,50.4448173364708],[-121.008762537295,50.4430680949867],[-121.008260814605,50.4415398566783],[-121.007257228332,50.4401558681044],[-121.006437508419,50.4389837154334],[-121.005858435053,50.4383127070112],[-121.005677668355,50.4380556638707]]]}},{"type":"Feature","id":"934051091","properties":{"name":"iSP_17KPH_%TR_Ramp_Permission Blocker","oid":"934051091","speedLimit":4.7222223},"geometry":{"type":"Polygon","coordinates":[[[-121.039511333016,50.4610294787465],[-121.039463288243,50.4607714469785],[-121.039015809652,50.4607920284048],[-121.039074703245,50.4610447575346],[-121.039162198272,50.4608996989231],[-121.03937818841,50.4608865771404],[-121.039511333016,50.4610294787465]]]}},{"type":"Feature","id":"938065675","properties":{"name":"iSP_8KPH_CR01_YARD_RUTIING_OCT_4_NS","oid":"938065675","speedLimit":2.2222223},"geometry":{"type":"Polygon","coordinates":[[[-121.034287414967,50.4648010026452],[-121.034097208387,50.4648578037867],[-121.033938984691,50.4649067857838],[-121.033827537725,50.4650047497779],[-121.034042400713,50.4650686510622],[-121.033962373056,50.4650111309188],[-121.034240779132,50.4648879119868],[-121.034317425339,50.4649371636095],[-121.034287414967,50.4648010026452]]]}},{"type":"Feature","id":"938165680","properties":{"name":"SP_10KPH_%TR_22SH_OCT_8_DS","oid":"938165680","speedLimit":2.7777777},"geometry":{"type":"Polygon","coordinates":[[[-121.034078610411,50.446611156066],[-121.035053454356,50.4472503486589],[-121.035495297197,50.4474470855242],[-121.035793428399,50.4469119684406],[-121.034853103425,50.4461951236543],[-121.034078610411,50.446611156066]]]}},{"type":"Feature","id":"948301528","properties":{"name":"SP_15KPH_%TR_24SH__LANES_OCT 8 DS","oid":"948301528","speedLimit":4.1666665},"geometry":{"type":"Polygon","coordinates":[[[-121.039030603497,50.4526156299042],[-121.039080761677,50.4528875024567],[-121.039289143552,50.4539651962673],[-121.0400177052,50.4539545909909],[-121.03987652965,50.4528379812083],[-121.039861031336,50.4526212021681],[-121.039379738242,50.4526061031304],[-121.039030603497,50.4526156299042]]]}},{"type":"Feature","id":"948333262","properties":{"name":"SP_25KPH_%TR_19SH_LOADAREA_OCT 8_DS","oid":"948333262","speedLimit":6.9444447},"geometry":{"type":"Polygon","coordinates":[[[-121.002606747898,50.4249556309754],[-121.001122432105,50.4252996733327],[-121.001830000583,50.4262224222572],[-121.001854375204,50.4266257822624],[-121.001950605644,50.4267649091091],[-121.00209459907,50.4268818367755],[-121.0022881871,50.4269350429081],[-121.002752150261,50.4266158061125],[-121.002606747898,50.4249556309754]]]}},{"type":"Feature","id":"950999947","properties":{"name":"SP_20KPH_%TR_23SH_HEADING_SOFT_OCT8_DS","oid":"950999947","speedLimit":5.5555553},"geometry":{"type":"Polygon","coordinates":[[[-121.038131701289,50.4653452870015],[-121.037616452798,50.4650444746269],[-121.037284647987,50.4652895643627],[-121.036830547389,50.4653898651126],[-121.037467950772,50.4659023336397],[-121.038131701289,50.4653508592654],[-121.038131701289,50.4653452870015]]]}},{"type":"Feature","id":"951141721","properties":{"name":"SP_8KPH_%TR_CR1_SHOPSIDE_OCT_8_DS","oid":"951141721","speedLimit":2.2222223},"geometry":{"type":"Polygon","coordinates":[[[-121.033771884689,50.464708251414],[-121.033827960406,50.4646111861722],[-121.033599430723,50.4645574407882],[-121.033278615624,50.4644628021774],[-121.033366956014,50.4646852433567],[-121.033563361919,50.4646290713417],[-121.033735815885,50.4646341942295],[-121.033771884689,50.4647133743018],[-121.033771884689,50.464708251414]]]}}]}