{"type":"FeatureCollection","features":[{"type":"Feature","id":"702602533","properties":{"name":"iSP_4KPH_%TR_CR01_SLOW BUMP","oid":"702602533","speedLimit":1.1111112},"geometry":{"type":"Polygon","coordinates":[[[-121.033359101285,50.4648088927227],[-121.033653846311,50.4646918725976],[-121.033697240894,50.4647325869729],[-121.033369386365,50.4648707282419],[-121.033359101285,50.4648088927227]]]}},{"type":"Feature","id":"707947583","properties":{"name":"iSP_22KPH_%TR_Permission Gate 1 from west dump_Jun","oid":"707947583","speedLimit":6.111111},"geometry":{"type":"Polygon","coordinates":[[[-121.038628725302,50.4619789290674],[-121.038855419732,50.4618004329319],[-121.037981187952,50.4613519456629],[-121.037744067551,50.461543204362],[-121.037960195118,50.461497456863],[-121.038667188683,50.4618469893258],[-121.038628725302,50.4619789290674]]]}},{"type":"Feature","id":"742345972","properties":{"name":"iSP_4KPH_%TR_CR01_PITSIDE_SLOW BUMP","oid":"742345972","speedLimit":1.1111112},"geometry":{"type":"Polygon","coordinates":[[[-121.033398973581,50.4648838503143],[-121.03370625795,50.4647453495365],[-121.033756415325,50.4647774356998],[-121.033474914101,50.4649193518116],[-121.033398973581,50.4648838503143]]]}},{"type":"Feature","id":"776427243","properties":{"name":"iSP_7KPH_%TR_CR1_PermissionBlocker_DO_NOT_DELETE","oid":"776427243","speedLimit":1.9444444},"geometry":{"type":"Polygon","coordinates":[[[-121.034100190594,50.4652138794229],[-121.034051723917,50.465234191672],[-121.034030590191,50.465275625065],[-121.034116252226,50.4652265521093],[-121.034100190594,50.4652138794229]]]}},{"type":"Feature","id":"794004438","properties":{"name":"iSP_11KPH_%TR_LOWER_FUEL_BAY","oid":"794004438","speedLimit":3.0555556},"geometry":{"type":"Polygon","coordinates":[[[-121.036776988271,50.4606963813061],[-121.036779101643,50.4607262205393],[-121.036749373536,50.4606717549511],[-121.037125553851,50.4606000329389],[-121.037535548126,50.4605569817562],[-121.037543297159,50.4605823271289],[-121.036944790052,50.4606511730704],[-121.036776988271,50.4606963813061]]]}},{"type":"Feature","id":"801543391","properties":{"name":"iSP_4KPH_%TR_CR1_PermissionBlocker_DO_NOT_DELETE_","oid":"801543391","speedLimit":1.1111112},"geometry":{"type":"Polygon","coordinates":[[[-121.033155653954,50.4645243414814],[-121.033154808605,50.4644749090169],[-121.033176365005,50.4644328464835],[-121.033108314409,50.4644604387864],[-121.033155653954,50.4645243414814]]]}},{"type":"Feature","id":"806473874","properties":{"name":"iSP_4KPH_%TR_Permission Blocker - DO NOT DELETE","oid":"806473874","speedLimit":1.1111112},"geometry":{"type":"Polygon","coordinates":[[[-121.0227195385,50.4815466353323],[-121.022686428997,50.4815442985249],[-121.022678820856,50.4815729693544],[-121.022700940822,50.4815740478809],[-121.022705026676,50.481549960789],[-121.0227195385,50.4815466353323]]]}},{"type":"Feature","id":"824566967","properties":{"name":"iSP_4Cr_3KPH","oid":"824566967","speedLimit":0.8333333},"geometry":{"type":"Polygon","coordinates":[[[-121.023302406651,50.4810697468655],[-121.023282259166,50.4810697468655],[-121.023279582227,50.4811878455171],[-121.023304660915,50.4811871264995],[-121.023302406651,50.4810697468655]]]}},{"type":"Feature","id":"826307302","properties":{"name":"iSP_4KPH_TR%_CRUSHER POCKETS","oid":"826307302","speedLimit":1.1111112},"geometry":{"type":"Polygon","coordinates":[[[-121.02329761634,50.4813229309611],[-121.023337065961,50.4814785982857],[-121.023541781315,50.4814391421913],[-121.023460768701,50.4811902722018],[-121.023052465123,50.4811909912194],[-121.023057819001,50.4813616680378],[-121.02328268184,50.4813276944531],[-121.02329761634,50.4813229309611]]]}},{"type":"Feature","id":"849417440","properties":{"name":"iSP_Permissions_35_KPH_June_19_NS","oid":"849417440","speedLimit":9.722222},"geometry":{"type":"Polygon","coordinates":[[[-121.032695643195,50.4660351773516],[-121.033010253922,50.4660158537519],[-121.033217223541,50.4658149781915],[-121.033806009135,50.465380511767],[-121.03372682811,50.4652517177276],[-121.03396296227,50.4654011835248],[-121.033426729207,50.4658094956818],[-121.033024343073,50.4661890471321],[-121.032695643195,50.4660351773516]]]}},{"type":"Feature","id":"853029148","properties":{"name":"SP_15KPH_%TR_1635 Flats_AUG_21_DS","oid":"853029148","speedLimit":4.1666665},"geometry":{"type":"Polygon","coordinates":[[[-121.01859000853,50.4569716900431],[-121.017426244711,50.4572816765342],[-121.015788662765,50.4579438019272],[-121.014824542206,50.4590972860175],[-121.018349084059,50.4588938938953],[-121.020692250655,50.4589879953323],[-121.020240552495,50.4572325137013],[-121.019422818208,50.4570973383802],[-121.018968584001,50.4570007203813],[-121.01859000853,50.4569716900431]]]}},{"type":"Feature","id":"883050998","properties":{"name":"iSP_22kph_%TR_4CR_Brake_Temp_CTRL_NOREMOVE","oid":"883050998","speedLimit":6.111111},"geometry":{"type":"Polygon","coordinates":[[[-121.031799291449,50.474560300183],[-121.032188574674,50.4743136771236],[-121.032490223383,50.4745760286944],[-121.032791872092,50.4748034180312],[-121.032969677169,50.4748858354311],[-121.033178478378,50.4749359869133],[-121.033462374757,50.4749607930228],[-121.033666244763,50.4749232243498],[-121.033827424643,50.4748638155151],[-121.033918581446,50.4748117766116],[-121.034007906659,50.4747485929342],[-121.034058345818,50.4746594347436],[-121.034052569266,50.4745492452864],[-121.034056373337,50.4744848932053],[-121.033994240183,50.4743809052753],[-121.03387589132,50.4742608293252],[-121.033509009845,50.4739388891653],[-121.033060693081,50.4735612251364],[-121.032947416312,50.4734266789557],[-121.032822445548,50.4732221184298],[-121.032605613524,50.4728161430802],[-121.032252116742,50.4722101909424],[-121.03248712377,50.472157343144],[-121.032430062711,50.4722068654857],[-121.032902612814,50.4730500934532],[-121.033041813619,50.4733108272343],[-121.033249628587,50.4735481929412],[-121.033742607958,50.4739628863799],[-121.034097654547,50.474272423485],[-121.034203041392,50.4743957350147],[-121.034255734814,50.4744629631664],[-121.034262779389,50.4745940940132],[-121.034237841593,50.4746801065015],[-121.034183316581,50.4747929023978],[-121.034085819661,50.4748771173419],[-121.033972965566,50.4749389528612],[-121.033790370178,50.475017415664],[-121.033530848028,50.4750656797248],[-121.033262872388,50.4750693646903],[-121.033071259943,50.4750275717885],[-121.032807511049,50.4749178317173],[-121.03265675714,50.4748364029666],[-121.032495154585,50.4747066202779],[-121.032144616524,50.4744143395968],[-121.031799291449,50.474560300183]]]}},{"type":"Feature","id":"883053336","properties":{"name":"iSP_22kph_%TR_Brake_Temp_CTRL_NOREMOVE","oid":"883053336","speedLimit":6.111111},"geometry":{"type":"Polygon","coordinates":[[[-121.032465849153,50.4721464680018],[-121.03225098961,50.4722267283487],[-121.031488343901,50.4710095213178],[-121.03081643232,50.4699245236602],[-121.030661169883,50.4696613631945],[-121.030596359791,50.4694588698444],[-121.030550006487,50.4692579044068],[-121.030596359791,50.4689740721832],[-121.030722598579,50.4686254384925],[-121.030884342025,50.4683766583802],[-121.031088775597,50.4680989378068],[-121.031688128053,50.4675376546414],[-121.032432035192,50.466894762971],[-121.032788349804,50.4665572740542],[-121.033147482247,50.4662234701028],[-121.033484353832,50.4658717805871],[-121.03377938064,50.4660351773516],[-121.033587345521,50.4659943730991],[-121.032919238011,50.4666531730354],[-121.032554469908,50.4669923696192],[-121.032178430485,50.4673088272693],[-121.031774212761,50.4676695045059],[-121.031381829924,50.468035574375],[-121.031146963788,50.4682875001896],[-121.031008608331,50.4684710294488],[-121.030904912184,50.4686556372345],[-121.030828408098,50.4688541759875],[-121.030767542968,50.4691924737992],[-121.030776278242,50.4694017978172],[-121.030873493379,50.4696315239614],[-121.031027487792,50.4699362975744],[-121.031330404525,50.4704050072153],[-121.03153047046,50.470712207513],[-121.031750120314,50.4710841194006],[-121.032145884548,50.4717300668961],[-121.032381173359,50.4721463781246],[-121.032465849153,50.4721464680018]]]}},{"type":"Feature","id":"883059532","properties":{"name":"iSP_22kph_%TR_Brake_CTRL_NOREMOVE","oid":"883059532","speedLimit":6.111111},"geometry":{"type":"Polygon","coordinates":[[[-121.027262021468,50.4773233951953],[-121.02702983227,50.4772112284394],[-121.027334298809,50.4769454615347],[-121.027716255675,50.4766338572538],[-121.028032979775,50.4763241403943],[-121.028190214693,50.4761701807366],[-121.028621060911,50.4756937416558],[-121.028907070664,50.4753271325235],[-121.029263667059,50.4748889811334],[-121.029472468267,50.4746580865855],[-121.029691272772,50.4745417854781],[-121.029801309037,50.4744895668201],[-121.029952062946,50.474594004136],[-121.02978848791,50.4745434032678],[-121.029555876038,50.4747929023978],[-121.029251691281,50.4751744311467],[-121.029072759072,50.4754793845142],[-121.028852968326,50.4757761590558],[-121.0286958743,50.4759761358441],[-121.028408737415,50.4762720116135],[-121.028041433265,50.4765713925941],[-121.027243705572,50.4772208453007],[-121.027262021468,50.4773233951953]]]}},{"type":"Feature","id":"891249991","properties":{"name":"SP_40KPH_TR%_1590 #1_AUG_21_DS","oid":"891249991","speedLimit":11.111111},"geometry":{"type":"Polygon","coordinates":[[[-121.012956602651,50.4498613243463],[-121.013432252367,50.4498233961645],[-121.01254238163,50.444334415304],[-121.01213844569,50.4430842233377],[-121.011299155003,50.4419106966299],[-121.010529323827,50.4421501295126],[-121.011008354939,50.4427020654483],[-121.011240403246,50.4430302970128],[-121.011455967246,50.4435203974292],[-121.01177395937,50.4445111138954],[-121.012956602651,50.4498613243463]]]}},{"type":"Feature","id":"908328496","properties":{"name":"SP_15KPH_%TR_9019_SOFT_GROUND_AUG_21_DS","oid":"908328496","speedLimit":4.1666665},"geometry":{"type":"Polygon","coordinates":[[[-121.039688792975,50.4639775285466],[-121.039874347086,50.4641979973384],[-121.039738668568,50.4650146216523],[-121.039440119472,50.4657764208692],[-121.039205535118,50.4663545110724],[-121.038928401531,50.4669802361961],[-121.037872842386,50.4685922738027],[-121.036177494923,50.4681978027358],[-121.035228590646,50.4668170191859],[-121.037881436767,50.465140989007],[-121.038520520628,50.4648154537589],[-121.039688792975,50.4639775285466]]]}},{"type":"Feature","id":"910445950","properties":{"name":"SP_20KPH_%TR_1635_FLATS_AUG_21_DS","oid":"910445950","speedLimit":5.5555553},"geometry":{"type":"Polygon","coordinates":[[[-121.020225336213,50.4571649260407],[-121.019044242738,50.4569620731818],[-121.018650591877,50.4569234259822],[-121.017842579104,50.457147759494],[-121.018448553461,50.4564132829484],[-121.018503078473,50.4555087587249],[-121.019218102853,50.4555087587249],[-121.019236277857,50.4564596595878],[-121.019424086232,50.456892687977],[-121.019757435529,50.457062735655],[-121.020225336213,50.4571649260407]]]}},{"type":"Feature","id":"913788494","properties":{"name":"SP_15KPH_%TR_ROUGH_21SH_AUG_21_DS","oid":"913788494","speedLimit":4.1666665},"geometry":{"type":"Polygon","coordinates":[[[-121.041137721198,50.4531509200444],[-121.041191119078,50.4542743851472],[-121.040909758745,50.455133701135],[-121.040261235154,50.4560697722586],[-121.038388364397,50.4571909005539],[-121.038035431181,50.4564999245771],[-121.039631731916,50.4559004435983],[-121.040319705128,50.4550790557924],[-121.040545976883,50.4542446357912],[-121.040543440836,50.4531386967441],[-121.041137721198,50.4531509200444]]]}},{"type":"Feature","id":"917291012","properties":{"name":"SP_15KPH_%TR_CORNER_RUTS_AUG_21_DS","oid":"917291012","speedLimit":4.1666665},"geometry":{"type":"Polygon","coordinates":[[[-121.0406103643,50.4662224814536],[-121.040684614123,50.4661083373991],[-121.040422696818,50.4659273247018],[-121.040529351686,50.4656665010435],[-121.040026087235,50.4656489749879],[-121.040219531269,50.4657719270088],[-121.040016788396,50.4663116396441],[-121.0399338033,50.4664869900774],[-121.039994950213,50.4668211535375],[-121.040667143576,50.4667403539273],[-121.040549217388,50.4666234236794],[-121.040531746841,50.4663784184098],[-121.0406103643,50.4662224814536]]]}},{"type":"Feature","id":"920440343","properties":{"name":"iSP_17KPH_CAL_PAD_ROAD_LIMIT_AUG_21_DS","oid":"920440343","speedLimit":4.7222223},"geometry":{"type":"Polygon","coordinates":[[[-121.00595499938,50.4378310802716],[-121.005968665856,50.4376133976733],[-121.005586427207,50.4375786151937],[-121.005286187413,50.4376830525097],[-121.005190662973,50.4378353943776],[-121.005286187413,50.4381619182751],[-121.005989095124,50.4392590493558],[-121.007470005718,50.4413704447313],[-121.007674721073,50.4416490640768],[-121.007783911988,50.4421540841098],[-121.007934102331,50.4426634182488],[-121.008118388418,50.443233689135],[-121.008323103773,50.4436516181532],[-121.008684772262,50.4445615350092],[-121.008759867434,50.4449228413862],[-121.008759867434,50.4451797104473],[-121.008691675946,50.44561938975],[-121.008493723383,50.4462288470989],[-121.00894415352,50.4462158149037],[-121.009135202399,50.4457326350323],[-121.009319488486,50.4449185272802],[-121.009217060363,50.44445269371],[-121.008998678532,50.4437996459151],[-121.00877353391,50.4433774027909],[-121.00845962764,50.4427373871912],[-121.008295770821,50.4420757111842],[-121.008241245809,50.4417448731808],[-121.007920435855,50.4411962627018],[-121.006814860227,50.439833634348],[-121.00660338208,50.4394940782553],[-121.006228047114,50.4387800937132],[-121.005989095124,50.4383883189626],[-121.005934570112,50.4380574809591],[-121.00595499938,50.4378310802716]]]}},{"type":"Feature","id":"921284584","properties":{"name":"SP_22kph_rough ground_AUG 21_DS","oid":"921284584","speedLimit":6.111111},"geometry":{"type":"Polygon","coordinates":[[[-121.039984946916,50.4678269693747],[-121.040544427077,50.4679712222939],[-121.040343656684,50.4682554140263],[-121.039116350796,50.4697897078478],[-121.039354034763,50.4704381719051],[-121.039939298069,50.4707947147901],[-121.039580447409,50.4711147675286],[-121.038663102829,50.4705588769958],[-121.038403439788,50.469523042171],[-121.039984946916,50.4678269693747]]]}},{"type":"Feature","id":"921727643","properties":{"name":"SP_35KPH_%TR_ HIGHMONT TRIAL_Aug 21_DS","oid":"921727643","speedLimit":9.722222},"geometry":{"type":"Polygon","coordinates":[[[-121.012709056279,50.4365929318512],[-121.010156243126,50.4366192658732],[-121.007266558387,50.4370213765028],[-121.006148161632,50.437170392914],[-121.005263362989,50.4370780890211],[-121.004923955357,50.4368544745271],[-121.005302389936,50.4361091228393],[-121.005970074771,50.4354594903783],[-121.006754699555,50.4347247442011],[-121.007316715762,50.4339047944305],[-121.007674298399,50.4330515002157],[-121.007912123257,50.4323926104022],[-121.007906487596,50.4319204854274],[-121.007795183309,50.4313845476348],[-121.00751142782,50.4310047265529],[-121.006988438559,50.4305645978642],[-121.005753101856,50.429783654802],[-121.004890564071,50.4292689280305],[-121.004117210608,50.4288927020369],[-121.00331624241,50.4284987702333],[-121.003470236823,50.4283233299228],[-121.003115331126,50.4285318450459],[-121.004389412992,50.4291670971536],[-121.00535057483,50.4296954852607],[-121.006574076647,50.4304921568344],[-121.007130457195,50.4309177254153],[-121.007500438283,50.4313876034599],[-121.007671198785,50.4318535269073],[-121.007636398584,50.4325372228302],[-121.007399278184,50.4332027635571],[-121.007172724646,50.4338690233016],[-121.00659027917,50.4345642235072],[-121.006158164928,50.4350396739387],[-121.005744789257,50.4354071818431],[-121.005112186406,50.4360624765682],[-121.004792785367,50.4366457796496],[-121.004711350078,50.4369333867159],[-121.004892959226,50.4370851893206],[-121.005450466906,50.4372769872829],[-121.006283417475,50.4372650336142],[-121.007586100317,50.4371451374185],[-121.008819887214,50.4369813811451],[-121.009458689291,50.4368814376896],[-121.011036955915,50.4367895831828],[-121.012887424923,50.436796593605],[-121.012878126084,50.4364191992077],[-121.012709056279,50.4365929318512]]]}},{"type":"Feature","id":"922262468","properties":{"name":"SPD_20kph_HMT_DUMP_AUG_21_DS","oid":"922262468","speedLimit":5.5555553},"geometry":{"type":"Polygon","coordinates":[[[-121.012501241311,50.4364267488932],[-121.012481375609,50.4374174653594],[-121.016363781882,50.4384080919484],[-121.017180107254,50.436960170124],[-121.016523130173,50.4359060003487],[-121.014771003434,50.4353090359317],[-121.012899541592,50.4352074746864],[-121.012501241311,50.4364267488932]]]}},{"type":"Feature","id":"922385545","properties":{"name":"SP_20KPH_RUTS_AUG 21_DS","oid":"922385545","speedLimit":5.5555553},"geometry":{"type":"Polygon","coordinates":[[[-121.00751142782,50.4337193777499],[-121.006869948805,50.4335259619978],[-121.006518565395,50.434072505301],[-121.007225840743,50.4343191283604],[-121.00751142782,50.4337193777499]]]}},{"type":"Feature","id":"923351007","properties":{"name":"iSP_17KPH_PERMISSIONS_AUG 18_NS","oid":"923351007","speedLimit":4.7222223},"geometry":{"type":"Polygon","coordinates":[[[-121.038853729034,50.4608782028984],[-121.038873172061,50.4611357909771],[-121.038783846848,50.4608905160759],[-121.038539118306,50.4608905160759],[-121.038535314236,50.4608311072412],[-121.038880921094,50.460823647433],[-121.038853729034,50.4608782028984]]]}},{"type":"Feature","id":"923607825","properties":{"name":"MRK_CROSS DITCH ","oid":"923607825","speedLimit":2.7777777},"geometry":{"type":"Polygon","coordinates":[[[-121.035185759629,50.4458458803147],[-121.035617169413,50.4454865512362],[-121.035586736848,50.4454719012513],[-121.035137433844,50.4458270959781],[-121.035185759629,50.4458458803147]]]}},{"type":"Feature","id":"924222108","properties":{"name":"sp_11kph_rough ground _AUG 21_DS","oid":"924222108","speedLimit":3.0555556},"geometry":{"type":"Polygon","coordinates":[[[-121.039474074324,50.471256953272],[-121.039829402696,50.4714081267362],[-121.04018487196,50.4716232028955],[-121.040663480397,50.471438684987],[-121.039780795127,50.4709838164362],[-121.039644130369,50.4710728847496],[-121.039474074324,50.471256953272]]]}},{"type":"Feature","id":"924266047","properties":{"name":"SP_7KPH_CROSS DITCH_AUG_21 NS ","oid":"924266047","speedLimit":1.9444444},"geometry":{"type":"Polygon","coordinates":[[[-121.037615856283,50.4473128561072],[-121.03789383522,50.447472028643],[-121.037657419277,50.4477512771289],[-121.037462707219,50.447692587312],[-121.037267854269,50.447513911422],[-121.037615856283,50.4473128561072]]]}}]}