{"type":"FeatureCollection","features":[{"type":"Feature","id":"702602533","properties":{"name":"iSP_4KPH_%TR_CR01_SLOW BUMP","oid":"702602533","speedLimit":1.1111112},"geometry":{"type":"Polygon","coordinates":[[[-121.033346586048,50.4648098550194],[-121.033641412817,50.4646928360454],[-121.033684819435,50.4647335500202],[-121.03335687398,50.4648716899304],[-121.033346586048,50.4648098550194]]]}},{"type":"Feature","id":"707947583","properties":{"name":"iSP_22KPH_%TR_Permission Gate 1 from west dump_Jun","oid":"707947583","speedLimit":6.111111},"geometry":{"type":"Polygon","coordinates":[[[-121.038617671519,50.4619799192008],[-121.038844428819,50.461801424821],[-121.037969954583,50.4613529419635],[-121.037732768421,50.4615441987813],[-121.037948955927,50.4614984517323],[-121.038656145567,50.4618479807569],[-121.038617671519,50.4619799192008]]]}},{"type":"Feature","id":"742345972","properties":{"name":"iSP_4KPH_%TR_CR01_PITSIDE_SLOW BUMP","oid":"742345972","speedLimit":1.1111112},"geometry":{"type":"Polygon","coordinates":[[[-121.033386469401,50.4648848118738],[-121.033693838992,50.4647463124582],[-121.033744010277,50.464778398306],[-121.033462430983,50.4649203130218],[-121.033386469401,50.4648848118738]]]}},{"type":"Feature","id":"776427243","properties":{"name":"iSP_4KPH_%TR_CR1_PermissionBlocker_DO_NOT_DELETE","oid":"776427243","speedLimit":1.9444444},"geometry":{"type":"Polygon","coordinates":[[[-121.034087880887,50.465214837736],[-121.034039400768,50.4652351497853],[-121.034018261182,50.4652765827707],[-121.034103946973,50.4652275102978],[-121.034087880887,50.465214837736]]]}},{"type":"Feature","id":"794004438","properties":{"name":"iSP_11KPH_%TR_LOWER_FUEL_BAY","oid":"794004438","speedLimit":3.0555556},"geometry":{"type":"Polygon","coordinates":[[[-121.036765420935,50.4606973840551],[-121.036767534894,50.4607272229948],[-121.036737798542,50.4606727579423],[-121.037114083184,50.4606010366356],[-121.037524191166,50.4605579858764],[-121.037531942348,50.4605833309998],[-121.036933269253,50.4606521762641],[-121.036765420935,50.4606973840551]]]}},{"type":"Feature","id":"801543391","properties":{"name":"iSP_4KPH_%TR_CR1_PermissionBlocker_DO_NOT_DELETE_","oid":"801543391","speedLimit":1.1111112},"geometry":{"type":"Polygon","coordinates":[[[-121.033143082294,50.4645253065771],[-121.03314223671,50.4644758745989],[-121.033163799088,50.4644338124792],[-121.033095729619,50.4644614045107],[-121.033143082294,50.4645253065771]]]}},{"type":"Feature","id":"806473874","properties":{"name":"iSP_4KPH_%TR_Permission Blocker - DO NOT DELETE","oid":"806473874","speedLimit":1.1111112},"geometry":{"type":"Polygon","coordinates":[[[-121.022704072534,50.4815474329901],[-121.022670953848,50.4815450962057],[-121.022663343597,50.4815737667531],[-121.022685469698,50.481574845269],[-121.022689556685,50.4815507584141],[-121.022704072534,50.4815474329901]]]}},{"type":"Feature","id":"824566967","properties":{"name":"iSP_4Cr_3KPH","oid":"824566967","speedLimit":0.8333333},"geometry":{"type":"Polygon","coordinates":[[[-121.023287102335,50.4810705492142],[-121.023266949262,50.4810705492142],[-121.023264271581,50.4811886467041],[-121.023289357224,50.4811879276935],[-121.023287102335,50.4810705492142]]]}},{"type":"Feature","id":"826307302","properties":{"name":"iSP_4KPH_TR%_CRUSHER POCKETS","oid":"826307302","speedLimit":1.1111112},"geometry":{"type":"Polygon","coordinates":[[[-121.023282310695,50.4813237308193],[-121.023321771257,50.4814793966127],[-121.023526543386,50.4814399409064],[-121.023445508304,50.4811910733649],[-121.02303709149,50.4811917923754],[-121.023042446852,50.481362467515],[-121.023267372054,50.4813284942645],[-121.023282310695,50.4813237308193]]]}},{"type":"Feature","id":"849417440","properties":{"name":"iSP_Permissions_35_KPH_June_19_NS","oid":"849417440","speedLimit":9.722222},"geometry":{"type":"Polygon","coordinates":[[[-121.032682943957,50.4660361275862],[-121.032997641937,50.4660168041765],[-121.033204668956,50.465815930592],[-121.033793617841,50.465381468441],[-121.033714414856,50.4652526756685],[-121.033950614504,50.4654021399956],[-121.033414232725,50.4658104481362],[-121.033011734995,50.4661899958531],[-121.032682943957,50.4660361275862]]]}},{"type":"Feature","id":"853029148","properties":{"name":"SP_25KPH_%TR_1635 Flats_July_24_NS","oid":"853029148","speedLimit":6.9444447},"geometry":{"type":"Polygon","coordinates":[[[-121.018573397299,50.4569727294296],[-121.017391835334,50.4572915207514],[-121.016413072471,50.4584593737074],[-121.018332406011,50.4588949143742],[-121.02067622245,50.4589890148856],[-121.020224399018,50.4572335505223],[-121.019406437944,50.4570983765308],[-121.018952077761,50.4570017594823],[-121.018573397299,50.4569727294296]]]}},{"type":"Feature","id":"883050998","properties":{"name":"iSP_22kph_%TR_4CR_Brake_Temp_CTRL_NOREMOVE","oid":"883050998","speedLimit":6.111111},"geometry":{"type":"Polygon","coordinates":[[[-121.031786343621,50.474561166561],[-121.032175734807,50.4743145459276],[-121.032477467175,50.4745768949178],[-121.032779199542,50.4748042820179],[-121.032957053931,50.4748866986071],[-121.033165913047,50.474936849596],[-121.033449888161,50.4749616554615],[-121.033653814708,50.474924087158],[-121.033815039289,50.4748646789077],[-121.033906221372,50.474812640516],[-121.033995571359,50.4747494574602],[-121.034046024506,50.4746603001466],[-121.034040246352,50.4745501117732],[-121.034044051477,50.4744857603251],[-121.033981901093,50.474381773418],[-121.033863519407,50.474261698649],[-121.033496536183,50.4739397616559],[-121.033048095084,50.4735621013418],[-121.0329347869,50.4734275564845],[-121.032809781477,50.4732229979707],[-121.032592889318,50.4728170266145],[-121.032239294498,50.4722110804371],[-121.032474366702,50.4721582331585],[-121.032417289818,50.4722077550131],[-121.032889970976,50.4730509746863],[-121.033029210387,50.4733117059027],[-121.033237082989,50.4735490692748],[-121.033730199081,50.4739637586344],[-121.034085344137,50.4742732926948],[-121.034190760209,50.4743966030115],[-121.034243468245,50.474463830502],[-121.034250514774,50.4745949600589],[-121.034225570062,50.4746809717012],[-121.034171029928,50.474793766488],[-121.034073505968,50.4748779806037],[-121.033960620575,50.4749398155147],[-121.033777974547,50.4750182775457],[-121.033518380422,50.4750665411318],[-121.033250330463,50.4750702260611],[-121.033058664877,50.4750284335703],[-121.032794842836,50.4749186945785],[-121.032644047118,50.4748372666289],[-121.032482399745,50.4747074852168],[-121.032131764467,50.4744152074106],[-121.031786343621,50.474561166561]]]}},{"type":"Feature","id":"883053336","properties":{"name":"iSP_22kph_%TR_Brake_Temp_CTRL_NOREMOVE","oid":"883053336","speedLimit":6.111111},"geometry":{"type":"Polygon","coordinates":[[[-121.032453086185,50.4721473581233],[-121.032238167053,50.4722276176807],[-121.031475309836,50.4710104226227],[-121.03080321191,50.4699254356376],[-121.030647906413,50.4696622777604],[-121.030583078348,50.4694597864021],[-121.030536712188,50.4692588229413],[-121.030583078348,50.4689749935096],[-121.030709352145,50.4686263632482],[-121.030871140449,50.468377585583],[-121.031075630717,50.4680998677414],[-121.031675149395,50.467538590097],[-121.032419262846,50.4668957047504],[-121.032775676277,50.4665582191532],[-121.03313490832,50.4662244184853],[-121.033471873332,50.4658727324288],[-121.033766981962,50.4660361275862],[-121.033574893584,50.465995323735],[-121.032906600784,50.466654117191],[-121.032541731518,50.4669933104384],[-121.032165587806,50.4673097649757],[-121.031761257978,50.4676704386646],[-121.031368766319,50.4680365049328],[-121.031133835046,50.4682884282694],[-121.030995441218,50.4684719557234],[-121.030891716313,50.4686565616932],[-121.030815191009,50.4688550984932],[-121.030754309,50.4691933929773],[-121.030763046696,50.4694027149363],[-121.030860288794,50.4696324388208],[-121.031014325916,50.469937209436],[-121.031317326658,50.4704059144665],[-121.031517448079,50.4707131117424],[-121.031737158849,50.4710850199718],[-121.032133032842,50.4717309611135],[-121.032368386907,50.472147268247],[-121.032453086185,50.4721473581233]]]}},{"type":"Feature","id":"883059532","properties":{"name":"iSP_22kph_%TR_Brake_CTRL_NOREMOVE","oid":"883059532","speedLimit":6.111111},"geometry":{"type":"Polygon","coordinates":[[[-121.027247815293,50.4773242343945],[-121.027015561701,50.477212068742],[-121.02732011268,50.4769463044514],[-121.027702175476,50.4766347032356],[-121.028018987415,50.4763249894226],[-121.02817626594,50.4761710312793],[-121.028607231647,50.475694596885],[-121.02889332072,50.4753279913587],[-121.029250016012,50.4748898442785],[-121.029458875129,50.4746589520017],[-121.029677740316,50.4745426520383],[-121.029787807097,50.4744904338939],[-121.029938602815,50.4745948701826],[-121.029774982415,50.4745442698121],[-121.029542306031,50.474793766488],[-121.029238036913,50.475175291484],[-121.029059055079,50.4754802418518],[-121.028839203378,50.4757770134742],[-121.028682065784,50.4759769882954],[-121.028394849266,50.4762728611546],[-121.02802744325,50.4765722391903],[-121.027229494318,50.4772216855086],[-121.027247815293,50.4773242343945]]]}},{"type":"Feature","id":"886231481","properties":{"name":"SP_15KPH_%TR_1200_SWITCHBACK_July_24_NS","oid":"886231481","speedLimit":4.1666665},"geometry":{"type":"Polygon","coordinates":[[[-121.036897754748,50.4452292192868],[-121.036028213082,50.4452769436149],[-121.036512168687,50.4453471370241],[-121.036606592174,50.4451037519382],[-121.036760629295,50.4451329617436],[-121.036897754748,50.4452292192868]]]}},{"type":"Feature","id":"899288147","properties":{"name":"SP_30KPH_%TR_1185_BENCH_JULY_24_NS","oid":"899288147","speedLimit":8.333333},"geometry":{"type":"Polygon","coordinates":[[[-121.039749344059,50.4500579146782],[-121.039532733761,50.4496336984282],[-121.039829110766,50.4495910970506],[-121.040140285482,50.4505450443551],[-121.040323918025,50.4509552398986],[-121.040189752114,50.4511949400551],[-121.040007106086,50.4506024753263],[-121.039749344059,50.4500579146782]]]}},{"type":"Feature","id":"902935346","properties":{"name":"SP_20KPH_%TRX_NEW LANES_July24_NS","oid":"902935346","speedLimit":5.5555553},"geometry":{"type":"Polygon","coordinates":[[[-121.039141510477,50.448281419255],[-121.039110364819,50.4482924740429],[-121.039065407965,50.4483255485302],[-121.039235370242,50.4487275653281],[-121.039499756006,50.4492694296864],[-121.039617714899,50.4495855247185],[-121.039819527487,50.4495437322277],[-121.03969832719,50.4493152666117],[-121.039216062752,50.4482994843962],[-121.039141510477,50.448281419255]]]}},{"type":"Feature","id":"903864124","properties":{"name":"SP_15KPH_%TR_OLD_GARBAGEDUMP_July_24_NS","oid":"903864124","speedLimit":4.1666665},"geometry":{"type":"Polygon","coordinates":[[[-121.042575002144,50.4670041854736],[-121.042122051267,50.4673307960356],[-121.039921843086,50.4663008133608],[-121.04071302735,50.4661250152707],[-121.042254103218,50.4668282975072],[-121.042575002144,50.4670041854736]]]}},{"type":"Feature","id":"908328496","properties":{"name":"SP_15KPH_%TR_9019_SOFT_GROUND_July 24_NS","oid":"908328496","speedLimit":4.1666665},"geometry":{"type":"Polygon","coordinates":[[[-121.038989023592,50.4644909738213],[-121.039313727643,50.4647046098438],[-121.039492850407,50.4648803180575],[-121.039380810598,50.4652175340258],[-121.038200094217,50.4655627489868],[-121.037870175734,50.4651419480372],[-121.038509436835,50.4648164159911],[-121.038989023592,50.4644909738213]]]}},{"type":"Feature","id":"908575258","properties":{"name":"iSP_15km_permissions ","oid":"908575258","speedLimit":4.1666665},"geometry":{"type":"Polygon","coordinates":[[[-121.041859638531,50.4595523596854],[-121.041449389619,50.4599149207771],[-121.041073668699,50.4602080074701],[-121.040678217497,50.4604255980509],[-121.040337024568,50.4605863867948],[-121.039946505937,50.4607156289489],[-121.039506520673,50.4607817779235],[-121.039165468675,50.4607975961566],[-121.039111069472,50.4612137235374],[-121.039244530729,50.4609394209961],[-121.039793314399,50.4608480167744],[-121.040262895084,50.4607061919349],[-121.040930342301,50.4603940514611],[-121.041533384243,50.4599874509706],[-121.041933908945,50.4596532009211],[-121.042082167913,50.4595302501097],[-121.041933908945,50.4594924121772],[-121.041859638531,50.4595523596854]]]}},{"type":"Feature","id":"910445950","properties":{"name":"SP_25KPH_%TR_1635_FLATS_JULY26_DS","oid":"910445950","speedLimit":6.9444447},"geometry":{"type":"Polygon","coordinates":[[[-121.020209178515,50.4571659635265],[-121.019027757482,50.4569631126629],[-121.018633997447,50.4569244658435],[-121.017437355911,50.4572335505223],[-121.018073516539,50.4544708421941],[-121.018755056813,50.4539009364227],[-121.018921777687,50.4535145581052],[-121.019542717813,50.4545191956565],[-121.020209178515,50.4571466401168],[-121.020194098943,50.4571466401168],[-121.020209178515,50.4571659635265]]]}},{"type":"Feature","id":"911981461","properties":{"name":"SP_15KPH_%TR_NEWLANES_21SH_1185_JULY_24_NS","oid":"911981461","speedLimit":4.1666665},"geometry":{"type":"Polygon","coordinates":[[[-121.040568996299,50.4503995345863],[-121.040416932206,50.4504229024306],[-121.040443145293,50.4507104167916],[-121.040406503343,50.4509009545988],[-121.040228226162,50.4512387098249],[-121.040448359725,50.4518771912317],[-121.04095697818,50.4517869554023],[-121.040479928174,50.4504763788435],[-121.040589994955,50.4503995345863],[-121.040568996299,50.4503995345863]]]}}]}