{"type":"FeatureCollection","features":[{"type":"Feature","id":"702602533","properties":{"name":"iSP_4KPH_%TR_CR01_SLOW BUMP","oid":"702602533","speedLimit":1.1111112},"geometry":{"type":"Polygon","coordinates":[[[-121.033358147083,50.4648086656887],[-121.033652898767,50.4646916493489],[-121.03369629433,50.4647323624072],[-121.033368432395,50.4648704992077],[-121.033358147083,50.4648086656887]]]}},{"type":"Feature","id":"707947583","properties":{"name":"iSP_22KPH_%TR_Permission Gate 1 from west dump_Jun","oid":"707947583","speedLimit":6.111111},"geometry":{"type":"Polygon","coordinates":[[[-121.038627890146,50.4619787935769],[-121.038854589696,50.4618003032154],[-121.037980338167,50.461351830454],[-121.03774321241,50.4615430829663],[-121.037959344859,50.4614973369472],[-121.038666354395,50.4618468581033],[-121.038627890146,50.4619787935769]]]}},{"type":"Feature","id":"742345972","properties":{"name":"iSP_4KPH_%TR_CR01_PITSIDE_SLOW BUMP","oid":"742345972","speedLimit":1.1111112},"geometry":{"type":"Polygon","coordinates":[[[-121.033398020279,50.4648836208556],[-121.03370531159,50.464745124558],[-121.033755470099,50.4647772096834],[-121.033473962515,50.4649191212045],[-121.033398020279,50.4648836208556]]]}},{"type":"Feature","id":"776427243","properties":{"name":"iSP_7KPH_%TR_CR1_PermissionBlocker_DO_NOT_DELETE","oid":"776427243","speedLimit":1.9444444},"geometry":{"type":"Polygon","coordinates":[[[-121.034099253134,50.4652136392884],[-121.034050785362,50.4652339508804],[-121.034029651159,50.4652753829331],[-121.034115315128,50.4652263115649],[-121.034099253134,50.4652136392884]]]}},{"type":"Feature","id":"794004438","properties":{"name":"iSP_11KPH_%TR_LOWER_FUEL_BAY","oid":"794004438","speedLimit":3.0555556},"geometry":{"type":"Polygon","coordinates":[[[-121.036776111282,50.4606962873034],[-121.036778224702,50.4607261255713],[-121.036748495923,50.460671661745],[-121.037124684736,50.4605999420529],[-121.037534688274,50.4605568922628],[-121.037542437481,50.4605822368156],[-121.036943916853,50.4606510805301],[-121.036776111282,50.4606962873034]]]}},{"type":"Feature","id":"801543391","properties":{"name":"iSP_4KPH_%TR_CR1_PermissionBlocker_DO_NOT_DELETE_","oid":"801543391","speedLimit":1.1111112},"geometry":{"type":"Polygon","coordinates":[[[-121.033154695156,50.4645241236521],[-121.033153849788,50.4644746927866],[-121.033175406675,50.4644326316138],[-121.033107354541,50.4644602230242],[-121.033154695156,50.4645241236521]]]}},{"type":"Feature","id":"806473874","properties":{"name":"iSP_4KPH_%TR_Permission Blocker - DO NOT DELETE","oid":"806473874","speedLimit":1.1111112},"geometry":{"type":"Polygon","coordinates":[[[-121.022718343941,50.4815458668669],[-121.022685233689,50.481543530135],[-121.022677625376,50.481572200037],[-121.022699745842,50.4815732785286],[-121.022703831788,50.481549192216],[-121.022718343941,50.4815458668669]]]}},{"type":"Feature","id":"815785951","properties":{"name":"SP_15KPH_%TR_1665-1650W_aug_14_DS","oid":"815785951","speedLimit":4.1666665},"geometry":{"type":"Polygon","coordinates":[[[-121.05182169127,50.4696482170424],[-121.051754625399,50.4694750292646],[-121.053196118936,50.4691269460973],[-121.054113906924,50.4689214934455],[-121.054507425783,50.4687965681672],[-121.054685516667,50.4686989646765],[-121.054828806563,50.4685937218702],[-121.054871779442,50.4684797612566],[-121.05488375549,50.4684052554612],[-121.054909539218,50.4679722410796],[-121.054902635378,50.4673157093117],[-121.054904467009,50.4671567216734],[-121.055085093997,50.4671613052628],[-121.055009433551,50.467181077609],[-121.055011406076,50.4676944396156],[-121.055012674128,50.4682068130049],[-121.054985199665,50.4685214629322],[-121.054906157746,50.4686496236853],[-121.054797809732,50.4687286231958],[-121.054583086229,50.468853548474],[-121.0544009094,50.4689170896047],[-121.053686855129,50.4690874014049],[-121.052934336609,50.4692605891827],[-121.05181929606,50.4695252689988],[-121.05182169127,50.4696482170424]]]}},{"type":"Feature","id":"824566967","properties":{"name":"iSP_4Cr_3KPH","oid":"824566967","speedLimit":0.8333333},"geometry":{"type":"Polygon","coordinates":[[[-121.023301225258,50.4810689938264],[-121.023281077318,50.4810689938264],[-121.023278400319,50.4811870886578],[-121.023303479573,50.4811863696634],[-121.023301225258,50.4810689938264]]]}},{"type":"Feature","id":"826307302","properties":{"name":"iSP_4KPH_TR%_CRUSHER POCKETS","oid":"826307302","speedLimit":1.1111112},"geometry":{"type":"Polygon","coordinates":[[[-121.023296434839,50.481322169732],[-121.023335885351,50.4814778320211],[-121.023540605331,50.481438377203],[-121.023459590886,50.4811895152639],[-121.023051278085,50.4811902342583],[-121.023056632083,50.4813609055557],[-121.023281500002,50.4813269330699],[-121.023296434839,50.481322169732]]]}},{"type":"Feature","id":"849417440","properties":{"name":"iSP_Permissions_35_KPH_June_19_NS","oid":"849417440","speedLimit":9.722222},"geometry":{"type":"Polygon","coordinates":[[[-121.032694674004,50.4660349106499],[-121.033009291839,50.4660155876752],[-121.033216266134,50.4658147186127],[-121.033805065028,50.4653802662423],[-121.033725882215,50.4652514763691],[-121.033962021709,50.4654009373315],[-121.033425776532,50.4658092362804],[-121.033023381308,50.466188775453],[-121.032694674004,50.4660349106499]]]}},{"type":"Feature","id":"853029148","properties":{"name":"SP_25KPH_%TR_1635 Flats_AUG_11_DS","oid":"853029148","speedLimit":6.9444447},"geometry":{"type":"Polygon","coordinates":[[[-121.018588720681,50.4569717165264],[-121.01742493057,50.4572816929902],[-121.01578731163,50.4579437969647],[-121.01482316929,50.4590972437422],[-121.018347790767,50.4588938581993],[-121.020691010297,50.4589879565923],[-121.020239301932,50.4572325317476],[-121.019421549172,50.4570973607991],[-121.018967304703,50.4570007459256],[-121.018588720681,50.4569717165264]]]}},{"type":"Feature","id":"883050998","properties":{"name":"iSP_22kph_%TR_4CR_Brake_Temp_CTRL_NOREMOVE","oid":"883050998","speedLimit":6.111111},"geometry":{"type":"Polygon","coordinates":[[[-121.031798302009,50.474559757711],[-121.032187594028,50.4743131426294],[-121.032489249552,50.4745754857137],[-121.032790905075,50.4748028676949],[-121.03296871417,50.4748852824288],[-121.033177520095,50.4749354322887],[-121.033461422888,50.4749602375957],[-121.033665297499,50.474922670138],[-121.033826481021,50.4748632632251],[-121.033917639883,50.4748112260049],[-121.034006967114,50.4747480443714],[-121.034057407412,50.4746588890649],[-121.03405163073,50.474548703172],[-121.034055434886,50.4744843531726],[-121.03399330033,50.4743803686065],[-121.033874948793,50.4742602965405],[-121.033508059029,50.4739383667948],[-121.033059732137,50.4735607149825],[-121.032946452809,50.4734261731541],[-121.032821479222,50.4732216192453],[-121.0326046423,50.4728156570282],[-121.032251137531,50.4722097244917],[-121.032486149868,50.4721568784028],[-121.03242908752,50.4722063991425],[-121.032901648299,50.4730495998334],[-121.033040852249,50.4733103251802],[-121.033248671912,50.4735476832088],[-121.03374166242,50.4739623632331],[-121.034096717029,50.4742718903253],[-121.034202106255,50.4743951978661],[-121.034254800868,50.4744624238432],[-121.034261845602,50.4745935504482],[-121.034236907242,50.4746795601541],[-121.034182380999,50.4747923524017],[-121.034084881876,50.4748765646216],[-121.033972025232,50.4749383981406],[-121.033789425718,50.4750168584053],[-121.033529897706,50.4750651209049],[-121.033261916012,50.4750688057512],[-121.033070299239,50.4750270142013],[-121.032806544386,50.4749172776799],[-121.032655787071,50.4748358515633],[-121.032494180866,50.4747060730729],[-121.032143634886,50.4744138018464],[-121.031798302009,50.474559757711]]]}},{"type":"Feature","id":"883053336","properties":{"name":"iSP_22kph_%TR_Brake_Temp_CTRL_NOREMOVE","oid":"883053336","speedLimit":6.111111},"geometry":{"type":"Polygon","coordinates":[[[-121.032464874771,50.4721460036124],[-121.032250010374,50.472226261363],[-121.031487347436,50.4710090937062],[-121.030815420676,50.469924131146],[-121.030660154732,50.4696609791931],[-121.030595343176,50.4694584923932],[-121.030548988824,50.4692575334564],[-121.030595343176,50.4689737104143],[-121.030721584815,50.4686250880012],[-121.030883331915,50.4683763159363],[-121.031087770105,50.4680986043466],[-121.031687136102,50.4675373393376],[-121.032431060046,50.4668944684635],[-121.032787382708,50.4665569904637],[-121.033146523264,50.4662231973102],[-121.033483402459,50.4658715191709],[-121.033778435933,50.4660349106499],[-121.033586396475,50.4659941077173],[-121.032918273872,50.4666528863427],[-121.032553497529,50.4669920719542],[-121.03217744961,50.4673085193676],[-121.031773222755,50.467669184937],[-121.031380831053,50.4680352429645],[-121.031145959611,50.4682871606299],[-121.031007601029,50.4684706839523],[-121.03090390254,50.4686552857663],[-121.030827396725,50.4688538180969],[-121.03076653022,50.4691921049654],[-121.030775265691,50.4694014222121],[-121.030872483025,50.4696311409252],[-121.031026480917,50.4699359046795],[-121.031329404493,50.4704045991585],[-121.031529474947,50.4707117895189],[-121.031749129764,50.471083689376],[-121.032144902938,50.4717296159764],[-121.032380197064,50.4721459137381],[-121.032464874771,50.4721460036124]]]}},{"type":"Feature","id":"883059532","properties":{"name":"iSP_22kph_%TR_Brake_CTRL_NOREMOVE","oid":"883059532","speedLimit":6.111111},"geometry":{"type":"Polygon","coordinates":[[[-121.027260929527,50.4773227633429],[-121.027028735083,50.4772106002154],[-121.027333208501,50.4769448419077],[-121.027715173996,50.4766332477066],[-121.028031905251,50.4763235408658],[-121.028189143721,50.4761695861884],[-121.028619999672,50.4756931625194],[-121.028906015886,50.4753265652461],[-121.029262620337,50.4748884280293],[-121.029471426262,50.4746575409504],[-121.02969023571,50.474541243605],[-121.029800274461,50.4744890266362],[-121.029951031775,50.4745934605739],[-121.029787453044,50.4745428613425],[-121.029554835917,50.4747923524017],[-121.029250644289,50.4751738688089],[-121.029071708037,50.4754788123118],[-121.028851912326,50.4757755772533],[-121.028694814751,50.4759755475728],[-121.02840767138,50.4762714137712],[-121.028040358932,50.4765707850675],[-121.027242613217,50.4772202167656],[-121.027260929527,50.4773227633429]]]}},{"type":"Feature","id":"884401102","properties":{"name":"SP_25KPH_MAIN INT. DUST_AUG_ 7_NS","oid":"884401102","speedLimit":6.9444447},"geometry":{"type":"Polygon","coordinates":[[[-121.035771813957,50.4609099185166],[-121.035953708997,50.4612034479833],[-121.038294110634,50.4609929623706],[-121.03827776685,50.4603988033675],[-121.038119260328,50.4605666885616],[-121.035902564226,50.4608519495925],[-121.035709397611,50.4607577613252],[-121.035771813957,50.4609099185166]]]}},{"type":"Feature","id":"908328496","properties":{"name":"SP_15KPH_%TR_9019_SOFT_GROUND_AUG_13_NS","oid":"908328496","speedLimit":4.1666665},"geometry":{"type":"Polygon","coordinates":[[[-121.039687981767,50.4639773284056],[-121.039873540069,50.4641977900656],[-121.039182169842,50.4651657362861],[-121.03820140193,50.4657222379571],[-121.037623592821,50.4662177149778],[-121.037443952096,50.4665125026847],[-121.037341239869,50.4667335934649],[-121.036962514952,50.4670243368282],[-121.035973716042,50.4664716997521],[-121.037880584729,50.4651407512304],[-121.038519683027,50.4648152265127],[-121.039687981767,50.4639773284056]]]}},{"type":"Feature","id":"910445950","properties":{"name":"SP_20KPH_%TR_1635_FLATS_AUG_13_NS","oid":"910445950","speedLimit":5.5555553},"geometry":{"type":"Polygon","coordinates":[[[-121.020224085306,50.4571649462733],[-121.01904296515,50.4569620999762],[-121.018649305396,50.4569234540269],[-121.017841274369,50.4571477802819],[-121.018447262415,50.4564133274951],[-121.018501788659,50.455508832531],[-121.019216829193,50.455508832531],[-121.019235004607,50.4564597026343],[-121.019422817224,50.456892717016],[-121.019756174052,50.4570627591932],[-121.020224085306,50.4571649462733]]]}},{"type":"Feature","id":"915576987","properties":{"name":"iSP_15kph_prevent shifting","oid":"915576987","speedLimit":4.1666665},"geometry":{"type":"Polygon","coordinates":[[[-121.036997175045,50.4448642102094],[-121.037511299756,50.4453141209596],[-121.037980619956,50.4457965662067],[-121.038524614341,50.4462198741638],[-121.039457337165,50.4468509715046],[-121.039914681317,50.4471007321867],[-121.04047065175,50.44719608882],[-121.041223874744,50.4473238002015],[-121.041642331963,50.447510648873],[-121.042320880772,50.448096090069],[-121.042703550741,50.4485288348277],[-121.042846981532,50.4487958513756],[-121.043008446842,50.4493926167334],[-121.043187664884,50.4501991487095],[-121.043325178098,50.4505022947264],[-121.043686854758,50.4511697012847],[-121.043857337328,50.451490013293],[-121.044126305285,50.4522545739706],[-121.044383438088,50.4529391465204],[-121.044697210554,50.4537990638312],[-121.044736097488,50.4541956791209],[-121.044571673389,50.4550727624232],[-121.0442160552,50.4568402304243],[-121.044051631101,50.4572082656864],[-121.043005347159,50.4583999090417],[-121.041905382342,50.4595382569366],[-121.041343494333,50.4600015589576],[-121.040372025469,50.4605984141898],[-121.039923557682,50.4607318775266],[-121.039134406544,50.4608080909337],[-121.038943212454,50.4608062035734],[-121.038999993013,50.4612943109015],[-121.03905973236,50.460928252874],[-121.039878753172,50.4608806194945],[-121.040706791244,50.4606327461727],[-121.04151087722,50.4600588088873],[-121.042873892417,50.4587011676982],[-121.04424282519,50.4571433764411],[-121.044428242598,50.4562910984459],[-121.044813871355,50.4544225218563],[-121.044810771672,50.4537875599206],[-121.04426085971,50.4523022972243],[-121.043833385232,50.4511868672761],[-121.043346171406,50.4503383640016],[-121.043050292564,50.449310651371],[-121.042927714187,50.4486928554268],[-121.042240148117,50.447888210811],[-121.04154666447,50.4473924641674],[-121.041092279107,50.4472227814873],[-121.040458675702,50.447131289449],[-121.039917640106,50.4470206541846],[-121.038820634077,50.4463342841488],[-121.038195907037,50.4458727796138],[-121.037152722779,50.4449079789939],[-121.037376886225,50.44469830225],[-121.036997175045,50.4448642102094]]]}},{"type":"Feature","id":"917291012","properties":{"name":"SP_15KPH_%TR_CORNER_RUTS_AUG_10_NS","oid":"917291012","speedLimit":4.1666665},"geometry":{"type":"Polygon","coordinates":[[[-121.040609573911,50.4662222086929],[-121.040683825411,50.4661080683308],[-121.040421902188,50.4659270614888],[-121.040528559466,50.4656662462677],[-121.040025283646,50.465648720779],[-121.040218732051,50.4657716688226],[-121.040015984597,50.4663113639994],[-121.039932997626,50.4664867087604],[-121.03999414592,50.466820861411],[-121.040666354469,50.4667400644146],[-121.040548425617,50.4666231379491],[-121.040530954676,50.4663781406049],[-121.040609573911,50.4662222086929]]]}},{"type":"Feature","id":"919196848","properties":{"name":"SP_15kph_%TR_1445bench_aug11_DS","oid":"919196848","speedLimit":4.1666665},"geometry":{"type":"Polygon","coordinates":[[[-121.038665086343,50.4666710409515],[-121.038745537209,50.4665193331316],[-121.038994920804,50.46591726519],[-121.039252053607,50.4652613625422],[-121.039589637276,50.4645882939029],[-121.039923416788,50.4646299057042],[-121.039355611201,50.4659368577876],[-121.039152300169,50.4665046836206],[-121.039019013795,50.4667574101546],[-121.038568150799,50.467345367831],[-121.038064734084,50.4682362019013],[-121.037757442773,50.4681492934523],[-121.038081923236,50.4675845233456],[-121.037824790433,50.467461575302],[-121.038254519227,50.4671507899696],[-121.038665086343,50.4666710409515]]]}},{"type":"Feature","id":"920440343","properties":{"name":"iSP_17KPH_CAL_PAD_ROAD_LIMIT_AUG_12_DS","oid":"920440343","speedLimit":4.7222223},"geometry":{"type":"Polygon","coordinates":[[[-121.005953426094,50.4378317259143],[-121.005967092878,50.4376140503576],[-121.005584845594,50.4375792690031],[-121.005284599017,50.4376837029408],[-121.00518907242,50.4378360398807],[-121.005284599017,50.4381625532158],[-121.005987522608,50.4392596488066],[-121.007468466657,50.4413709758829],[-121.007673186637,50.4416495862156],[-121.007782380019,50.4421545899122],[-121.007932573754,50.4426639075753],[-121.008116864004,50.4432341600144],[-121.008321583984,50.4436520755134],[-121.008683260644,50.4445619629355],[-121.008758357512,50.4449232576251],[-121.008758357512,50.445180118377],[-121.008690164484,50.4456197834569],[-121.008492207449,50.4462292210911],[-121.008942647762,50.4462161893175],[-121.009133700957,50.445733025076],[-121.009317991206,50.4449189436586],[-121.009215560769,50.4444531251572],[-121.008997174005,50.443800098487],[-121.008772024296,50.4433778690215],[-121.008458110935,50.4427378741249],[-121.008294250415,50.4420762195219],[-121.008239724171,50.4417453922203],[-121.00791890697,50.4411967994878],[-121.006813306365,50.4398342152122],[-121.006601823441,50.4394946701034],[-121.006226479996,50.4387807086573],[-121.005987522608,50.4383889465797],[-121.005932996364,50.4380581192782],[-121.005953426094,50.4378317259143]]]}},{"type":"Feature","id":"921284584","properties":{"name":"SP_15kph_rough ground_aug 14 ns ","oid":"921284584","speedLimit":4.1666665},"geometry":{"type":"Polygon","coordinates":[[[-121.039984142398,50.4678266447122],[-121.040543635198,50.4679708929651],[-121.040342860269,50.4682550755044],[-121.039850996919,50.4686652618137],[-121.039666847564,50.4688365622311],[-121.039206403728,50.4685673887],[-121.039984142398,50.4678266447122]]]}},{"type":"Feature","id":"921393777","properties":{"name":"SP_15KPH_ROUGH GROUND 1475_AUG14 NS ","oid":"921393777","speedLimit":4.1666665},"geometry":{"type":"Polygon","coordinates":[[[-121.041952159378,50.4675063327038],[-121.042716513052,50.4677670580507],[-121.04273778815,50.4684036377238],[-121.040089108939,50.4705874034865],[-121.03938322656,50.4703335085866],[-121.039154977168,50.4699712252797],[-121.040322712329,50.4689351543392],[-121.041952159378,50.4675063327038]]]}},{"type":"Feature","id":"921438373","properties":{"name":"SP_15KPH_AMT DOWN ","oid":"921438373","speedLimit":4.1666665},"geometry":{"type":"Polygon","coordinates":[[[-121.01558498686,50.4538499326854],[-121.015254166136,50.4533425023827],[-121.015716018918,50.4534121549659],[-121.015656702255,50.4537584406472],[-121.01558498686,50.4538499326854]]]}}]}