{"type":"FeatureCollection","features":[{"type":"Feature","id":"702602533","properties":{"name":"iSP_4KPH_%TR_CR01_Slow Bump","oid":"702602533","speedLimit":1.1111112},"geometry":{"type":"Polygon","coordinates":[[[-121.033359475769,50.4648079792255],[-121.033654197266,50.4646909617288],[-121.033697588385,50.4647316751897],[-121.033369760028,50.4648698133559],[-121.033359475769,50.4648079792255]]]}},{"type":"Feature","id":"707947583","properties":{"name":"iSP_25KPH_%TR_Permission Gate 1 From West Dump","oid":"707947583","speedLimit":6.9444447},"geometry":{"type":"Polygon","coordinates":[[[-121.038628679133,50.4619780791343],[-121.038855355466,50.461799587008],[-121.038140388163,50.4614083603081],[-121.037992745654,50.461671065487],[-121.038192232097,50.4615669900176],[-121.038667139443,50.4618461423561],[-121.038628679133,50.4619780791343]]]}},{"type":"Feature","id":"742345972","properties":{"name":"iSP_4KPH_%TR_CR01_Pit Side_Slow Bump","oid":"742345972","speedLimit":1.1111112},"geometry":{"type":"Polygon","coordinates":[[[-121.033399344882,50.4648829351336],[-121.033706604722,50.4647444374666],[-121.033756758093,50.4647765229092],[-121.03347527934,50.4649184358334],[-121.033399344882,50.4648829351336]]]}},{"type":"Feature","id":"776427243","properties":{"name":"iSP_7KPH_%TR_CR1_PermissionBlocker","oid":"776427243","speedLimit":1.9444444},"geometry":{"type":"Polygon","coordinates":[[[-121.03410050592,50.4652129568293],[-121.034052043111,50.4652332686222],[-121.034030911073,50.4652747010845],[-121.034116566269,50.4652256292311],[-121.03410050592,50.4652129568293]]]}},{"type":"Feature","id":"794004438","properties":{"name":"iSP_11KPH_%TR_Lower_Fuel_Bay","oid":"794004438","speedLimit":3.0555556},"geometry":{"type":"Polygon","coordinates":[[[-121.036777089918,50.4606955601804],[-121.036779203122,50.4607253987433],[-121.036749477388,50.4606709343784],[-121.037125627673,50.4605992139772],[-121.03753558922,50.4605561637615],[-121.037543337635,50.4605815085649],[-121.036944878304,50.46065035296],[-121.036777089918,50.4606955601804]]]}},{"type":"Feature","id":"801543391","properties":{"name":"iSP_4KPH_%TR_CR01_PermissionBlocker_2","oid":"801543391","speedLimit":1.1111112},"geometry":{"type":"Polygon","coordinates":[[[-121.033156044678,50.4645234343756],[-121.033155199397,50.4644740030214],[-121.033176754076,50.4644319414327],[-121.033108708912,50.4644595331159],[-121.033156044678,50.4645234343756]]]}},{"type":"Feature","id":"806473874","properties":{"name":"iSP_4KPH_%TR_CR04_PermissionBlocker","oid":"806473874","speedLimit":1.1111112},"geometry":{"type":"Polygon","coordinates":[[[-121.0227207623,50.4815453458878],[-121.022687655439,50.4815430091328],[-121.022680047905,50.4815716793183],[-121.022702166106,50.4815727578206],[-121.022706251633,50.4815486712698],[-121.0227207623,50.4815453458878]]]}},{"type":"Feature","id":"824566967","properties":{"name":"iSP_3KPH_%TR_CR04","oid":"824566967","speedLimit":0.8333333},"geometry":{"type":"Polygon","coordinates":[[[-121.023303583922,50.4810684681324],[-121.023283438045,50.4810684681324],[-121.02328076132,50.4811865641314],[-121.023305838006,50.4811858451298],[-121.023303583922,50.4810684681324]]]}},{"type":"Feature","id":"826307302","properties":{"name":"iSP_4KPH_%TR_CR04_Pockets","oid":"826307302","speedLimit":1.1111112},"geometry":{"type":"Polygon","coordinates":[[[-121.023298793993,50.4813216465411],[-121.023338240465,50.4814773103693],[-121.023542939478,50.4814378551612],[-121.02346193333,50.4811889907615],[-121.023053662346,50.481189709763],[-121.023059015796,50.4813603827478],[-121.023283860686,50.4813264099262],[-121.023298793993,50.4813216465411]]]}},{"type":"Feature","id":"883050998","properties":{"name":"iSP_22KPH_%TR_4CR_Brake_Temp_Ctrl","oid":"883050998","speedLimit":6.111111},"geometry":{"type":"Polygon","coordinates":[[[-121.031799790447,50.4745591676589],[-121.032189042596,50.4743125501389],[-121.032490667226,50.474574895817],[-121.032792291855,50.4748022800464],[-121.03297008274,50.4748846955952],[-121.03317886728,50.4749348459509],[-121.033462740997,50.4749596515032],[-121.033666594729,50.474922083674],[-121.033827761743,50.4748626761738],[-121.033918911269,50.474810638439],[-121.034008229352,50.4747474561808],[-121.034058664484,50.4746582999929],[-121.034052888393,50.4745481130106],[-121.03405669216,50.4744837623749],[-121.033994563967,50.4743797767807],[-121.033876224551,50.4742597035275],[-121.033509372362,50.4739377705988],[-121.033061091385,50.4735601150526],[-121.032947823659,50.4734255718939],[-121.032822862871,50.4732210159627],[-121.032606048156,50.4728150497318],[-121.032252579592,50.4722091112043],[-121.03248756786,50.4721562645929],[-121.032430511356,50.4722057858223],[-121.032903023737,50.47304899485],[-121.033042213431,50.4733097227747],[-121.03325001181,50.4735470831501],[-121.033742951828,50.4739617672744],[-121.034097970075,50.474271297427],[-121.034203348507,50.4743946061869],[-121.034256037723,50.4744618328287],[-121.034263081736,50.4745929607301],[-121.034238145931,50.4746789712864],[-121.034183625271,50.4747917646493],[-121.034086136134,50.4748759777018],[-121.033973291048,50.4749378118322],[-121.033790710235,50.4750162728726],[-121.033531208802,50.4750645358493],[-121.033263254554,50.4750682207321],[-121.033071657405,50.475026428769],[-121.032807929564,50.4749166911626],[-121.032657187689,50.474835264241],[-121.032495598035,50.4747054844674],[-121.032145087956,50.4744132103512],[-121.031799790447,50.4745591676589]]]}},{"type":"Feature","id":"883053336","properties":{"name":"iSP_22KPH_%TR_Brake_Temp_Ctrl","oid":"883053336","speedLimit":6.111111},"geometry":{"type":"Polygon","coordinates":[[[-121.032466294941,50.4721453896949],[-121.03225145255,50.4722256482391],[-121.03148886772,50.471008468548],[-121.030817009775,50.4699234952605],[-121.030661759732,50.4696603407057],[-121.030596954814,50.4694578519038],[-121.03055060521,50.4692568909801],[-121.030596954814,50.4689730651317],[-121.030723183524,50.4686244392717],[-121.030884914059,50.4683756647472],[-121.031089331312,50.4680979504117],[-121.031688635924,50.4675366798534],[-121.03243248368,50.466893802623],[-121.032788769849,50.4665563212865],[-121.033147873624,50.4662225248328],[-121.033484718317,50.4658708432164],[-121.033779721575,50.4660342363108],[-121.033587701785,50.4659934329748],[-121.032919647608,50.4666522181137],[-121.032554908623,50.4669914070788],[-121.032178899218,50.467307857621],[-121.031774713761,50.4676685267564],[-121.031382362246,50.4680345884032],[-121.031147514858,50.4682865085593],[-121.031009170446,50.4684700336962],[-121.030905482577,50.4686546373354],[-121.030828984597,50.468853171629],[-121.030768124326,50.4691914618422],[-121.030776858902,50.4694007811585],[-121.030874066279,50.4696305021428],[-121.0310280484,50.4699352689104],[-121.031330940952,50.4704039680235],[-121.031530990917,50.4707111614212],[-121.031750623237,50.4710830649552],[-121.032146355878,50.471728997942],[-121.032381625907,50.4721452998197],[-121.032466294941,50.4721453896949]]]}},{"type":"Feature","id":"883059532","properties":{"name":"iSP_22KPH_%TR_Brake_Ctrl","oid":"883059532","speedLimit":6.111111},"geometry":{"type":"Polygon","coordinates":[[[-121.027262882658,50.4773222006091],[-121.027030711995,50.4772100363727],[-121.02733515423,50.4769442754374],[-121.027717080606,50.4766326781554],[-121.028033779423,50.4763229682525],[-121.028191001789,50.4761690120529],[-121.028621813615,50.4756925836734],[-121.028907800536,50.4753259827755],[-121.029264368466,50.4748878412268],[-121.029473153006,50.474656951865],[-121.029691940045,50.4745406533698],[-121.029801967525,50.4744884358847],[-121.0299527094,50.4745928708549],[-121.029789147422,50.4745422711232],[-121.029556554118,50.4747917646493],[-121.029252393644,50.4751732848286],[-121.029073475718,50.4754782313465],[-121.028853702517,50.4757749992222],[-121.028696621031,50.4759749715188],[-121.028409507068,50.4762708406426],[-121.028042232238,50.4765702148987],[-121.027244568224,50.477219653018],[-121.027262882658,50.4773222006091]]]}},{"type":"Feature","id":"884401102","properties":{"name":"iSP_30KPH_%TR_Maint_Limit_Policy","oid":"884401102","speedLimit":8.333333},"geometry":{"type":"Polygon","coordinates":[[[-121.036992636711,50.4611014365361],[-121.037108722042,50.4611079075497],[-121.038294933804,50.4609922381808],[-121.038278591695,50.4603980733032],[-121.038120101406,50.4605659601571],[-121.037033069345,50.4607085920828],[-121.03674539186,50.460537919098],[-121.036992636711,50.4611014365361]]]}},{"type":"Feature","id":"908328496","properties":{"name":"SP_25KPH_%TR_1445_SOFT_GROUND_SEPT_17_NS","oid":"908328496","speedLimit":6.9444447},"geometry":{"type":"Polygon","coordinates":[[[-121.039331671614,50.4644969211947],[-121.039940696964,50.4647092063923],[-121.039188959914,50.4666748666615],[-121.038826756774,50.4674279308742],[-121.038452015291,50.4678943831076],[-121.037915120632,50.4682380658321],[-121.037180148333,50.468025960385],[-121.038313107358,50.4667053343507],[-121.038793790794,50.4655660764488],[-121.039331671614,50.4644969211947]]]}},{"type":"Feature","id":"910445950","properties":{"name":"SP_22KPH_%TR_1635_FLATS_SEP_17_NS","oid":"910445950","speedLimit":6.111111},"geometry":{"type":"Polygon","coordinates":[[[-121.01791477322,50.4571010918522],[-121.017758959656,50.4573817720689],[-121.016600923946,50.4571353342994],[-121.017123871459,50.4561458084632],[-121.017774597365,50.454239915195],[-121.018181459546,50.4539932077998],[-121.018533941949,50.4537516232905],[-121.019043505837,50.4536552770874],[-121.018867828157,50.4543417437847],[-121.018263029215,50.456072200683],[-121.018043115134,50.4566100138168],[-121.017988030954,50.4569257453575],[-121.01791477322,50.4571010918522]]]}},{"type":"Feature","id":"915576987","properties":{"name":"iSP_15KPH_%TR_Preventing Shifting","oid":"915576987","speedLimit":4.1666665},"geometry":{"type":"Polygon","coordinates":[[[-121.036998131041,50.4448633265514],[-121.037512203098,50.44531324175],[-121.037981475233,50.4457956917671],[-121.038525413904,50.4462190039096],[-121.039458041204,50.4468501074901],[-121.039915338518,50.4470998706417],[-121.040471252011,50.4471952282177],[-121.041224397864,50.447322940862],[-121.041642812226,50.4475097913809],[-121.042321291543,50.4480952383652],[-121.04270392232,50.4485279874026],[-121.042847338421,50.4487950065905],[-121.043008787196,50.4493917778487],[-121.043187986882,50.4501983177991],[-121.043325486013,50.4505014668132],[-121.043687125632,50.4511688799703],[-121.043857590743,50.4514891951457],[-121.044126531153,50.4522537633826],[-121.044383637621,50.4529383427009],[-121.044697377953,50.4537982685139],[-121.044736260904,50.454194887725],[-121.044571853644,50.4550719796992],[-121.044216271876,50.4568394651756],[-121.044051864617,50.4572075040765],[-121.04300568783,50.4583991592139],[-121.041905835665,50.4595375183639],[-121.041344005202,50.4600008249656],[-121.040372635831,50.460597686099],[-121.039924213974,50.4607311507554],[-121.039135143656,50.4608073649161],[-121.038497801374,50.4608389111076],[-121.038645584763,50.4611436778751],[-121.038758429849,50.4609497272162],[-121.039879414052,50.460879894194],[-121.040707367321,50.4606320184214],[-121.041511370947,50.4600580754614],[-121.04287424655,50.458700420849],[-121.044243039125,50.4571426141897],[-121.044428437543,50.4562903277678],[-121.044814026806,50.4544217327033],[-121.04481092744,50.4537867644896],[-121.044261071798,50.4523014871082],[-121.043833641099,50.4511860461315],[-121.043346477171,50.4503375344676],[-121.043050628632,50.4493098116759],[-121.042928062809,50.4486920096234],[-121.042240567156,50.4478873570519],[-121.041547154532,50.4473916055067],[-121.041092815704,50.447221921149],[-121.040459277189,50.4471304282061],[-121.039918297003,50.4470197918479],[-121.038821403324,50.4463334150258],[-121.038196740265,50.4458719059278],[-121.037153662844,50.4449070957687],[-121.037377803333,50.4446974169516],[-121.036998131041,50.4448633265514]]]}},{"type":"Feature","id":"917773475","properties":{"name":"SP_15KPH_%TR_1200_CORNER_Sept_17_NS","oid":"917773475","speedLimit":4.1666665},"geometry":{"type":"Polygon","coordinates":[[[-121.037099001305,50.4446825875454],[-121.036924873307,50.4448621581739],[-121.036629306529,50.4448206358364],[-121.036414745898,50.4448699773154],[-121.036323173731,50.4449676716464],[-121.036254565046,50.4450821726378],[-121.036242308463,50.4451449953952],[-121.036263440502,50.4452673155281],[-121.036316129718,50.4453515285807],[-121.036184265798,50.445395297798],[-121.036089171624,50.4451943368743],[-121.036163133759,50.4449317215706],[-121.036259918495,50.4447914263998],[-121.036516743204,50.4447151223639],[-121.036713834683,50.4447117969819],[-121.036923182744,50.4447701259799],[-121.037093788735,50.4446836660476],[-121.037099001305,50.4446825875454]]]}},{"type":"Feature","id":"921770139","properties":{"name":"SP_20KPH_%TR_HIGHMONT_SEPT 17_NS","oid":"921770139","speedLimit":5.5555553},"geometry":{"type":"Polygon","coordinates":[[[-121.001747354954,50.4283060697689],[-121.001111139715,50.4282402811302],[-121.001000830474,50.4285433402691],[-121.001095924647,50.4288873824945],[-121.001583088575,50.4287564343434],[-121.001925286718,50.4286884887001],[-121.002548400094,50.4285670673191],[-121.002401743747,50.428187524394],[-121.001747354954,50.4283060697689]]]}},{"type":"Feature","id":"926367691","properties":{"name":"SP_25KPH_%TR_24SH_EMPTY_LANE_SEP_17_NS","oid":"926367691","speedLimit":6.9444447},"geometry":{"type":"Polygon","coordinates":[[[-121.038784210936,50.450857552314],[-121.038613041424,50.4512056389228],[-121.038638963391,50.4520121788733],[-121.038865921485,50.4535985658428],[-121.039045121172,50.4535756476695],[-121.038782238613,50.4517187363796],[-121.038784210936,50.450857552314]]]}},{"type":"Feature","id":"929009157","properties":{"name":"iSP_22KPH_%TR_Long_Single_Lane","oid":"929009157","speedLimit":6.111111},"geometry":{"type":"Polygon","coordinates":[[[-121.005682563166,50.4380559999496],[-121.004752894352,50.4382240665539],[-121.005177366566,50.438197553373],[-121.007937492556,50.4431705273575],[-121.008526231149,50.444534922609],[-121.008213336099,50.4465097501475],[-121.00783535437,50.446680243382],[-121.008936756217,50.4466469895619],[-121.008826024336,50.446592974573],[-121.009406028353,50.4448176699551],[-121.008767136388,50.4430684291422],[-121.008265461794,50.4415401914203],[-121.007261971725,50.4401562033774],[-121.006442330391,50.4389840511562],[-121.005863312536,50.4383130429915],[-121.005682563166,50.4380559999496]]]}},{"type":"Feature","id":"932114358","properties":{"name":"SP_20KPH_%TR_23SH_LOADED_LANES_SEP_","oid":"932114358","speedLimit":5.5555553},"geometry":{"type":"Polygon","coordinates":[[[-121.042098418976,50.4671398808919],[-121.041265675779,50.4667318475316],[-121.040734557211,50.4664970036615],[-121.040689052888,50.4664766019935],[-121.04037742576,50.4667814586362],[-121.040593958714,50.4666720805306],[-121.041766505092,50.4671899413724],[-121.041838917544,50.4675479142521],[-121.042098418976,50.4671398808919]]]}},{"type":"Feature","id":"932281958","properties":{"name":"SP_15KPH_%TR_1185-1170_22shl_SEPT_17_NS","oid":"932281958","speedLimit":4.1666665},"geometry":{"type":"Polygon","coordinates":[[[-121.037375126608,50.4481142919054],[-121.037408656109,50.4479621332096],[-121.036982070692,50.4479088372222],[-121.035924200844,50.4473801014825],[-121.035633142233,50.4472469064517],[-121.035475497226,50.4475380121904],[-121.035550727283,50.4474434634911],[-121.036814704947,50.4479515279372],[-121.037216213678,50.4480556034066],[-121.037334553094,50.4481912250676],[-121.037375126608,50.4481142919054]]]}},{"type":"Feature","id":"933274269","properties":{"name":"SP_15KPH_%TR_21SH_EMPTY_LANE_SEP_17_NS","oid":"933274269","speedLimit":4.1666665},"geometry":{"type":"Polygon","coordinates":[[[-121.039409578396,50.4523696125018],[-121.039606247234,50.4523825545291],[-121.039538483831,50.4510066552533],[-121.039312371019,50.4510519523488],[-121.039418876493,50.4515133715716],[-121.039409578396,50.4523696125018]]]}},{"type":"Feature","id":"934051091","properties":{"name":"iSP_17KPH_%TR_Ramp_Permission Blocker","oid":"934051091","speedLimit":4.7222223},"geometry":{"type":"Polygon","coordinates":[[[-121.039512984504,50.46102980601],[-121.039464944337,50.460771774341],[-121.039017508641,50.4607923557594],[-121.039076396589,50.4610450847923],[-121.039163883228,50.4609000262364],[-121.039379852662,50.4608869044588],[-121.039512984504,50.46102980601]]]}},{"type":"Feature","id":"934181339","properties":{"name":"SP_30KPH_TR%_1590_2_SEPT 16_NS_ROUGH_SECTION.","oid":"934181339","speedLimit":8.333333},"geometry":{"type":"Polygon","coordinates":[[[-121.009625801553,50.4401266344401],[-121.00892196379,50.4404385912228],[-121.010384441736,50.44179858259],[-121.011096027913,50.4414569669948],[-121.01056209174,50.4414850080539],[-121.009452518837,50.4404074944072],[-121.009625801553,50.4401266344401]]]}},{"type":"Feature","id":"934773555","properties":{"name":"SP_10KPH_NEW RAMP_SEPT 17_NS","oid":"934773555","speedLimit":2.7777777},"geometry":{"type":"Polygon","coordinates":[[[-121.033903414441,50.4443402529486],[-121.034414950653,50.4442041819117],[-121.035775431292,50.4443192221543],[-121.036277387647,50.4444736277298],[-121.035932371898,50.4447856743877],[-121.034623171672,50.4446108671441],[-121.034345496686,50.4446010707485],[-121.033903414441,50.4443402529486]]]}},{"type":"Feature","id":"936169885","properties":{"name":"SP_10KPH_%TR_24shl_loadplan_Sept_17_NS","oid":"936169885","speedLimit":2.7777777},"geometry":{"type":"Polygon","coordinates":[[[-121.039052869586,50.453593892333],[-121.0385118894,50.4536891600338],[-121.03869306141,50.4545086420115],[-121.039189805195,50.4544622664138],[-121.039181775021,50.4543766153582],[-121.039100346232,50.4539211278979],[-121.039077805391,50.4537567461763],[-121.039052869586,50.453593892333]]]}},{"type":"Feature","id":"936513295","properties":{"name":"SP_30KPH_%TR_1635_FLATS_SEP_17_NS","oid":"936513295","speedLimit":8.333333},"geometry":{"type":"Polygon","coordinates":[[[-121.017435216826,50.4574539418461],[-121.015228327604,50.4585170754625],[-121.014499554036,50.4578797704938],[-121.016653190521,50.4569269137349],[-121.017435216826,50.4574539418461]]]}},{"type":"Feature","id":"937786749","properties":{"name":"SP_30KPH_%TR_24SH_Loaded_LANE_SEP_17_NS","oid":"937786749","speedLimit":8.333333},"geometry":{"type":"Polygon","coordinates":[[[-121.038410314735,50.4510853859193],[-121.038213223255,50.4510392799471],[-121.038253796769,50.4516608567576],[-121.038333112354,50.4527882511344],[-121.038495829051,50.452761018952],[-121.038403834243,50.4516753266631],[-121.038410314735,50.4510853859193]]]}},{"type":"Feature","id":"937793793","properties":{"name":"SP_10KPH_%TR_21SH_LOAD_AREA_SEP_17_NS","oid":"937793793","speedLimit":2.7777777},"geometry":{"type":"Polygon","coordinates":[[[-121.039610896283,50.4523982826873],[-121.039003279735,50.4524050233265],[-121.039058927437,50.4534374196281],[-121.03965865469,50.4534069519388],[-121.039618785577,50.4529280070541],[-121.039610896283,50.4523982826873]]]}},{"type":"Feature","id":"938065675","properties":{"name":"SP_8KPH_CR01_YARD_RUTIING_SEP_17_NS","oid":"938065675","speedLimit":2.2222223},"geometry":{"type":"Polygon","coordinates":[[[-121.034289567224,50.4648013284615],[-121.034099378878,50.4648581295813],[-121.033941170349,50.4649071115595],[-121.033829734066,50.4650050755161],[-121.034044576458,50.4650689767758],[-121.033964556472,50.4650114566545],[-121.034242935859,50.4648882377697],[-121.034319574719,50.4649374893736],[-121.034289567224,50.4648013284615]]]}},{"type":"Feature","id":"938165680","properties":{"name":"SP_22SH_10kph_%TR_Sept17_NS","oid":"938165680","speedLimit":2.7777777},"geometry":{"type":"Polygon","coordinates":[[[-121.034631624488,50.4470558317988],[-121.03505553318,50.4472506812096],[-121.035497333666,50.4474474179994],[-121.035795436289,50.4469123011212],[-121.034871825326,50.446719159339],[-121.034631624488,50.4470558317988]]]}},{"type":"Feature","id":"938217281","properties":{"name":"SP_25KPH_CRUSHER_YARD_WEATHER_SEPT_17_NS","oid":"938217281","speedLimit":6.9444447},"geometry":{"type":"Polygon","coordinates":[[[-121.036883736272,50.4639826553605],[-121.037242417406,50.4642846359972],[-121.03429238483,50.465499299183],[-121.032879778495,50.4644545001053],[-121.036883736272,50.4639826553605]]]}},{"type":"Feature","id":"939481274","properties":{"name":"SP_10KPH_%TR_LRNX_PIT_BOTTOM_SEP_17_NS1","oid":"939481274","speedLimit":2.7777777},"geometry":{"type":"Polygon","coordinates":[[[-121.034055705998,50.4452363984629],[-121.034062750011,50.4449962519566],[-121.033303264547,50.4447664410971],[-121.03346950325,50.4448876827277],[-121.033358348727,50.4469938179181],[-121.033815927801,50.4469741352516],[-121.033664199765,50.4469200303875],[-121.034055705998,50.4452363984629]]]}},{"type":"Feature","id":"939584863","properties":{"name":"SP_40KPH_%TR_HMT EMPTY2_ROUGH_SECTION_SEPT 17_NS","oid":"939584863","speedLimit":11.111111},"geometry":{"type":"Polygon","coordinates":[[[-121.005961646955,50.4301700811988],[-121.005670165704,50.430397375553],[-121.005922764004,50.4302830543119],[-121.006322159532,50.4305570837647],[-121.006714933688,50.4308738039324],[-121.007138137979,50.4312429213356],[-121.007265493731,50.4315321396954],[-121.007412290959,50.4321903855832],[-121.00731945087,50.4325924871809],[-121.007053891586,50.4326145066023],[-121.007548240407,50.4326902713871],[-121.007645447784,50.4323019206933],[-121.007587123358,50.4319287589066],[-121.007418771451,50.4313516703149],[-121.007306489886,50.4311740769405],[-121.007118696504,50.4309839909147],[-121.006684785313,50.4306465994534],[-121.005961646955,50.4301700811988]]]}},{"type":"Feature","id":"939585115","properties":{"name":"SP_40KPH_%TR_HMT EMPTY22_ROUGH_SECTION_SEPT 17_NS","oid":"939585115","speedLimit":11.111111},"geometry":{"type":"Polygon","coordinates":[[[-121.007520205236,50.4327113021814],[-121.007046706693,50.4338271026588],[-121.006950062836,50.4340181773117],[-121.006753675759,50.4342996664051],[-121.005790618323,50.4352900909932],[-121.005291338693,50.4350887705688],[-121.005661712888,50.4351667822333],[-121.00661195022,50.4341291731707],[-121.006756775124,50.433927762871],[-121.00696302382,50.4334119691586],[-121.007227033421,50.432783202333],[-121.007030646343,50.4326537820601],[-121.007520205236,50.4327113021814]]]}},{"type":"Feature","id":"940771585","properties":{"name":"SP_15KPH_%TR_1660_HMT_SEPT17_NS","oid":"940771585","speedLimit":4.1666665},"geometry":{"type":"Polygon","coordinates":[[[-121.00271083503,50.4281185002484],[-121.002605597478,50.4277113656401],[-121.002233955361,50.4276979742368],[-121.002507403939,50.4277963875693],[-121.002535439111,50.428114006489],[-121.002675755846,50.4280826400478],[-121.00271083503,50.4281185002484]]]}},{"type":"Feature","id":"940772885","properties":{"name":"SP_11KPH_%TR_1654_HMT_SEPT17_NS","oid":"940772885","speedLimit":3.0555556},"geometry":{"type":"Polygon","coordinates":[[[-121.004064271657,50.4264900516902],[-121.004414922616,50.4266376267513],[-121.004611168814,50.4261544577327],[-121.004379843432,50.4258055622471],[-121.003973122131,50.4255504964593],[-121.003538224778,50.4259173669828],[-121.003839849408,50.4258323450536],[-121.004183456354,50.4261097897635],[-121.00414837717,50.4264900516902],[-121.004064271657,50.4264900516902]]]}},{"type":"Feature","id":"940778315","properties":{"name":"SP_25KPH_%TR_HMT_SPILLING_ROCK_IN_CORNER_SEPT17_NS","oid":"940778315","speedLimit":6.9444447},"geometry":{"type":"Polygon","coordinates":[[[-121.004786564733,50.4367080518577],[-121.004772476708,50.4370436458152],[-121.004989854944,50.4372762428056],[-121.005123127667,50.4371688419542],[-121.004891802285,50.4369362449638],[-121.004884758272,50.4367573034616],[-121.005200330047,50.4367975675464],[-121.004800511879,50.436699154214],[-121.004786564733,50.4367080518577]]]}}]}