{"type":"FeatureCollection","features":[{"type":"Feature","id":"702602533","properties":{"name":"iSP_4KPH_%TR_CR01_SLOW BUMP","oid":"702602533","speedLimit":1.1111112},"geometry":{"type":"Polygon","coordinates":[[[-121.033356832673,50.464809297452],[-121.033651609436,50.4646922778414],[-121.033695008692,50.4647329920377],[-121.03336711886,50.4648711326994],[-121.033356832673,50.464809297452]]]}},{"type":"Feature","id":"707947583","properties":{"name":"iSP_22KPH_%TR_Permission Gate 1 from west dump_Jun","oid":"707947583","speedLimit":6.111111},"geometry":{"type":"Polygon","coordinates":[[[-121.038627024119,50.4619793462394],[-121.038853742959,50.4618008508887],[-121.037979417042,50.4613523655915],[-121.037742271109,50.4615436234497],[-121.037958421948,50.4614978761519],[-121.038665491641,50.4618474070778],[-121.038627024119,50.4619793462394]]]}},{"type":"Feature","id":"742345972","properties":{"name":"iSP_4KPH_%TR_CR01_PITSIDE_SLOW BUMP","oid":"742345972","speedLimit":1.1111112},"geometry":{"type":"Polygon","coordinates":[[[-121.033396709262,50.4648842547141],[-121.033704026719,50.4647457545452],[-121.033754189495,50.4647778405674],[-121.033472657959,50.4649197560552],[-121.033396709262,50.4648842547141]]]}},{"type":"Feature","id":"776427243","properties":{"name":"iSP_7KPH_%TR_CR1_PermissionBlocker_DO_NOT_DELETE","oid":"776427243","speedLimit":1.9444444},"geometry":{"type":"Polygon","coordinates":[[[-121.034098001782,50.4652142823716],[-121.034049529886,50.4652345945314],[-121.034028393884,50.4652760277422],[-121.034114065143,50.4652269550023],[-121.034098001782,50.4652142823716]]]}},{"type":"Feature","id":"794004438","properties":{"name":"iSP_11KPH_%TR_LOWER_FUEL_BAY","oid":"794004438","speedLimit":3.0555556},"geometry":{"type":"Polygon","coordinates":[[[-121.036775087694,50.4606968041171],[-121.036777201294,50.4607266432191],[-121.036747469986,50.4606721778704],[-121.037123690807,50.4606004561735],[-121.03753372923,50.4605574051801],[-121.037541479097,50.4605827504414],[-121.036942907543,50.4606515960802],[-121.036775087694,50.4606968041171]]]}},{"type":"Feature","id":"801543391","properties":{"name":"iSP_4KPH_%TR_CR1_PermissionBlocker_DO_NOT_DELETE_","oid":"801543391","speedLimit":1.1111112},"geometry":{"type":"Polygon","coordinates":[[[-121.033153363435,50.4645247474619],[-121.033152517995,50.4644753152147],[-121.033174076716,50.4644332528662],[-121.033106018792,50.4644608450478],[-121.033153363435,50.4645247474619]]]}},{"type":"Feature","id":"806473874","properties":{"name":"iSP_4KPH_%TR_Permission Blocker - DO NOT DELETE","oid":"806473874","speedLimit":1.1111112},"geometry":{"type":"Polygon","coordinates":[[[-121.022716124228,50.4815469664701],[-121.02268301116,50.4815446296729],[-121.022675402199,50.4815733003763],[-121.022697524547,50.481574378898],[-121.022701610841,50.4815502919121],[-121.022716124228,50.4815469664701]]]}},{"type":"Feature","id":"824566967","properties":{"name":"iSP_4Cr_3KPH","oid":"824566967","speedLimit":0.8333333},"geometry":{"type":"Polygon","coordinates":[[[-121.023299055141,50.4810700801],[-121.023278905487,50.4810700801],[-121.02327622826,50.4811881782324],[-121.023301309648,50.4811874592178],[-121.023299055141,50.4810700801]]]}},{"type":"Feature","id":"826307302","properties":{"name":"iSP_4KPH_TR%_CRUSHER POCKETS","oid":"826307302","speedLimit":1.1111112},"geometry":{"type":"Polygon","coordinates":[[[-121.023294264314,50.4813232630824],[-121.023333718183,50.4814789297226],[-121.023538455581,50.4814394738016],[-121.023457434244,50.4811906049063],[-121.0230490867,50.4811913239208],[-121.023054441154,50.4813619999888],[-121.023279328207,50.4813280265535],[-121.023294264314,50.4813232630824]]]}},{"type":"Feature","id":"849417440","properties":{"name":"iSP_Permissions_35_KPH_June_19_NS","oid":"849417440","speedLimit":9.722222},"geometry":{"type":"Polygon","coordinates":[[[-121.032693303142,50.4660355766893],[-121.033007947746,50.4660162531745],[-121.033214939651,50.4658153784973],[-121.033803788645,50.465380913983],[-121.033724599094,50.4652521205099],[-121.033960758681,50.46540158565],[-121.033424467877,50.4658098960117],[-121.033022038414,50.4661894457932],[-121.032693303142,50.4660355766893]]]}},{"type":"Feature","id":"853029148","properties":{"name":"SP_30KPH_%TR_1635 Flats_July_29_DS","oid":"853029148","speedLimit":8.333333},"geometry":{"type":"Polygon","coordinates":[[[-121.018586149593,50.4569721292306],[-121.017404788033,50.4572909222865],[-121.016426191177,50.4584587815953],[-121.01834519918,50.4588943246314],[-121.020688618086,50.4589884256546],[-121.020236871287,50.4572329517421],[-121.019419048947,50.4570977770152],[-121.018964765828,50.4570011594412],[-121.018586149593,50.4569721292306]]]}},{"type":"Feature","id":"883050998","properties":{"name":"iSP_22kph_%TR_4CR_Brake_Temp_CTRL_NOREMOVE","oid":"883050998","speedLimit":6.111111},"geometry":{"type":"Polygon","coordinates":[[[-121.031796854878,50.4745606620378],[-121.03218618002,50.4743140400628],[-121.03248786121,50.4745763904801],[-121.032789542401,50.4748037788171],[-121.032967366624,50.4748861958547],[-121.033176190316,50.4749363471164],[-121.033460117265,50.4749611531168],[-121.033664009224,50.4749235846089],[-121.03382520646,50.4748641760355],[-121.033916373078,50.4748121373607],[-121.03400570791,50.4747489539612],[-121.034056152499,50.4746597961626],[-121.034050375326,50.4745496071898],[-121.034054179806,50.4744852553917],[-121.033992039962,50.474381267919],[-121.033873678356,50.4742611924967],[-121.033506757375,50.4739392537524],[-121.033058392336,50.4735615913839],[-121.032945103369,50.4734270457948],[-121.032820119149,50.4732224861683],[-121.032603263777,50.4728165126037],[-121.03224972893,50.4722105631301],[-121.032484761263,50.472157715564],[-121.03242769406,50.472207237688],[-121.032900295047,50.4730504619481],[-121.033039510842,50.4733111945828],[-121.033247348187,50.473548559246],[-121.033740380641,50.4739632508614],[-121.034095465462,50.4742727866056],[-121.034200863654,50.4743960975931],[-121.034253562751,50.4744633254493],[-121.034260608084,50.4745944557195],[-121.034235667603,50.4746804678296],[-121.03418113672,50.47479326323],[-121.034083629301,50.4748774778038],[-121.033970763054,50.4749393130512],[-121.033788148004,50.475017775509],[-121.033528597909,50.4750660393576],[-121.033260593414,50.475069724307],[-121.033068960337,50.4750279315889],[-121.032805183042,50.4749181920001],[-121.0326544129,50.4748367636075],[-121.032492792944,50.4747069814895],[-121.032142217137,50.4744147020934],[-121.031796854878,50.4745606620378]]]}},{"type":"Feature","id":"883053336","properties":{"name":"iSP_22kph_%TR_Brake_Temp_CTRL_NOREMOVE","oid":"883053336","speedLimit":6.111111},"geometry":{"type":"Polygon","coordinates":[[[-121.032463484355,50.4721468404697],[-121.032248601677,50.4722271004637],[-121.031485873847,50.4710098987845],[-121.030813889915,50.4699249058974],[-121.03065861076,50.4696617465887],[-121.030593793689,50.4694592541289],[-121.030547435393,50.4692582895749],[-121.030593793689,50.4689744585993],[-121.03072004607,50.4686258264415],[-121.030881806932,50.468377047423],[-121.031086262517,50.4680993280706],[-121.031685679511,50.4675380473731],[-121.032429666754,50.4668951585293],[-121.032786019734,50.4665576710963],[-121.033145190848,50.4662238686126],[-121.033482098707,50.4658721806432],[-121.033777157283,50.4660355766893],[-121.033585101486,50.4659947726162],[-121.032916922035,50.4666535696559],[-121.032552114654,50.4669927647483],[-121.032176034739,50.4673092210071],[-121.031771773489,50.4676698966578],[-121.0313793484,50.4680359649174],[-121.031144456974,50.4682878896244],[-121.031006086619,50.4684714180767],[-121.030902379307,50.4686560250507],[-121.030825866982,50.4688545629307],[-121.030764995299,50.469192859255],[-121.030773731513,50.4694021823526],[-121.030870957118,50.4696319074868],[-121.031024968114,50.4699366797599],[-121.031327917464,50.4704053873399],[-121.031528004942,50.470712586287],[-121.031747678448,50.4710844965394],[-121.032143485297,50.4717304411948],[-121.032378799444,50.4721467505928],[-121.032463484355,50.4721468404697]]]}},{"type":"Feature","id":"883059532","properties":{"name":"iSP_22kph_%TR_Brake_CTRL_NOREMOVE","oid":"883059532","speedLimit":6.111111},"geometry":{"type":"Polygon","coordinates":[[[-121.027259096326,50.4773237449015],[-121.027026882126,50.4772115786388],[-121.02733138145,50.4769458129026],[-121.027713379445,50.4766342099918],[-121.02803013765,50.476324494494],[-121.028187389499,50.4761705355132],[-121.02861828211,50.4756940985272],[-121.02890432266,50.4753274910068],[-121.029260957453,50.4748893415432],[-121.029469781145,50.4746584480104],[-121.029688609211,50.4745421474143],[-121.029798657324,50.4744899289859],[-121.029949427466,50.4745943658427],[-121.029785834817,50.474543765197],[-121.029553197897,50.47479326323],[-121.029248980386,50.4751747903014],[-121.029070028909,50.4754797423281],[-121.028850214497,50.4757765155648],[-121.028693103554,50.4759764914738],[-121.028405935751,50.4762723659424],[-121.028038592051,50.4765717456067],[-121.027240778459,50.4772211954578],[-121.027259096326,50.4773237449015]]]}},{"type":"Feature","id":"886231481","properties":{"name":"SP_15KPH_%TR_1200_SWITCHBACK_July_29_DS","oid":"886231481","speedLimit":4.1666665},"geometry":{"type":"Polygon","coordinates":[[[-121.036907399061,50.4452285552066],[-121.036966438958,50.4446815649224],[-121.036281914332,50.4447468154887],[-121.036038004879,50.4452762797944],[-121.036521878399,50.4453464735854],[-121.036616285871,50.4451030871756],[-121.036770296867,50.4451322971399],[-121.036907399061,50.4452285552066]]]}},{"type":"Feature","id":"899288147","properties":{"name":"SP_30KPH_%TR_1185_BENCH_JULY_29_DS","oid":"899288147","speedLimit":8.333333},"geometry":{"type":"Polygon","coordinates":[[[-121.039758504717,50.4500572768647],[-121.039541931158,50.4496330583071],[-121.039838257895,50.4495904566977],[-121.040149379832,50.4505444091915],[-121.040332981229,50.4509546069663],[-121.040198838075,50.4511943084267],[-121.040016223025,50.450601840475],[-121.039758504717,50.4500572768647]]]}},{"type":"Feature","id":"902935346","properties":{"name":"SP_20KPH_%TRX_NEW LANES_July29_DS","oid":"902935346","speedLimit":5.5555553},"geometry":{"type":"Polygon","coordinates":[[[-121.039150774229,50.4482807717779],[-121.039119633854,50.4482918266259],[-121.039074684625,50.4483249012931],[-121.039244618074,50.4487269202779],[-121.039508958996,50.4492687875838],[-121.039626897883,50.4495848843353],[-121.039828676241,50.4495430916173],[-121.039707496501,50.4493146247585],[-121.03922531386,50.4482988370174],[-121.039150774229,50.4482807717779]]]}},{"type":"Feature","id":"908328496","properties":{"name":"SP_15KPH_%TR_9019_SOFT_GROUND_July 29_DS","oid":"908328496","speedLimit":4.1666665},"geometry":{"type":"Polygon","coordinates":[[[-121.038998313207,50.4644904145193],[-121.039322962185,50.4647040517039],[-121.039502054569,50.4648797608734],[-121.039390033762,50.465216978676],[-121.03935029808,50.4661498101187],[-121.038103414916,50.4665995536912],[-121.038027043498,50.4662279130692],[-121.037879655117,50.4651413922762],[-121.038518807793,50.4648158584594],[-121.038998313207,50.4644904145193]]]}},{"type":"Feature","id":"908575258","properties":{"name":"iSP_15km_permissions ","oid":"908575258","speedLimit":4.1666665},"geometry":{"type":"Polygon","coordinates":[[[-121.041868441263,50.4595517735188],[-121.041458261933,50.4599143365827],[-121.041082604739,50.4602074248701],[-121.04068722061,50.4604250166345],[-121.04034608555,50.460585806253],[-121.039955633155,50.4607150491102],[-121.039515722516,50.4607811984446],[-121.039174728364,50.4607970167637],[-121.039120338387,50.4612131464081],[-121.039253777008,50.4609388423747],[-121.039802467599,50.4608474376558],[-121.040271968639,50.4607056120448],[-121.040939302651,50.4603934698731],[-121.041542242312,50.4599868671708],[-121.041942699081,50.4596526153031],[-121.042090932903,50.4595296638228],[-121.041942699081,50.4594918256845],[-121.041868441263,50.4595517735188]]]}},{"type":"Feature","id":"910445950","properties":{"name":"SP_30KPH_%TR_1635_FLATS_JULY29_DS","oid":"910445950","speedLimit":8.333333},"geometry":{"type":"Polygon","coordinates":[[[-121.020221653366,50.4571653643787],[-121.019040432712,50.4569625124116],[-121.018646739463,50.456923865382],[-121.017450300889,50.4572329517421],[-121.018086353618,50.4544702283856],[-121.018767778297,50.4539003195141],[-121.018934470893,50.4535139390948],[-121.019555305702,50.4545185821111],[-121.020221653366,50.4571460408638],[-121.020206576352,50.4571460408638],[-121.020221653366,50.4571653643787]]]}},{"type":"Feature","id":"913788494","properties":{"name":"SP_11KPH_ROUGH GROUND_21SH_JULY29_DS","oid":"913788494","speedLimit":3.0555556},"geometry":{"type":"Polygon","coordinates":[[[-121.040420906994,50.4520641362234],[-121.041196598239,50.4519534079897],[-121.041490247749,50.4536140618645],[-121.040513623586,50.4536169379225],[-121.040437111262,50.4524170824682],[-121.040420906994,50.4520641362234]]]}},{"type":"Feature","id":"913898324","properties":{"name":"SP_18KPH_%TR_SOFT_24SH_JULY29_DS","oid":"913898324","speedLimit":5},"geometry":{"type":"Polygon","coordinates":[[[-121.038076642648,50.4505175360244],[-121.03788289597,50.4500046989291],[-121.037776370524,50.4494794588336],[-121.037776370524,50.4492632152214],[-121.036894858367,50.4492447005979],[-121.037495402615,50.4493867958394],[-121.037505125175,50.4498996329346],[-121.03781511986,50.4505175360244],[-121.038037893312,50.4504557906538],[-121.038076642648,50.4505175360244]]]}},{"type":"Feature","id":"913995359","properties":{"name":"SP_30KPH_%TR_July29_NS","oid":"913995359","speedLimit":8.333333},"geometry":{"type":"Polygon","coordinates":[[[-121.036081404134,50.444745197706],[-121.037436362718,50.4458023287812],[-121.039250395248,50.4470594357653],[-121.041008487828,50.4476593634925],[-121.041848432516,50.4483522238443],[-121.042497871379,50.4498022064693],[-121.04375208169,50.453073452834],[-121.043953719142,50.4546019877936],[-121.043360220228,50.4570304592823],[-121.041725280082,50.4587589701509],[-121.040269432319,50.4599874963085],[-121.038410591467,50.4604089286849],[-121.038735381352,50.4611017890368],[-121.040773455494,50.4608732323012],[-121.043360220228,50.4587518698827],[-121.044726310439,50.4567733217201],[-121.045308677726,50.4540233608711],[-121.04375208169,50.4502377495053],[-121.042878601214,50.4480665054556],[-121.041008487828,50.4468307891529],[-121.03929520357,50.4461451189462],[-121.037570787686,50.4446808459079],[-121.037413958557,50.4447023264662],[-121.036081404134,50.444745197706]]]}},{"type":"Feature","id":"913999511","properties":{"name":"New Zone2091","oid":"913999511","speedLimit":4.1666665},"geometry":{"type":"Polygon","coordinates":[[[-121.040491219425,50.4638915653139],[-121.039889547924,50.4636974313977],[-121.039266599515,50.4643995490613],[-121.039871793683,50.4646456317754],[-121.040427529608,50.4639705670326],[-121.040491219425,50.4638915653139]]]}}]}