{"type":"FeatureCollection","features":[{"type":"Feature","id":"702602533","properties":{"name":"iSP_4KPH_%TR_CR01_SLOW BUMP","oid":"702602533","speedLimit":1.1111112},"geometry":{"type":"Polygon","coordinates":[[[-121.033357762268,50.4648077307926],[-121.033652516993,50.4646907141416],[-121.033695913005,50.4647314273082],[-121.033368047686,50.4648695644761],[-121.033357762268,50.4648077307926]]]}},{"type":"Feature","id":"707947583","properties":{"name":"iSP_22KPH_%TR_Permission Gate 1 from west dump_Jun","oid":"707947583","speedLimit":6.111111},"geometry":{"type":"Polygon","coordinates":[[[-121.03862755971,50.4619778511533],[-121.0388542616,50.461799360317],[-121.037980001049,50.4613508863626],[-121.037742872845,50.4615421393836],[-121.037959007524,50.4614963932428],[-121.038666024357,50.4618459153286],[-121.03862755971,50.4619778511533]]]}},{"type":"Feature","id":"742345972","properties":{"name":"iSP_4KPH_%TR_CR01_PITSIDE_SLOW BUMP","oid":"742345972","speedLimit":1.1111112},"geometry":{"type":"Polygon","coordinates":[[[-121.033397635875,50.464882686159],[-121.033704930358,50.4647441894929],[-121.033755089384,50.4647762747036],[-121.033473578895,50.4649181866022],[-121.033397635875,50.464882686159]]]}},{"type":"Feature","id":"776427243","properties":{"name":"iSP_7KPH_%TR_CR1_PermissionBlocker_DO_NOT_DELETE","oid":"776427243","speedLimit":1.9444444},"geometry":{"type":"Polygon","coordinates":[[[-121.034098875966,50.4652127054696],[-121.034050407694,50.4652330171157],[-121.034029273273,50.4652744492786],[-121.034114938126,50.4652253777798],[-121.034098875966,50.4652127054696]]]}},{"type":"Feature","id":"794004438","properties":{"name":"iSP_11KPH_%TR_LOWER_FUEL_BAY","oid":"794004438","speedLimit":3.0555556},"geometry":{"type":"Polygon","coordinates":[[[-121.036775761737,50.4606953414682],[-121.036777875179,50.4607251798155],[-121.036748146094,50.4606707158443],[-121.037124338789,50.4605989959614],[-121.037534346557,50.4605559460568],[-121.037542095845,50.460581290677],[-121.036943569041,50.4606501345746],[-121.036775761737,50.4606953414682]]]}},{"type":"Feature","id":"801543391","properties":{"name":"iSP_4KPH_%TR_CR1_PermissionBlocker_DO_NOT_DELETE_","oid":"801543391","speedLimit":1.1111112},"geometry":{"type":"Polygon","coordinates":[[[-121.033154308241,50.4645231879992],[-121.033153462864,50.4644737570022],[-121.033175019974,50.4644316957175],[-121.033106967138,50.4644592872013],[-121.033154308241,50.4645231879992]]]}},{"type":"Feature","id":"806473874","properties":{"name":"iSP_4KPH_%TR_Permission Blocker - DO NOT DELETE","oid":"806473874","speedLimit":1.1111112},"geometry":{"type":"Polygon","coordinates":[[[-121.02271784933,50.4815449764926],[-121.022684738737,50.4815426397545],[-121.022677130346,50.4815713097328],[-121.02269925104,50.4815723882272],[-121.022703337028,50.4815483018505],[-121.02271784933,50.4815449764926]]]}},{"type":"Feature","id":"824566967","properties":{"name":"iSP_4Cr_3KPH","oid":"824566967","speedLimit":0.8333333},"geometry":{"type":"Polygon","coordinates":[[[-121.023300736663,50.4810681021836],[-121.023280588515,50.4810681021836],[-121.023277911488,50.4811861973291],[-121.023302991001,50.4811854783328],[-121.023300736663,50.4810681021836]]]}},{"type":"Feature","id":"826307302","properties":{"name":"iSP_4KPH_TR%_CRUSHER POCKETS","oid":"826307302","speedLimit":1.1111112},"geometry":{"type":"Polygon","coordinates":[[[-121.023295946194,50.4813212787626],[-121.023335397113,50.4814769414658],[-121.023540119205,50.4814374865428],[-121.023459103925,50.4811886239417],[-121.02305078691,50.481189342938],[-121.023056140963,50.4813600146894],[-121.023281011203,50.4813260421132],[-121.023295946194,50.4813212787626]]]}},{"type":"Feature","id":"849417440","properties":{"name":"iSP_Permissions_35_KPH_June_19_NS","oid":"849417440","speedLimit":9.722222},"geometry":{"type":"Polygon","coordinates":[[[-121.032694282343,50.4660339790157],[-121.033008903424,50.4660146559896],[-121.033215879854,50.4658137863928],[-121.033804684825,50.4653793328667],[-121.033725501194,50.465250542651],[-121.033961643125,50.4654000040109],[-121.033425392415,50.4658083040459],[-121.033022993038,50.4661878442281],[-121.032694282343,50.4660339790157]]]}},{"type":"Feature","id":"853029148","properties":{"name":"SP_30KPH_%TR_1635 Flats_AUG_5_DS","oid":"853029148","speedLimit":8.333333},"geometry":{"type":"Polygon","coordinates":[[[-121.018588183455,50.4569707607837],[-121.017406910214,50.4572895457769],[-121.016428386519,50.458457375549],[-121.018347251055,50.4588929075696],[-121.020690494766,50.4589870062129],[-121.02023878174,50.4572315766987],[-121.019421020541,50.4570964053906],[-121.018966771385,50.4569997902601],[-121.018588183455,50.4569707607837]]]}},{"type":"Feature","id":"883050998","properties":{"name":"iSP_22kph_%TR_4CR_Brake_Temp_CTRL_NOREMOVE","oid":"883050998","speedLimit":6.111111},"geometry":{"type":"Polygon","coordinates":[[[-121.031797901097,50.4745588487533],[-121.032187197133,50.4743122330157],[-121.03248885577,50.4745745767978],[-121.032790514406,50.4748019593839],[-121.032968325336,50.474884374337],[-121.033177133416,50.4749345243303],[-121.033461039139,50.4749593297034],[-121.033664915854,50.4749217621457],[-121.033826101038,50.4748623550748],[-121.033917260841,50.4748103177161],[-121.034006588994,50.4747471359145],[-121.034057029812,50.4746579803709],[-121.034051253071,50.4745477941849],[-121.034055057266,50.4744834440143],[-121.033992922069,50.4743794591716],[-121.033874569311,50.4742593867862],[-121.033507675761,50.4739374561841],[-121.033059344242,50.4735598033673],[-121.032946063745,50.473425261181],[-121.032821088869,50.4732207067281],[-121.032604249709,50.4728147434311],[-121.032250741293,50.4722088092828],[-121.032485756055,50.4721559630533],[-121.032428693118,50.4722054839248],[-121.032901258773,50.4730486868586],[-121.03304046416,50.473309412899],[-121.033248285967,50.473546771559],[-121.033741281562,50.4739614526863],[-121.034096339836,50.4742709806019],[-121.034201730149,50.4743942884707],[-121.034254425305,50.4744615146266],[-121.034261470112,50.4745926415804],[-121.034236531495,50.4746786515151],[-121.034182004689,50.4747914440627],[-121.03408450456,50.4748756565067],[-121.033971646751,50.4749374901901],[-121.033789045353,50.4750159506635],[-121.033529514663,50.4750642132915],[-121.033261530204,50.4750678981476],[-121.033069911453,50.4750261064865],[-121.032806153878,50.4749163696733],[-121.032655395008,50.4748349433401],[-121.032493787135,50.4747051645044],[-121.032143237538,50.4744128925005],[-121.031797901097,50.4745588487533]]]}},{"type":"Feature","id":"883053336","properties":{"name":"iSP_22kph_%TR_Brake_Temp_CTRL_NOREMOVE","oid":"883053336","speedLimit":6.111111},"geometry":{"type":"Polygon","coordinates":[[[-121.032464480738,50.472145088234],[-121.032249614124,50.4722253461981],[-121.031486943316,50.4710081753036],[-121.030815009622,50.4699232098574],[-121.030659742075,50.4696600572044],[-121.030594929851,50.4694575698659],[-121.030548575021,50.4692566103946],[-121.030594929851,50.4689727865974],[-121.030721172793,50.468624163257],[-121.030882921562,50.4683753905304],[-121.031087361861,50.468097678202],[-121.031686734043,50.4675364117],[-121.032430665664,50.4668935391157],[-121.032786992003,50.4665560602182],[-121.033146136265,50.4662222661769],[-121.033483018936,50.465870587102],[-121.033778055454,50.4660339790157],[-121.033586014015,50.4659931759745],[-121.032917884517,50.4666519563524],[-121.03255310441,50.4669911428661],[-121.032177052611,50.4673075911213],[-121.031772821584,50.4676682576501],[-121.031380425833,50.4680343166513],[-121.031145551967,50.4682862349868],[-121.031007191958,50.4684697587974],[-121.030903492398,50.4686543611024],[-121.030826985794,50.4688528939611],[-121.030766118661,50.4691911817295],[-121.030774854222,50.469400499533],[-121.030872072559,50.4696302188572],[-121.03102607204,50.4699349834221],[-121.031328998742,50.4704036791479],[-121.031529071262,50.4707108703255],[-121.031748728344,50.4710827711718],[-121.032144505603,50.4717286994904],[-121.032379802157,50.4721449983594],[-121.032464480738,50.472145088234]]]}},{"type":"Feature","id":"883059532","properties":{"name":"iSP_22kph_%TR_Brake_CTRL_NOREMOVE","oid":"883059532","speedLimit":6.111111},"geometry":{"type":"Polygon","coordinates":[[[-121.027260481792,50.477321861735],[-121.027028284953,50.4772096983091],[-121.027332761512,50.4769439392945],[-121.027714730949,50.4766323442645],[-121.028031465473,50.4763226365998],[-121.028188705565,50.4761686815129],[-121.028619565963,50.4756922565766],[-121.028905585128,50.4753256583282],[-121.029262193259,50.4748875199459],[-121.029471001339,50.4746566322528],[-121.029689813045,50.4745403345981],[-121.029799852931,50.4744881174904],[-121.029950611801,50.4745925517058],[-121.029787031382,50.4745419523398],[-121.029554411854,50.4747914440627],[-121.029250217087,50.4751729614848],[-121.029071278989,50.4754779057989],[-121.02885148101,50.4757746715298],[-121.028694381813,50.4759746423811],[-121.028407235479,50.4762705093666],[-121.028039919241,50.4765698814592],[-121.027242165294,50.4772193148849],[-121.027260481792,50.477321861735]]]}},{"type":"Feature","id":"884401102","properties":{"name":"SP_25KPH_MAIN INT. DUST_AUG_ 5_DS","oid":"884401102","speedLimit":6.9444447},"geometry":{"type":"Polygon","coordinates":[[[-121.036556104654,50.4607682297201],[-121.036677979816,50.461040190078],[-121.038293776754,50.4609920173246],[-121.038277432802,50.460397856741],[-121.038118924644,50.4605657423816],[-121.036686715377,50.460737582502],[-121.03655370942,50.4606121176442],[-121.036556104654,50.4607682297201]]]}},{"type":"Feature","id":"908328496","properties":{"name":"SP_12KPH_%TR_9019_SOFT_GROUND_AUG_5_DS","oid":"908328496","speedLimit":3.3333333},"geometry":{"type":"Polygon","coordinates":[[[-121.03899882104,50.4644888559249],[-121.0393032976,50.4646768734625],[-121.039202838652,50.4648765746902],[-121.039034326868,50.4652632149611],[-121.038612906512,50.4661234940575],[-121.037777955984,50.4664870365716],[-121.036667130813,50.4659689997233],[-121.037880246582,50.4651398172177],[-121.038519351475,50.464814291634],[-121.03899882104,50.4644888559249]]]}},{"type":"Feature","id":"910445950","properties":{"name":"SP_30KPH_%TR_1635_FLATS_AUG_5_DS","oid":"910445950","speedLimit":8.333333},"geometry":{"type":"Polygon","coordinates":[[[-121.020223564957,50.4571639910446],[-121.019042432612,50.456961144208],[-121.018648768796,50.4569224981558],[-121.017452419668,50.4572315766987],[-121.018088424845,50.4544689232152],[-121.01876979858,50.4538990287574],[-121.018936478714,50.4535126581102],[-121.019557267109,50.4545172757177],[-121.020223564957,50.4571446680185],[-121.02020848907,50.4571446680185],[-121.020223564957,50.4571639910446]]]}},{"type":"Feature","id":"913788494","properties":{"name":"SP_15KPH_%TR_ROUGH GROUND_21SH_AUG_5_DS","oid":"913788494","speedLimit":4.1666665},"geometry":{"type":"Polygon","coordinates":[[[-121.040489079517,50.4520529158323],[-121.041019271694,50.4519642096614],[-121.041190037816,50.4542735359654],[-121.040544874389,50.4542437874926],[-121.04057657602,50.4525618753521],[-121.040489079517,50.4520529158323]]]}},{"type":"Feature","id":"915576987","properties":{"name":"iSP_15kph_prevent shifting","oid":"915576987","speedLimit":4.1666665},"geometry":{"type":"Polygon","coordinates":[[[-121.036996827782,50.4448632222601],[-121.037510957798,50.4453131342071],[-121.037980282842,50.4457955807375],[-121.03852428284,50.4462188898207],[-121.039457015289,50.4468499888402],[-121.039914364161,50.4470997501867],[-121.040470340331,50.4471951070736],[-121.041223571097,50.4473228187949],[-121.041642032634,50.4475096679634],[-121.042320588446,50.4480951107166],[-121.042703262363,50.4485278566265],[-121.042846694634,50.4487948738847],[-121.043008161611,50.4493916408299],[-121.043187381502,50.4501981749514],[-121.043324896135,50.4505013217747],[-121.043686576527,50.4511687301083],[-121.043857060857,50.4514890429687],[-121.044126031589,50.45225360568],[-121.044383167045,50.4529381800508],[-121.04469694275,50.453798099649],[-121.044735830085,50.4541947159938],[-121.044571404289,50.4550718016292],[-121.044215782431,50.4568392743318],[-121.044051356635,50.4572073105729],[-121.043005061896,50.458398957098],[-121.041905085728,50.459537308021],[-121.04134319192,50.4600006112744],[-121.040371713032,50.4605974680942],[-121.039923240617,50.4607309317861],[-121.039134081335,50.4608071453959],[-121.038942885273,50.4608052580306],[-121.038999666417,50.461293366657],[-121.039059406381,50.4609273076558],[-121.039878435645,50.4608796741497],[-121.040706482262,50.4606318001685],[-121.041510576535,50.4600578613564],[-121.042873605797,50.4587002165559],[-121.044242552697,50.457142421155],[-121.044427972018,50.4562901408927],[-121.044813604754,50.4544215593326],[-121.044810505039,50.4537865957079],[-121.044260587403,50.4523013290607],[-121.043833108513,50.4511858961455],[-121.04334588966,50.4503373906138],[-121.043050007765,50.4493096752495],[-121.042927428123,50.4486918776619],[-121.042239854958,50.4478872309058],[-121.041546364155,50.4473914829434],[-121.041091974102,50.447221799812],[-121.040458364159,50.4471303075303],[-121.03991732298,50.4470196719716],[-121.038820305631,50.44633330011],[-121.038195572144,50.4458717943474],[-121.037152377121,50.4449069911611],[-121.03737654288,50.4446973138594],[-121.036996827782,50.4448632222601]]]}},{"type":"Feature","id":"916679368","properties":{"name":"sp_15kph_rough ground _AUG 5 _DS","oid":"916679368","speedLimit":4.1666665},"geometry":{"type":"Polygon","coordinates":[[[-121.039127600113,50.4663618413374],[-121.039184381257,50.4665308054725],[-121.038711252018,50.4665839213256],[-121.038673491852,50.4664198104157],[-121.039127600113,50.4663618413374]]]}}]}