{"type":"FeatureCollection","features":[{"type":"Feature","id":"702602533","properties":{"name":"iSP_4KPH_%TR_CR01_SLOW BUMP","oid":"702602533","speedLimit":1.1111112},"geometry":{"type":"Polygon","coordinates":[[[-121.033347197159,50.4648095105439],[-121.033642031273,50.4646924972208],[-121.033685438972,50.4647332092296],[-121.033357485347,50.4648713424689],[-121.033347197159,50.4648095105439]]]}},{"type":"Feature","id":"707947583","properties":{"name":"iSP_22KPH_%TR_Permission Gate 1 from west dump_Jun","oid":"707947583","speedLimit":6.111111},"geometry":{"type":"Polygon","coordinates":[[[-121.038618413956,50.461979711386],[-121.038845176906,50.4618012256259],[-121.037970680883,50.4613527644261],[-121.037733488811,50.4615440120079],[-121.037949681704,50.4614982671681],[-121.038656888963,50.4618477793136],[-121.038618413956,50.461979711386]]]}},{"type":"Feature","id":"742345972","properties":{"name":"iSP_4KPH_%TR_CR01_PITSIDE_SLOW BUMP","oid":"742345972","speedLimit":1.1111112},"geometry":{"type":"Polygon","coordinates":[[[-121.033387081506,50.4648844637785],[-121.033694458754,50.4647459710513],[-121.03374463129,50.4647780553495],[-121.03346304498,50.4649199632122],[-121.033387081506,50.4648844637785]]]}},{"type":"Feature","id":"776427243","properties":{"name":"iSP_7KPH_%TR_CR1_PermissionBlocker_DO_NOT_DELETE","oid":"776427243","speedLimit":1.9444444},"geometry":{"type":"Polygon","coordinates":[[[-121.034088510467,50.4652144737035],[-121.03404002914,50.4652347847719],[-121.034018889027,50.4652762157565],[-121.034104576953,50.4652271456532],[-121.034088510467,50.4652144737035]]]}},{"type":"Feature","id":"794004438","properties":{"name":"iSP_11KPH_%TR_LOWER_FUEL_BAY","oid":"794004438","speedLimit":3.0555556},"geometry":{"type":"Polygon","coordinates":[[[-121.036766117224,50.4606972381753],[-121.036768231236,50.460727075674],[-121.036738494143,50.4606726132517],[-121.037114788161,50.4606008954085],[-121.03752490636,50.4605578467282],[-121.037532657734,50.4605831906277],[-121.036933969724,50.4606520325674],[-121.036766117224,50.4606972381753]]]}},{"type":"Feature","id":"801543391","properties":{"name":"iSP_4KPH_%TR_CR1_PermissionBlocker_DO_NOT_DELETE_","oid":"801543391","speedLimit":1.1111112},"geometry":{"type":"Polygon","coordinates":[[[-121.033143688334,50.4645249758428],[-121.033142842729,50.4644755462516],[-121.033164405645,50.4644334861632],[-121.03309633448,50.4644610768622],[-121.033143688334,50.4645249758428]]]}},{"type":"Feature","id":"806473874","properties":{"name":"iSP_4KPH_%TR_Permission Blocker - DO NOT DELETE","oid":"806473874","speedLimit":1.1111112},"geometry":{"type":"Polygon","coordinates":[[[-121.022704418491,50.481546280239],[-121.022671298981,50.4815439435674],[-121.02266368854,50.4815726127303],[-121.022685815192,50.4815736911941],[-121.02268990228,50.4815496055024],[-121.022704418491,50.481546280239]]]}},{"type":"Feature","id":"824566967","properties":{"name":"iSP_4Cr_3KPH","oid":"824566967","speedLimit":0.8333333},"geometry":{"type":"Polygon","coordinates":[[[-121.023287462818,50.4810694194922],[-121.023267309243,50.4810694194922],[-121.023264631495,50.4811875112791],[-121.023289717763,50.4811867923033],[-121.023287462818,50.4810694194922]]]}},{"type":"Feature","id":"826307302","properties":{"name":"iSP_4KPH_TR%_CRUSHER POCKETS","oid":"826307302","speedLimit":1.1111112},"geometry":{"type":"Polygon","coordinates":[[[-121.023282671059,50.481322588871],[-121.023322132604,50.4814782471471],[-121.023526909835,50.4814387933462],[-121.023445872734,50.4811899378227],[-121.023037445744,50.4811906567986],[-121.023042801239,50.481361323696],[-121.023267732045,50.4813273520861],[-121.023282671059,50.481322588871]]]}},{"type":"Feature","id":"849417440","properties":{"name":"iSP_Permissions_35_KPH_June_19_NS","oid":"849417440","speedLimit":9.722222},"geometry":{"type":"Polygon","coordinates":[[[-121.032683538533,50.4660357238926],[-121.032998244354,50.4660164014161],[-121.033205276531,50.465815537532],[-121.033794240089,50.4653810963617],[-121.033715035131,50.4652523098087],[-121.033951240664,50.465401766918],[-121.033414845521,50.465810055341],[-121.033012337763,50.4661895847291],[-121.032683538533,50.4660357238926]]]}},{"type":"Feature","id":"853029148","properties":{"name":"SP_30KPH_%TR_1635 Flats_July_30_NS","oid":"853029148","speedLimit":8.333333},"geometry":{"type":"Polygon","coordinates":[[[-121.018573640342,50.4569727634173],[-121.01739204894,50.4572915393443],[-121.016413261691,50.4584593359035],[-121.01833264305,50.4588948555376],[-121.020676517884,50.4589889515048],[-121.020224683195,50.4572335719147],[-121.019406701742,50.4570984044509],[-121.018952330239,50.4570017920681],[-121.018573640342,50.4569727634173]]]}},{"type":"Feature","id":"883050998","properties":{"name":"iSP_22kph_%TR_4CR_Brake_Temp_CTRL_NOREMOVE","oid":"883050998","speedLimit":6.111111},"geometry":{"type":"Polygon","coordinates":[[[-121.031786915859,50.4745603511842],[-121.032176316747,50.4743137424603],[-121.032478056631,50.4745760787814],[-121.032779796516,50.4748034549008],[-121.032957655336,50.47488586751],[-121.033166519656,50.474936016077],[-121.033450501846,50.4749608207446],[-121.033654433473,50.4749232542553],[-121.03381566207,50.474863848874],[-121.033906846426,50.4748118129953],[-121.033996198638,50.4747486329906],[-121.034046653042,50.4746594799825],[-121.034040874745,50.4745492969302],[-121.034044679965,50.4744849485897],[-121.033982528032,50.4743809667043],[-121.033864143397,50.4742608977338],[-121.033497151029,50.4739389762873],[-121.033048698758,50.4735613342109],[-121.03293538775,50.4734267958509],[-121.032810379213,50.4732222472155],[-121.03259348165,50.4728162954641],[-121.032239878021,50.4722103785485],[-121.032474956082,50.4721575338219],[-121.032417877775,50.4722070532851],[-121.03289057071,50.4730502322383],[-121.03302981359,50.4733109508636],[-121.033237691371,50.4735483027732],[-121.033730819749,50.473962972107],[-121.034085973653,50.4742724912197],[-121.034191392352,50.4743957955816],[-121.034244101701,50.4744630198256],[-121.034251148406,50.4745941430502],[-121.034226203072,50.4746801505388],[-121.034171661579,50.4747929398786],[-121.03407413519,50.4748771499276],[-121.033961246984,50.4749389818525],[-121.033778596405,50.4750174400945],[-121.033518995813,50.4750657013499],[-121.033250939176,50.4750693861012],[-121.033059268815,50.4750275956287],[-121.0327954402,50.4749178619363],[-121.032644640725,50.4748364379188],[-121.032482989325,50.4747066627741],[-121.032132345311,50.4744143990823],[-121.031786915859,50.4745603511842]]]}},{"type":"Feature","id":"883053336","properties":{"name":"iSP_22kph_%TR_Brake_Temp_CTRL_NOREMOVE","oid":"883053336","speedLimit":6.111111},"geometry":{"type":"Polygon","coordinates":[[[-121.032453675034,50.4721466593119],[-121.032238750548,50.4722269149935],[-121.031475874324,50.4710097787152],[-121.030803759654,50.4699248441252],[-121.030648450288,50.4696616989562],[-121.030583620607,50.4694592173764],[-121.030537253291,50.4692582636204],[-121.030583620607,50.4689744478951],[-121.030709897551,50.4686258344695],[-121.030871689885,50.468377068818],[-121.031076185248,50.4680993643876],[-121.031675718863,50.467538113848],[-121.032419850853,50.4668952595469],[-121.032776273164,50.4665577902473],[-121.033135514157,50.466224005699],[-121.033472487564,50.4658723366259],[-121.033767603546,50.4660357238926],[-121.033575510383,50.4659949220119],[-121.032907200933,50.4666536836541],[-121.032542322576,50.4669928605215],[-121.032166169492,50.4673092997769],[-121.031761829591,50.4676699560484],[-121.031369328153,50.4680360046389],[-121.031134391027,50.4682879158099],[-121.030995993751,50.4684714344011],[-121.030892266262,50.4686560314561],[-121.030815739051,50.4688545586686],[-121.030754855525,50.4691928368161],[-121.030763593438,50.4694021486666],[-121.03086083796,50.4696318614576],[-121.031014878919,50.4699366173551],[-121.031317887211,50.4704052997512],[-121.031518013617,50.4707124821923],[-121.031737729862,50.4710843724618],[-121.032133613718,50.4717302824103],[-121.032368973647,50.4721465694399],[-121.032453675034,50.4721466593119]]]}},{"type":"Feature","id":"883059532","properties":{"name":"iSP_22kph_%TR_Brake_CTRL_NOREMOVE","oid":"883059532","speedLimit":6.111111},"geometry":{"type":"Polygon","coordinates":[[[-121.027248274456,50.4773232855861],[-121.027016015077,50.4772111253502],[-121.027320573644,50.4769453738937],[-121.027702645959,50.4766337877254],[-121.028019465791,50.4763240888688],[-121.028176748234,50.4761701381604],[-121.028607724679,50.4756937267736],[-121.028893820879,50.4753271389511],[-121.029250525059,50.4748890130295],[-121.029459389379,50.4746581319027],[-121.029678260019,50.4745418375555],[-121.029788329542,50.4744896219329],[-121.029939129018,50.4745940531782],[-121.02977550454,50.4745434552512],[-121.029542822359,50.4747929398786],[-121.029238545661,50.4751744464504],[-121.029059559368,50.4754793820919],[-121.028839702189,50.4757761393828],[-121.02868256068,50.475976104547],[-121.028395337006,50.4762719631181],[-121.028027921836,50.4765713266966],[-121.027229953024,50.4772207416525],[-121.027248274456,50.4773232855861]]]}},{"type":"Feature","id":"886231481","properties":{"name":"SP_15KPH_%TR_1200_SWITCHBACK_July_30_NS","oid":"886231481","speedLimit":4.1666665},"geometry":{"type":"Polygon","coordinates":[[[-121.036898454334,50.4452298203812],[-121.036957505717,50.4446828594871],[-121.036272847913,50.4447481065474],[-121.036028891005,50.4452775424047],[-121.036512858666,50.4453477324242],[-121.036607284506,50.4451043590917],[-121.036761325465,50.4451335674865],[-121.036898454334,50.4452298203812]]]}},{"type":"Feature","id":"908328496","properties":{"name":"SP_12KPH_%TR_9019_SOFT_GROUND_July 30_NS","oid":"908328496","speedLimit":3.3333333},"geometry":{"type":"Polygon","coordinates":[[[-121.038989775281,50.4644906447449],[-121.039314487422,50.4647042704507],[-121.039493614649,50.4648799701793],[-121.039381572048,50.465217169863],[-121.039341828635,50.4661499511842],[-121.038094702882,50.4665996705918],[-121.038018316605,50.4662280499382],[-121.037870899548,50.4651415875245],[-121.038510176576,50.4648160711988],[-121.038989775281,50.4644906447449]]]}},{"type":"Feature","id":"908575258","properties":{"name":"iSP_15km_permissions ","oid":"908575258","speedLimit":4.1666665},"geometry":{"type":"Polygon","coordinates":[[[-121.04186046174,50.4595522691],[-121.041450202607,50.4599148126832],[-121.041074472326,50.4602078852228],[-121.040679011272,50.4604254652959],[-121.040337809843,50.4605862462751],[-121.039947281482,50.460715482188],[-121.039507285256,50.4607816279682],[-121.03916622476,50.4607974454374],[-121.039111824202,50.461213552723],[-121.039245288784,50.460939263428],[-121.039794086127,50.4608478636204],[-121.040263678512,50.4607060456297],[-121.040931142357,50.4603939202295],[-121.041534199324,50.4599873393742],[-121.041934734005,50.459653105466],[-121.042082996667,50.459530160592],[-121.041934734005,50.4594923244868],[-121.04186046174,50.4595522691]]]}},{"type":"Feature","id":"910445950","properties":{"name":"SP_30KPH_%TR_1635_FLATS_JULY30_NS","oid":"910445950","speedLimit":8.333333},"geometry":{"type":"Polygon","coordinates":[[[-121.020209462313,50.4571659881828],[-121.019028011845,50.456963147115],[-121.018634242,50.456924502162],[-121.01743757065,50.4572335719147],[-121.018073747128,50.4544709970007],[-121.018755304383,50.4539011187506],[-121.01892202941,50.4535147590917],[-121.019542985006,50.454519348128],[-121.020209462313,50.4571466657062],[-121.020194382366,50.4571466657062],[-121.020209462313,50.4571659881828]]]}},{"type":"Feature","id":"914870727","properties":{"name":"SP_25KPH_%TR_July31_NS","oid":"914870727","speedLimit":6.9444447},"geometry":{"type":"Polygon","coordinates":[[[-121.043137606455,50.4510936078447],[-121.043440191944,50.4510644893219],[-121.043759971392,50.4516580937757],[-121.043343088357,50.4517454493441],[-121.043120412496,50.4511482500109],[-121.043137606455,50.4510936078447]]]}}]}