{"type":"FeatureCollection","features":[{"type":"Feature","id":"702602533","properties":{"name":"iSP_4KPH_%TR_CR01_SLOW BUMP","oid":"702602533","speedLimit":1.1111112},"geometry":{"type":"Polygon","coordinates":[[[-121.033359886248,50.464807574633],[-121.033654621126,50.46469055767],[-121.033698014215,50.4647312709452],[-121.033370170973,50.4648694084813],[-121.033359886248,50.464807574633]]]}},{"type":"Feature","id":"707947583","properties":{"name":"iSP_25KPH_%TR_Permission Gate 1 from west dump_Jun","oid":"707947583","speedLimit":6.9444447},"geometry":{"type":"Polygon","coordinates":[[[-121.038629328843,50.4619776874508],[-121.038856015467,50.4617991961387],[-121.038141015703,50.4614079712235],[-121.037993366491,50.461670675204],[-121.038192861992,50.4615666002094],[-121.038667790899,50.4618457512745],[-121.038629328843,50.4619776874508]]]}},{"type":"Feature","id":"742345972","properties":{"name":"iSP_4KPH_%TR_CR01_PITSIDE_SLOW BUMP","oid":"742345972","speedLimit":1.1111112},"geometry":{"type":"Polygon","coordinates":[[[-121.03339975717,50.4648825301991],[-121.033707030961,50.4647440331639],[-121.033757186609,50.4647761184601],[-121.033475695076,50.464918030737],[-121.03339975717,50.4648825301991]]]}},{"type":"Feature","id":"776427243","properties":{"name":"iSP_7KPH_%TR_CR1_PermissionBlocker_DO_NOT_DELETE","oid":"776427243","speedLimit":1.9444444},"geometry":{"type":"Polygon","coordinates":[[[-121.034100950042,50.4652125503894],[-121.034052485034,50.4652328620896],[-121.034031352036,50.4652742943629],[-121.034117011121,50.4652252227333],[-121.034100950042,50.4652125503894]]]}},{"type":"Feature","id":"794004438","properties":{"name":"iSP_11KPH_%TR_LOWER_FUEL_BAY","oid":"794004438","speedLimit":3.0555556},"geometry":{"type":"Polygon","coordinates":[[[-121.036777655562,50.4606951743473],[-121.036779768862,50.4607250127741],[-121.036750041778,50.4606705486577],[-121.037126209142,50.4605988285837],[-121.037536189302,50.4605557785643],[-121.037543938068,50.4605811232521],[-121.036945451566,50.4606499673332],[-121.036777655562,50.4606951743473]]]}},{"type":"Feature","id":"801543391","properties":{"name":"iSP_4KPH_%TR_CR1_PermissionBlocker_DO_NOT_DELETE_","oid":"801543391","speedLimit":1.1111112},"geometry":{"type":"Polygon","coordinates":[[[-121.033156445921,50.4645230310811],[-121.033155600601,50.4644735999523],[-121.033177156259,50.4644315385555],[-121.033109108005,50.4644591301128],[-121.033156445921,50.4645230310811]]]}},{"type":"Feature","id":"806473874","properties":{"name":"iSP_4KPH_%TR_Permission Blocker - DO NOT DELETE","oid":"806473874","speedLimit":1.1111112},"geometry":{"type":"Polygon","coordinates":[[[-121.02272068976,50.4815448649448],[-121.022687581397,50.4815425282005],[-121.022679973518,50.4815711982551],[-121.022702092722,50.4815722767525],[-121.022706178435,50.4815481903116],[-121.02272068976,50.4815448649448]]]}},{"type":"Feature","id":"824566967","properties":{"name":"iSP_4Cr_3KPH","oid":"824566967","speedLimit":0.8333333},"geometry":{"type":"Polygon","coordinates":[[[-121.023303537844,50.4810679893647],[-121.023283391052,50.4810679893647],[-121.023280714206,50.481186084825],[-121.02330579203,50.4811853658267],[-121.023303537844,50.4810679893647]]]}},{"type":"Feature","id":"826307302","properties":{"name":"iSP_4KPH_TR%_CRUSHER POCKETS","oid":"826307302","speedLimit":1.1111112},"geometry":{"type":"Polygon","coordinates":[[[-121.023298747698,50.4813211666186],[-121.023338195961,50.4814768297367],[-121.023542904267,50.4814373747085],[-121.023461894442,50.481188511444],[-121.023053604921,50.4811892304423],[-121.023058958614,50.4813599026485],[-121.023283813712,50.4813259299819],[-121.023298747698,50.4813211666186]]]}},{"type":"Feature","id":"835348611","properties":{"name":"SP_35KPH_%TR_switchback to 1 gate_SEP_6_NS","oid":"835348611","speedLimit":9.722222},"geometry":{"type":"Polygon","coordinates":[[[-121.039921118564,50.4634031014537],[-121.039548896027,50.4634575655701],[-121.039802069342,50.4633738921504],[-121.03954579652,50.4629224511329],[-121.039365884264,50.4625820054682],[-121.039179772996,50.462260882881],[-121.038987603601,50.4620176817277],[-121.038746687425,50.4618366739218],[-121.038563675662,50.4617297229342],[-121.038077475823,50.4614744785604],[-121.03804014086,50.461516629832],[-121.037959553694,50.4615570734827],[-121.038034364507,50.461373549183],[-121.03814580585,50.4613853227791],[-121.038484356477,50.4615701053258],[-121.038868131719,50.4617904782851],[-121.039055651855,50.4619259195778],[-121.03924021337,50.4621302049516],[-121.039454361083,50.4625352705828],[-121.03958242705,50.4627532169231],[-121.039759380686,50.4630606785438],[-121.039863073263,50.4632591220569],[-121.039945069295,50.4633235622738],[-121.039921118564,50.4634031014537]]]}},{"type":"Feature","id":"859384545","properties":{"name":"SP_30KPH_MAINT_CREW_L1590_ROUGH_SEP_6_NS","oid":"859384545","speedLimit":8.333333},"geometry":{"type":"Polygon","coordinates":[[[-121.013973882796,50.4518290273495],[-121.013917950795,50.4511527196337],[-121.013838490723,50.4497613681723],[-121.012656874364,50.4498954613433],[-121.013142651544,50.4500384521175],[-121.013402023872,50.4517964926793],[-121.013225492896,50.4523051839313],[-121.012545714795,50.4524636331675],[-121.01376156661,50.4524427822187],[-121.013973882796,50.4518290273495]]]}},{"type":"Feature","id":"875953603","properties":{"name":"SP_35_KPH_%TR_CR01_YARD_LOADED_Sept_06_NS","oid":"875953603","speedLimit":9.722222},"geometry":{"type":"Polygon","coordinates":[[[-121.03811171128,50.4622573777646],[-121.038365589028,50.4628956684486],[-121.038316560473,50.4633429752262],[-121.03810241276,50.4637137086916],[-121.03762635676,50.4639747050513],[-121.037929122177,50.4642046946121],[-121.037829797087,50.4640209905628],[-121.03827584423,50.4637266506599],[-121.038557194876,50.463164124415],[-121.038356713169,50.4621657953643],[-121.03811171128,50.4622573777646]]]}},{"type":"Feature","id":"878230085","properties":{"name":"SP_35KPH_TR%_PUNCH_OUT_L1590_DMP_Sep 6_NS","oid":"878230085","speedLimit":9.722222},"geometry":{"type":"Polygon","coordinates":[[[-121.013763539023,50.453397252377],[-121.01362603365,50.4529074348287],[-121.013786362661,50.4525126149224],[-121.013098976681,50.4524614761728],[-121.013066572751,50.4528626771885],[-121.013206050538,50.4533671443259],[-121.013611381438,50.454581712096],[-121.013330030792,50.4549543329319],[-121.013045298866,50.4549497493181],[-121.013784390248,50.455188636482],[-121.014084478819,50.454698729059],[-121.013992761608,50.4541357534402],[-121.013763539023,50.453397252377]]]}},{"type":"Feature","id":"883050998","properties":{"name":"iSP_22kph_%TR_4CR_Brake_Temp_CTRL_NOREMOVE","oid":"883050998","speedLimit":6.111111},"geometry":{"type":"Polygon","coordinates":[[[-121.031800130112,50.4745587185845],[-121.032189399935,50.4743121021896],[-121.032491038259,50.474574446671],[-121.032792676583,50.4748018298631],[-121.032970475539,50.4748842450359],[-121.033179269558,50.4749343951629],[-121.033463156164,50.474959200602],[-121.033667019151,50.4749216329442],[-121.033828193482,50.4748622257149],[-121.033919347147,50.4748101882176],[-121.034008669285,50.4747470062476],[-121.034059106706,50.4746578504663],[-121.034053330354,50.4745476639867],[-121.034057134293,50.4744833136445],[-121.033995003279,50.4743793285247],[-121.033876658491,50.4742592558192],[-121.033509789646,50.4739373243591],[-121.033061488317,50.4735596705356],[-121.032948215448,50.4734251279907],[-121.032823248986,50.4732205729925],[-121.032606424427,50.4728146086135],[-121.032252939815,50.4722086728501],[-121.032487938752,50.4721558264798],[-121.032430879658,50.4722053474833],[-121.032903413492,50.4730485526646],[-121.033042609505,50.4733092793999],[-121.033250417318,50.4735466386926],[-121.033743379717,50.4739613209252],[-121.034098414083,50.4742708496658],[-121.034203797299,50.4743941578633],[-121.034256488907,50.4744613841983],[-121.03426353324,50.4745925115016],[-121.034238596302,50.4746785216656],[-121.034184073168,50.4747913145139],[-121.034086579604,50.4748755271823],[-121.033973729395,50.4749373610306],[-121.033791140292,50.4750158217131],[-121.033531627078,50.4750640844697],[-121.033263660664,50.4750677693356],[-121.033072054816,50.4750259775632],[-121.032808315001,50.4749162404574],[-121.032657566282,50.4748348139072],[-121.032495969291,50.4747050347256],[-121.032145443299,50.4744127619426],[-121.031800130112,50.4745587185845]]]}},{"type":"Feature","id":"883053336","properties":{"name":"iSP_22kph_%TR_Brake_Temp_CTRL_NOREMOVE","oid":"883053336","speedLimit":6.111111},"geometry":{"type":"Polygon","coordinates":[[[-121.032466664868,50.4721449516315],[-121.032251812722,50.4722252098096],[-121.031489193269,50.4710080356708],[-121.030817304821,50.4699230673326],[-121.03066204773,50.4696599139782],[-121.030597239869,50.4694574261],[-121.03055088816,50.4692564660931],[-121.030597239869,50.4689726415394],[-121.03072347431,50.4686240172697],[-121.030885212188,50.4683752438801],[-121.031089638721,50.4680975308114],[-121.031688970543,50.4675362628134],[-121.032432852071,50.4668933885156],[-121.032789154416,50.4665559087186],[-121.033148274495,50.4662221137875],[-121.033485134482,50.4658704337753],[-121.033780151133,50.4660338261245],[-121.033588122625,50.4659930229746],[-121.032920038117,50.4666518051083],[-121.032555282572,50.4669909925262],[-121.032179256096,50.4673074416248],[-121.031775052288,50.4676681091149],[-121.03138268296,50.4680341690918],[-121.031147824909,50.4682860880988],[-121.031009474216,50.4684696123985],[-121.030905781639,50.4686542151956],[-121.030829280187,50.4688527485835],[-121.030768417152,50.4691910372536],[-121.030777152125,50.469400355615],[-121.030874363916,50.4696300755515],[-121.031028353027,50.4699348409287],[-121.031331259331,50.4704035379038],[-121.031531318378,50.4707107299002],[-121.03175096067,50.4710826317378],[-121.032146711279,50.471728561778],[-121.032381991989,50.4721448617567],[-121.032466664868,50.4721449516315]]]}},{"type":"Feature","id":"883059532","properties":{"name":"iSP_22kph_%TR_Brake_CTRL_NOREMOVE","oid":"883059532","speedLimit":6.111111},"geometry":{"type":"Polygon","coordinates":[[[-121.027263016339,50.4773217389308],[-121.027030835135,50.4772095752059],[-121.027335291192,50.476943815483],[-121.027717234909,50.4766322196224],[-121.028033948105,50.4763225111323],[-121.028191177609,50.476168555635],[-121.028622008994,50.4756921294288],[-121.0289080089,50.4753255302032],[-121.029264593018,50.4748873906532],[-121.029473387038,50.4746565023446],[-121.02969218401,50.47454020438],[-121.029802216486,50.4744879871331],[-121.029952965205,50.4745924216268],[-121.029789395801,50.474541822126],[-121.029556791937,50.4747913145139],[-121.029252617653,50.4751728329529],[-121.029073691604,50.4754777780797],[-121.028853908425,50.4757745446016],[-121.028696819807,50.475974515986],[-121.028409692808,50.4762703837601],[-121.028042401304,50.4765697566507],[-121.027244701075,50.4772191918073],[-121.027263016339,50.4773217389308]]]}},{"type":"Feature","id":"884401102","properties":{"name":"SP_30KPH_MAIN INT_LIMIT_POLICY_SEPT_6_NS","oid":"884401102","speedLimit":8.333333},"geometry":{"type":"Polygon","coordinates":[[[-121.036993212142,50.4611010488515],[-121.037109302744,50.4611075198357],[-121.038295568362,50.4609918509944],[-121.03827922551,50.4603976888272],[-121.038120728025,50.4605655749153],[-121.037033646611,50.4607082061903],[-121.036745956066,50.4605375339841],[-121.036993212142,50.4611010488515]]]}},{"type":"Feature","id":"891249991","properties":{"name":"SP_25KPH_TR%_1590_rough section_ #1_SEPT 6_NS","oid":"891249991","speedLimit":6.9444447},"geometry":{"type":"Polygon","coordinates":[[[-121.012958090028,50.4498604101793],[-121.013848634562,50.4497485160788],[-121.013380045554,50.4450038467194],[-121.011853679555,50.4421435818617],[-121.007784027697,50.4388897553446],[-121.006732872379,50.4393238505296],[-121.010931294638,50.442766683708],[-121.011094018723,50.4430955355262],[-121.011457506287,50.4435196546107],[-121.011775487463,50.4445103443051],[-121.012958090028,50.4498604101793]]]}},{"type":"Feature","id":"901482363","properties":{"name":"SP_25KPH_1200-1185_%TRAC_RAMP_SEPT_6_NS","oid":"901482363","speedLimit":6.9444447},"geometry":{"type":"Polygon","coordinates":[[[-121.036667341313,50.4451088204618],[-121.036262151299,50.4451192459362],[-121.03906931786,50.4482663012153],[-121.039088196671,50.4482636049719],[-121.038804591839,50.4476149786882],[-121.038216671836,50.4469310316162],[-121.036577455629,50.4451793721637],[-121.036695095984,50.4451088204618],[-121.036667341313,50.4451088204618]]]}},{"type":"Feature","id":"903864124","properties":{"name":"SP_15KPH_%TR_OLD_GARBAGEDUMP_SEP_6_NS","oid":"903864124","speedLimit":4.1666665},"geometry":{"type":"Polygon","coordinates":[[[-121.042485819195,50.4669867684115],[-121.042132616356,50.4673284723232],[-121.042024133633,50.4669788594309],[-121.041686991872,50.4668095353464],[-121.041835486405,50.4667100439654],[-121.042485819195,50.4669867684115]]]}},{"type":"Feature","id":"908328496","properties":{"name":"SP_15KPH_%TR_1445_SOFT_GROUND_SEPT_6_NS","oid":"908328496","speedLimit":4.1666665},"geometry":{"type":"Polygon","coordinates":[[[-121.039332353241,50.4644965180211],[-121.039941406242,50.4647088022503],[-121.039189635062,50.4666744535528],[-121.038827415477,50.4674275143302],[-121.03845265698,50.4678939644358],[-121.037915737945,50.4682376455926],[-121.037180732277,50.468025541113],[-121.03831374274,50.466704921103],[-121.038794448,50.4655656683981],[-121.039332353241,50.4644965180211]]]}},{"type":"Feature","id":"910445950","properties":{"name":"SP_22KPH_%TR_1635_FLATS_SEP_6_NS","oid":"910445950","speedLimit":6.111111},"geometry":{"type":"Polygon","coordinates":[[[-121.018917736336,50.4576032123081],[-121.015249752326,50.4587002238667],[-121.014499108239,50.4578793975055],[-121.017481960456,50.456415517097],[-121.017774300261,50.4542395588105],[-121.018442102996,50.4540098388741],[-121.019220924414,50.453928771823],[-121.019246284011,50.4568505110298],[-121.019158934286,50.4570728612343],[-121.019196973683,50.4574048586698],[-121.018917736336,50.4576032123081]]]}},{"type":"Feature","id":"917773475","properties":{"name":"SP_15KPH_%TR_1200_CORNER_Sept_6_NS","oid":"917773475","speedLimit":4.1666665},"geometry":{"type":"Polygon","coordinates":[[[-121.037099581564,50.4446822747583],[-121.036925445661,50.4448618445677],[-121.036629865463,50.4448203224196],[-121.036415295091,50.4448696636736],[-121.036323718766,50.4449673575589],[-121.036255106966,50.445081858028],[-121.036242849828,50.4451446804988],[-121.036263982826,50.4452670000737],[-121.036316674434,50.4453512127421],[-121.036184804527,50.4453949817597],[-121.036089706036,50.4451940217528],[-121.036163671529,50.4449314076471],[-121.036260460659,50.4447911131163],[-121.036517297028,50.4447148094285],[-121.036714397455,50.4447114840616],[-121.036923755022,50.4447698127935],[-121.037094368758,50.4446833532556],[-121.037099581564,50.4446822747583]]]}},{"type":"Feature","id":"921770139","properties":{"name":"SP_30KPH_%TR_HIGHMONT_SEPT 6_NS","oid":"921770139","speedLimit":8.333333},"geometry":{"type":"Polygon","coordinates":[[[-121.002514444216,50.4281366873512],[-121.002137290645,50.4281568193018],[-121.001469628797,50.4282384256016],[-121.001505132233,50.4285896562399],[-121.00205585816,50.4286072716966],[-121.002474432406,50.4285800396385],[-121.002751133793,50.4285619748078],[-121.002514444216,50.4281366873512]]]}},{"type":"Feature","id":"922262468","properties":{"name":"SP_20kph_HMT_DUMP_SEP_6_NS","oid":"922262468","speedLimit":5.5555553},"geometry":{"type":"Polygon","coordinates":[[[-121.012502744366,50.4364261977637],[-121.012482879348,50.4374168874582],[-121.0147634116,50.4387146792742],[-121.01733318415,50.4379495752763],[-121.016524494762,50.4359054632913],[-121.014772428345,50.4353085150058],[-121.01300430085,50.4354271497148],[-121.012502744366,50.4364261977637]]]}},{"type":"Feature","id":"925542039","properties":{"name":"SP_12KPH_DRAINAGE DITCHSEPT_6_NS","oid":"925542039","speedLimit":3.3333333},"geometry":{"type":"Polygon","coordinates":[[[-121.018172586829,50.4555311492667],[-121.018489300025,50.4557204255523],[-121.01846929412,50.4558353753953],[-121.018125248913,50.4556368420074],[-121.018172586829,50.4555311492667]]]}},{"type":"Feature","id":"926367691","properties":{"name":"SP_20KPH_%TR_24SH_SEP_6_NS","oid":"926367691","speedLimit":5.5555553},"geometry":{"type":"Polygon","coordinates":[[[-121.03855494069,50.4504033437222],[-121.038074798976,50.4496785036256],[-121.037543374521,50.4498593316819],[-121.03824597626,50.4520112035275],[-121.038397570298,50.4531300546575],[-121.038777964262,50.4530966212396],[-121.038843476555,50.4508306982988],[-121.03855494069,50.4504033437222]]]}},{"type":"Feature","id":"927549571","properties":{"name":"SP_40_KPH_TR%_CRUSHER YARD EMPTY_SEPT_6_NS","oid":"927549571","speedLimit":11.111111},"geometry":{"type":"Polygon","coordinates":[[[-121.037755690707,50.4619279866977],[-121.037449262237,50.4612604867104],[-121.036779346202,50.4614643227103],[-121.037247794323,50.4615089904757],[-121.037920809865,50.4626181351295],[-121.037947860102,50.4632580435596],[-121.037501953845,50.4637411204994],[-121.03707830768,50.4639810861607],[-121.036452630054,50.4642042452382],[-121.036237073475,50.4641027766121],[-121.036399656672,50.4643260255644],[-121.036721300901,50.4642312975468],[-121.037431651406,50.4639639200778],[-121.037847689692,50.4637349191396],[-121.037980686692,50.463558674697],[-121.03821103637,50.463268469034],[-121.038184690566,50.4627769438649],[-121.038027179288,50.4623105836341],[-121.037755690707,50.4619279866977]]]}},{"type":"Feature","id":"929009157","properties":{"name":"iSP_22kph_Long_Single_Lane_Aug30","oid":"929009157","speedLimit":6.111111},"geometry":{"type":"Polygon","coordinates":[[[-121.00587036429,50.4378879211775],[-121.004811037546,50.4381068561404],[-121.005176497524,50.4381972701686],[-121.007936748829,50.443170221468],[-121.008525514152,50.4445346104956],[-121.008212604896,50.4465094290256],[-121.007834606006,50.4466799214823],[-121.008936057859,50.4466466678139],[-121.008825320949,50.4465926530714],[-121.0094053513,50.4448173565519],[-121.008766430329,50.4430681237184],[-121.008264732957,50.4415398929678],[-121.007261197328,50.4401559112383],[-121.006441518781,50.438983764364],[-121.005691297354,50.4380212054755],[-121.00587036429,50.4378879211775]]]}},{"type":"Feature","id":"930116666","properties":{"name":"SP_15KPH_9023 Rough_SEP_6_NS","oid":"930116666","speedLimit":4.1666665},"geometry":{"type":"Polygon","coordinates":[[[-121.043598401094,50.4685540048165],[-121.043298171636,50.4689176381743],[-121.042549640849,50.4684623325414],[-121.042345073429,50.4680403704516],[-121.043036967781,50.4679070861536],[-121.043598401094,50.4685540048165]]]}},{"type":"Feature","id":"930976872","properties":{"name":"SP_13KPH_%TR_21SH_SEP_6_NS","oid":"930976872","speedLimit":3.6111112},"geometry":{"type":"Polygon","coordinates":[[[-121.036323296107,50.44724739084],[-121.036212981857,50.4473471518453],[-121.036121546419,50.4473522747077],[-121.036018980936,50.447317942542],[-121.035311448165,50.4469665321541],[-121.035516015585,50.4467736608773],[-121.036323296107,50.44724739084]]]}},{"type":"Feature","id":"932114358","properties":{"name":"SP_35KPH_%TR_23SH_LOADED_LANES_SEP_6_NS","oid":"932114358","speedLimit":9.722222},"geometry":{"type":"Polygon","coordinates":[[[-121.042099226219,50.4671394656619],[-121.041266445213,50.466731434163],[-121.040735302532,50.4664965913641],[-121.040512138073,50.4663964708598],[-121.040355190342,50.4663118088175],[-121.040361248468,50.4660654620469],[-121.040451697699,50.4657766943803],[-121.040518055313,50.4655111144069],[-121.040445639573,50.465129955467],[-121.04023445048,50.4644139230987],[-121.039984235784,50.4634785063937],[-121.039865186563,50.463162506669],[-121.039698376766,50.4628767947449],[-121.038921809534,50.463129073251],[-121.039550727553,50.4630530391875],[-121.039765016152,50.4635149955542],[-121.039914637778,50.4642252759366],[-121.040083560875,50.4647219239681],[-121.040276716476,50.4653840314687],[-121.040246566732,50.4657151301564],[-121.040101735253,50.4659576123115],[-121.039980995391,50.4662194175442],[-121.040162034741,50.4664850873924],[-121.041767297265,50.4671895259141],[-121.041839713004,50.4675474971608],[-121.042099226219,50.4671394656619]]]}},{"type":"Feature","id":"932118723","properties":{"name":"SP_35KPH_%TR_1635_TO_1620_SEP_6_NS","oid":"932118723","speedLimit":9.722222},"geometry":{"type":"Polygon","coordinates":[[[-121.018238099122,50.4539382086748],[-121.018530720701,50.4537440791511],[-121.018242043949,50.4536420712764],[-121.017621720016,50.4534678939537],[-121.017126362544,50.4534429986398],[-121.016412348986,50.4534404821459],[-121.016061259447,50.4534802966733],[-121.015776527521,50.4535126515939],[-121.015503489188,50.4536047732429],[-121.01589740827,50.4538312576872],[-121.01582330189,50.4536669665903],[-121.016252442635,50.4536047732429],[-121.016615225767,50.4536072897367],[-121.017325294498,50.4535947971423],[-121.01774274165,50.4536545638707],[-121.0181211632,50.4537142407243],[-121.018265431133,50.453768974465],[-121.018238099122,50.4539382086748]]]}},{"type":"Feature","id":"932281958","properties":{"name":"SP_15KPH_%TR_1185-1170_22shl_SEPT_6_NS","oid":"932281958","speedLimit":4.1666665},"geometry":{"type":"Polygon","coordinates":[[[-121.037375719404,50.448113963464],[-121.037409250428,50.4479618054623],[-121.036982645643,50.4479085097181],[-121.035924727765,50.4473797763903],[-121.035454166344,50.4469916970924],[-121.035098568432,50.4474257922774],[-121.035349205788,50.4473474214696],[-121.036815272299,50.4479512002383],[-121.03721679926,50.448055275233],[-121.037335144048,50.4481908962753],[-121.037375719404,50.448113963464]]]}},{"type":"Feature","id":"932364856","properties":{"name":"SP_35km_%_1170rOUGH_SEPT_6_NS","oid":"932364856","speedLimit":9.722222},"geometry":{"type":"Polygon","coordinates":[[[-121.038074517203,50.4473199197871],[-121.037832473933,50.447388853743],[-121.037706943926,50.4473848992527],[-121.037728076924,50.4480408053935],[-121.038325577219,50.4498586126837],[-121.038777118942,50.4502066977047],[-121.038722736694,50.4496637641617],[-121.038331776232,50.4483820599313],[-121.038104807834,50.4473254021487],[-121.038074517203,50.4473199197871]]]}},{"type":"Feature","id":"933252285","properties":{"name":"SP_17KPH_%TR1645_PATCH_SEP_6_NS","oid":"933252285","speedLimit":4.7222223},"geometry":{"type":"Polygon","coordinates":[[[-121.004300746089,50.4287924137424],[-121.004057575726,50.4290155728199],[-121.005062379335,50.4295095246081],[-121.005320483683,50.4293121595923],[-121.005134795074,50.4293870252836],[-121.004309340175,50.42897476967],[-121.004300746089,50.4287924137424]]]}},{"type":"Feature","id":"933252378","properties":{"name":"SP_20KPH_%TR_1615_ROUGH_SECTION_SEP_6_NS","oid":"933252378","speedLimit":5.5555553},"geometry":{"type":"Polygon","coordinates":[[[-121.007363340151,50.4314116344414],[-121.007545788367,50.4321454620161],[-121.007054516608,50.4322074756139],[-121.007399829795,50.4321237123194],[-121.007258802255,50.4314845228876],[-121.006910953109,50.4314550439599],[-121.007363340151,50.4314116344414]]]}},{"type":"Feature","id":"933252478","properties":{"name":"SP_20KPH_%TR_1605_PATCH_SEP_6_NS","oid":"933252478","speedLimit":5.5555553},"geometry":{"type":"Polygon","coordinates":[[[-121.006594662573,50.4333407067087],[-121.007212732319,50.4334382208444],[-121.006981819095,50.433962550308],[-121.006679617224,50.4343785806623],[-121.006275413417,50.4347751081895],[-121.005742157435,50.4345237284312],[-121.00621426861,50.4346038967346],[-121.006703286182,50.4339777391458],[-121.006896864443,50.4335509238179],[-121.006594662573,50.4333407067087]]]}},{"type":"Feature","id":"933252549","properties":{"name":"SP_35KPH_%TR_1590_ROUGH_SEP_6_NS","oid":"933252549","speedLimit":9.722222},"geometry":{"type":"Polygon","coordinates":[[[-121.004364004196,50.436392674471],[-121.004780606029,50.4364498348307],[-121.004884862152,50.4362110375416],[-121.005082807899,50.4359567817904],[-121.004585337128,50.435832215346],[-121.004799343954,50.4359806884817],[-121.00462816667,50.4363679589066],[-121.004364004196,50.436392674471]]]}},{"type":"Feature","id":"933371104","properties":{"name":"SP_12KPH_1590_HMT_INTERSECT_SEPT_6_NS","oid":"933371104","speedLimit":3.3333333},"geometry":{"type":"Polygon","coordinates":[[[-121.006262451845,50.4373386065252],[-121.00600589725,50.4376213525815],[-121.006184541526,50.4377486152693],[-121.006389249833,50.4379882214315],[-121.006555073423,50.4382641370045],[-121.007088611178,50.438153501151],[-121.006746679271,50.4380708163538],[-121.00630894444,50.4375949293964],[-121.006262451845,50.4373386065252]]]}},{"type":"Feature","id":"934006205","properties":{"name":"SP_15KPH_SINGLE_6132AMT","oid":"934006205","speedLimit":4.1666665},"geometry":{"type":"Polygon","coordinates":[[[-121.04181505784,50.4567294497018],[-121.041515391929,50.4567855315642],[-121.041639231297,50.4571553662819],[-121.042622901908,50.4569517999063],[-121.041850983937,50.457022441483],[-121.041792234202,50.4567356510616],[-121.04181505784,50.4567294497018]]]}}]}