{"type":"FeatureCollection","features":[{"type":"Feature","id":"702602533","properties":{"name":"iSP_4KPH_%TR_CR01_SLOW BUMP","oid":"702602533","speedLimit":1.1111112},"geometry":{"type":"Polygon","coordinates":[[[-121.033358007998,50.4648080920364],[-121.033652741109,50.4646910746816],[-121.033696133938,50.464731788093],[-121.033368292662,50.4648699260919],[-121.033358007998,50.4648080920364]]]}},{"type":"Feature","id":"707947583","properties":{"name":"iSP_22KPH_%TR_Permission Gate 1 from west dump_Jun","oid":"707947583","speedLimit":6.111111},"geometry":{"type":"Polygon","coordinates":[[[-121.038627419004,50.461978195375],[-121.038854104269,50.461799703465],[-121.037979907828,50.4613512268131],[-121.037742797013,50.4615424809845],[-121.037958915843,50.4614967345685],[-121.038665880829,50.4618462587568],[-121.038627419004,50.461978195375]]]}},{"type":"Feature","id":"742345972","properties":{"name":"iSP_4KPH_%TR_CR01_PITSIDE_SLOW BUMP","oid":"742345972","speedLimit":1.1111112},"geometry":{"type":"Polygon","coordinates":[[[-121.033397878681,50.4648830478536],[-121.03370515063,50.4647445503545],[-121.033755305977,50.4647766357582],[-121.033473816132,50.4649185485104],[-121.033397878681,50.4648830478536]]]}},{"type":"Feature","id":"776427243","properties":{"name":"iSP_7KPH_%TR_CR1_PermissionBlocker_DO_NOT_DELETE","oid":"776427243","speedLimit":1.9444444},"geometry":{"type":"Polygon","coordinates":[[[-121.03409906735,50.4652130691494],[-121.034050602632,50.4652333809176],[-121.034029469761,50.4652748133298],[-121.034115128332,50.4652257415358],[-121.03409906735,50.4652130691494]]]}},{"type":"Feature","id":"794004438","properties":{"name":"iSP_11KPH_%TR_LOWER_FUEL_BAY","oid":"794004438","speedLimit":3.0555556},"geometry":{"type":"Polygon","coordinates":[[[-121.036775756824,50.4606956779755],[-121.036777870111,50.4607255165023],[-121.036748143205,50.4606710522034],[-121.037124308314,50.4605993318892],[-121.037534286016,50.4605562817256],[-121.037542034736,50.4605816264983],[-121.036943551822,50.46065047081],[-121.036775756824,50.4606956779755]]]}},{"type":"Feature","id":"801543391","properties":{"name":"iSP_4KPH_%TR_CR1_PermissionBlocker_DO_NOT_DELETE_","oid":"801543391","speedLimit":1.1111112},"geometry":{"type":"Polygon","coordinates":[[[-121.03315456889,50.4645235475314],[-121.033153723576,50.4644741162371],[-121.033175279104,50.4644320546994],[-121.033107231259,50.4644596463491],[-121.03315456889,50.4645235475314]]]}},{"type":"Feature","id":"806473874","properties":{"name":"iSP_4KPH_%TR_Permission Blocker - DO NOT DELETE","oid":"806473874","speedLimit":1.1111112},"geometry":{"type":"Polygon","coordinates":[[[-121.02271887529,50.481545438413],[-121.022685767126,50.4815431016609],[-121.022678159292,50.4815717718116],[-121.022700278364,50.4815728503125],[-121.022704364052,50.481548763791],[-121.02271887529,50.481545438413]]]}},{"type":"Feature","id":"824566967","properties":{"name":"iSP_4Cr_3KPH","oid":"824566967","speedLimit":0.8333333},"geometry":{"type":"Polygon","coordinates":[[[-121.02330171988,50.4810685612356],[-121.023281573209,50.4810685612356],[-121.023278896379,50.4811866570914],[-121.023303974053,50.4811859380908],[-121.02330171988,50.4810685612356]]]}},{"type":"Feature","id":"826307302","properties":{"name":"iSP_4KPH_TR%_CRUSHER POCKETS","oid":"826307302","speedLimit":1.1111112},"geometry":{"type":"Polygon","coordinates":[[[-121.023296929762,50.4813217393375],[-121.023336377789,50.481477402977],[-121.023541084868,50.4814379478166],[-121.023460075528,50.4811890837186],[-121.023051788456,50.4811898027192],[-121.023057142116,50.4813604754972],[-121.023281995867,50.4813265027167],[-121.023296929762,50.4813217393375]]]}},{"type":"Feature","id":"849417440","properties":{"name":"iSP_Permissions_35_KPH_June_19_NS","oid":"849417440","speedLimit":9.722222},"geometry":{"type":"Polygon","coordinates":[[[-121.032694576726,50.4660343476355],[-121.033009174736,50.4660150244932],[-121.033216135989,50.4658141536882],[-121.033804897782,50.4653796975488],[-121.033725719958,50.4652509065583],[-121.033961844572,50.4654003688173],[-121.033425633186,50.4658086713082],[-121.033023263317,50.4661882137734],[-121.032694576726,50.4660343476355]]]}},{"type":"Feature","id":"853029148","properties":{"name":"SP_15KPH_%TR_1635 Flats_AUG_22_DS","oid":"853029148","speedLimit":4.1666665},"geometry":{"type":"Polygon","coordinates":[[[-121.018589512246,50.4569710748872],[-121.017425795469,50.45728105404],[-121.015788279718,50.4579431637585],[-121.014824198131,50.4590966205423],[-121.018348597514,50.458893233235],[-121.020691669393,50.4589873324443],[-121.020239989492,50.457231892371],[-121.01942228826,50.4570967202498],[-121.018968072413,50.4570001045382],[-121.018589512246,50.4569710748872]]]}},{"type":"Feature","id":"883050998","properties":{"name":"iSP_22kph_%TR_4CR_Brake_Temp_CTRL_NOREMOVE","oid":"883050998","speedLimit":6.111111},"geometry":{"type":"Polygon","coordinates":[[[-121.031798261213,50.4745592686513],[-121.032187528702,50.4743126514303],[-121.032489165217,50.4745749967904],[-121.032790801733,50.4748023807442],[-121.032968599623,50.4748847961931],[-121.033177392391,50.474934946488],[-121.033461277295,50.4749597520103],[-121.03366513906,50.4749221842266],[-121.033826312425,50.4748627767984],[-121.033917465543,50.4748107391267],[-121.034006787145,50.4747475569451],[-121.034057224265,50.4746584008652],[-121.034051447947,50.4745482140164],[-121.034055251863,50.4744838634587],[-121.033993121222,50.4743798779905],[-121.033874777143,50.4742598048829],[-121.033507910498,50.4739378723444],[-121.033059611856,50.4735602172559],[-121.032946339666,50.4734256742603],[-121.032821373954,50.473221118577],[-121.032604550694,50.4728151528381],[-121.032251068201,50.472209215045],[-121.03248606573,50.4721563684976],[-121.032429006977,50.472205889667],[-121.032901537978,50.4730490976728],[-121.033040733157,50.4733098252815],[-121.033248539725,50.4735471853692],[-121.033741499168,50.4739618689909],[-121.034096531405,50.4742713987683],[-121.03420191399,50.4743947073788],[-121.034254605282,50.4744619339391],[-121.034261649573,50.4745930616816],[-121.034236712785,50.4746790721337],[-121.034182189977,50.4747918653598],[-121.034084696997,50.4748760783103],[-121.033971847465,50.4749379123657],[-121.033789259457,50.475016373311],[-121.033529747798,50.4750646362293],[-121.033261782991,50.4750683211076],[-121.033070178291,50.4750265291951],[-121.032806440058,50.4749167917218],[-121.032655692243,50.4748353648988],[-121.032494096221,50.4747055852825],[-121.032143572329,50.4744133115205],[-121.031798261213,50.4745592686513]]]}},{"type":"Feature","id":"883053336","properties":{"name":"iSP_22kph_%TR_Brake_Temp_CTRL_NOREMOVE","oid":"883053336","speedLimit":6.111111},"geometry":{"type":"Polygon","coordinates":[[[-121.032464791972,50.4721454936129],[-121.032249941115,50.4722257520598],[-121.031487326234,50.4710085738439],[-121.030815441813,50.4699236018714],[-121.030660185653,50.4696604476356],[-121.030595378181,50.4694579590791],[-121.03054902675,50.469256998399],[-121.030595378181,50.4689731728946],[-121.030721611865,50.4686245474571],[-121.030883348773,50.4683757732341],[-121.031087774081,50.4680980592352],[-121.03168710231,50.4675367893571],[-121.032430979378,50.4668939129059],[-121.032787279588,50.4665564319785],[-121.033146397513,50.4662226359293],[-121.033483255481,50.4658709547391],[-121.033778270364,50.4660343476355],[-121.033586243007,50.465993544349],[-121.032918162504,50.4666523286894],[-121.032553409146,50.4669915172434],[-121.032177384923,50.467307967402],[-121.031773183539,50.4676686361003],[-121.031380816563,50.4680346973034],[-121.03114595992,50.4682866171542],[-121.031007610056,50.4684701420687],[-121.030903918101,50.4686547454842],[-121.030827417107,50.4688532795371],[-121.030766554438,50.4691915693403],[-121.030775289358,50.4694008884029],[-121.030872500566,50.4696306091088],[-121.031026488754,50.469935375507],[-121.031329393243,50.4704040740521],[-121.03152945109,50.4707112670774],[-121.031749092066,50.4710831701607],[-121.032144840302,50.4717291023647],[-121.032380119602,50.4721454037378],[-121.032464791972,50.4721454936129]]]}},{"type":"Feature","id":"883059532","properties":{"name":"iSP_22kph_%TR_Brake_CTRL_NOREMOVE","oid":"883059532","speedLimit":6.111111},"geometry":{"type":"Polygon","coordinates":[[[-121.027261174639,50.4773222982528],[-121.027028994827,50.4772101341523],[-121.027333449059,50.4769443735391],[-121.027715390485,50.4766327766348],[-121.028032101783,50.4763230671072],[-121.028189330345,50.4761691110942],[-121.028620159147,50.4756926832922],[-121.028906157338,50.4753260828386],[-121.029262739319,50.4748879418209],[-121.029471532087,50.474657052739],[-121.029690327748,50.4745407543847],[-121.029800359564,50.4744885369629],[-121.029951107379,50.4745929718065],[-121.029787538955,50.4745423721362],[-121.029554936486,50.4747918653598],[-121.029250764025,50.4751733850768],[-121.029071839049,50.4754783312251],[-121.028852057188,50.4757750987411],[-121.028694969511,50.4759750707953],[-121.028407844234,50.4762709395605],[-121.028040554931,50.4765703134538],[-121.027242859484,50.4772197507859],[-121.027261174639,50.4773222982528]]]}},{"type":"Feature","id":"891249991","properties":{"name":"SP_40KPH_TR%_1590 #1_AUG_22_DS","oid":"891249991","speedLimit":11.111111},"geometry":{"type":"Polygon","coordinates":[[[-121.012956334083,50.4498608775144],[-121.013431964572,50.4498229502304],[-121.012542129806,50.4443340993108],[-121.012138210194,50.4430839369403],[-121.011298953433,50.4419104380135],[-121.010529153376,50.4421498652281],[-121.011008165125,50.4427017880978],[-121.011240204051,50.4430300118919],[-121.011455759338,50.4435201007062],[-121.011773738607,50.4445107937191],[-121.012956334083,50.4498608775144]]]}},{"type":"Feature","id":"908328496","properties":{"name":"SP_15KPH_%TR_9019_SOFT_GROUND_AUG_22_DS","oid":"908328496","speedLimit":4.1666665},"geometry":{"type":"Polygon","coordinates":[[[-121.039687443826,50.4639767475413],[-121.039696742289,50.4642094341249],[-121.039280565611,50.4648805313514],[-121.038800849434,50.4661305139717],[-121.039263236657,50.4662043014128],[-121.038927083118,50.4669793841075],[-121.037871566641,50.4685913835524],[-121.036176287709,50.4681969218238],[-121.035227421789,50.4668161709613],[-121.037880160676,50.4651401804591],[-121.038519218703,50.4648146529173],[-121.039687443826,50.4639767475413]]]}},{"type":"Feature","id":"910445950","properties":{"name":"SP_20KPH_%TR_1635_FLATS_AUG_22_DS","oid":"910445950","speedLimit":5.5555553},"geometry":{"type":"Polygon","coordinates":[[[-121.020224773824,50.4571643063104],[-121.019043728093,50.4569614582536],[-121.018650093144,50.4569228119689],[-121.017842113033,50.45714714017],[-121.018448062895,50.4564126810117],[-121.018502585702,50.455508178201],[-121.01921758118,50.455508178201],[-121.019235755449,50.4564590565533],[-121.019423556232,50.4568920746914],[-121.019756892055,50.4570621183438],[-121.020224773824,50.4571643063104]]]}},{"type":"Feature","id":"917291012","properties":{"name":"SP_15KPH_%TR_CORNER_RUTS_AUG_22_DS","oid":"917291012","speedLimit":4.1666665},"geometry":{"type":"Polygon","coordinates":[[[-121.040608977899,50.4662216473034],[-121.04068322472,50.4661075059511],[-121.040421318002,50.4659264975388],[-121.040527968559,50.4656656800551],[-121.040024724451,50.4656481544144],[-121.040218160666,50.4657711035246],[-121.040015425988,50.4663108033833],[-121.039932444247,50.4664861496655],[-121.039993588688,50.466820305215],[-121.040665754879,50.4667395075175],[-121.040547833458,50.4666225800377],[-121.040530363618,50.4663775805682],[-121.040608977899,50.4662216473034]]]}},{"type":"Feature","id":"917665392","properties":{"name":"SP_11KPH_%TR_22SH RUTS_AUG 20_DS","oid":"917665392","speedLimit":3.0555556},"geometry":{"type":"Polygon","coordinates":[[[-121.035646416184,50.4455198212485],[-121.035214178523,50.445207954719],[-121.033732764248,50.4447561526891],[-121.033076799924,50.4452865055394],[-121.035584989971,50.4459568837653],[-121.036005252338,50.4464646779704],[-121.036507792016,50.4462082643656],[-121.035646416184,50.4455198212485]]]}},{"type":"Feature","id":"920440343","properties":{"name":"iSP_17KPH_CAL_PAD_ROAD_LIMIT_AUG_22_DS","oid":"920440343","speedLimit":4.7222223},"geometry":{"type":"Polygon","coordinates":[[[-121.005955013835,50.437830918232],[-121.005968679758,50.4376132407869],[-121.00558645656,50.4375784591308],[-121.005286228902,50.4376828939744],[-121.005190708324,50.4378352322359],[-121.005286228902,50.4381617484036],[-121.0059891082,50.4392588535119],[-121.007469958932,50.4413701989043],[-121.007674666012,50.441648811654],[-121.007783852514,50.4421538197316],[-121.007934036785,50.4426631418131],[-121.008118315423,50.4432333991992],[-121.008323022502,50.4436513183238],[-121.008684676372,50.4445612136393],[-121.008759768508,50.4449225114632],[-121.008759768508,50.4451793744434],[-121.008691579777,50.4456190433375],[-121.008493635216,50.4462284862587],[-121.008944047146,50.446215454372],[-121.009135088302,50.445732285939],[-121.009319366939,50.4449181974593],[-121.009216942957,50.4444523749168],[-121.008998569954,50.4437993425815],[-121.008773434432,50.443377109453],[-121.008459540851,50.4427371090044],[-121.008295690655,50.4420754486614],[-121.008241167848,50.4417446184898],[-121.007920370862,50.4411960209981],[-121.006814839923,50.4398334249019],[-121.006603370325,50.4394938768475],[-121.006228050531,50.4387799092076],[-121.0059891082,50.4383881437315],[-121.005934585392,50.4380573135599],[-121.005955013835,50.437830918232]]]}},{"type":"Feature","id":"921284584","properties":{"name":"SP_22kph_rough ground_23SH_AUG 21_DS","oid":"921284584","speedLimit":6.111111},"geometry":{"type":"Polygon","coordinates":[[[-121.039983585795,50.4678260972414],[-121.04054304334,50.4679703467457],[-121.040342281063,50.4682545317504],[-121.039115024786,50.4697887892506],[-121.039352699145,50.4704372379568],[-121.039937938793,50.4707937724014],[-121.039579102639,50.4711138175632],[-121.038661795141,50.47055794019],[-121.038402142596,50.4695221298866],[-121.039983585795,50.4678260972414]]]}},{"type":"Feature","id":"921727643","properties":{"name":"SP_35KPH_%TR_ HIGHMONT TRIAL_Aug 22_DS","oid":"921727643","speedLimit":9.722222},"geometry":{"type":"Polygon","coordinates":[[[-121.012708797718,50.4365927991223],[-121.010156087755,50.4366191325209],[-121.007266519825,50.4370212336313],[-121.006148168278,50.4371702465149],[-121.005263405401,50.4370779448072],[-121.004924011489,50.4368543356067],[-121.00530243077,50.4361090015637],[-121.005970088616,50.4354593844814],[-121.006754681683,50.4347246556979],[-121.007316675173,50.433904725338],[-121.007674243355,50.4330514513232],[-121.007912058599,50.4323925771077],[-121.007906423167,50.4319204633095],[-121.007795123378,50.4313845382042],[-121.00751137936,50.4310047261138],[-121.006988411239,50.4305646078443],[-121.005753124471,50.4297836832694],[-121.004890621552,50.429268968683],[-121.00411729935,50.4288927515958],[-121.003316363529,50.4284988291178],[-121.003470351718,50.4283233929605],[-121.003115460366,50.4285319031474],[-121.004389490732,50.4291671402168],[-121.005350613717,50.4296955158153],[-121.006574066077,50.4304921685294],[-121.007130424134,50.4309177270358],[-121.007500390267,50.4313875939569],[-121.007671143867,50.4318535063745],[-121.007636345072,50.4325371861123],[-121.007399234257,50.4332027110838],[-121.007172689877,50.433868955056],[-121.006590267945,50.434564138804],[-121.00615817117,50.4350395779802],[-121.005744812209,50.4354070771846],[-121.005112234929,50.4360623563969],[-121.004792846801,50.4366456456697],[-121.004711414804,50.4369332459275],[-121.004893016611,50.4370850449385],[-121.005450501755,50.4372768383604],[-121.006283418654,50.4372648849747],[-121.007586048839,50.4371449916172],[-121.008819785863,50.4369812392205],[-121.009458562118,50.4368812981309],[-121.011036764944,50.4367894457986],[-121.012887159151,50.4367964560548],[-121.012877860688,50.4364190705916],[-121.012708797718,50.4365927991223]]]}},{"type":"Feature","id":"922262468","properties":{"name":"SPD_20kph_HMT_DUMP_AUG_22_DS","oid":"922262468","speedLimit":5.5555553},"geometry":{"type":"Polygon","coordinates":[[[-121.01250099115,50.4364266200984],[-121.012481126251,50.4374173131113],[-121.016363375588,50.4384079162492],[-121.017179667962,50.4369600287015],[-121.016522717437,50.4359058838816],[-121.014770661524,50.4353089335966],[-121.012899275331,50.4352073747556],[-121.01250099115,50.4364266200984]]]}},{"type":"Feature","id":"922385545","properties":{"name":"SP_20KPH_RUTS_AUG 22_DS","oid":"922385545","speedLimit":5.5555553},"geometry":{"type":"Polygon","coordinates":[[[-121.00751137936,50.4337193130468],[-121.006869926274,50.4335259018735],[-121.006518557068,50.4340724322383],[-121.007225803826,50.4343190494594],[-121.00751137936,50.4337193130468]]]}},{"type":"Feature","id":"923351007","properties":{"name":"iSP_17KPH_PERMISSIONS_AUG 18_NS","oid":"923351007","speedLimit":4.7222223},"geometry":{"type":"Polygon","coordinates":[[[-121.03885241364,50.4608774952635],[-121.038871855881,50.4611350772443],[-121.038782534279,50.4608898081495],[-121.038537815629,50.4608898081495],[-121.038534011713,50.4608304007213],[-121.038879604601,50.4608229410896],[-121.03885241364,50.4608774952635]]]}},{"type":"Feature","id":"923607825","properties":{"name":"MRK_CROSS DITCH ","oid":"923607825","speedLimit":2.7777777},"geometry":{"type":"Polygon","coordinates":[[[-121.035184592504,50.4458455285404],[-121.035615984849,50.4454862079684],[-121.035585553514,50.4454715583303],[-121.035136268671,50.4458267446486],[-121.035184592504,50.4458455285404]]]}},{"type":"Feature","id":"924222108","properties":{"name":"sp_11kph_rough ground_23SH _AUG 22_DS","oid":"924222108","speedLimit":3.0555556},"geometry":{"type":"Polygon","coordinates":[[[-121.039472733854,50.4712559999406],[-121.039828047863,50.4714071698261],[-121.040183502757,50.4716222408939],[-121.040662091848,50.4714377273535],[-121.039779442259,50.4709828695708],[-121.039642783025,50.4710719357757],[-121.039472733854,50.4712559999406]]]}},{"type":"Feature","id":"924266047","properties":{"name":"SP_12KPH_%TR_CROSS DITCH_AUG_22 DS ","oid":"924266047","speedLimit":3.3333333},"geometry":{"type":"Polygon","coordinates":[[[-121.037614590927,50.4473124696053],[-121.037892558627,50.4474716383729],[-121.03765615224,50.4477508802482],[-121.037461448053,50.4476921918206],[-121.03726660298,50.4475135201605],[-121.037614590927,50.4473124696053]]]}},{"type":"Feature","id":"925208014","properties":{"name":"SP_BAD RAMPS_AUG 22_NS","oid":"925208014","speedLimit":5},"geometry":{"type":"Polygon","coordinates":[[[-121.036763640644,50.4451607703017],[-121.036032161527,50.4452370742451],[-121.03630364848,50.4456361196028],[-121.037265053236,50.4467982043943],[-121.037918199844,50.4474349693401],[-121.038244914034,50.4478047154215],[-121.038870447023,50.4475376965571],[-121.036869445886,50.4452751812793],[-121.036763640644,50.4451607703017]]]}},{"type":"Feature","id":"925221054","properties":{"name":"SP_15KPH_MUDDY GROUND_AUG 22_NS","oid":"925221054","speedLimit":4.1666665},"geometry":{"type":"Polygon","coordinates":[[[-121.03867292512,50.4484027442075],[-121.037376212139,50.4484183824715],[-121.037585145793,50.4495395741014],[-121.038021469142,50.4514527449412],[-121.039484145604,50.4511430354136],[-121.038715895291,50.4499629756059],[-121.038648270103,50.4489201550462],[-121.03867292512,50.4484027442075]]]}}]}