{"type":"FeatureCollection","features":[{"type":"Feature","id":"938217281","properties":{"name":"SP_25KPH_CRUSHER_YARD_WEATHER_SEPT_17_NS","oid":"938217281","speedLimit":6.9444447},"geometry":{"type":"Polygon","coordinates":[[[-121.036881321708,50.4639826553605],[-121.037239981588,50.4642846359972],[-121.034290123815,50.465499299183],[-121.032877601184,50.4644545001053],[-121.036881321708,50.4639826553605]]]}},{"type":"Feature","id":"938165680","properties":{"name":"SP_22SH_10kph_%TR_Sept17_NS","oid":"938165680","speedLimit":2.7777777},"geometry":{"type":"Polygon","coordinates":[[[-121.034358305819,50.4471928914628],[-121.03504984602,50.4475035001177],[-121.035416676471,50.4476025425765],[-121.035793086211,50.4469123011212],[-121.034729925915,50.4466106799853],[-121.034358305819,50.4471928914628]]]}},{"type":"Feature","id":"938065675","properties":{"name":"SP_8KPH_CR01_YARD_RUTIING_SEP_17_NS","oid":"938065675","speedLimit":2.2222223},"geometry":{"type":"Polygon","coordinates":[[[-121.034287306377,50.4648013284615],[-121.0340971293,50.4648581295813],[-121.033938930146,50.4649071115595],[-121.033827500466,50.4650050755161],[-121.034042330127,50.4650689767758],[-121.033962314883,50.4650114566545],[-121.034240677775,50.4648882377697],[-121.034317312093,50.4649374893736],[-121.034287306377,50.4648013284615]]]}},{"type":"Feature","id":"937793793","properties":{"name":"SP_10KPH_%TR_21SH_LOAD_AREA_SEP_17_NS","oid":"937793793","speedLimit":2.7777777},"geometry":{"type":"Polygon","coordinates":[[[-121.039646355536,50.4523553223467],[-121.039072865995,50.4524102360875],[-121.039158938731,50.4533143804937],[-121.03969242065,50.4532579388747],[-121.039661992318,50.4529191992855],[-121.039646355536,50.4523553223467]]]}},{"type":"Feature","id":"937786749","properties":{"name":"SP_30KPH_%TR_24SH_Loaded_LANE_SEP_17_NS","oid":"937786749","speedLimit":8.333333},"geometry":{"type":"Polygon","coordinates":[[[-121.038407809713,50.4510853859193],[-121.038210729912,50.4510392799471],[-121.038251301022,50.4516608567576],[-121.038330611907,50.4527882511344],[-121.038493318961,50.452761018952],[-121.038401329605,50.4516753266631],[-121.038407809713,50.4510853859193]]]}},{"type":"Feature","id":"936513295","properties":{"name":"SP_30KPH_%TR_1635_FLATS_SEP_17_NS","oid":"936513295","speedLimit":8.333333},"geometry":{"type":"Polygon","coordinates":[[[-121.017433954682,50.4574539418461],[-121.015227196229,50.4585170754625],[-121.014498465844,50.4578797704938],[-121.016651974715,50.4569269137349],[-121.017433954682,50.4574539418461]]]}},{"type":"Feature","id":"936169885","properties":{"name":"SP_10KPH_%TR_24shl_loadplan_Sept_17_NS","oid":"936169885","speedLimit":2.7777777},"geometry":{"type":"Polygon","coordinates":[[[-121.039050326489,50.453593892333],[-121.038509378359,50.4536891600338],[-121.038715473962,50.4547481593915],[-121.039226557247,50.4546030109605],[-121.039179224286,50.4543766153582],[-121.039097800322,50.4539211278979],[-121.039075260817,50.4537567461763],[-121.039050326489,50.453593892333]]]}},{"type":"Feature","id":"934773555","properties":{"name":"SP_10KPH_NEW RAMP_SEPT 17_NS","oid":"934773555","speedLimit":2.7777777},"geometry":{"type":"Polygon","coordinates":[[[-121.033901176475,50.4443402529486],[-121.034412682376,50.4442041819117],[-121.0357730824,50.4443192221543],[-121.036275009012,50.4444736277298],[-121.035930013707,50.4447856743877],[-121.034620891057,50.4446108671441],[-121.034343232525,50.4446010707485],[-121.033901176475,50.4443402529486]]]}},{"type":"Feature","id":"934181339","properties":{"name":"SP_30KPH_TR%_1590_2_SEPT 16_NS_ROUGH_SECTION.","oid":"934181339","speedLimit":8.333333},"geometry":{"type":"Polygon","coordinates":[[[-121.009546818245,50.4401729201627],[-121.008921206098,50.4404385912228],[-121.010383597384,50.44179858259],[-121.011095141396,50.4414569669948],[-121.010561236862,50.4414850080539],[-121.009362416917,50.4404322999595],[-121.009546818245,50.4401729201627]]]}},{"type":"Feature","id":"934051091","properties":{"name":"iSP_17KPH_%TR_Ramp_Permission Blocker","oid":"934051091","speedLimit":4.7222223},"geometry":{"type":"Polygon","coordinates":[[[-121.039510414144,50.46102980601],[-121.039462376823,50.460771774341],[-121.03901496764,50.4607923557594],[-121.039073852098,50.4610450847923],[-121.039161333553,50.4609000262364],[-121.03937729019,50.4608869044588],[-121.039510414144,50.46102980601]]]}},{"type":"Feature","id":"933274269","properties":{"name":"SP_15KPH_%TR_21SH_EMPTY_LANE_SEP_17_NS","oid":"933274269","speedLimit":4.1666665},"geometry":{"type":"Polygon","coordinates":[[[-121.03947026565,50.4523655681183],[-121.039647905127,50.4523481323315],[-121.039535911959,50.4510066552533],[-121.039309812545,50.4510519523488],[-121.039416311709,50.4515133715716],[-121.03947026565,50.4523655681183]]]}},{"type":"Feature","id":"932281958","properties":{"name":"SP_15KPH_%TR_1185-1170_22shl_SEPT_17_NS","oid":"932281958","speedLimit":4.1666665},"geometry":{"type":"Polygon","coordinates":[[[-121.037372682926,50.4481142919054],[-121.03740621044,50.4479621332096],[-121.0369796503,50.4479088372222],[-121.035921843136,50.4473801014825],[-121.035630801772,50.4472469064517],[-121.035473166106,50.4475380121904],[-121.035548391705,50.4474434634911],[-121.036812294472,50.4479515279372],[-121.037213779413,50.4480556034066],[-121.037332111816,50.4481912250676],[-121.037372682926,50.4481142919054]]]}},{"type":"Feature","id":"929009157","properties":{"name":"iSP_22KPH_%TR_Long_Single_Lane","oid":"929009157","speedLimit":6.111111},"geometry":{"type":"Polygon","coordinates":[[[-121.005681997424,50.4380559999496],[-121.004752383697,50.4382240665539],[-121.005176830759,50.438197553373],[-121.007936793198,50.4431705273575],[-121.008525496906,50.444534922609],[-121.008212620396,50.4465097501475],[-121.007834661065,50.446680243382],[-121.008935997648,50.4466469895619],[-121.008825272328,50.446592974573],[-121.009405241977,50.4448176699551],[-121.00876638787,50.4430684291422],[-121.008264743002,50.4415401914203],[-121.007261312395,50.4401562033774],[-121.006441719629,50.4389840511562],[-121.005862736084,50.4383130429915],[-121.005681997424,50.4380559999496]]]}},{"type":"Feature","id":"926367691","properties":{"name":"SP_25KPH_%TR_24SH_EMPTY_LANE_SEP_17_NS","oid":"926367691","speedLimit":6.9444447},"geometry":{"type":"Polygon","coordinates":[[[-121.038781683759,50.450857552314],[-121.03861052439,50.4512056389228],[-121.038636444821,50.4520121788733],[-121.038863389466,50.4535985658428],[-121.039042578534,50.4535756476695],[-121.038779711552,50.4517187363796],[-121.038781683759,50.450857552314]]]}},{"type":"Feature","id":"921770139","properties":{"name":"SP_20KPH_%TR_HIGHMONT_SEPT 17_NS","oid":"921770139","speedLimit":5.5555553},"geometry":{"type":"Polygon","coordinates":[[[-121.001747022393,50.4283060697689],[-121.000804589322,50.4281540908235],[-121.000754861538,50.4285431605187],[-121.000898832629,50.4289673714131],[-121.001626576911,50.428793732547],[-121.001924943614,50.4286884887001],[-121.002548020067,50.4285670673191],[-121.00240137241,50.428187524394],[-121.001747022393,50.4283060697689]]]}},{"type":"Feature","id":"917773475","properties":{"name":"SP_15KPH_%TR_1200_CORNER_Sept_17_NS","oid":"917773475","speedLimit":4.1666665},"geometry":{"type":"Polygon","coordinates":[[[-121.037096573984,50.4446825875454],[-121.036922456305,50.4448621581739],[-121.03662690704,50.4448206358364],[-121.036412359123,50.4448699773154],[-121.036320792382,50.4449676716464],[-121.036252187762,50.4450821726378],[-121.036239931906,50.4451449953952],[-121.036261062693,50.4452673155281],[-121.036313748787,50.4453515285807],[-121.03618189268,50.445395297798],[-121.036086804141,50.4451943368743],[-121.036160761894,50.4449317215706],[-121.036257540895,50.4447914263998],[-121.036514350385,50.4447151223639],[-121.036711430185,50.4447117969819],[-121.036920765842,50.4447701259799],[-121.037091361724,50.4446836660476],[-121.037096573984,50.4446825875454]]]}},{"type":"Feature","id":"915576987","properties":{"name":"iSP_15KPH_%TR_Preventing Shifting","oid":"915576987","speedLimit":4.1666665},"geometry":{"type":"Polygon","coordinates":[[[-121.036995709698,50.4448633265514],[-121.037509751293,50.44531324175],[-121.037978995622,50.4457956917671],[-121.038522902062,50.4462190039096],[-121.039455474099,50.4468501074901],[-121.039912744316,50.4470998706417],[-121.040468624868,50.4471952282177],[-121.041221726093,50.447322940862],[-121.041640115663,50.4475097913809],[-121.042318554776,50.4480952383652],[-121.042701162881,50.4485279874026],[-121.042844570484,50.4487950065905],[-121.043006009692,50.4493917778487],[-121.04318519876,50.4501983177991],[-121.043322689743,50.4505014668132],[-121.043684307933,50.4511688799703],[-121.043854762943,50.4514891951457],[-121.044123687417,50.4522537633826],[-121.044380778651,50.4529383427009],[-121.044694500392,50.4537982685139],[-121.044733381039,50.454194887725],[-121.044568983521,50.4550719796992],[-121.044213422823,50.4568394651756],[-121.044049025305,50.4572075040765],[-121.04300291051,50.4583991592139],[-121.041903123517,50.4595375183639],[-121.041341326344,50.4600008249656],[-121.040370014532,50.460597686099],[-121.039921619246,50.4607311507554],[-121.039132595684,50.4608073649161],[-121.038495291168,50.4608389111076],[-121.038643065801,50.4611436778751],[-121.0387559042,50.4609497272162],[-121.039876821979,50.460879894194],[-121.040704726188,50.4606320184214],[-121.041508682172,50.4600580754614],[-121.042871477019,50.458700420849],[-121.044240188486,50.4571426141897],[-121.044425575918,50.4562903277678],[-121.044811142332,50.4544217327033],[-121.04480804315,50.4537867644896],[-121.04425822009,50.4523014871082],[-121.043830814718,50.4511860461315],[-121.043343679657,50.4503375344676],[-121.043047848648,50.4493098116759],[-121.042925290088,50.4486920096234],[-121.042237835172,50.4478873570519],[-121.041544463637,50.4473916055067],[-121.04109015173,50.447221921149],[-121.040456650756,50.4471304282061],[-121.039915702626,50.4470197918479],[-121.038818873943,50.4463334150258],[-121.038194247899,50.4458719059278],[-121.037151232285,50.4449070957687],[-121.037375359492,50.4446974169516],[-121.036995709698,50.4448633265514]]]}},{"type":"Feature","id":"910445950","properties":{"name":"SP_22KPH_%TR_1635_FLATS_SEP_17_NS","oid":"910445950","speedLimit":6.111111},"geometry":{"type":"Polygon","coordinates":[[[-121.01791348266,50.4571010918522],[-121.017757678329,50.4573817720689],[-121.016599711237,50.4571353342994],[-121.017122627763,50.4561458084632],[-121.01777331511,50.454239915195],[-121.018180153183,50.4539932077998],[-121.018532614699,50.4537516232905],[-121.019042148394,50.4536552770874],[-121.018866481124,50.4543417437847],[-121.018261718019,50.456072200683],[-121.018041816969,50.4566100138168],[-121.017986736052,50.4569257453575],[-121.01791348266,50.4571010918522]]]}},{"type":"Feature","id":"908328496","properties":{"name":"SP_25KPH_%TR_1445_SOFT_GROUND_SEPT_17_NS","oid":"908328496","speedLimit":6.9444447},"geometry":{"type":"Polygon","coordinates":[[[-121.039329111997,50.4644969211947],[-121.039938101259,50.4647092063923],[-121.039186408753,50.4666748666615],[-121.038824227075,50.4674279308742],[-121.038449507798,50.4678943831076],[-121.037912644953,50.4682380658321],[-121.037177716204,50.468025960385],[-121.038310608095,50.4667053343507],[-121.038791263049,50.4655660764488],[-121.039329111997,50.4644969211947]]]}},{"type":"Feature","id":"884401102","properties":{"name":"iSP_30KPH_%TR_Maint_Limit_Policy","oid":"884401102","speedLimit":8.333333},"geometry":{"type":"Polygon","coordinates":[[[-121.036990215693,50.4611014365361],[-121.037106294146,50.4611079075497],[-121.038292435619,50.4609922381808],[-121.038276094478,50.4603980733032],[-121.03811761358,50.4605659601571],[-121.037030645931,50.4607085920828],[-121.036742985493,50.460537919098],[-121.036990215693,50.4611014365361]]]}},{"type":"Feature","id":"883059532","properties":{"name":"iSP_22KPH_%TR_Brake_Ctrl","oid":"883059532","speedLimit":6.111111},"geometry":{"type":"Polygon","coordinates":[[[-121.027261038176,50.4773222006091],[-121.02702888127,50.4772100363727],[-121.027333305465,50.4769442754374],[-121.02771520921,50.4766326781554],[-121.028031889261,50.4763229682525],[-121.028189102312,50.4761690120529],[-121.028619888609,50.4756925836734],[-121.028905858584,50.4753259827755],[-121.029262405386,50.4748878412268],[-121.029471177555,50.474656951865],[-121.029689951629,50.4745406533698],[-121.02979997259,50.4744884358847],[-121.029950705533,50.4745928708549],[-121.029787153247,50.4745422711232],[-121.029554573725,50.4747917646493],[-121.029250431274,50.4751732848286],[-121.029071523949,50.4754782313465],[-121.028851763771,50.4757749992222],[-121.028694691593,50.4759749715188],[-121.028407594643,50.4762708406426],[-121.028040341576,50.4765702148987],[-121.027242724828,50.477219653018],[-121.027261038176,50.4773222006091]]]}},{"type":"Feature","id":"883053336","properties":{"name":"iSP_22KPH_%TR_Brake_Temp_Ctrl","oid":"883053336","speedLimit":6.111111},"geometry":{"type":"Polygon","coordinates":[[[-121.032464142132,50.4721453896949],[-121.032249312471,50.4722256482391],[-121.031486772828,50.471008468548],[-121.030814954694,50.4699234952605],[-121.03065971385,50.4696603407057],[-121.030594912772,50.4694578519038],[-121.030548565914,50.4692568909801],[-121.030594912772,50.4689730651317],[-121.030721134003,50.4686244392717],[-121.030882854954,50.4683756647472],[-121.031087260094,50.4680979504117],[-121.031686529194,50.4675366798534],[-121.032430332874,50.466893802623],[-121.032786597931,50.4665563212865],[-121.033145680427,50.4662225248328],[-121.033482505161,50.4658708432164],[-121.033777490938,50.4660342363108],[-121.033585482527,50.4659934329748],[-121.032917467935,50.4666522181137],[-121.032552750562,50.4669914070788],[-121.032176763437,50.467307857621],[-121.031772601931,50.4676685267564],[-121.031380273664,50.4680345884032],[-121.031145440192,50.4682865085593],[-121.031007103978,50.4684700336962],[-121.030903422253,50.4686546373354],[-121.030826928806,50.468853171629],[-121.030766072142,50.4691914618422],[-121.0307748062,50.4694007811585],[-121.030872007817,50.4696305021428],[-121.031025980814,50.4699352689104],[-121.031328855418,50.4704039680235],[-121.031528893528,50.4707111614212],[-121.031748512834,50.4710830649552],[-121.032144222027,50.471728997942],[-121.032379478114,50.4721452998197],[-121.032464142132,50.4721453896949]]]}},{"type":"Feature","id":"883050998","properties":{"name":"iSP_22KPH_%TR_4CR_Brake_Temp_Ctrl","oid":"883050998","speedLimit":6.111111},"geometry":{"type":"Polygon","coordinates":[[[-121.031797677131,50.4745591676589],[-121.032186906215,50.4743125501389],[-121.032488512972,50.474574895817],[-121.032790119729,50.4748022800464],[-121.032967900078,50.4748846955952],[-121.033176672247,50.4749348459509],[-121.033460529143,50.4749596515032],[-121.033664370796,50.474922083674],[-121.033825528259,50.4748626761738],[-121.033916672384,50.474810638439],[-121.034005985175,50.4747474561808],[-121.034056417318,50.4746582999929],[-121.03405064157,50.4745481130106],[-121.034054445111,50.4744837623749],[-121.0339923206,50.4743797767807],[-121.033873988196,50.4742597035275],[-121.033507157745,50.4739377705988],[-121.033058903331,50.4735601150526],[-121.032945642316,50.4734255718939],[-121.032820688933,50.4732210159627],[-121.032603887065,50.4728150497318],[-121.032250439446,50.4722091112043],[-121.03248541379,50.4721562645929],[-121.032428360667,50.4722057858223],[-121.032900845049,50.47304899485],[-121.033040026495,50.4733097227747],[-121.033247812561,50.4735470831501],[-121.03374072337,50.4739617672744],[-121.034095720581,50.474271297427],[-121.034201092769,50.4743946061869],[-121.034253778863,50.4744618328287],[-121.034260822458,50.4745929607301],[-121.03423588813,50.4746789712864],[-121.034181370701,50.4747917646493],[-121.03408388734,50.4748759777018],[-121.033971048941,50.4749378118322],[-121.033788478947,50.4750162728726],[-121.033528992891,50.4750645358493],[-121.03326105452,50.4750682207321],[-121.033069468724,50.475026428769],[-121.032805756511,50.4749166911626],[-121.032655023568,50.474835264241],[-121.032493443489,50.4747054844674],[-121.032142954179,50.4744132103512],[-121.031797677131,50.4745591676589]]]}},{"type":"Feature","id":"826307302","properties":{"name":"iSP_4KPH_%TR_CR04_Pockets","oid":"826307302","speedLimit":1.1111112},"geometry":{"type":"Polygon","coordinates":[[[-121.023297184403,50.4813216465411],[-121.023336628537,50.4814773103693],[-121.023541315421,50.4814378551612],[-121.023460314073,50.4811889907615],[-121.023052067281,50.481189709763],[-121.023057420414,50.4813603827478],[-121.02328225198,50.4813264099262],[-121.023297184403,50.4813216465411]]]}},{"type":"Feature","id":"824566967","properties":{"name":"iSP_3KPH_%TR_CR04","oid":"824566967","speedLimit":0.8333333},"geometry":{"type":"Polygon","coordinates":[[[-121.023301974048,50.4810684681324],[-121.023281829365,50.4810684681324],[-121.023279152798,50.4811865641314],[-121.023304227998,50.4811858451298],[-121.023301974048,50.4810684681324]]]}},{"type":"Feature","id":"806473874","properties":{"name":"iSP_4KPH_%TR_CR04_PermissionBlocker","oid":"806473874","speedLimit":1.1111112},"geometry":{"type":"Polygon","coordinates":[[[-121.022719186961,50.4815453458878],[-121.022686082062,50.4815430091328],[-121.022678474979,50.4815716793183],[-121.022700591869,50.4815727578206],[-121.022704677154,50.4815486712698],[-121.022719186961,50.4815453458878]]]}},{"type":"Feature","id":"801543391","properties":{"name":"iSP_4KPH_%TR_CR01_PermissionBlocker_2","oid":"801543391","speedLimit":1.1111112},"geometry":{"type":"Polygon","coordinates":[[[-121.033153850998,50.4645234343756],[-121.033153005766,50.4644740030214],[-121.033174559168,50.4644319414327],[-121.033106518036,50.4644595331159],[-121.033153850998,50.4645234343756]]]}},{"type":"Feature","id":"794004438","properties":{"name":"iSP_11KPH_%TR_Lower_Fuel_Bay","oid":"794004438","speedLimit":3.0555556},"geometry":{"type":"Polygon","coordinates":[[[-121.036774681673,50.4606955601804],[-121.036776794751,50.4607253987433],[-121.036747070778,50.4606709343784],[-121.037123198775,50.4605992139772],[-121.03753313603,50.4605561637615],[-121.037540883985,50.4605815085649],[-121.036942460116,50.46065035296],[-121.036774681673,50.4606955601804]]]}},{"type":"Feature","id":"776427243","properties":{"name":"iSP_7KPH_%TR_CR1_PermissionBlocker","oid":"776427243","speedLimit":1.9444444},"geometry":{"type":"Polygon","coordinates":[[[-121.034098256275,50.4652129568293],[-121.034049796338,50.4652332686222],[-121.034028665552,50.4652747010845],[-121.034114315673,50.4652256292311],[-121.034098256275,50.4652129568293]]]}},{"type":"Feature","id":"742345972","properties":{"name":"iSP_4KPH_%TR_CR01_Pit Side_Slow Bump","oid":"742345972","speedLimit":1.1111112},"geometry":{"type":"Polygon","coordinates":[[[-121.033397136784,50.4648829351336],[-121.033704378418,50.4647444374666],[-121.033754528817,50.4647765229092],[-121.033473066743,50.4649184358334],[-121.033397136784,50.4648829351336]]]}},{"type":"Feature","id":"707947583","properties":{"name":"iSP_25KPH_%TR_Permission Gate 1 From West Dump","oid":"707947583","speedLimit":6.9444447},"geometry":{"type":"Polygon","coordinates":[[[-121.038626161171,50.4619780791343],[-121.038852824073,50.461799587008],[-121.038137899135,50.4614083603081],[-121.037990265375,50.461671065487],[-121.038189739998,50.4615669900176],[-121.038664619203,50.4618461423561],[-121.038626161171,50.4619780791343]]]}},{"type":"Feature","id":"702602533","properties":{"name":"iSP_4KPH_%TR_CR01_Slow Bump","oid":"702602533","speedLimit":1.1111112},"geometry":{"type":"Polygon","coordinates":[[[-121.033357270034,50.4648079792255],[-121.033651974068,50.4646909617288],[-121.033695362616,50.4647316751897],[-121.033367553684,50.4648698133559],[-121.033357270034,50.4648079792255]]]}},{"type":"Feature","id":"939585115","properties":{"name":"SP_40KPH_%TR_HMT EMPTY22_ROUGH_SECTION_SEPT 17_NS","oid":"939585115","speedLimit":11.111111},"geometry":{"type":"Polygon","coordinates":[[[-121.007519530604,50.4327113021814],[-121.007046060118,50.4338271026588],[-121.006949421989,50.4340181773117],[-121.006753046548,50.4342996664051],[-121.005790046179,50.4352900909932],[-121.005290796133,50.4350887705688],[-121.005661148382,50.4351667822333],[-121.006611329408,50.4341291731707],[-121.00675614573,50.433927762871],[-121.006962382205,50.4334119691586],[-121.007226376162,50.432783202333],[-121.007030000721,50.4326537820601],[-121.007519530604,50.4327113021814]]]}},{"type":"Feature","id":"939584863","properties":{"name":"SP_40KPH_%TR_HMT EMPTY2_ROUGH_SECTION_SEPT 17_NS","oid":"939584863","speedLimit":11.111111},"geometry":{"type":"Polygon","coordinates":[[[-121.005961064676,50.4301700811988],[-121.005669600696,50.430397375553],[-121.005922184029,50.4302830543119],[-121.006321555891,50.4305570837647],[-121.006714306773,50.4308738039324],[-121.007137485987,50.4312429213356],[-121.007264834193,50.4315321396954],[-121.007411622722,50.4321903855832],[-121.007318788134,50.4325924871809],[-121.007053244586,50.4326145066023],[-121.007547564114,50.4326902713871],[-121.007644765731,50.4323019206933],[-121.007586444761,50.4319287589066],[-121.00741810283,50.4313516703149],[-121.007305827918,50.4311740769405],[-121.007118045664,50.4309839909147],[-121.006684160184,50.4306465994534],[-121.005961064676,50.4301700811988]]]}},{"type":"Feature","id":"939481274","properties":{"name":"SP_10KPH_%TR_LRNX_PIT_BOTTOM_SEP_17_NS1","oid":"939481274","speedLimit":2.7777777},"geometry":{"type":"Polygon","coordinates":[[[-121.034053459008,50.4452363984629],[-121.034060502604,50.4449962519566],[-121.033301062143,50.4447664410971],[-121.033467290995,50.4448876827277],[-121.033356143059,50.4469938179181],[-121.033813695019,50.4469741352516],[-121.033661975973,50.4469200303875],[-121.034053459008,50.4452363984629]]]}}]}