{"type":"FeatureCollection","features":[{"type":"Feature","id":"939585115","properties":{"name":"SP_40KPH_%TR_HMT EMPTY22_ROUGH_SECTION_SEPT 17_NS","oid":"939585115","speedLimit":11.111111},"geometry":{"type":"Polygon","coordinates":[[[-121.007520441543,50.4327113021814],[-121.007046934701,50.4338271026588],[-121.006950289151,50.4340181773117],[-121.00675389863,50.4342996664051],[-121.005790824315,50.4352900909932],[-121.005291535933,50.4350887705688],[-121.00566191662,50.4351667822333],[-121.006612170608,50.4341291731707],[-121.00675699805,50.433927762871],[-121.006963250361,50.4334119691586],[-121.00722726459,50.432783202333],[-121.00703087407,50.4326537820601],[-121.007520441543,50.4327113021814]]]}},{"type":"Feature","id":"939584863","properties":{"name":"SP_40KPH_%TR_HMT EMPTY2_ROUGH_SECTION_SEPT 17_NS","oid":"939584863","speedLimit":11.111111},"geometry":{"type":"Polygon","coordinates":[[[-121.005961855944,50.4301700811988],[-121.005670369584,50.430397375553],[-121.005922972312,50.4302830543119],[-121.00632237484,50.4305570837647],[-121.006715155881,50.4308738039324],[-121.00713836759,50.4312429213356],[-121.007265725574,50.4315321396954],[-121.007412525375,50.4321903855832],[-121.007319683658,50.4325924871809],[-121.00705411972,50.4326145066023],[-121.007548477206,50.4326902713871],[-121.007645686287,50.4323019206933],[-121.007587360838,50.4319287589066],[-121.00741900598,50.4313516703149],[-121.007306722448,50.4311740769405],[-121.007118925774,50.4309839909147],[-121.006685006977,50.4306465994534],[-121.005961855944,50.4301700811988]]]}},{"type":"Feature","id":"939481274","properties":{"name":"SP_10KPH_%TR_LRNX_PIT_BOTTOM_SEP_17_NS1","oid":"939481274","speedLimit":2.7777777},"geometry":{"type":"Polygon","coordinates":[[[-121.034056407423,50.4452363984629],[-121.034063451559,50.4449962519566],[-121.033303952782,50.4447664410971],[-121.033470194399,50.4448876827277],[-121.033359037928,50.4469938179181],[-121.033816625023,50.4469741352516],[-121.033664894327,50.4469200303875],[-121.034056407423,50.4452363984629]]]}},{"type":"Feature","id":"938217281","properties":{"name":"SP_25KPH_CRUSHER_YARD_WEATHER_SEPT_17_NS","oid":"938217281","speedLimit":6.9444447},"geometry":{"type":"Polygon","coordinates":[[[-121.036884487267,50.4639826553605],[-121.037243174687,50.4642846359972],[-121.034293090402,50.465499299183],[-121.032880459308,50.4644545001053],[-121.036884487267,50.4639826553605]]]}},{"type":"Feature","id":"938165680","properties":{"name":"SP_22SH_10kph_%TR_Sept17_NS","oid":"938165680","speedLimit":2.7777777},"geometry":{"type":"Polygon","coordinates":[[[-121.034632336007,50.4470558317988],[-121.03505625213,50.4472506812096],[-121.035498060359,50.4474474179994],[-121.035796168207,50.4469123011212],[-121.034872541055,50.446719159339],[-121.034632336007,50.4470558317988]]]}},{"type":"Feature","id":"938065675","properties":{"name":"SP_8KPH_CR01_YARD_RUTIING_SEP_17_NS","oid":"938065675","speedLimit":2.2222223},"geometry":{"type":"Polygon","coordinates":[[[-121.034290272748,50.4648013284615],[-121.034100081068,50.4648581295813],[-121.033941869766,50.4649071115595],[-121.03383043153,50.4650050755161],[-121.034045277687,50.4650689767758],[-121.033965256299,50.4650114566545],[-121.034243640566,50.4648882377697],[-121.034320280769,50.4649374893736],[-121.034290272748,50.4648013284615]]]}},{"type":"Feature","id":"937793793","properties":{"name":"SP_10KPH_%TR_21SH_LOAD_AREA_SEP_17_NS","oid":"937793793","speedLimit":2.7777777},"geometry":{"type":"Polygon","coordinates":[[[-121.039611695079,50.4523982826873],[-121.039004067881,50.4524050233265],[-121.039059716558,50.4534374196281],[-121.039659454323,50.4534069519388],[-121.039619584512,50.4529280070541],[-121.039611695079,50.4523982826873]]]}},{"type":"Feature","id":"937786749","properties":{"name":"SP_30KPH_%TR_24SH_Loaded_LANE_SEP_17_NS","oid":"937786749","speedLimit":8.333333},"geometry":{"type":"Polygon","coordinates":[[[-121.038411092487,50.4510853859193],[-121.038213997553,50.4510392799471],[-121.038254571778,50.4516608567576],[-121.038333888753,50.4527882511344],[-121.038496608302,50.452761018952],[-121.038404611882,50.4516753266631],[-121.038411092487,50.4510853859193]]]}},{"type":"Feature","id":"936513295","properties":{"name":"SP_30KPH_%TR_1635_FLATS_SEP_17_NS","oid":"936513295","speedLimit":8.333333},"geometry":{"type":"Polygon","coordinates":[[[-121.017435626925,50.4574539418461],[-121.01522869902,50.4585170754625],[-121.014499912678,50.4578797704938],[-121.016653586912,50.4569269137349],[-121.017435626925,50.4574539418461]]]}},{"type":"Feature","id":"936169885","properties":{"name":"SP_10KPH_%TR_24shl_loadplan_Sept_17_NS","oid":"936169885","speedLimit":2.7777777},"geometry":{"type":"Polygon","coordinates":[[[-121.039053658601,50.453593892333],[-121.038512668933,50.4536891600338],[-121.038693844118,50.4545086420115],[-121.039190596611,50.4544622664138],[-121.039182566295,50.4543766153582],[-121.03910113608,50.4539211278979],[-121.039078594843,50.4537567461763],[-121.039053658601,50.453593892333]]]}},{"type":"Feature","id":"934773555","properties":{"name":"SP_10KPH_NEW RAMP_SEPT 17_NS","oid":"934773555","speedLimit":2.7777777},"geometry":{"type":"Polygon","coordinates":[[[-121.033904113196,50.4443402529486],[-121.034415658374,50.4442041819117],[-121.03577616286,50.4443192221543],[-121.036278128014,50.4444736277298],[-121.035933106217,50.4447856743877],[-121.034623883043,50.4446108671441],[-121.03434620319,50.4446010707485],[-121.033904113196,50.4443402529486]]]}},{"type":"Feature","id":"934181339","properties":{"name":"SP_30KPH_TR%_1590_2_SEPT 16_NS_ROUGH_SECTION.","oid":"934181339","speedLimit":8.333333},"geometry":{"type":"Polygon","coordinates":[[[-121.009626074768,50.4401266344401],[-121.008922224668,50.4404385912228],[-121.010384728248,50.44179858259],[-121.011096326898,50.4414569669948],[-121.010562381366,50.4414850080539],[-121.009452789015,50.4404074944072],[-121.009626074768,50.4401266344401]]]}},{"type":"Feature","id":"934051091","properties":{"name":"iSP_17KPH_%TR_Ramp_Permission Blocker","oid":"934051091","speedLimit":4.7222223},"geometry":{"type":"Polygon","coordinates":[[[-121.039513781584,50.46102980601],[-121.039465740575,50.460771774341],[-121.039018297037,50.4607923557594],[-121.039077186016,50.4610450847923],[-121.039164674189,50.4609000262364],[-121.039380647408,50.4608869044588],[-121.039513781584,50.46102980601]]]}},{"type":"Feature","id":"933274269","properties":{"name":"SP_15KPH_%TR_21SH_EMPTY_LANE_SEP_17_NS","oid":"933274269","speedLimit":4.1666665},"geometry":{"type":"Polygon","coordinates":[[[-121.039410373663,50.4523696125018],[-121.039607045949,50.4523825545291],[-121.039539281358,50.4510066552533],[-121.039313164582,50.4510519523488],[-121.039419671923,50.4515133715716],[-121.039410373663,50.4523696125018]]]}},{"type":"Feature","id":"932281958","properties":{"name":"SP_15KPH_%TR_1185-1170_22shl_SEPT_17_NS","oid":"932281958","speedLimit":4.1666665},"geometry":{"type":"Polygon","coordinates":[[[-121.037375886215,50.4481142919054],[-121.037409416304,50.4479621332096],[-121.03698282341,50.4479088372222],[-121.035924935019,50.4473801014825],[-121.035633871307,50.4472469064517],[-121.035476223536,50.4475380121904],[-121.035551454912,50.4474434634911],[-121.036815454731,50.4479515279372],[-121.0372169705,50.4480556034066],[-121.03733531199,50.4481912250676],[-121.037375886215,50.4481142919054]]]}},{"type":"Feature","id":"932114358","properties":{"name":"SP_20KPH_%TR_23SH_LOADED_LANES_SEP_","oid":"932114358","speedLimit":5.5555553},"geometry":{"type":"Polygon","coordinates":[[[-121.042099261374,50.4671398808919],[-121.04126650358,50.4667318475316],[-121.040735375703,50.4664970036615],[-121.040689870582,50.4664766019935],[-121.040378237992,50.4667814586362],[-121.040594774742,50.4666720805306],[-121.041767341672,50.4671899413724],[-121.041839755393,50.4675479142521],[-121.042099261374,50.4671398808919]]]}},{"type":"Feature","id":"929009157","properties":{"name":"iSP_22KPH_%TR_Long_Single_Lane","oid":"929009157","speedLimit":6.111111},"geometry":{"type":"Polygon","coordinates":[[[-121.005682767264,50.4380559999496],[-121.004753082154,50.4382240665539],[-121.005177561808,50.438197553373],[-121.007937736178,50.4431705273575],[-121.00852648509,50.444534922609],[-121.008213584556,50.4465097501475],[-121.007835596202,50.446680243382],[-121.008937017354,50.4466469895619],[-121.008826283532,50.446592974573],[-121.009406297715,50.4448176699551],[-121.008767394552,50.4430684291422],[-121.008265711164,50.4415401914203],[-121.007262203506,50.4401562033774],[-121.006442547806,50.4389840511562],[-121.005863519801,50.4383130429915],[-121.005682767264,50.4380559999496]]]}},{"type":"Feature","id":"926367691","properties":{"name":"SP_25KPH_%TR_24SH_EMPTY_LANE_SEP_17_NS","oid":"926367691","speedLimit":6.9444447},"geometry":{"type":"Polygon","coordinates":[[[-121.038784995242,50.450857552314],[-121.03861382273,50.4512056389228],[-121.038639745152,50.4520121788733],[-121.038866707223,50.4535985658428],[-121.039045910051,50.4535756476695],[-121.038783022884,50.4517187363796],[-121.038784995242,50.450857552314]]]}},{"type":"Feature","id":"921770139","properties":{"name":"SP_20KPH_%TR_HIGHMONT_SEPT 17_NS","oid":"921770139","speedLimit":5.5555553},"geometry":{"type":"Polygon","coordinates":[[[-121.001747490075,50.4283060697689],[-121.001111263684,50.4282402811302],[-121.001000952509,50.4285433402691],[-121.001096048349,50.4288873824945],[-121.001583220816,50.4287564343434],[-121.001925424958,50.4286884887001],[-121.002548549256,50.4285670673191],[-121.002401890338,50.428187524394],[-121.001747490075,50.4283060697689]]]}},{"type":"Feature","id":"917773475","properties":{"name":"SP_15KPH_%TR_1200_CORNER_Sept_17_NS","oid":"917773475","speedLimit":4.1666665},"geometry":{"type":"Polygon","coordinates":[[[-121.037099756072,50.4446825875454],[-121.036925625023,50.4448621581739],[-121.036630053063,50.4448206358364],[-121.036415488672,50.4448699773154],[-121.0363239149,50.4449676716464],[-121.036255305012,50.4450821726378],[-121.036243048215,50.4451449953952],[-121.036264180624,50.4452673155281],[-121.036316870763,50.4453515285807],[-121.036185004532,50.445395297798],[-121.036089908691,50.4451943368743],[-121.036163872123,50.4449317215706],[-121.036260658555,50.4447914263998],[-121.036517487765,50.4447151223639],[-121.036714582699,50.4447117969819],[-121.03692393443,50.4447701259799],[-121.037094543411,50.4446836660476],[-121.037099756072,50.4446825875454]]]}},{"type":"Feature","id":"915576987","properties":{"name":"iSP_15KPH_%TR_Preventing Shifting","oid":"915576987","speedLimit":4.1666665},"geometry":{"type":"Polygon","coordinates":[[[-121.03699888404,50.4448633265514],[-121.037512965108,50.44531324175],[-121.037982245469,50.4457956917671],[-121.038526193674,50.4462190039096],[-121.039458837321,50.4468501074901],[-121.03991614265,50.4470998706417],[-121.040472065888,50.4471952282177],[-121.041225224941,50.447322940862],[-121.041643646638,50.4475097913809],[-121.042322137847,50.4480952383652],[-121.042704775331,50.4485279874026],[-121.042848193946,50.4487950065905],[-121.043009645551,50.4493917778487],[-121.043188848378,50.4501983177991],[-121.043326349919,50.4505014668132],[-121.043687995877,50.4511688799703],[-121.043858463975,50.4514891951457],[-121.0441274091,50.4522537633826],[-121.044384520075,50.4529383427009],[-121.044698265906,50.4537982685139],[-121.044737149538,50.454194887725],[-121.044572739397,50.4550719796992],[-121.044217151396,50.4568394651756],[-121.044052741255,50.4572075040765],[-121.043006546131,50.4583991592139],[-121.041906674688,50.4595375183639],[-121.041344834376,50.4600008249656],[-121.040373447979,50.460597686099],[-121.039925018262,50.4607311507554],[-121.039135934113,50.4608073649161],[-121.03849858066,50.4608389111076],[-121.03864636664,50.4611436778751],[-121.038759213703,50.4609497272162],[-121.039880217555,50.460879894194],[-121.040708185337,50.4606320184214],[-121.041512203055,50.4600580754614],[-121.042875102547,50.458700420849],[-121.044243919114,50.4571426141897],[-121.044429320782,50.4562903277678],[-121.044814916803,50.4544217327033],[-121.044811817383,50.4537867644896],[-121.044261952103,50.4523014871082],[-121.043834513912,50.4511860461315],[-121.043347341445,50.4503375344676],[-121.04305148772,50.4493098116759],[-121.042928919748,50.4486920096234],[-121.042241412045,50.4478873570519],[-121.041547987267,50.4473916055067],[-121.041093640475,50.447221921149],[-121.040460090856,50.4471304282061],[-121.039919101188,50.4470197918479],[-121.038822188282,50.4463334150258],[-121.038197514274,50.4458719059278],[-121.03715441857,50.4449070957687],[-121.037378562987,50.4446974169516],[-121.03699888404,50.4448633265514]]]}},{"type":"Feature","id":"910445950","properties":{"name":"SP_22KPH_%TR_1635_FLATS_SEP_17_NS","oid":"910445950","speedLimit":6.111111},"geometry":{"type":"Polygon","coordinates":[[[-121.017915191725,50.4571010918522],[-121.01775937543,50.4573817720689],[-121.016601319421,50.4571353342994],[-121.0171242761,50.4561458084632],[-121.017775013412,50.454239915195],[-121.018181882725,50.4539932077998],[-121.018534371306,50.4537516232905],[-121.019043944127,50.4536552770874],[-121.018868263367,50.4543417437847],[-121.018263453824,50.456072200683],[-121.018043535888,50.4566100138168],[-121.017988450742,50.4569257453575],[-121.017915191725,50.4571010918522]]]}},{"type":"Feature","id":"908328496","properties":{"name":"SP_25KPH_%TR_1445_SOFT_GROUND_SEPT_17_NS","oid":"908328496","speedLimit":6.9444447},"geometry":{"type":"Polygon","coordinates":[[[-121.039332465516,50.4644969211947],[-121.039941501541,50.4647092063923],[-121.039189751314,50.4666748666615],[-121.038827541825,50.4674279308742],[-121.038452793774,50.4678943831076],[-121.037915889705,50.4682380658321],[-121.037180904523,50.468025960385],[-121.038313883406,50.4667053343507],[-121.038794575268,50.4655660764488],[-121.039332465516,50.4644969211947]]]}},{"type":"Feature","id":"884401102","properties":{"name":"iSP_30KPH_%TR_Maint_Limit_Policy","oid":"884401102","speedLimit":8.333333},"geometry":{"type":"Polygon","coordinates":[[[-121.036993389614,50.4611014365361],[-121.03710947698,50.4611079075497],[-121.038295709534,50.4609922381808],[-121.038279367138,50.4603980733032],[-121.038120874071,50.4605659601571],[-121.037033822956,50.4607085920828],[-121.03674614043,50.460537919098],[-121.036993389614,50.4611014365361]]]}},{"type":"Feature","id":"883059532","properties":{"name":"iSP_22KPH_%TR_Brake_Ctrl","oid":"883059532","speedLimit":6.111111},"geometry":{"type":"Polygon","coordinates":[[[-121.027263465017,50.4773222006091],[-121.027031290284,50.4772100363727],[-121.027335737855,50.4769442754374],[-121.027717670926,50.4766326781554],[-121.028034375294,50.4763229682525],[-121.028191600417,50.4761690120529],[-121.028622419793,50.4756925836734],[-121.028908411727,50.4753259827755],[-121.029264985907,50.4748878412268],[-121.029473774107,50.474656951865],[-121.029692564981,50.4745406533698],[-121.02980259439,50.4744884358847],[-121.029953338907,50.4745928708549],[-121.029789774062,50.4745422711232],[-121.029557176681,50.4747917646493],[-121.029253010875,50.4751732848286],[-121.029074089813,50.4754782313465],[-121.02885431276,50.4757749992222],[-121.028697228521,50.4759749715188],[-121.028410109525,50.4762708406426],[-121.028042828258,50.4765702148987],[-121.027245150263,50.477219653018],[-121.027263465017,50.4773222006091]]]}},{"type":"Feature","id":"883053336","properties":{"name":"iSP_22KPH_%TR_Brake_Temp_Ctrl","oid":"883053336","speedLimit":6.111111},"geometry":{"type":"Polygon","coordinates":[[[-121.032466968506,50.4721453896949],[-121.032252122349,50.4722256482391],[-121.031489524153,50.471008468548],[-121.030817654432,50.4699234952605],[-121.030662401667,50.4696603407057],[-121.030597595613,50.4694578519038],[-121.030551245197,50.4692568909801],[-121.030597595613,50.4689730651317],[-121.030723826536,50.4686244392717],[-121.030885559906,50.4683756647472],[-121.031089980741,50.4680979504117],[-121.031689295858,50.4675366798534],[-121.032433156652,50.466893802623],[-121.032789449066,50.4665563212865],[-121.033148559135,50.4662225248328],[-121.033485409734,50.4658708432164],[-121.033780418162,50.4660342363108],[-121.033588395006,50.4659934329748],[-121.032920329119,50.4666522181137],[-121.032555583741,50.4669914070788],[-121.032179567745,50.467307857621],[-121.031775375204,50.4676685267564],[-121.031383016812,50.4680345884032],[-121.031148165307,50.4682865085593],[-121.03100981847,50.4684700336962],[-121.030906128784,50.4686546373354],[-121.030829629463,50.468853171629],[-121.030768768126,50.4691914618422],[-121.030777502855,50.4694007811585],[-121.030874711936,50.4696305021428],[-121.031028696755,50.4699352689104],[-121.031331594617,50.4704039680235],[-121.031531648088,50.4707111614212],[-121.031751284258,50.4710830649552],[-121.032147023835,50.471728997942],[-121.032382297988,50.4721452998197],[-121.032466968506,50.4721453896949]]]}},{"type":"Feature","id":"883050998","properties":{"name":"iSP_22KPH_%TR_4CR_Brake_Temp_Ctrl","oid":"883050998","speedLimit":6.111111},"geometry":{"type":"Polygon","coordinates":[[[-121.031800452329,50.4745591676589],[-121.032189711301,50.4743125501389],[-121.032491341218,50.474574895817],[-121.032792971135,50.4748022800464],[-121.032970765135,50.4748846955952],[-121.033179553335,50.4749348459509],[-121.033463432028,50.4749596515032],[-121.033667289333,50.474922083674],[-121.033828459172,50.4748626761738],[-121.033919610295,50.474810638439],[-121.034008929944,50.4747474561808],[-121.03405936596,50.4746582999929],[-121.034053589768,50.4745481130106],[-121.034057393602,50.4744837623749],[-121.033995264319,50.4743797767807],[-121.033876922829,50.4742597035275],[-121.033510064211,50.4739377705988],[-121.033061775376,50.4735601150526],[-121.032948505664,50.4734255718939],[-121.032823542686,50.4732210159627],[-121.032606724171,50.4728150497318],[-121.032253249411,50.4722091112043],[-121.032488241798,50.4721562645929],[-121.032431184294,50.4722057858223],[-121.032903704957,50.47304899485],[-121.033042897091,50.4733097227747],[-121.033250699112,50.4735470831501],[-121.033743647771,50.4739617672744],[-121.03409867224,50.474271297427],[-121.03420405252,50.4743946061869],[-121.034256742659,50.4744618328287],[-121.034263786795,50.4745929607301],[-121.034238850553,50.4746789712864],[-121.034184328938,50.4747917646493],[-121.034086838091,50.4748759777018],[-121.033973991028,50.4749378118322],[-121.033791407015,50.4750162728726],[-121.033531901033,50.4750645358493],[-121.033263942088,50.4750682207321],[-121.033072341581,50.475026428769],[-121.032808609117,50.4749166911626],[-121.0326578646,50.474835264241],[-121.032496272113,50.4747054844674],[-121.032145755891,50.4744132103512],[-121.031800452329,50.4745591676589]]]}},{"type":"Feature","id":"826307302","properties":{"name":"iSP_4KPH_%TR_CR04_Pockets","oid":"826307302","speedLimit":1.1111112},"geometry":{"type":"Polygon","coordinates":[[[-121.023299306869,50.4813216465411],[-121.023338754033,50.4814773103693],[-121.023543456634,50.4814378551612],[-121.023462449066,50.4811889907615],[-121.023054170926,50.481189709763],[-121.023059524469,50.4813603827478],[-121.0232843733,50.4813264099262],[-121.023299306869,50.4813216465411]]]}},{"type":"Feature","id":"824566967","properties":{"name":"iSP_3KPH_%TR_CR04","oid":"824566967","speedLimit":0.8333333},"geometry":{"type":"Polygon","coordinates":[[[-121.023304096882,50.4810684681324],[-121.023283950652,50.4810684681324],[-121.02328127388,50.4811865641314],[-121.023306351006,50.4811858451298],[-121.023304096882,50.4810684681324]]]}},{"type":"Feature","id":"806473874","properties":{"name":"iSP_4KPH_%TR_CR04_PermissionBlocker","oid":"806473874","speedLimit":1.1111112},"geometry":{"type":"Polygon","coordinates":[[[-121.022721265044,50.4815453458878],[-121.022688157603,50.4815430091328],[-121.022680549936,50.4815716793183],[-121.022702668524,50.4815727578206],[-121.022706754123,50.4815486712698],[-121.022721265044,50.4815453458878]]]}},{"type":"Feature","id":"801543391","properties":{"name":"iSP_4KPH_%TR_CR01_PermissionBlocker_2","oid":"801543391","speedLimit":1.1111112},"geometry":{"type":"Polygon","coordinates":[[[-121.033156730333,50.4645234343756],[-121.033155885037,50.4644740030214],[-121.033177440094,50.4644319414327],[-121.033109393738,50.4644595331159],[-121.033156730333,50.4645234343756]]]}},{"type":"Feature","id":"794004438","properties":{"name":"iSP_11KPH_%TR_Lower_Fuel_Bay","oid":"794004438","speedLimit":3.0555556},"geometry":{"type":"Polygon","coordinates":[[[-121.036777839043,50.4606955601804],[-121.036779952284,50.4607253987433],[-121.036750226029,50.4606709343784],[-121.037126382908,50.4605992139772],[-121.037536351641,50.4605561637615],[-121.03754410019,50.4605815085649],[-121.03694563037,50.46065035296],[-121.036777839043,50.4606955601804]]]}},{"type":"Feature","id":"776427243","properties":{"name":"iSP_7KPH_%TR_CR1_PermissionBlocker","oid":"776427243","speedLimit":1.9444444},"geometry":{"type":"Polygon","coordinates":[[[-121.034101208129,50.4652129568293],[-121.034052744472,50.4652332686222],[-121.034031612063,50.4652747010845],[-121.03411726876,50.4652256292311],[-121.034101208129,50.4652129568293]]]}},{"type":"Feature","id":"742345972","properties":{"name":"iSP_4KPH_%TR_CR01_Pit Side_Slow Bump","oid":"742345972","speedLimit":1.1111112},"geometry":{"type":"Polygon","coordinates":[[[-121.033400034802,50.4648829351336],[-121.033707300027,50.4647444374666],[-121.033757454278,50.4647765229092],[-121.033475970591,50.4649184358334],[-121.033400034802,50.4648829351336]]]}},{"type":"Feature","id":"707947583","properties":{"name":"iSP_25KPH_%TR_Permission Gate 1 From West Dump","oid":"707947583","speedLimit":6.9444447},"geometry":{"type":"Polygon","coordinates":[[[-121.038629460713,50.4619780791343],[-121.038856141019,50.461799587008],[-121.038141161184,50.4614083603081],[-121.037993516087,50.461671065487],[-121.038193006027,50.4615669900176],[-121.038667921697,50.4618461423561],[-121.038629460713,50.4619780791343]]]}},{"type":"Feature","id":"702602533","properties":{"name":"iSP_4KPH_%TR_CR01_Slow Bump","oid":"702602533","speedLimit":1.1111112},"geometry":{"type":"Polygon","coordinates":[[[-121.03336016499,50.4648079792255],[-121.033654891653,50.4646909617288],[-121.033698283533,50.4647316751897],[-121.033370449429,50.4648698133559],[-121.03336016499,50.4648079792255]]]}},{"type":"Feature","id":"940778315","properties":{"name":"SP_25KPH_%TR_HMT_SPILLING_ROCK_IN_CORNER_SEPT17_NS","oid":"940778315","speedLimit":6.9444447},"geometry":{"type":"Polygon","coordinates":[[[-121.004786753125,50.4367080518577],[-121.004772664853,50.4370436458152],[-121.004990046899,50.4372762428056],[-121.005123321958,50.4371688419542],[-121.004891992522,50.4369362449638],[-121.004884948386,50.4367573034616],[-121.005200525692,50.4367975675464],[-121.004800700515,50.436699154214],[-121.004786753125,50.4367080518577]]]}},{"type":"Feature","id":"940772885","properties":{"name":"SP_11KPH_%TR_1654_HMT_SEPT17_NS","oid":"940772885","speedLimit":3.0555556},"geometry":{"type":"Polygon","coordinates":[[[-121.004064447389,50.4264900516902],[-121.004415104494,50.4266376267513],[-121.004611354131,50.4261544577327],[-121.004380024695,50.4258055622471],[-121.003973296265,50.4255504964593],[-121.003538391289,50.4259173669828],[-121.003840021206,50.4258323450536],[-121.004183634175,50.4261097897635],[-121.004148554376,50.4264900516902],[-121.004064447389,50.4264900516902]]]}},{"type":"Feature","id":"940771585","properties":{"name":"SP_15KPH_%TR_1660_HMT_SEPT17_NS","oid":"940771585","speedLimit":4.1666665},"geometry":{"type":"Polygon","coordinates":[[[-121.002710987039,50.4281185002484],[-121.002605747642,50.4277113656401],[-121.002234099011,50.4276979742368],[-121.002507552382,50.4277963875693],[-121.002535588045,50.428114006489],[-121.00267590724,50.4280826400478],[-121.002710987039,50.4281185002484]]]}}]}