{"type":"FeatureCollection","features":[{"type":"Feature","id":"702602533","properties":{"name":"iSP_4KPH_%TR_CR01_SLOW BUMP","oid":"702602533","speedLimit":1.1111112},"geometry":{"type":"Polygon","coordinates":[[[-121.033359379897,50.4648078906127],[-121.03365412366,50.4646908733633],[-121.033697518058,50.4647315867381],[-121.033369664932,50.4648697246123],[-121.033359379897,50.4648078906127]]]}},{"type":"Feature","id":"707947583","properties":{"name":"iSP_22KPH_%TR_Permission Gate 1 from west dump_Jun","oid":"707947583","speedLimit":6.111111},"geometry":{"type":"Polygon","coordinates":[[[-121.03862898135,50.4619779965028],[-121.038855674808,50.4617995047538],[-121.037981446772,50.4613510285062],[-121.037744327387,50.4615422825052],[-121.037960454028,50.4614965361304],[-121.038667444566,50.4618460600035],[-121.03862898135,50.4619779965028]]]}},{"type":"Feature","id":"742345972","properties":{"name":"iSP_4KPH_%TR_CR01_PITSIDE_SLOW BUMP","oid":"742345972","speedLimit":1.1111112},"geometry":{"type":"Polygon","coordinates":[[[-121.033399252022,50.4648828463623],[-121.033706535075,50.464744348988],[-121.033756692236,50.4647764343628],[-121.033475192217,50.4649183469871],[-121.033399252022,50.4648828463623]]]}},{"type":"Feature","id":"776427243","properties":{"name":"iSP_7KPH_%TR_CR1_PermissionBlocker_DO_NOT_DELETE","oid":"776427243","speedLimit":1.9444444},"geometry":{"type":"Polygon","coordinates":[[[-121.034100466032,50.4652128673605],[-121.034051999563,50.4652331791104],[-121.034030865928,50.4652746114852],[-121.034116527595,50.4652255397354],[-121.034100466032,50.4652128673605]]]}},{"type":"Feature","id":"794004438","properties":{"name":"iSP_11KPH_%TR_LOWER_FUEL_BAY","oid":"794004438","speedLimit":3.0555556},"geometry":{"type":"Polygon","coordinates":[[[-121.036777252247,50.4606954802597],[-121.036779365611,50.4607253187595],[-121.036749637631,50.4606708545098],[-121.037125816335,50.4605991342602],[-121.037535808854,50.4605560841355],[-121.037543557854,50.4605814288853],[-121.03694505331,50.4606502731349],[-121.036777252247,50.4606954802597]]]}},{"type":"Feature","id":"801543391","properties":{"name":"iSP_4KPH_%TR_CR1_PermissionBlocker_DO_NOT_DELETE_","oid":"801543391","speedLimit":1.1111112},"geometry":{"type":"Polygon","coordinates":[[[-121.033155933437,50.4645233463642],[-121.033155088091,50.4644739151145],[-121.033176644399,50.4644318536147],[-121.033108594094,50.4644594452395],[-121.033155933437,50.4645233463642]]]}},{"type":"Feature","id":"806473874","properties":{"name":"iSP_4KPH_%TR_Permission Blocker - DO NOT DELETE","oid":"806473874","speedLimit":1.1111112},"geometry":{"type":"Polygon","coordinates":[[[-121.022719862669,50.481545221898],[-121.022686753308,50.481542885148],[-121.022679145199,50.4815715552729],[-121.022701265071,50.4815726337729],[-121.022705350907,50.481548547273],[-121.022719862669,50.481545221898]]]}},{"type":"Feature","id":"824566967","properties":{"name":"iSP_4Cr_3KPH","oid":"824566967","speedLimit":0.8333333},"geometry":{"type":"Polygon","coordinates":[[[-121.023302728324,50.4810683451506],[-121.023282580925,50.4810683451506],[-121.023279903998,50.4811864408999],[-121.023304982578,50.4811857218999],[-121.023302728324,50.4810683451506]]]}},{"type":"Feature","id":"826307302","properties":{"name":"iSP_4KPH_TR%_CRUSHER POCKETS","oid":"826307302","speedLimit":1.1111112},"geometry":{"type":"Polygon","coordinates":[[[-121.023297938033,50.4813215230242],[-121.023337387486,50.4814771865234],[-121.023542101964,50.4814377313986],[-121.023461089696,50.4811888675249],[-121.023052787867,50.4811895865249],[-121.023058141721,50.481360259149],[-121.023283003598,50.4813262863992],[-121.023297938033,50.4813215230242]]]}},{"type":"Feature","id":"835348611","properties":{"name":"SP_30KPH_%TR_switchback to 1 gate_AUG_26_DS","oid":"835348611","speedLimit":8.333333},"geometry":{"type":"Polygon","coordinates":[[[-121.039920810015,50.4634034139952],[-121.039548576256,50.4634578782449],[-121.039801757204,50.4633742046204],[-121.039545476656,50.4629227624978],[-121.039365558977,50.4625823159996],[-121.039179442097,50.4622611926263],[-121.038987266909,50.4620179908776],[-121.03874634347,50.4618369826286],[-121.03856332619,50.4617300313792],[-121.03802653186,50.4614322755058],[-121.037959326901,50.4614147498808],[-121.037840414981,50.4614576202556],[-121.037954959283,50.4613477930062],[-121.03814544378,50.461385630381],[-121.038484004614,50.46157041338],[-121.038867791426,50.4617907868788],[-121.039055317214,50.4619262285031],[-121.039239884294,50.462130514377],[-121.039454038462,50.4625355809998],[-121.03958210829,50.4627535278737],[-121.039759067261,50.463060990247],[-121.039862762964,50.463259434246],[-121.039944761468,50.4633238746206],[-121.039920810015,50.4634034139952]]]}},{"type":"Feature","id":"849417440","properties":{"name":"iSP_Permissions_35_KPH_June_19_NS","oid":"849417440","speedLimit":9.722222},"geometry":{"type":"Polygon","coordinates":[[[-121.032695924647,50.4660341451061],[-121.033010534028,50.4660148219812],[-121.03321750276,50.4658139513573],[-121.033806285833,50.4653794956096],[-121.033727105147,50.4652507047353],[-121.033963238295,50.4654001668595],[-121.033427007529,50.4658084689823],[-121.033024623118,50.4661880111053],[-121.032695924647,50.4660341451061]]]}},{"type":"Feature","id":"853029148","properties":{"name":"SP_15KPH_%TR_1635 Flats_AUG_24_NS","oid":"853029148","speedLimit":4.1666665},"geometry":{"type":"Polygon","coordinates":[[[-121.018590350382,50.4569708805297],[-121.017426591545,50.457280859403],[-121.015789016611,50.4579429685244],[-121.01482490018,50.4590964242683],[-121.018349426942,50.4588930371444],[-121.020692583505,50.4589871362689],[-121.020240887279,50.4572316977783],[-121.019423156493,50.457096525779],[-121.018968924231,50.4569999101545],[-121.018590350382,50.4569708805297]]]}},{"type":"Feature","id":"855316169","properties":{"name":"SP_20KPH_TR%_CRUSHER YARD EMPTY_AUG_24_NS","oid":"855316169","speedLimit":5.5555553},"geometry":{"type":"Polygon","coordinates":[[[-121.037912692013,50.4622348592515],[-121.037771237549,50.4621194597521],[-121.037596673723,50.4622033131266],[-121.037546234781,50.4622375555014],[-121.037609353904,50.4622265008765],[-121.037905788359,50.4624612543752],[-121.037947492065,50.463258355746],[-121.037501572366,50.4637414338684],[-121.037077913428,50.4639814001171],[-121.03645221694,50.4642045597409],[-121.036236653863,50.4641030908664],[-121.036399241962,50.4643263403653],[-121.036720895887,50.4642316121158],[-121.037063119884,50.4640565356167],[-121.037842387454,50.4636953279936],[-121.037980319645,50.4635589876194],[-121.038131918254,50.4633172238707],[-121.038186020359,50.4629460401226],[-121.038121633218,50.4624941486251],[-121.037912692013,50.4622348592515]]]}},{"type":"Feature","id":"859384545","properties":{"name":"SP_20KPH_TR%_MAINT_CREW_L1590_DUST_AUG_20_NS","oid":"859384545","speedLimit":5.5555553},"geometry":{"type":"Polygon","coordinates":[[[-121.013533916861,50.4515903339335],[-121.013429657594,50.4510354456865],[-121.012756480873,50.448326792951],[-121.012536127505,50.4488172408233],[-121.013394153088,50.4517792511825],[-121.013277354531,50.4521784759303],[-121.013116738905,50.4521877330553],[-121.013442901339,50.4522149651801],[-121.013533916861,50.4515903339335]]]}},{"type":"Feature","id":"863534413","properties":{"name":"SP_20KPH_%TRAC_1590_AUG_24_NS","oid":"863534413","speedLimit":5.5555553},"geometry":{"type":"Polygon","coordinates":[[[-121.012339443808,50.4562542172835],[-121.013045448109,50.4555690102872],[-121.013346109291,50.4553101702886],[-121.013523631825,50.4551322177895],[-121.013057705618,50.4549759251654],[-121.013287216894,50.4550942006647],[-121.011899441526,50.4565733634068],[-121.011627522089,50.456541278032],[-121.012024693537,50.4566649460313],[-121.012339443808,50.4562542172835]]]}},{"type":"Feature","id":"878230085","properties":{"name":"SP_20KPH_TR%_PUNCH_OUT_L1590_DMP_AUG_24_NS1","oid":"878230085","speedLimit":5.5555553},"geometry":{"type":"Polygon","coordinates":[[[-121.01365282878,50.4533275277992],[-121.013645220672,50.4527796498021],[-121.013741026484,50.4524494490539],[-121.013097859524,50.4524617619288],[-121.013065454617,50.4528629639267],[-121.013204936608,50.453367432299],[-121.013610279729,50.4545820030425],[-121.013328920601,50.4549546247905],[-121.013044180091,50.4549500411655],[-121.013783293754,50.4551889289142],[-121.014112978461,50.4546825731669],[-121.014059299028,50.454296110669],[-121.01365282878,50.4533275277992]]]}},{"type":"Feature","id":"883050998","properties":{"name":"iSP_22kph_%TR_4CR_Brake_Temp_CTRL_NOREMOVE","oid":"883050998","speedLimit":6.111111},"geometry":{"type":"Polygon","coordinates":[[[-121.03179957674,50.4745590584354],[-121.032188858297,50.4743124414368],[-121.032490505715,50.4745747865603],[-121.032792153132,50.4748021703091],[-121.032969957448,50.4748845856837],[-121.033178757763,50.4749347359334],[-121.033462652927,50.4749595414333],[-121.033666522059,50.4749219736835],[-121.033827701249,50.4748625663088],[-121.033918857662,50.4748105286841],[-121.034008182493,50.4747473465594],[-121.034058621435,50.4746581905599],[-121.034052844908,50.4745480038105],[-121.034056648962,50.4744836533108],[-121.033994516075,50.4743796679364],[-121.033876167719,50.474259594937],[-121.033509287815,50.4739376626888],[-121.03306097297,50.4735600079408],[-121.032947696686,50.4734254650665],[-121.032822726458,50.4732209095676],[-121.032605895362,50.4728149441948],[-121.032252400093,50.472209006948],[-121.032487406115,50.4721561604483],[-121.0324303453,50.472205681573],[-121.03290289338,50.4730488888185],[-121.033042093589,50.4733096161921],[-121.033249907667,50.4735469760659],[-121.033742884927,50.4739616593136],[-121.034097929996,50.474271188812],[-121.03420331639,50.4743944973113],[-121.034256009586,50.474461723811],[-121.034263054131,50.4745928514353],[-121.034238116442,50.4746788618098],[-121.034183591664,50.4747916549342],[-121.034086095161,50.4748758678087],[-121.033973241549,50.4749377018084],[-121.033790646943,50.475016162683],[-121.033531125904,50.4750644255577],[-121.033263151412,50.4750681104327],[-121.033071539787,50.4750263185579],[-121.032807792022,50.4749165811835],[-121.032657038759,50.474835154434],[-121.032495436896,50.4747053749346],[-121.032144900336,50.4744131014362],[-121.03179957674,50.4745590584354]]]}},{"type":"Feature","id":"883053336","properties":{"name":"iSP_22kph_%TR_Brake_Temp_CTRL_NOREMOVE","oid":"883053336","speedLimit":6.111111},"geometry":{"type":"Polygon","coordinates":[[[-121.032466131589,50.4721452855734],[-121.032251272966,50.4722255439479],[-121.031488630523,50.4710083668294],[-121.030816721819,50.4699233958353],[-121.030661460047,50.4696602418367],[-121.030596650233,50.4694577534628],[-121.030550297127,50.4692567929638],[-121.030596650233,50.4689729677154],[-121.030722888479,50.4686243425922],[-121.030884631233,50.4683755685936],[-121.031089063929,50.468097854845],[-121.031688413819,50.4675365854731],[-121.032432317773,50.4668937096015],[-121.03278863086,50.4665562289783],[-121.033147761765,50.4662224332301],[-121.033484631907,50.465870752357],[-121.033779657452,50.4660341451061],[-121.033587623155,50.4659933418563],[-121.032919518506,50.4666521256028],[-121.032554751965,50.466991313851],[-121.032178714152,50.4673077637243],[-121.031774498159,50.4676684320974],[-121.031382117002,50.4680344929704],[-121.031147251871,50.468286412594],[-121.031008897007,50.468469937343],[-121.030905201304,50.4686545405921],[-121.030828697546,50.468853074466],[-121.030767832677,50.4691913639642],[-121.030776567912,50.4694006828381],[-121.030873782634,50.4696304033368],[-121.031027776388,50.4699351694602],[-121.031330691823,50.4704038675827],[-121.031530756902,50.470711060331],[-121.031750405815,50.4710829630791],[-121.032146168354,50.4717288947006],[-121.032381456158,50.4721451956984],[-121.032466131589,50.4721452855734]]]}},{"type":"Feature","id":"883059532","properties":{"name":"iSP_22kph_%TR_Brake_CTRL_NOREMOVE","oid":"883059532","speedLimit":6.111111},"geometry":{"type":"Polygon","coordinates":[[[-121.027262326186,50.4773220855456],[-121.027030137982,50.4772099215462],[-121.027334603218,50.4769441611727],[-121.027716558449,50.4766325645493],[-121.028033281193,50.476322855301],[-121.028190515437,50.4761688994268],[-121.02862135981,50.4756924720544],[-121.028907368338,50.4753258719313],[-121.029263963207,50.4748877313087],[-121.029472763521,50.4746568424349],[-121.029691567089,50.4745405441855],[-121.029801602882,50.4744883268108],[-121.029952356146,50.4745927615602],[-121.02978878181,50.4745421619355],[-121.029556170934,50.4747916549342],[-121.02925198748,50.4751731743071],[-121.029073056037,50.4754781201805],[-121.028853266232,50.4757748874289],[-121.028696172879,50.4759748593028],[-121.028409037224,50.4762707278013],[-121.028041734647,50.4765701014247],[-121.027244010369,50.4772195381712],[-121.027262326186,50.4773220855456]]]}},{"type":"Feature","id":"891249991","properties":{"name":"SP_30KPH_TR%_1590 #1_AUG_24_NS","oid":"891249991","speedLimit":8.333333},"geometry":{"type":"Polygon","coordinates":[[[-121.012956968624,50.4498606895678],[-121.013847540005,50.4497487951934],[-121.01337893687,50.4450041142188],[-121.012138815166,50.4430837551041],[-121.011299528073,50.4419102572353],[-121.010529700193,50.4421496842341],[-121.011008729254,50.4427016066061],[-121.011240776567,50.4430298301044],[-121.011456339645,50.4435199184767],[-121.011774330407,50.4445106105964],[-121.012956968624,50.4498606895678]]]}},{"type":"Feature","id":"893804793","properties":{"name":"SP_20KPH_%TR_1590Dynamic_AUG_24_NS","oid":"893804793","speedLimit":5.5555553},"geometry":{"type":"Polygon","coordinates":[[[-121.011186533571,50.4418407838607],[-121.010484192433,50.4421100493593],[-121.005981882823,50.438048148756],[-121.006514450426,50.437681638508],[-121.010067296259,50.4407333441166],[-121.011186533571,50.4418407838607]]]}},{"type":"Feature","id":"903864124","properties":{"name":"SP_15KPH_%TR_OLD_GARBAGEDUMP_AUG_24_NS","oid":"903864124","speedLimit":4.1666665},"geometry":{"type":"Polygon","coordinates":[[[-121.04258519783,50.4670021887259],[-121.042132374477,50.4673287944742],[-121.040894084354,50.4666614726027],[-121.040723747256,50.4661230314806],[-121.04226438925,50.4668263033519],[-121.04258519783,50.4670021887259]]]}},{"type":"Feature","id":"903865068","properties":{"name":"SP_15KPH_%TR_OLD_GARBAGE_DUMP_AUG_24_NS","oid":"903865068","speedLimit":4.1666665},"geometry":{"type":"Polygon","coordinates":[[[-121.042926717373,50.4672014415998],[-121.042599568702,50.4670067723509],[-121.042142800403,50.4673430845991],[-121.042537294924,50.4674834693483],[-121.043338682365,50.4678202309715],[-121.043755860321,50.468475509593],[-121.043667239945,50.4685886622174],[-121.04433943043,50.4682702350941],[-121.044047927157,50.4682660109691],[-121.043766286248,50.4678701115963],[-121.043313744676,50.4674093224737],[-121.042926717373,50.4672014415998]]]}},{"type":"Feature","id":"903996942","properties":{"name":"MRK_CULVERT_1185EL_JULY_6_DS","oid":"903996942","speedLimit":1.9444444},"geometry":{"type":"Polygon","coordinates":[[[-121.036707933924,50.4471634509572],[-121.036651859346,50.4471421505823],[-121.03706255632,50.4468897815837],[-121.037120744262,50.4469100034586],[-121.036707933924,50.4471634509572]]]}},{"type":"Feature","id":"908328496","properties":{"name":"SP_15KPH_%TR_9019_SOFT_GROUND_AUG_24_NS","oid":"908328496","speedLimit":4.1666665},"geometry":{"type":"Polygon","coordinates":[[[-121.038886248134,50.4644516261146],[-121.038900619006,50.464753066863],[-121.039282151564,50.4648803298623],[-121.039728353045,50.4650715838613],[-121.039264821983,50.4662040987302],[-121.038928656295,50.466979180726],[-121.037505235529,50.4694615282127],[-121.035259575469,50.4690833342148],[-121.035228861253,50.4668159677269],[-121.037881696015,50.4651399787359],[-121.038520777138,50.4648144514876],[-121.038886248134,50.4644516261146]]]}},{"type":"Feature","id":"910445950","properties":{"name":"SP_20KPH_%TR_1635_FLATS_AUG_24_NS","oid":"910445950","speedLimit":5.5555553},"geometry":{"type":"Polygon","coordinates":[[[-121.020225671061,50.4571641117786],[-121.019044582644,50.4569612639047],[-121.018650933469,50.4569226176549],[-121.017842924155,50.4571469456537],[-121.018448895918,50.4564124871576],[-121.018503420696,50.4555079851625],[-121.019218442015,50.4555079851625],[-121.019236616941,50.4564588626574],[-121.019424424511,50.4568918804051],[-121.019757772382,50.4570619239042],[-121.020225671061,50.4571641117786]]]}},{"type":"Feature","id":"917291012","properties":{"name":"SP_15KPH_%TR_CORNER_RUTS_AUG_24_NS","oid":"917291012","speedLimit":4.1666665},"geometry":{"type":"Polygon","coordinates":[[[-121.040610611863,50.4662214446051],[-121.040684861367,50.4661073033557],[-121.040422945183,50.4659262951067],[-121.040121156875,50.4658981642318],[-121.0400170385,50.4663106006046],[-121.039934053759,50.4664859467287],[-121.03999520041,50.4668201019769],[-121.040667390896,50.4667393043523],[-121.040549465212,50.466622376978],[-121.04053199474,50.4663773777293],[-121.040610611863,50.4662214446051]]]}},{"type":"Feature","id":"917773475","properties":{"name":"SP_11KPH_%TR_1200_CORNER_AUG_24_NS","oid":"917773475","speedLimit":3.0555556},"geometry":{"type":"Polygon","coordinates":[[[-121.037099187954,50.4446825414705],[-121.036925046802,50.4448621117195],[-121.036629457693,50.4448205894698],[-121.036414880852,50.4448699308445],[-121.036323301766,50.444967624969],[-121.036254687898,50.4450821257184],[-121.03624243039,50.445144948343],[-121.036263564025,50.4452672682174],[-121.036316257221,50.4453514810919],[-121.036184383339,50.4453952502167],[-121.036089281981,50.4451942897178],[-121.036163249704,50.4449316749692],[-121.036260041752,50.4447913800949],[-121.036516885863,50.4447150762203],[-121.036713992233,50.4447117508453],[-121.036923356111,50.44477007972],[-121.037093974991,50.4446836199705],[-121.037099187954,50.4446825414705]]]}},{"type":"Feature","id":"920440343","properties":{"name":"iSP_17KPH_CAL_PAD_ROAD_LIMIT_AUG_23_NS","oid":"920440343","speedLimit":4.7222223},"geometry":{"type":"Polygon","coordinates":[[[-121.005955395333,50.4378307411322],[-121.005969061751,50.4376130638834],[-121.005586824738,50.4375782822586],[-121.00528658623,50.437682717008],[-121.005191062199,50.4378350551322],[-121.00528658623,50.4381615710054],[-121.005989490931,50.4392586751246],[-121.007470395184,50.4413700186132],[-121.007675109662,50.4416486311117],[-121.00778430011,50.442153638734],[-121.00793448981,50.4426629603563],[-121.008118775107,50.4432332172283],[-121.008323489586,50.443651135976],[-121.008685156527,50.4445610304711],[-121.008760251377,50.4449223279692],[-121.008760251377,50.4451791907178],[-121.008692060181,50.4456188592155],[-121.008494108466,50.4462283015872],[-121.008944536674,50.4462152697123],[-121.009135584735,50.4457321017149],[-121.009319870033,50.4449180139692],[-121.009217442348,50.4444521918467],[-121.008999061453,50.4437991601002],[-121.008773917794,50.4433769273525],[-121.008460012868,50.4427369274809],[-121.008296156751,50.4420752677345],[-121.008241631973,50.4417444378612],[-121.007920823393,50.4411958408642],[-121.006815252498,50.4398332459965],[-121.006603775257,50.4394936982483],[-121.006228441898,50.4387797312521],[-121.005989490931,50.4383879661292],[-121.005934966153,50.438057136256],[-121.005955395333,50.4378307411322]]]}},{"type":"Feature","id":"921284584","properties":{"name":"SP_22kph_rough ground_23SH_AUG 24_NS","oid":"921284584","speedLimit":6.111111},"geometry":{"type":"Polygon","coordinates":[[[-121.039975334793,50.4679545940958],[-121.040298679409,50.4674446433486],[-121.040047189152,50.4668716003516],[-121.04067584435,50.466802845977],[-121.0408825313,50.4674217252237],[-121.040343905388,50.4682543272192],[-121.039116604756,50.469788583336],[-121.039354287705,50.4704370314575],[-121.039939548505,50.4707935655806],[-121.039580699381,50.4711136104539],[-121.03866335873,50.4705577335819],[-121.0384036968,50.4695219242124],[-121.039975334793,50.4679545940958]]]}},{"type":"Feature","id":"921727643","properties":{"name":"SP_35KPH_%TR_ HIGHMONT TRIAL_Aug 24_NS","oid":"921727643","speedLimit":9.722222},"geometry":{"type":"Polygon","coordinates":[[[-121.012709423312,50.4365926231388],[-121.010156621089,50.4366189565137],[-121.007266948724,50.4370210572615],[-121.006148556758,50.4371700700107],[-121.005263761904,50.4370777683862],[-121.004924355725,50.4368541593874],[-121.005302788683,50.4361088260164],[-121.00597047066,50.4354592095199],[-121.006755092083,50.4347244813988],[-121.007317105885,50.4339045517782],[-121.00767468699,50.4330512785328],[-121.007912510829,50.4323924049113],[-121.007906875193,50.4319202915389],[-121.007795571382,50.4313843669167],[-121.007511817109,50.4310045551688],[-121.006988830087,50.4305644372961],[-121.005753498673,50.4297835134253],[-121.004890964582,50.4292687993031],[-121.00411761443,50.4288925825551],[-121.003316649662,50.4284986604322],[-121.003115739238,50.428531734432],[-121.004389815649,50.4291669709286],[-121.005350973371,50.4296953460508],[-121.006574469949,50.4304919980465],[-121.007130848115,50.4309175561692],[-121.007500827619,50.4313874226667],[-121.00767158739,50.4318533346642],[-121.007636787338,50.4325370137856],[-121.007399667952,50.433202538157],[-121.007173115385,50.4338687815284],[-121.006590672403,50.4345639646497],[-121.006158560012,50.4350394033972],[-121.00574518611,50.4354069022702],[-121.005112585968,50.4360621808917],[-121.004793186297,50.4366454696386],[-121.004711751356,50.436933069637],[-121.004893359727,50.4370848685112],[-121.005450865019,50.4372766617602],[-121.006283812022,50.4372647083852],[-121.007586489286,50.4371448151359],[-121.0088202709,50.4369810628868],[-121.009459070242,50.4368811218873],[-121.011037330107,50.4367892696378],[-121.012887791192,50.4367962798877],[-121.012878492392,50.4364188947648],[-121.012709423312,50.4365926231388]]]}},{"type":"Feature","id":"922262468","properties":{"name":"SP_20kph_HMT_DUMP_AUG_24_NS","oid":"922262468","speedLimit":5.5555553},"geometry":{"type":"Polygon","coordinates":[[[-121.012501609234,50.4364264442647],[-121.012481743617,50.4374171363844],[-121.016364133266,50.4384077386291],[-121.017180455142,50.4369598523869],[-121.016523480874,50.4359057085175],[-121.014771361638,50.4353087587707],[-121.012899907809,50.4352072000213],[-121.012501609234,50.4364264442647]]]}},{"type":"Feature","id":"922385545","properties":{"name":"SP_20KPH_RUTS_AUG 24_NS","oid":"922385545","speedLimit":5.5555553},"geometry":{"type":"Polygon","coordinates":[[[-121.007511817109,50.4337191396542],[-121.00687034084,50.4335257286553],[-121.006518958935,50.4340722585273],[-121.007226231254,50.434318875526],[-121.007511817109,50.4337191396542]]]}},{"type":"Feature","id":"923351007","properties":{"name":"iSP_17KPH_PERMISSIONS_AUG 18_NS","oid":"923351007","speedLimit":4.7222223},"geometry":{"type":"Polygon","coordinates":[[[-121.038853984118,50.4608772973837],[-121.038873427062,50.4611348791324],[-121.038784102231,50.4608896102587],[-121.038539374737,50.4608896102587],[-121.038535570683,50.460830202884],[-121.038881176061,50.460822743259],[-121.038853984118,50.4608772973837]]]}},{"type":"Feature","id":"923607825","properties":{"name":"MRK_CROSS DITCH ","oid":"923607825","speedLimit":2.7777777},"geometry":{"type":"Polygon","coordinates":[[[-121.035186030419,50.4458453442143],[-121.035617438356,50.4454860239662],[-121.035587005921,50.4454713743413],[-121.03513770484,50.4458265603394],[-121.035186030419,50.4458453442143]]]}},{"type":"Feature","id":"924222108","properties":{"name":"sp_11kph_rough ground_23SH _AUG 24_NS","oid":"924222108","speedLimit":3.0555556},"geometry":{"type":"Polygon","coordinates":[[[-121.039474326752,50.4712557927031],[-121.039829653602,50.4714069624523],[-121.041446235792,50.4722544836978],[-121.041822696278,50.4718505854499],[-121.039781046242,50.4709826625796],[-121.039644382068,50.4710717287041],[-121.039474326752,50.4712557927031]]]}},{"type":"Feature","id":"924266047","properties":{"name":"SP_12KPH_%TR_CROSS DITCH_AUG_24 NS ","oid":"924266047","speedLimit":3.3333333},"geometry":{"type":"Polygon","coordinates":[[[-121.037616116668,50.4473122839564],[-121.037894094414,50.4474714525806],[-121.037657679483,50.4477506942041],[-121.037462968259,50.4476920058294],[-121.037268116144,50.4475133343303],[-121.037616116668,50.4473122839564]]]}},{"type":"Feature","id":"925208014","properties":{"name":"SP_18KPH_BAD RAMPS_AUG 24_NS","oid":"925208014","speedLimit":5},"geometry":{"type":"Polygon","coordinates":[[[-121.03676513563,50.4451605865929],[-121.036033630075,50.4452368904675],[-121.03630512684,50.4456359354654],[-121.037266566344,50.4467980192092],[-121.037919736558,50.4474347835807],[-121.038246462556,50.4478045293288],[-121.038872018153,50.4475375107052],[-121.036870944696,50.4452749974673],[-121.03676513563,50.4451605865929]]]}},{"type":"Feature","id":"925558402","properties":{"name":"SP_15KPH_LAKE2_AUG 24_NS","oid":"925558402","speedLimit":4.1666665},"geometry":{"type":"Polygon","coordinates":[[[-121.025278018746,50.4783481884151],[-121.025271678656,50.47837847629],[-121.025225889113,50.4784257505397],[-121.025197570042,50.4784830907894],[-121.025186439661,50.4785364765391],[-121.0251533303,50.4786280591636],[-121.025082321286,50.4787307862881],[-121.025000181891,50.4788123029126],[-121.024911843296,50.4788686545373],[-121.024853514464,50.4789109856621],[-121.024719386327,50.4789512496619],[-121.02460413757,50.4789834249117],[-121.024498328504,50.4789884579117],[-121.024400550219,50.4789905250367],[-121.025243218694,50.4783502555401],[-121.025278018746,50.4783481884151]]]}},{"type":"Feature","id":"925953053","properties":{"name":"SP_10KPH_TR%_CR4_AUG24_NS","oid":"925953053","speedLimit":2.7777777},"geometry":{"type":"Polygon","coordinates":[[[-121.023426148753,50.4818267103965],[-121.023320621468,50.4815908783978],[-121.0226605476,50.481731982147],[-121.022802424737,50.4819993602706],[-121.02323481891,50.4818856683962],[-121.023621000868,50.4820624525202],[-121.023426148753,50.4818287775215],[-121.023426148753,50.4818267103965]]]}},{"type":"Feature","id":"926023128","properties":{"name":"SP_10KPH_TR%_4CR_1_AUG24_NS","oid":"926023128","speedLimit":2.7777777},"geometry":{"type":"Polygon","coordinates":[[[-121.02286230337,50.4811968663999],[-121.02283581588,50.4815104402732],[-121.022151508778,50.4816164028976],[-121.02188578854,50.4812731702745],[-121.021985398406,50.4808324232768],[-121.022417229016,50.4808789785266],[-121.02251021701,50.4812223010247],[-121.022822431245,50.4810188240258],[-121.022981919744,50.4812604080245],[-121.02286230337,50.4811968663999]]]}},{"type":"Feature","id":"926367691","properties":{"name":"SP_10KPH_%TR_Aug25_NS","oid":"926367691","speedLimit":2.7777777},"geometry":{"type":"Polygon","coordinates":[[[-121.03876508196,50.4500238126919],[-121.037839992308,50.4500348673168],[-121.038207435776,50.4520286543061],[-121.038181511851,50.4523871656792],[-121.038951057948,50.4525305163034],[-121.039076450849,50.4524588859288],[-121.038821297429,50.4510165719366],[-121.03876508196,50.4500238126919]]]}},{"type":"Feature","id":"926715370","properties":{"name":"speed limit 30 truck single lane","oid":"926715370","speedLimit":4.1666665},"geometry":{"type":"Polygon","coordinates":[[[-121.037522424219,50.4458270097144],[-121.038065417749,50.4456007044656],[-121.036950688946,50.4446299645958],[-121.03666820269,50.4451352418431],[-121.03743493097,50.445703701215],[-121.037522424219,50.4458270097144]]]}}]}