{"type":"FeatureCollection","features":[{"type":"Feature","id":"702602533","properties":{"name":"iSP_4KPH_%TR_CR01_SLOW BUMP","oid":"702602533","speedLimit":1.1111112},"geometry":{"type":"Polygon","coordinates":[[[-121.033358116303,50.4648077998818],[-121.033652868742,50.4646907834298],[-121.033696264417,50.4647314965272],[-121.033368401641,50.4648696334601],[-121.033358116303,50.4648077998818]]]}},{"type":"Feature","id":"707947583","properties":{"name":"iSP_25KPH_%TR_Permission Gate 1 from west dump_Jun","oid":"707947583","speedLimit":6.9444447},"geometry":{"type":"Polygon","coordinates":[[[-121.038627872878,50.461977925056],[-121.03885457301,50.4617994345233],[-121.038139530642,50.4614082113163],[-121.037991872632,50.4616709141498],[-121.03819138002,50.4615668396095],[-121.038666337226,50.4618459894558],[-121.038627872878,50.461977925056]]]}},{"type":"Feature","id":"742345972","properties":{"name":"iSP_4KPH_%TR_CR01_PITSIDE_SLOW BUMP","oid":"742345972","speedLimit":1.1111112},"geometry":{"type":"Polygon","coordinates":[[[-121.033397989601,50.4648827551206],[-121.0337052817,50.4647442586901],[-121.033755440337,50.4647763438463],[-121.033473932032,50.4649182555035],[-121.033397989601,50.4648827551206]]]}},{"type":"Feature","id":"776427243","properties":{"name":"iSP_7KPH_%TR_CR1_PermissionBlocker_DO_NOT_DELETE","oid":"776427243","speedLimit":1.9444444},"geometry":{"type":"Polygon","coordinates":[[[-121.034099224254,50.46521277387],[-121.034050756357,50.4652330854814],[-121.0340296221,50.4652745175739],[-121.034115286289,50.4652254461585],[-121.034099224254,50.46521277387]]]}},{"type":"Feature","id":"794004438","properties":{"name":"iSP_11KPH_%TR_LOWER_FUEL_BAY","oid":"794004438","speedLimit":3.0555556},"geometry":{"type":"Polygon","coordinates":[[[-121.036776089265,50.4606954175524],[-121.036778202691,50.460725255849],[-121.036748473836,50.4606707919704],[-121.037124663614,50.4605990722095],[-121.037534668202,50.4605560223781],[-121.03754241743,50.4605813669552],[-121.036943895267,50.4606502107358],[-121.036776089265,50.4606954175524]]]}},{"type":"Feature","id":"801543391","properties":{"name":"iSP_4KPH_%TR_CR1_PermissionBlocker_DO_NOT_DELETE_","oid":"801543391","speedLimit":1.1111112},"geometry":{"type":"Polygon","coordinates":[[[-121.033154663854,50.4645232575723],[-121.033153818483,50.4644738266594],[-121.033175375426,50.4644317654463],[-121.033107323118,50.4644593568831],[-121.033154663854,50.4645232575723]]]}},{"type":"Feature","id":"806473874","properties":{"name":"iSP_4KPH_%TR_Permission Blocker - DO NOT DELETE","oid":"806473874","speedLimit":1.1111112},"geometry":{"type":"Polygon","coordinates":[[[-121.022718285878,50.4815450171122],[-121.022685175542,50.4815426803781],[-121.022677567209,50.4815713503076],[-121.022699687732,50.4815724288003],[-121.022703773688,50.4815483424645],[-121.022718285878,50.4815450171122]]]}},{"type":"Feature","id":"824566967","properties":{"name":"iSP_4Cr_3KPH","oid":"824566967","speedLimit":0.8333333},"geometry":{"type":"Polygon","coordinates":[[[-121.023301168691,50.4810681436144],[-121.023281020699,50.4810681436144],[-121.023278343693,50.481186238559],[-121.023303423011,50.4811855195639],[-121.023301168691,50.4810681436144]]]}},{"type":"Feature","id":"826307302","properties":{"name":"iSP_4KPH_TR%_CRUSHER POCKETS","oid":"826307302","speedLimit":1.1111112},"geometry":{"type":"Polygon","coordinates":[[[-121.023296378259,50.4813213197628],[-121.023335828872,50.4814769822012],[-121.023540549377,50.4814375273453],[-121.023459534724,50.4811886651675],[-121.023051220876,50.4811893841626],[-121.023056574888,50.4813600556236],[-121.023281443384,50.4813260831053],[-121.023296378259,50.4813213197628]]]}},{"type":"Feature","id":"883050998","properties":{"name":"iSP_22kph_%TR_4CR_Brake_Temp_CTRL_NOREMOVE","oid":"883050998","speedLimit":6.111111},"geometry":{"type":"Polygon","coordinates":[[[-121.031798267229,50.4745589012562],[-121.032187560246,50.474312285938],[-121.032489216543,50.4745746292739],[-121.03279087284,50.4748020114732],[-121.032968682391,50.4748844262861],[-121.033177488851,50.4749345761941],[-121.033461392373,50.474959381525],[-121.033665267507,50.4749218140312],[-121.033826451441,50.4748624070613],[-121.033917610537,50.4748103697912],[-121.034006937997,50.4747471880971],[-121.034057378424,50.4746580327051],[-121.034051601727,50.4745478467066],[-121.034055405894,50.4744834966454],[-121.033993271178,50.4743795119796],[-121.033874919338,50.4742594397984],[-121.033508028633,50.4739375097439],[-121.033059700591,50.4735598575694],[-121.032946420973,50.473425315612],[-121.032821447066,50.473220761507],[-121.032604609587,50.4728147989006],[-121.032251103912,50.472208865783],[-121.032486116852,50.4721560196434],[-121.032429054358,50.4722055404306],[-121.032901616348,50.4730487419302],[-121.033040820655,50.4733094675271],[-121.03324864085,50.4735468257833],[-121.033741632622,50.4739615062053],[-121.034096688143,50.4742710335944],[-121.034202077638,50.4743943412534],[-121.034254772386,50.474461567295],[-121.034261817139,50.4745926940257],[-121.034236878715,50.4746787038141],[-121.034182352332,50.4747914961699],[-121.034084852959,50.4748757084706],[-121.033971996025,50.4749375420489],[-121.033789396044,50.4750160023888],[-121.033529867366,50.4750642649347],[-121.033261884985,50.4750679497846],[-121.03307026772,50.4750261581946],[-121.032806512191,50.474916421568],[-121.03265575449,50.4748349953733],[-121.03249414787,50.4747052167583],[-121.032143600991,50.4744129452516],[-121.031798267229,50.4745589012562]]]}},{"type":"Feature","id":"883053336","properties":{"name":"iSP_22kph_%TR_Brake_Temp_CTRL_NOREMOVE","oid":"883053336","speedLimit":6.111111},"geometry":{"type":"Polygon","coordinates":[[[-121.0324648417,50.4721451448425],[-121.032249976752,50.4722254026702],[-121.031487311859,50.471008233846],[-121.030815383376,50.4699232702453],[-121.030660117034,50.4696601180399],[-121.030595305312,50.4694576310458],[-121.030548950841,50.4692566719164],[-121.030595305312,50.468972848602],[-121.030721547274,50.4686242258545],[-121.030883294789,50.4683754535511],[-121.031087733503,50.468097741695],[-121.031687101036,50.4675364761478],[-121.032431026888,50.466893604657],[-121.032787350464,50.4665561263335],[-121.033146491941,50.46622233286],[-121.033483372,50.4658706543833],[-121.03377840623,50.466034046019],[-121.03358636628,50.4659932430473],[-121.032918241964,50.4666520223046],[-121.032553464685,50.4669912082414],[-121.032177415803,50.4673076559583],[-121.031773187911,50.4676683218736],[-121.031380795203,50.4680343802521],[-121.031145923158,50.4682862981591],[-121.031007564221,50.4684698216575],[-121.030903865466,50.4686544236486],[-121.030827359455,50.4688529561696],[-121.030766492795,50.4691912433626],[-121.030775228288,50.46940056081],[-121.03087244587,50.4696302797434],[-121.031026444158,50.46993504379],[-121.03132936851,50.4704037387186],[-121.031529439478,50.4707109293736],[-121.031749094857,50.4710828295873],[-121.032144869046,50.4717287568072],[-121.032380163776,50.4721450549681],[-121.0324648417,50.4721451448425]]]}},{"type":"Feature","id":"883059532","properties":{"name":"iSP_22kph_%TR_Brake_CTRL_NOREMOVE","oid":"883059532","speedLimit":6.111111},"geometry":{"type":"Polygon","coordinates":[[[-121.027260883112,50.477321909538],[-121.027028688073,50.4772097463029],[-121.027333162271,50.4769439877403],[-121.027715128746,50.4766323932404],[-121.028031860813,50.4763226861025],[-121.028189099686,50.4761687312774],[-121.028619956742,50.4756923071516],[-121.028905973689,50.4753257095267],[-121.029262579055,50.4748875718897],[-121.029471385516,50.4746566845893],[-121.029690195525,50.4745403871324],[-121.029800234557,50.4744881701135],[-121.029950992258,50.4745926041513],[-121.029787413108,50.4745420048714],[-121.029554795384,50.4747914961699],[-121.029250602976,50.475173012943],[-121.029071666265,50.4754779567384],[-121.028851869991,50.4757747219645],[-121.028694772013,50.4759746924757],[-121.028407627905,50.476270558958],[-121.028040314516,50.4765699305413],[-121.027242566756,50.4772193628623],[-121.027260883112,50.477321909538]]]}},{"type":"Feature","id":"884401102","properties":{"name":"iSP_30KPH_MAIN INT_LIMIT_POLICY_SEPT_8_NS","oid":"884401102","speedLimit":8.333333},"geometry":{"type":"Polygon","coordinates":[[[-121.036991658688,50.4611012902845],[-121.037107756208,50.4611077612403],[-121.03829409251,50.4609920929042],[-121.038277748684,50.4603979333312],[-121.038119241755,50.4605658186863],[-121.037032095567,50.4607084493386],[-121.03674438788,50.4605377778775],[-121.036991658688,50.4611012902845]]]}},{"type":"Feature","id":"910445950","properties":{"name":"SP_22KPH_%TR_1635_FLATS_SEP_11_DS","oid":"910445950","speedLimit":6.111111},"geometry":{"type":"Polygon","coordinates":[[[-121.018915105855,50.4576034690139],[-121.01825261734,50.4578016420374],[-121.017439371125,50.4564353716051],[-121.017479244423,50.4564157789888],[-121.017771601647,50.4542398302033],[-121.018178506545,50.4539931250108],[-121.018531025954,50.4537515426583],[-121.019040643342,50.4536551973154],[-121.019218311997,50.4539290445728],[-121.019243673106,50.4568507710222],[-121.019156318176,50.4570731202558],[-121.019194359839,50.4574051162417],[-121.018915105855,50.4576034690139]]]}},{"type":"Feature","id":"917773475","properties":{"name":"SP_15KPH_%TR_1200_CORNER_Sept_12_DS","oid":"917773475","speedLimit":4.1666665},"geometry":{"type":"Polygon","coordinates":[[[-121.03709803445,50.4446825878818],[-121.03692388817,50.4448621569072],[-121.03662829036,50.4448206349404],[-121.036413707203,50.4448699759789],[-121.036322125422,50.4449676694376],[-121.036253509533,50.4450821694068],[-121.036241251664,50.4451449916033],[-121.036262385921,50.4452673106442],[-121.036315080669,50.4453515229448],[-121.036183202905,50.4453952917714],[-121.036088098747,50.4451943326418],[-121.036162068647,50.4449317196828],[-121.036258863545,50.4447914257646],[-121.036515715217,50.44471512241],[-121.036712827389,50.4447117970576],[-121.03692219743,50.4447701255349],[-121.037092821333,50.4446836663745],[-121.03709803445,50.4446825878818]]]}},{"type":"Feature","id":"926367691","properties":{"name":"SP_25KPH_%TR_24SH_SEP_12_DS","oid":"926367691","speedLimit":6.9444447},"geometry":{"type":"Polygon","coordinates":[[[-121.038553480293,50.4504036318654],[-121.038073450865,50.451154442495],[-121.038244497453,50.4520114846502],[-121.038396100524,50.4531303308949],[-121.038776517153,50.4530968976229],[-121.03884203335,50.450830984576],[-121.038553480293,50.4504036318654]]]}},{"type":"Feature","id":"929009157","properties":{"name":"iSP_22kph_Long_Single_Lane_Aug30","oid":"929009157","speedLimit":6.111111},"geometry":{"type":"Polygon","coordinates":[[[-121.00567829791,50.4380560594485],[-121.00474853149,50.4382241245523],[-121.005173048269,50.4381976116081],[-121.007933464044,50.4431705411937],[-121.008522264449,50.4445349242639],[-121.008209336548,50.4465097341711],[-121.007831315135,50.4466802258833],[-121.008932832618,50.4466469723601],[-121.00882208911,50.4465929578535],[-121.009402154022,50.4448176690856],[-121.00876319498,50.44306844389],[-121.008261467715,50.4415402198122],[-121.00725787229,50.4401562441256],[-121.006438144903,50.4389841023694],[-121.005859066257,50.4383131001955],[-121.00567829791,50.4380560594485]]]}},{"type":"Feature","id":"930116666","properties":{"name":"SP_25KPH_9023 Rough_SEP_12_DS","oid":"930116666","speedLimit":6.9444447},"geometry":{"type":"Polygon","coordinates":[[[-121.043597241211,50.468554213707],[-121.043296993865,50.4689178454771],[-121.042548418476,50.4684625418322],[-121.042343838867,50.4680405815848],[-121.043035774446,50.4679072978688],[-121.043597241211,50.468554213707]]]}},{"type":"Feature","id":"933252378","properties":{"name":"SP_20KPH_%TR_1615_ROUGH_SECTION_SEP_12_DS","oid":"933252378","speedLimit":5.5555553},"geometry":{"type":"Polygon","coordinates":[[[-121.0073600212,50.4314120055097],[-121.007542480287,50.4321458298801],[-121.007051179255,50.4322078432072],[-121.007396513017,50.4321240802784],[-121.007255477075,50.4314848936376],[-121.006907607202,50.4314554148386],[-121.0073600212,50.4314120055097]]]}},{"type":"Feature","id":"933252478","properties":{"name":"SP_30KPH_%TR_1605_PATCH_SEP_12_DS","oid":"933252478","speedLimit":8.333333},"geometry":{"type":"Polygon","coordinates":[[[-121.00659129782,50.4333410693538],[-121.007209404394,50.4334385830638],[-121.006978477411,50.433962910238],[-121.006676257533,50.4343789387757],[-121.006272029642,50.4347754645715],[-121.005738741886,50.4345240859109],[-121.006210881191,50.4346042538641],[-121.006699927901,50.4339780990094],[-121.006893517697,50.4335512855452],[-121.00659129782,50.4333410693538]]]}},{"type":"Feature","id":"933252549","properties":{"name":"SP_35KPH_%TR_1590_ROUGH_SEP_12_DS","oid":"933252549","speedLimit":9.722222},"geometry":{"type":"Polygon","coordinates":[[[-121.004360506529,50.4363930237901],[-121.004777133185,50.4364501839003],[-121.00488139552,50.4362113876538],[-121.005079353062,50.4359571330128],[-121.004581852649,50.4358325671123],[-121.004795872226,50.4359810395997],[-121.004624684743,50.4363683083336],[-121.004360506529,50.4363930237901]]]}},{"type":"Feature","id":"933371104","properties":{"name":"SP_25KPH_1590_HMT_INTERSECT_SEPT_12_DS","oid":"933371104","speedLimit":6.9444447},"geometry":{"type":"Polygon","coordinates":[[[-121.006358116516,50.4374889520661],[-121.005860334312,50.4376813731288],[-121.006066322872,50.4377780779693],[-121.00638587284,50.4379885637838],[-121.006551706311,50.4382644781521],[-121.007085275857,50.4381538427816],[-121.006743323576,50.4380711583455],[-121.006114931663,50.4376598032759],[-121.006358116516,50.4374889520661]]]}},{"type":"Feature","id":"934051091","properties":{"name":"iSP_17KPH_PERMISSIONS BLOCKER_SEPT 7_NS","oid":"934051091","speedLimit":4.7222223},"geometry":{"type":"Polygon","coordinates":[[[-121.039512271092,50.461029660398],[-121.039464225881,50.4607716310327],[-121.03901674321,50.4607922122673],[-121.039075637339,50.4610449390438],[-121.039163133164,50.460899881783],[-121.039379125272,50.4608867601225],[-121.039512271092,50.461029660398]]]}},{"type":"Feature","id":"934773555","properties":{"name":"SP_10KPH_NEW RAMP_SEPT 12_DS","oid":"934773555","speedLimit":2.7777777},"geometry":{"type":"Polygon","coordinates":[[[-121.035774325476,50.4443192257349],[-121.036276334531,50.4444736299319],[-121.035931282559,50.4447856738038],[-121.034507538102,50.4446691067238],[-121.034739310455,50.4441517897518],[-121.035774325476,50.4443192257349]]]}},{"type":"Feature","id":"934888580","properties":{"name":"SP_12KPH_RUTS_SEPT 12_DS","oid":"934888580","speedLimit":3.3333333},"geometry":{"type":"Polygon","coordinates":[[[-121.038715932283,50.4531205345867],[-121.038177008725,50.4531794023102],[-121.038461334931,50.4532006126656],[-121.038507407612,50.453617719696],[-121.038298882941,50.4537115485561],[-121.038741856971,50.4536385705538],[-121.038715932283,50.4531205345867]]]}},{"type":"Feature","id":"935505135","properties":{"name":"SP_15KPH_%TR_1590_WATERHOLES_AUG_12_DS","oid":"935505135","speedLimit":4.1666665},"geometry":{"type":"Polygon","coordinates":[[[-121.013401319057,50.4441737191022],[-121.012717414495,50.4442020295342],[-121.012966094254,50.445261468809],[-121.013108257357,50.4462075764817],[-121.01327690873,50.4469893937749],[-121.013703257144,50.4470970632906],[-121.013792161919,50.4467741446178],[-121.013436824609,50.4437487930001],[-121.013383566281,50.4441623949295],[-121.013401319057,50.4441737191022]]]}},{"type":"Feature","id":"936169885","properties":{"name":"SP_12KPH_%TR_Sept_12_DS","oid":"936169885","speedLimit":3.3333333},"geometry":{"type":"Polygon","coordinates":[[[-121.039480006126,50.4535462695582],[-121.038611388157,50.45361493359],[-121.039071692278,50.4545171825618],[-121.039591454109,50.4544390817194],[-121.039669369071,50.454207026052],[-121.039446614,50.4538991164019],[-121.039446614,50.4538967796678],[-121.039480006126,50.4535462695582]]]}},{"type":"Feature","id":"936513295","properties":{"name":"SP_27KPH_%TR_1635_FLATS_SEP_12_DS1","oid":"936513295","speedLimit":7.5},"geometry":{"type":"Polygon","coordinates":[[[-121.01825261734,50.4578016420374],[-121.015246903287,50.4587004757826],[-121.014496214473,50.4578796530054],[-121.017439371125,50.4564353716051],[-121.01825261734,50.4578016420374]]]}}]}