{"type":"FeatureCollection","features":[{"type":"Feature","id":"702602533","properties":{"name":"iSP_4KPH_%TR_CR01_Slow Bump","oid":"702602533","speedLimit":1.1111112},"geometry":{"type":"Polygon","coordinates":[[[-121.03335917019,50.4648082199168],[-121.033653908809,50.4646912026441],[-121.033697302449,50.464731916027],[-121.033369455047,50.4648700539287],[-121.03335917019,50.4648082199168]]]}},{"type":"Feature","id":"707947583","properties":{"name":"iSP_25KPH_%TR_Permission Gate 1 From West Dump","oid":"707947583","speedLimit":6.9444447},"geometry":{"type":"Polygon","coordinates":[[[-121.038628679669,50.4619783252445],[-121.038855369171,50.46179983346],[-121.038140360332,50.4614086075094],[-121.037992709246,50.4616713121852],[-121.038192207279,50.461567236915],[-121.038667142214,50.461846388719],[-121.038628679669,50.4619783252445]]]}},{"type":"Feature","id":"742345972","properties":{"name":"iSP_4KPH_%TR_CR01_Pit Side_Slow Bump","oid":"742345972","speedLimit":1.1111112},"geometry":{"type":"Polygon","coordinates":[[[-121.033399041619,50.4648831756812],[-121.03370631931,50.4647446782795],[-121.033756475595,50.4647767636607],[-121.033474980489,50.4649186763131],[-121.033399041619,50.4648831756812]]]}},{"type":"Feature","id":"776427243","properties":{"name":"iSP_7KPH_%TR_CR1_PermissionBlocker","oid":"776427243","speedLimit":1.9444444},"geometry":{"type":"Polygon","coordinates":[[[-121.034100243391,50.4652131967451],[-121.034051777767,50.465233508499],[-121.034030644501,50.465274940882],[-121.034116304674,50.4652258691225],[-121.034100243391,50.4652131967451]]]}},{"type":"Feature","id":"794004438","properties":{"name":"iSP_11KPH_%TR_Lower_Fuel_Bay","oid":"794004438","speedLimit":3.0555556},"geometry":{"type":"Polygon","coordinates":[[[-121.036776982886,50.4606958087465],[-121.036779096213,50.4607256472523],[-121.036749368752,50.4606711829918],[-121.03712554089,50.4605994627279],[-121.037535526254,50.4605564125946],[-121.037543275118,50.4605817573495],[-121.03694478102,50.4606506016128],[-121.036776982886,50.4606958087465]]]}},{"type":"Feature","id":"801543391","properties":{"name":"iSP_4KPH_%TR_CR01_PermissionBlocker_2","oid":"801543391","speedLimit":1.1111112},"geometry":{"type":"Polygon","coordinates":[[[-121.033155727281,50.4645236756117],[-121.033154881951,50.4644742443522],[-121.033176437882,50.464432182844],[-121.033108388765,50.4644597744744],[-121.033155727281,50.4645236756117]]]}},{"type":"Feature","id":"806473874","properties":{"name":"iSP_4KPH_%TR_CR04_PermissionBlocker","oid":"806473874","speedLimit":1.1111112},"geometry":{"type":"Polygon","coordinates":[[[-121.022719838662,50.4815455545283],[-121.022686729878,50.4815432177778],[-121.022679121902,50.4815718879084],[-121.022701241388,50.4815729664086],[-121.022705327152,50.4815488799039],[-121.022719838662,50.4815455545283]]]}},{"type":"Feature","id":"824566967","properties":{"name":"iSP_3KPH_%TR_CR04","oid":"824566967","speedLimit":0.8333333},"geometry":{"type":"Polygon","coordinates":[[[-121.023302694143,50.4810686776861],[-121.023282547096,50.4810686776861],[-121.023279870216,50.4811867734589],[-121.023304948358,50.4811860544587],[-121.023302694143,50.4810686776861]]]}},{"type":"Feature","id":"826307302","properties":{"name":"iSP_4KPH_%TR_CR04_Pockets","oid":"826307302","speedLimit":1.1111112},"geometry":{"type":"Polygon","coordinates":[[[-121.023297903936,50.48132185561],[-121.0233373527,50.4814775191401],[-121.023542063605,50.4814380640075],[-121.023461052751,50.4811892000844],[-121.023052758048,50.4811899190845],[-121.023058111809,50.4813605917425],[-121.023282969761,50.4813266189859],[-121.023297903936,50.48132185561]]]}},{"type":"Feature","id":"883050998","properties":{"name":"iSP_22KPH_%TR_4CR_Brake_Temp_Ctrl","oid":"883050998","speedLimit":6.111111},"geometry":{"type":"Polygon","coordinates":[[[-121.031799394257,50.4745593896773],[-121.032188669021,50.4743127726297],[-121.032490311173,50.4745751178054],[-121.032791953326,50.4748025015994],[-121.032969754539,50.4748849169903],[-121.033178551209,50.47493506725],[-121.033462441418,50.4749598727548],[-121.033666306992,50.4749223049975],[-121.033827483369,50.474862897611],[-121.03391863819,50.474810859976],[-121.034007961462,50.4747476778388],[-121.034058399524,50.4746585218215],[-121.034052623098,50.4745483350502],[-121.034056427086,50.4744839845378],[-121.033994295283,50.4743799991427],[-121.033875948993,50.4742599261194],[-121.033509075492,50.4739379938072],[-121.033060768472,50.4735603389842],[-121.032947494165,50.4734257960831],[-121.032822526118,50.4732212405436],[-121.032605698807,50.4728152750901],[-121.032252209708,50.4722093377229],[-121.032487211628,50.4721564912127],[-121.032430151809,50.4722060123473],[-121.032902691641,50.4730492197603],[-121.033041889421,50.4733099471857],[-121.033249699871,50.4735473071066],[-121.033742668527,50.4739619904368],[-121.034097707399,50.4742715199967],[-121.034203091953,50.4743948285205],[-121.03425578423,50.4744620550335],[-121.034262828652,50.4745931826839],[-121.034237891398,50.4746791930755],[-121.034183367572,50.4747919862223],[-121.03408587277,50.4748761991136],[-121.033973021129,50.4749380331256],[-121.033790429709,50.4750164940157],[-121.0335309132,50.4750647569001],[-121.033262943385,50.4750684417758],[-121.033071335105,50.4750266498927],[-121.032807591943,50.4749169124965],[-121.032656841311,50.4748354857307],[-121.032495242269,50.4747057062056],[-121.032144711827,50.4744134326491],[-121.031799394257,50.4745593896773]]]}},{"type":"Feature","id":"883053336","properties":{"name":"iSP_22KPH_%TR_Brake_Temp_Ctrl","oid":"883053336","speedLimit":6.111111},"geometry":{"type":"Polygon","coordinates":[[[-121.032465937473,50.4721456163356],[-121.0322510826,50.4722258747261],[-121.031488453468,50.4710086973657],[-121.030816556491,50.469923726156],[-121.030661297429,50.4696605721051],[-121.030596488746,50.4694580836909],[-121.030550136449,50.469257123152],[-121.030596488746,50.4689732978472],[-121.030722724789,50.4686246726548],[-121.03088446472,50.4683758986066],[-121.031088893848,50.4680981848029],[-121.031688233277,50.4675369153194],[-121.032432124247,50.4668940393201],[-121.032788431115,50.4665565586298],[-121.033147555752,50.4662227628153],[-121.033484420015,50.4658710818723],[-121.033779440411,50.4660344746539],[-121.033587409465,50.465993671396],[-121.032919316477,50.4666524552734],[-121.032554556302,50.466991643589],[-121.032178525053,50.4673080935252],[-121.031774316115,50.4676687619699],[-121.031381941806,50.4680348229157],[-121.031147080774,50.4682867425894],[-121.031008728325,50.4684702673749],[-121.030905034432,50.4686548706606],[-121.030828532009,50.468853404574],[-121.030767668202,50.4691916941394],[-121.030776403286,50.4694010130549],[-121.03087361631,50.4696307335993],[-121.031027607376,50.4699354997832],[-121.031330517525,50.4704041979989],[-121.031530579111,50.4707113908083],[-121.031750224191,50.4710832936302],[-121.032145979823,50.4717292253801],[-121.03238126352,50.4721455264606],[-121.032465937473,50.4721456163356]]]}},{"type":"Feature","id":"883059532","properties":{"name":"iSP_22KPH_%TR_Brake_Ctrl","oid":"883059532","speedLimit":6.111111},"geometry":{"type":"Polygon","coordinates":[[[-121.027262222896,50.4773224173366],[-121.027030038745,50.4772102533149],[-121.027334498666,50.4769444928886],[-121.02771644723,50.4766328962033],[-121.028033164446,50.4763231868934],[-121.028190395947,50.4761692309886],[-121.0286212328,50.4756928035215],[-121.028907236336,50.4753262033256],[-121.02926382498,50.4748880626159],[-121.02947262165,50.4746571736963],[-121.0296914214,50.4745408754238],[-121.029801455272,50.4744886580387],[-121.029952205904,50.4745930928089],[-121.029788634424,50.4745424931741],[-121.029556027608,50.4747919862223],[-121.029251849463,50.4751735056711],[-121.029072921143,50.4754784516051],[-121.028853135174,50.4757752189124],[-121.028696044562,50.4759751908261],[-121.028408913919,50.4762710593833],[-121.028041617753,50.4765704330662],[-121.027243907398,50.4772198699418],[-121.027262222896,50.4773224173366]]]}},{"type":"Feature","id":"884401102","properties":{"name":"iSP_30KPH_%TR_Maint_Limit_Policy","oid":"884401102","speedLimit":8.333333},"geometry":{"type":"Polygon","coordinates":[[[-121.036992542201,50.461101684325],[-121.037108634277,50.4611081553263],[-121.038294914952,50.4609924861789],[-121.038278571893,50.460398322439],[-121.038120072397,50.4605662089715],[-121.037032977184,50.4607088406241],[-121.036745282987,50.4605381679661],[-121.036992542201,50.461101684325]]]}},{"type":"Feature","id":"908328496","properties":{"name":"SP_25KPH_%TR_1445_SOFT_GROUND_SEPT_24_DS","oid":"908328496","speedLimit":6.9444447},"geometry":{"type":"Polygon","coordinates":[[[-121.039188993,50.4666751037778],[-121.038826768818,50.4674281665484],[-121.038452005564,50.4678946178886],[-121.037915079715,50.468238299955],[-121.037180064717,50.468026194914],[-121.038489059224,50.4663927164732],[-121.039188993,50.4666751037778]]]}},{"type":"Feature","id":"910445950","properties":{"name":"SP_22KPH_%TR_1635_FLATS_SEP_24_DS","oid":"910445950","speedLimit":6.111111},"geometry":{"type":"Polygon","coordinates":[[[-121.017369740994,50.4554942022407],[-121.018002893649,50.4544145336569],[-121.018148149632,50.4539988617015],[-121.018532775077,50.4537518851538],[-121.018948818644,50.4536884333915],[-121.018866680682,50.4543420045179],[-121.018261846604,50.4560724581025],[-121.018275935448,50.4557011844057],[-121.017369740994,50.4554942022407]]]}},{"type":"Feature","id":"915576987","properties":{"name":"iSP_15KPH_%TR_Preventing Shifting","oid":"915576987","speedLimit":4.1666665},"geometry":{"type":"Polygon","coordinates":[[[-121.036998036851,50.444863605435],[-121.037512138773,50.445313519772],[-121.03798143817,50.4457959688654],[-121.038525408442,50.4462192801972],[-121.039458089923,50.4468503825692],[-121.039915413803,50.4471001452425],[-121.040471359592,50.447195502636],[-121.041224549199,50.4473232150357],[-121.04164298787,50.4475100651968],[-121.042321506603,50.44809551106],[-121.042704159609,50.4485282592687],[-121.042847584042,50.4487952779453],[-121.043009042196,50.4493920480607],[-121.043188252293,50.4501985864667],[-121.043325759412,50.4505017349003],[-121.043687420041,50.4511691467794],[-121.043857895054,50.4514894613413],[-121.044126851089,50.4522540281141],[-121.044383972494,50.4529386061215],[-121.044697731053,50.4537985302878],[-121.044736616262,50.4541951487395],[-121.044572199452,50.4550722390341],[-121.044216597026,50.4568397211259],[-121.044052180215,50.457207759322],[-121.04300594265,50.4583994121775],[-121.04190602659,50.4595377691476],[-121.041344163486,50.4600010748622],[-121.040372737684,50.4605979348526],[-121.039924289775,50.4607313992534],[-121.039135173616,50.4608076132682],[-121.038497794308,50.4608391593993],[-121.038645586282,50.4611439255832],[-121.038758437924,50.4609499752957],[-121.039879487251,50.4608801424072],[-121.04070748862,50.4606322671092],[-121.041511538954,50.4600583252483],[-121.042874493735,50.4587006732357],[-121.04424336583,50.4571428695595],[-121.044428775018,50.4562905847697],[-121.044814386682,50.4544219932834],[-121.044811287136,50.4537870262856],[-121.04426139955,50.4523017517484],[-121.043833944019,50.4511863129077],[-121.04334675179,50.4503378028686],[-121.043050886063,50.4493100820449],[-121.042928313119,50.4486922811754],[-121.042240777526,50.4478876301448],[-121.041547324618,50.4473918795489],[-121.041092959395,50.4472221955161],[-121.040459384075,50.4471307027484],[-121.039918372461,50.447020066602],[-121.038821415057,50.4463336910943],[-121.038196715709,50.4458721828801],[-121.03715357769,50.4449073745685],[-121.0373777312,50.444697696153],[-121.036998036851,50.444863605435]]]}},{"type":"Feature","id":"917773475","properties":{"name":"SP_15KPH_%TR_1200_CORNER_Sept_24_DS","oid":"917773475","speedLimit":4.1666665},"geometry":{"type":"Polygon","coordinates":[[[-121.037098912975,50.4446828667751],[-121.036924774861,50.4448624370598],[-121.036629190911,50.4448209148018],[-121.036414617815,50.4448702561863],[-121.036323040329,50.4449679503302],[-121.036254427658,50.4450824511024],[-121.036242170363,50.4451452737395],[-121.03626330363,50.4452675936382],[-121.036315995907,50.4453518065295],[-121.036184124326,50.4453955756629],[-121.036089024628,50.4451946151241],[-121.036162991059,50.4449320003233],[-121.036259781419,50.4447917054211],[-121.036516621047,50.4447154015314],[-121.036713723976,50.4447120761558],[-121.0369230842,50.444770405042],[-121.037093700102,50.4446839452753],[-121.037098912975,50.4446828667751]]]}},{"type":"Feature","id":"926367691","properties":{"name":"SP_30KPH_%TR_24SH_EMPTY_LANE_SEP_24_DS","oid":"926367691","speedLimit":8.333333},"geometry":{"type":"Polygon","coordinates":[[[-121.038784220509,50.4508578197192],[-121.038613041053,50.4512059056615],[-121.038638964526,50.4520124440674],[-121.03894497422,50.4544280149095],[-121.039193360542,50.4545002744235],[-121.03878224807,50.4517190021357],[-121.038784220509,50.4508578197192]]]}},{"type":"Feature","id":"929009157","properties":{"name":"iSP_22KPH_%TR_Long_Single_Lane","oid":"929009157","speedLimit":6.111111},"geometry":{"type":"Polygon","coordinates":[[[-121.00568064969,50.4380562918687],[-121.004750926866,50.4382243581512],[-121.00517542374,50.4381978450211],[-121.007935710081,50.4431708094827],[-121.008524482876,50.4445352021216],[-121.008211569648,50.4465100258784],[-121.007833565961,50.4466805187864],[-121.008935031794,50.44664726503],[-121.008824293479,50.4465932501445],[-121.009404331192,50.4448179489262],[-121.008765402111,50.443068711463],[-121.008263698372,50.4415404766675],[-121.007260150005,50.4401564912748],[-121.006440461054,50.4389843412982],[-121.00586140956,50.4383133344184],[-121.00568064969,50.4380562918687]]]}},{"type":"Feature","id":"934051091","properties":{"name":"iSP_17KPH_%TR_Ramp_Permission Blocker","oid":"934051091","speedLimit":4.7222223},"geometry":{"type":"Polygon","coordinates":[[[-121.039513036415,50.4610300539362],[-121.039464993457,50.4607720227613],[-121.039017531767,50.4607926041402],[-121.039076423136,50.4610453326891],[-121.039163914858,50.4609002744111],[-121.039379896838,50.4608871526585],[-121.039513036415,50.4610300539362]]]}},{"type":"Feature","id":"936169885","properties":{"name":"SP_15KPH_%TR_24shl_loadplan_Sept_24_DS","oid":"936169885","speedLimit":4.1666665},"geometry":{"type":"Polygon","coordinates":[[[-121.039168986842,50.4546370642],[-121.038619099255,50.4545685794367],[-121.038154590065,50.4553926434711],[-121.038670100871,50.4555197267456],[-121.038842125658,50.4552449788175],[-121.039002174927,50.454947762135],[-121.039087553323,50.4547920986049],[-121.039168986842,50.4546370642]]]}},{"type":"Feature","id":"936513295","properties":{"name":"SP_30KPH_%TR_1635_FLATS_SEP_24_DS","oid":"936513295","speedLimit":8.333333},"geometry":{"type":"Polygon","coordinates":[[[-121.017285912372,50.4555555868776],[-121.018050091277,50.455785577047],[-121.017433986123,50.4574541966197],[-121.015226968691,50.4585173282003],[-121.014498152785,50.457880024452],[-121.016177261228,50.4566197969584],[-121.017285912372,50.4555555868776]]]}},{"type":"Feature","id":"937786749","properties":{"name":"SP_32KPH_%TR_24SH_Loaded_LANE_SEP_24_DS","oid":"937786749","speedLimit":8.888889},"geometry":{"type":"Polygon","coordinates":[[[-121.038410302586,50.4510856528882],[-121.038213199656,50.4510395470043],[-121.038253775527,50.4516611226245],[-121.0386014882,50.4544467089131],[-121.038809721316,50.4542673183785],[-121.038403821717,50.4516755925023],[-121.038410302586,50.4510856528882]]]}},{"type":"Feature","id":"938065675","properties":{"name":"SP_8KPH_CR01_YARD_RUTIING_SEP_24_DS","oid":"938065675","speedLimit":2.2222223},"geometry":{"type":"Polygon","coordinates":[[[-121.034289315679,50.4648015691655],[-121.034099116284,50.4648583701764],[-121.033940898564,50.4649073520609],[-121.033829455807,50.4650053158299],[-121.03404431068,50.4650692169672],[-121.033964286045,50.4650116969561],[-121.034242681605,50.4648884783073],[-121.034319324917,50.4649377298168],[-121.034289315679,50.4648015691655]]]}},{"type":"Feature","id":"938165680","properties":{"name":"SP_10KPH_%TR_22SH_Sept_24_DS","oid":"938165680","speedLimit":2.7777777},"geometry":{"type":"Polygon","coordinates":[[[-121.034080519009,50.4466117643981],[-121.035055326134,50.4472509555217],[-121.035497152286,50.4474476919347],[-121.035795272228,50.4469125760813],[-121.034854982771,50.4461957329426],[-121.034080519009,50.4466117643981]]]}},{"type":"Feature","id":"940771585","properties":{"name":"SP_20KPH_%TR_1660_HMT_SEPT24_DS","oid":"940771585","speedLimit":5.5555553},"geometry":{"type":"Polygon","coordinates":[[[-121.002708748911,50.4281188111971],[-121.002603505245,50.4277116773684],[-121.002231841537,50.4276982859908],[-121.002505306001,50.4277966991348],[-121.002533342801,50.4281143174462],[-121.002673667689,50.4280829510652],[-121.002708748911,50.4281188111971]]]}},{"type":"Feature","id":"940778315","properties":{"name":"SP_25KPH_%TR_HMT_SPILLING_ROCK_IN_CORNER_SEPT24_DS","oid":"940778315","speedLimit":6.9444447},"geometry":{"type":"Polygon","coordinates":[[[-121.004784599204,50.4367083463581],[-121.00477051036,50.437043939673],[-121.004987901224,50.4372765362179],[-121.00512118169,50.4371691355722],[-121.004889842869,50.4369365390272],[-121.004882798447,50.4367575978676],[-121.005198388556,50.4367978618754],[-121.004798547159,50.4366994487313],[-121.004784599204,50.4367083463581]]]}},{"type":"Feature","id":"944340040","properties":{"name":"SP_11KPH_%TR_1590-1635_LOADED_CORNER_SEPT24_DS","oid":"944340040","speedLimit":3.0555556},"geometry":{"type":"Polygon","coordinates":[[[-121.012392434142,50.4565115874374],[-121.012740851257,50.4562913037698],[-121.012333824551,50.4564637739282],[-121.012389193708,50.4565115874374],[-121.012392434142,50.4565115874374]]]}},{"type":"Feature","id":"944724972","properties":{"name":"SP_20KPH_%TR_21SH_LOADED_SEPT 24_DS","oid":"944724972","speedLimit":5.5555553},"geometry":{"type":"Polygon","coordinates":[[[-121.039041341914,50.4521929131023],[-121.039377783512,50.4521829369754],[-121.039284374475,50.4516331714941],[-121.039213507589,50.4512650434229],[-121.038913133432,50.4506405918022],[-121.038818597288,50.450965759615],[-121.038886082852,50.4509786117425],[-121.039058248527,50.4512929945533],[-121.039102064832,50.4515750223578],[-121.039166309961,50.4519367693028],[-121.039199982299,50.4521455489682],[-121.039041341914,50.4521929131023]]]}},{"type":"Feature","id":"945133230","properties":{"name":"SP_10KPH_%TR_21SH_SEPT_24_DS","oid":"945133230","speedLimit":2.7777777},"geometry":{"type":"Polygon","coordinates":[[[-121.040087297702,50.4526999879504],[-121.039651670641,50.4531691355411],[-121.039249997695,50.4528985218638],[-121.039142499815,50.4522560952395],[-121.039713943332,50.4522163704819],[-121.03976480406,50.4525628386739],[-121.040092933239,50.4526999879504],[-121.040087297702,50.4526999879504]]]}}]}