{"type":"FeatureCollection","features":[{"type":"Feature","id":"702602533","properties":{"name":"iSP_4KPH_%TR_CR01_Slow Bump","oid":"702602533","speedLimit":1.1111112},"geometry":{"type":"Polygon","coordinates":[[[-121.033357546333,50.4648082199168],[-121.033652273455,50.4646912026441],[-121.033695665402,50.464731916027],[-121.033367830788,50.4648700539287],[-121.033357546333,50.4648082199168]]]}},{"type":"Feature","id":"707947583","properties":{"name":"iSP_25KPH_%TR_Permission Gate 1 From West Dump","oid":"707947583","speedLimit":6.9444447},"geometry":{"type":"Polygon","coordinates":[[[-121.038626850259,50.4619783252445],[-121.038853530918,50.46179983346],[-121.03813854997,50.4614086075094],[-121.037990904643,50.4616713121852],[-121.038190394894,50.461567236915],[-121.038665311303,50.461846388719],[-121.038626850259,50.4619783252445]]]}},{"type":"Feature","id":"742345972","properties":{"name":"iSP_4KPH_%TR_CR01_Pit Side_Slow Bump","oid":"742345972","speedLimit":1.1111112},"geometry":{"type":"Polygon","coordinates":[[[-121.033397416207,50.4648831756812],[-121.033704681911,50.4647446782795],[-121.033754836239,50.4647767636607],[-121.033473352114,50.4649186763131],[-121.033397416207,50.4648831756812]]]}},{"type":"Feature","id":"776427243","properties":{"name":"iSP_7KPH_%TR_CR1_PermissionBlocker","oid":"776427243","speedLimit":1.9444444},"geometry":{"type":"Polygon","coordinates":[[[-121.034098590626,50.4652131967451],[-121.034050126893,50.465233508499],[-121.034028994451,50.465274940882],[-121.034114651282,50.4652258691225],[-121.034098590626,50.4652131967451]]]}},{"type":"Feature","id":"794004438","properties":{"name":"iSP_11KPH_%TR_Lower_Fuel_Bay","oid":"794004438","speedLimit":3.0555556},"geometry":{"type":"Polygon","coordinates":[[[-121.036775225707,50.4606958087465],[-121.036777338951,50.4607256472523],[-121.036747612649,50.4606711829918],[-121.037123770114,50.4605994627279],[-121.037533739485,50.4605564125946],[-121.037541488047,50.4605817573495],[-121.036943017295,50.4606506016128],[-121.036775225707,50.4606958087465]]]}},{"type":"Feature","id":"801543391","properties":{"name":"iSP_4KPH_%TR_CR01_PermissionBlocker_2","oid":"801543391","speedLimit":1.1111112},"geometry":{"type":"Polygon","coordinates":[[[-121.03315411136,50.4645236756117],[-121.033153266062,50.4644742443522],[-121.033174821153,50.464432182844],[-121.03310677469,50.4644597744744],[-121.03315411136,50.4645236756117]]]}},{"type":"Feature","id":"806473874","properties":{"name":"iSP_4KPH_%TR_CR04_PermissionBlocker","oid":"806473874","speedLimit":1.1111112},"geometry":{"type":"Polygon","coordinates":[[[-121.022718629825,50.4815455545283],[-121.022685522333,50.4815432177778],[-121.022677914654,50.4815718879084],[-121.022700033276,50.4815729664086],[-121.022704118881,50.4815488799039],[-121.022718629825,50.4815455545283]]]}},{"type":"Feature","id":"824566967","properties":{"name":"iSP_3KPH_%TR_CR04","oid":"824566967","speedLimit":0.8333333},"geometry":{"type":"Polygon","coordinates":[[[-121.02330146257,50.4810686776861],[-121.023281316309,50.4810686776861],[-121.023278639533,50.4811867734589],[-121.023303716697,50.4811860544587],[-121.02330146257,50.4810686776861]]]}},{"type":"Feature","id":"826307302","properties":{"name":"iSP_4KPH_%TR_CR04_Pockets","oid":"826307302","speedLimit":1.1111112},"geometry":{"type":"Polygon","coordinates":[[[-121.02329667255,50.48132185561],[-121.023336119775,50.4814775191401],[-121.023540822694,50.4814380640075],[-121.023459815001,50.4811892000844],[-121.023051536225,50.4811899190845],[-121.023056889777,50.4813605917425],[-121.023281738958,50.4813266189859],[-121.02329667255,50.48132185561]]]}},{"type":"Feature","id":"883050998","properties":{"name":"iSP_22KPH_%TR_4CR_Brake_Temp_Ctrl","oid":"883050998","speedLimit":6.111111},"geometry":{"type":"Polygon","coordinates":[[[-121.031797831244,50.4745593896773],[-121.032187090822,50.4743127726297],[-121.032488721209,50.4745751178054],[-121.032790351595,50.4748025015994],[-121.032968145872,50.4748849169903],[-121.033176934397,50.47493506725],[-121.033460813532,50.4749598727548],[-121.033664671154,50.4749223049975],[-121.033825841244,50.474862897611],[-121.033916992509,50.474810859976],[-121.034006312297,50.4747476778388],[-121.034056748391,50.4746585218215],[-121.034050972191,50.4745483350502],[-121.03405477603,50.4744839845378],[-121.033992646651,50.4743799991427],[-121.033874304977,50.4742599261194],[-121.033507445787,50.4739379938072],[-121.033059156255,50.4735603389842],[-121.032945886367,50.4734257960831],[-121.032820923194,50.4732212405436],[-121.032604104341,50.4728152750901],[-121.032250629031,50.4722093377229],[-121.032485621784,50.4721564912127],[-121.032428564191,50.4722060123473],[-121.03290108559,50.4730492197603],[-121.03304027794,50.4733099471857],[-121.033248080284,50.4735473071066],[-121.033741029711,50.4739619904368],[-121.034096054733,50.4742715199967],[-121.034201435176,50.4743948285205],[-121.034254125398,50.4744620550335],[-121.034261169545,50.4745931826839],[-121.034236233264,50.4746791930755],[-121.034181711564,50.4747919862223],[-121.034084220566,50.4748761991136],[-121.033971373326,50.4749380331256],[-121.033788789029,50.4750164940157],[-121.033529282644,50.4750647569001],[-121.033261323281,50.4750684417758],[-121.033069722476,50.4750266498927],[-121.032805989602,50.4749169124965],[-121.03265524485,50.4748354857307],[-121.032493652112,50.4747057062056],[-121.032143135343,50.4744134326491],[-121.031797831244,50.4745593896773]]]}},{"type":"Feature","id":"883053336","properties":{"name":"iSP_22KPH_%TR_Brake_Temp_Ctrl","oid":"883053336","speedLimit":6.111111},"geometry":{"type":"Polygon","coordinates":[[[-121.032464348459,50.4721456163356],[-121.032249501967,50.4722258747261],[-121.031486902583,50.4710086973657],[-121.030815031817,50.469923726156],[-121.030659778811,50.4696605721051],[-121.030594972656,50.4694580836909],[-121.030548622167,50.469257123152],[-121.030594972656,50.4689732978472],[-121.030721203775,50.4686246726548],[-121.030882937396,50.4683758986066],[-121.03108735855,50.4680981848029],[-121.0316866746,50.4675369153194],[-121.032430536552,50.4668940393201],[-121.032786829521,50.4665565586298],[-121.033145940149,50.4662227628153],[-121.033482791272,50.4658710818723],[-121.033777800159,50.4660344746539],[-121.033585776705,50.465993671396],[-121.032917709777,50.4666524552734],[-121.032552963832,50.466991643589],[-121.03217694725,50.4673080935252],[-121.03177275408,50.4676687619699],[-121.031380395077,50.4680348229157],[-121.031145543207,50.4682867425894],[-121.031007196154,50.4684702673749],[-121.030903506306,50.4686548706606],[-121.030827006867,50.468853404574],[-121.030766145435,50.4691916941394],[-121.030774880177,50.4694010130549],[-121.03087208941,50.4696307335993],[-121.031026074469,50.4699354997832],[-121.031328972802,50.4704041979989],[-121.031529026584,50.4707113908083],[-121.031748663096,50.4710832936302],[-121.03214440329,50.4717292253801],[-121.032379677809,50.4721455264606],[-121.032464348459,50.4721456163356]]]}},{"type":"Feature","id":"883059532","properties":{"name":"iSP_22KPH_%TR_Brake_Ctrl","oid":"883059532","speedLimit":6.111111},"geometry":{"type":"Polygon","coordinates":[[[-121.027260836869,50.4773224173366],[-121.027028661775,50.4772102533149],[-121.02733310982,50.4769444928886],[-121.027715043485,50.4766328962033],[-121.028031748346,50.4763231868934],[-121.028188973714,50.4761692309886],[-121.028619793761,50.4756928035215],[-121.02890578614,50.4753262033256],[-121.029262360875,50.4748880626159],[-121.0294711494,50.4746571736963],[-121.029689940614,50.4745408754238],[-121.029799970195,50.4744886580387],[-121.029950714946,50.4745930928089],[-121.029787149847,50.4745424931741],[-121.029554552104,50.4747919862223],[-121.029250385825,50.4751735056711],[-121.029071464484,50.4754784516051],[-121.028851687089,50.4757752189124],[-121.028694602605,50.4759751908261],[-121.028407483162,50.4762710593833],[-121.028040201323,50.4765704330662],[-121.027242522086,50.4772198699418],[-121.027260836869,50.4773224173366]]]}},{"type":"Feature","id":"884401102","properties":{"name":"iSP_30KPH_%TR_Maint_Limit_Policy","oid":"884401102","speedLimit":8.333333},"geometry":{"type":"Polygon","coordinates":[[[-121.036990776613,50.461101684325],[-121.03710686416,50.4611081553263],[-121.038293098561,50.4609924861789],[-121.038276756139,50.460398322439],[-121.038118262826,50.4605662089715],[-121.037031210019,50.4607088406241],[-121.036743527044,50.4605381679661],[-121.036990776613,50.461101684325]]]}},{"type":"Feature","id":"908328496","properties":{"name":"SP_25KPH_%TR_1445_SOFT_GROUND_SEPT_24_DS","oid":"908328496","speedLimit":6.9444447},"geometry":{"type":"Polygon","coordinates":[[[-121.039329856156,50.4644971624816],[-121.03993889313,50.4647094472727],[-121.039187141733,50.4666751037778],[-121.03882493168,50.4674281665484],[-121.038450183045,50.4678946178886],[-121.03791327814,50.468238299955],[-121.037178291814,50.468026194914],[-121.038311272461,50.4667055714086],[-121.038791965071,50.4655663156884],[-121.039329856156,50.4644971624816]]]}},{"type":"Feature","id":"910445950","properties":{"name":"SP_22KPH_%TR_1635_FLATS_SEP_24_DS","oid":"910445950","speedLimit":6.111111},"geometry":{"type":"Polygon","coordinates":[[[-121.017368740854,50.4554942022407],[-121.018001868811,50.4544145336569],[-121.018147119128,50.4539988617015],[-121.018531729569,50.4537518851538],[-121.018947756907,50.4536884333915],[-121.01886562215,50.4543420045179],[-121.018260811665,50.4560724581025],[-121.01827489996,50.4557011844057],[-121.017368740854,50.4554942022407]]]}},{"type":"Feature","id":"915576987","properties":{"name":"iSP_15KPH_%TR_Preventing Shifting","oid":"915576987","speedLimit":4.1666665},"geometry":{"type":"Polygon","coordinates":[[[-121.036996271048,50.444863605435],[-121.037510352916,50.445313519772],[-121.037979634007,50.4457959688654],[-121.03852358306,50.4462192801972],[-121.039456228159,50.4468503825692],[-121.039913534199,50.4471001452425],[-121.040469458302,50.447195502636],[-121.041222618529,50.4473232150357],[-121.041641040877,50.4475100651968],[-121.042319533142,50.44809551106],[-121.042702171222,50.4485282592687],[-121.04284559006,50.4487952779453],[-121.043007041916,50.4493920480607],[-121.043186245022,50.4501985864667],[-121.043323746777,50.4505017349003],[-121.043685393298,50.4511691467794],[-121.043855861662,50.4514894613413],[-121.044124807205,50.4522540281141],[-121.04438191858,50.4529386061215],[-121.0446956649,50.4537985302878],[-121.044734548593,50.4541951487395],[-121.044570138195,50.4550722390341],[-121.044214549641,50.4568397211259],[-121.044050139244,50.457207759322],[-121.043003942491,50.4583994121775],[-121.041904069336,50.4595377691476],[-121.041342228149,50.4600010748622],[-121.04037084024,50.4605979348526],[-121.039922409825,50.4607313992534],[-121.039133324448,50.4608076132682],[-121.038495970002,50.4608391593993],[-121.038643756212,50.4611439255832],[-121.038756603451,50.4609499752957],[-121.039877609048,50.4608801424072],[-121.040705578119,50.4606322671092],[-121.041509597088,50.4600583252483],[-121.042872498703,50.4587006732357],[-121.044241317401,50.4571428695595],[-121.044426719357,50.4562905847697],[-121.044812315979,50.4544219932834],[-121.044809216554,50.4537870262856],[-121.044259350418,50.4523017517484],[-121.043831911561,50.4511863129077],[-121.043344738336,50.4503378028686],[-121.04304888415,50.4493100820449],[-121.042926315988,50.4486922811754],[-121.042238807214,50.4478876301448],[-121.041545381357,50.4473918795489],[-121.041091033858,50.4472221955161],[-121.040457483252,50.4471307027484],[-121.039916492741,50.447020066602],[-121.038819578128,50.4463336910943],[-121.038194903148,50.4458721828801],[-121.03715180582,50.4449073745685],[-121.037375950586,50.444697696153],[-121.036996271048,50.444863605435]]]}},{"type":"Feature","id":"917773475","properties":{"name":"SP_15KPH_%TR_1200_CORNER_Sept_24_DS","oid":"917773475","speedLimit":4.1666665},"geometry":{"type":"Polygon","coordinates":[[[-121.037097143237,50.4446828667751],[-121.036923011916,50.4448624370598],[-121.036627439497,50.4448209148018],[-121.036412874771,50.4448702561863],[-121.036321300856,50.4449679503302],[-121.036252690862,50.4450824511024],[-121.036240434046,50.4451452737395],[-121.036261566488,50.4452675936382],[-121.036314256709,50.4453518065295],[-121.036182390272,50.4453955756629],[-121.036087294284,50.4451946151241],[-121.03616125783,50.4449320003233],[-121.036258044414,50.4447917054211],[-121.036514874024,50.4447154015314],[-121.036711969264,50.4447120761558],[-121.036921321321,50.444770405042],[-121.037091930568,50.4446839452753],[-121.037097143237,50.4446828667751]]]}},{"type":"Feature","id":"926367691","properties":{"name":"SP_30KPH_%TR_24SH_EMPTY_LANE_SEP_24_DS","oid":"926367691","speedLimit":8.333333},"geometry":{"type":"Polygon","coordinates":[[[-121.03878238503,50.4508578197192],[-121.038611212252,50.4512059056615],[-121.038637134714,50.4520124440674],[-121.038864097139,50.4535988279992],[-121.039043300245,50.4535759098698],[-121.038780412669,50.4517190021357],[-121.03878238503,50.4508578197192]]]}},{"type":"Feature","id":"929009157","properties":{"name":"iSP_22KPH_%TR_Long_Single_Lane","oid":"929009157","speedLimit":6.111111},"geometry":{"type":"Polygon","coordinates":[[[-121.00568010552,50.4380562918687],[-121.004750418963,50.4382243581512],[-121.005174899277,50.4381978450211],[-121.007935077944,50.4431708094827],[-121.008523827773,50.4445352021216],[-121.008210926752,50.4465100258784],[-121.007832937809,50.4466805187864],[-121.008934360676,50.44664726503],[-121.008823626681,50.4465932501445],[-121.009403641768,50.4448179489262],[-121.00876473761,50.443068711463],[-121.008263053441,50.4415404766675],[-121.007259544221,50.4401564912748],[-121.006439887244,50.4389843412982],[-121.005860858339,50.4383133344184],[-121.00568010552,50.4380562918687]]]}},{"type":"Feature","id":"934051091","properties":{"name":"iSP_17KPH_%TR_Ramp_Permission Blocker","oid":"934051091","speedLimit":4.7222223},"geometry":{"type":"Polygon","coordinates":[[[-121.039511172507,50.4610300539362],[-121.039463131423,50.4607720227613],[-121.039015687188,50.4607926041402],[-121.039074576259,50.4610453326891],[-121.039162064568,50.4609002744111],[-121.039378038124,50.4608871526585],[-121.039511172507,50.4610300539362]]]}},{"type":"Feature","id":"936169885","properties":{"name":"SP_15KPH_%TR_24shl_loadplan_Sept_24_DS","oid":"936169885","speedLimit":4.1666665},"geometry":{"type":"Polygon","coordinates":[[[-121.039051048807,50.4535941544983],[-121.038505972692,50.4536751318889],[-121.038610507837,50.4545483575578],[-121.039162064568,50.4545298433042],[-121.039142763605,50.4542343342471],[-121.03909852636,50.4539213894366],[-121.039075985089,50.4537570080298],[-121.039051048807,50.4535941544983]]]}},{"type":"Feature","id":"936513295","properties":{"name":"SP_30KPH_%TR_1635_FLATS_SEP_24_DS","oid":"936513295","speedLimit":8.333333},"geometry":{"type":"Polygon","coordinates":[[[-121.017284915502,50.4555555868776],[-121.018049064598,50.455785577047],[-121.017432983478,50.4574541966197],[-121.015226052137,50.4585173282003],[-121.01449726466,50.457880024452],[-121.016176307604,50.4566197969584],[-121.017284915502,50.4555555868776]]]}},{"type":"Feature","id":"937786749","properties":{"name":"SP_32KPH_%TR_24SH_Loaded_LANE_SEP_24_DS","oid":"937786749","speedLimit":8.888889},"geometry":{"type":"Polygon","coordinates":[[[-121.038408481693,50.4510856528882],[-121.038211386453,50.4510395470043],[-121.038251960741,50.4516611226245],[-121.038477655219,50.4536766597642],[-121.038644883276,50.4536489782589],[-121.038402001078,50.4516755925023],[-121.038408481693,50.4510856528882]]]}},{"type":"Feature","id":"938065675","properties":{"name":"SP_8KPH_CR01_YARD_RUTIING_SEP_24_DS","oid":"938065675","speedLimit":2.2222223},"geometry":{"type":"Polygon","coordinates":[[[-121.034287655539,50.4648015691655],[-121.034097463563,50.4648583701764],[-121.033939252015,50.4649073520609],[-121.033827813605,50.4650053158299],[-121.034042660097,50.4650692169672],[-121.033962638584,50.4650116969561],[-121.034241023284,50.4648884783073],[-121.034317663606,50.4649377298168],[-121.034287655539,50.4648015691655]]]}},{"type":"Feature","id":"938165680","properties":{"name":"SP_10KPH_%TR_22SH_Sept_24_DS","oid":"938165680","speedLimit":2.7777777},"geometry":{"type":"Polygon","coordinates":[[[-121.034078867014,50.4466117643981],[-121.035053636113,50.4472509555217],[-121.03549544503,50.4474476919347],[-121.035793553343,50.4469125760813],[-121.034853300565,50.4461957329426],[-121.034078867014,50.4466117643981]]]}},{"type":"Feature","id":"940771585","properties":{"name":"SP_20KPH_%TR_1660_HMT_SEPT24_DS","oid":"940771585","speedLimit":5.5555553},"geometry":{"type":"Polygon","coordinates":[[[-121.002708320668,50.4281188111971],[-121.002603081108,50.4277116773684],[-121.002231431898,50.4276982859908],[-121.002504885695,50.4277966991348],[-121.002532921401,50.4281143174462],[-121.002673240815,50.4280829510652],[-121.002708320668,50.4281188111971]]]}},{"type":"Feature","id":"940778315","properties":{"name":"SP_25KPH_%TR_HMT_SPILLING_ROCK_IN_CORNER_SEPT24_DS","oid":"940778315","speedLimit":6.9444447},"geometry":{"type":"Polygon","coordinates":[[[-121.004784089986,50.4367083463581],[-121.004770001692,50.437043939673],[-121.004987384077,50.4372765362179],[-121.005120659343,50.4371691355722],[-121.004889329547,50.4369365390272],[-121.004882285399,50.4367575978676],[-121.005197863197,50.4367978618754],[-121.004798037398,50.4366994487313],[-121.004784089986,50.4367083463581]]]}},{"type":"Feature","id":"944340040","properties":{"name":"SP_11KPH_%TR_1590-1635_LOADED_CORNER_SEPT24_DS","oid":"944340040","speedLimit":3.0555556},"geometry":{"type":"Polygon","coordinates":[[[-121.012391628158,50.4565115874374],[-121.012740031682,50.4562913037698],[-121.012333020852,50.4564637739282],[-121.01238838785,50.4565115874374],[-121.012391628158,50.4565115874374]]]}}]}