{"type":"FeatureCollection","features":[{"type":"Feature","id":"702602533","properties":{"name":"iSP_4KPH_%TR_CR01_SLOW BUMP","oid":"702602533","speedLimit":1.1111112},"geometry":{"type":"Polygon","coordinates":[[[-121.033359336323,50.4648079138682],[-121.033654081292,50.4646908965095],[-121.033697475867,50.4647316099224],[-121.033369621401,50.4648697479257],[-121.033359336323,50.4648079138682]]]}},{"type":"Feature","id":"707947583","properties":{"name":"iSP_22KPH_%TR_Permission Gate 1 from west dump_Jun","oid":"707947583","speedLimit":6.111111},"geometry":{"type":"Polygon","coordinates":[[[-121.038628959334,50.4619780171141],[-121.038855653719,50.4617995251983],[-121.037981422107,50.4613510485316],[-121.037744301752,50.4615423027093],[-121.037960429277,50.4614965562918],[-121.038667422707,50.4618460804916],[-121.038628959334,50.4619780171141]]]}},{"type":"Feature","id":"742345972","properties":{"name":"iSP_4KPH_%TR_CR01_PITSIDE_SLOW BUMP","oid":"742345972","speedLimit":1.1111112},"geometry":{"type":"Polygon","coordinates":[[[-121.033399208611,50.4648828696879],[-121.033706492922,50.4647443721842],[-121.033756650287,50.464776457589],[-121.033475149117,50.4649183703459],[-121.033399208611,50.4648828696879]]]}},{"type":"Feature","id":"776427243","properties":{"name":"iSP_7KPH_%TR_CR1_PermissionBlocker_DO_NOT_DELETE","oid":"776427243","speedLimit":1.9444444},"geometry":{"type":"Polygon","coordinates":[[[-121.03410042549,50.4652128909945],[-121.034051958823,50.4652332027634],[-121.034030825101,50.4652746351769],[-121.034116487119,50.4652255633813],[-121.03410042549,50.4652128909945]]]}},{"type":"Feature","id":"794004438","properties":{"name":"iSP_11KPH_%TR_LOWER_FUEL_BAY","oid":"794004438","speedLimit":3.0555556},"geometry":{"type":"Polygon","coordinates":[[[-121.036777222656,50.4606954996726],[-121.036779336028,50.4607253382003],[-121.036749607926,50.4606708738997],[-121.037125788169,50.4605991535831],[-121.037535782366,50.4605561034181],[-121.037543531397,50.4605814481916],[-121.036945024404,50.4606502925056],[-121.036777222656,50.4606954996726]]]}},{"type":"Feature","id":"801543391","properties":{"name":"iSP_4KPH_%TR_CR1_PermissionBlocker_DO_NOT_DELETE_","oid":"801543391","speedLimit":1.1111112},"geometry":{"type":"Polygon","coordinates":[[[-121.033155889031,50.4645233693539],[-121.033155043682,50.464473938058],[-121.033176600078,50.4644318765189],[-121.033108549495,50.4644594681695],[-121.033155889031,50.4645233693539]]]}},{"type":"Feature","id":"806473874","properties":{"name":"iSP_4KPH_%TR_Permission Blocker - DO NOT DELETE","oid":"806473874","speedLimit":1.1111112},"geometry":{"type":"Polygon","coordinates":[[[-121.022719775571,50.4815452607931],[-121.022686666074,50.4815429240409],[-121.022679057934,50.4815715941926],[-121.022701177896,50.4815726726936],[-121.022705263749,50.4815485861712],[-121.022719775571,50.4815452607931]]]}},{"type":"Feature","id":"824566967","properties":{"name":"iSP_4Cr_3KPH","oid":"824566967","speedLimit":0.8333333},"geometry":{"type":"Polygon","coordinates":[[[-121.02330264361,50.4810683836001],[-121.023282496129,50.4810683836001],[-121.023279819191,50.4811864794598],[-121.023304897874,50.4811857604591],[-121.02330264361,50.4810683836001]]]}},{"type":"Feature","id":"826307302","properties":{"name":"iSP_4KPH_TR%_CRUSHER POCKETS","oid":"826307302","speedLimit":1.1111112},"geometry":{"type":"Polygon","coordinates":[[[-121.0232978533,50.4813215617103],[-121.023337302913,50.4814772253549],[-121.023542018229,50.4814377701932],[-121.02346100563,50.481188906087],[-121.023052702131,50.4811896250877],[-121.023058056007,50.4813602978713],[-121.023282918803,50.4813263250897],[-121.0232978533,50.4813215617103]]]}},{"type":"Feature","id":"849417440","properties":{"name":"iSP_Permissions_35_KPH_June_19_NS","oid":"849417440","speedLimit":9.722222},"geometry":{"type":"Polygon","coordinates":[[[-121.03269587836,50.4660341695075],[-121.033010489027,50.4660148463646],[-121.033217458606,50.4658139755529],[-121.033806244087,50.4653795193993],[-121.033727063077,50.4652507284046],[-121.033963197192,50.4654001906685],[-121.033426964232,50.4658084931728],[-121.033024578175,50.4661880356505],[-121.03269587836,50.4660341695075]]]}},{"type":"Feature","id":"853029148","properties":{"name":"SP_30KPH_%TR_1635 Flats_AUG_9_NS","oid":"853029148","speedLimit":8.333333},"geometry":{"type":"Polygon","coordinates":[[[-121.01859024639,50.4569708964622],[-121.01740901225,50.4572896833834],[-121.016430520944,50.4584575202184],[-121.018349321965,50.458893054873],[-121.020692488114,50.4589871540855],[-121.020240790039,50.4572317139546],[-121.019423055909,50.457096541829],[-121.018968821788,50.4569999261142],[-121.01859024639,50.4569708964622]]]}},{"type":"Feature","id":"883050998","properties":{"name":"iSP_22kph_%TR_4CR_Brake_Temp_CTRL_NOREMOVE","oid":"883050998","speedLimit":6.111111},"geometry":{"type":"Polygon","coordinates":[[[-121.031799526785,50.4745590908026],[-121.032188809935,50.4743124735735],[-121.032490458587,50.4745748189422],[-121.032792107238,50.4748022029035],[-121.032969912282,50.474884618355],[-121.03317871345,50.4749347686516],[-121.033462609776,50.4749595741747],[-121.033666479742,50.4749220063898],[-121.033827659592,50.4748625989596],[-121.033918816377,50.4748105612862],[-121.034008141573,50.4747473791025],[-121.034058580722,50.4746582230197],[-121.034052804171,50.4745480361673],[-121.034056608241,50.4744836856075],[-121.0339944751,50.4743797001359],[-121.03387612626,50.4742596270244],[-121.033509244854,50.4739376944753],[-121.033060928176,50.4735600393744],[-121.032947651428,50.4734254963744],[-121.032822680689,50.4732209406844],[-121.032605848706,50.4728149749322],[-121.032252351991,50.4722090371193],[-121.032487358974,50.4721561905702],[-121.032430297926,50.4722057117412],[-121.032902847939,50.4730489197746],[-121.033042048718,50.4733096473918],[-121.033249863646,50.4735470074873],[-121.033742842923,50.4739616911226],[-121.034097889444,50.4742712209102],[-121.034203276268,50.4743945295247],[-121.034255969681,50.4744617560872],[-121.034263014255,50.474592883834],[-121.034238076463,50.4746788942889],[-121.034183551462,50.4747916875187],[-121.03408605456,50.4748759004719],[-121.033973200487,50.4749377345294],[-121.033790605133,50.4750161954773],[-121.033531083033,50.4750644583971],[-121.033263107445,50.4750681432755],[-121.033071495036,50.4750263513617],[-121.032807746192,50.4749166138848],[-121.032656992312,50.4748351870591],[-121.032495389788,50.4747054074385],[-121.032144851794,50.474413133667],[-121.031799526785,50.4745590908026]]]}},{"type":"Feature","id":"883053336","properties":{"name":"iSP_22kph_%TR_Brake_Temp_CTRL_NOREMOVE","oid":"883053336","speedLimit":6.111111},"geometry":{"type":"Polygon","coordinates":[[[-121.032466084361,50.4721453156851],[-121.032251224859,50.4722255741346],[-121.031488579296,50.4710083958788],[-121.030816667844,50.4699234238708],[-121.030661405437,50.4696602696263],[-121.030596595357,50.4694577810632],[-121.030550242061,50.4692568203765],[-121.030596595357,50.4689729948628],[-121.03072283412,50.4686243694139],[-121.030884577536,50.4683755951828],[-121.031089011068,50.4680978811748],[-121.03168836341,50.4675366112784],[-121.032432270407,50.4668937348061],[-121.032788584951,50.4665562538675],[-121.033147717325,50.4662224578074],[-121.033484588846,50.4658707766057],[-121.033779615598,50.4660341695075],[-121.033587580515,50.4659933662196],[-121.032919473133,50.4666521505816],[-121.0325547051,50.4669913391468],[-121.032178665749,50.4673077893158],[-121.031774448102,50.4676684580258],[-121.03138206534,50.4680345192409],[-121.031147199248,50.4682864391],[-121.031008843818,50.4684699640205],[-121.030905147691,50.468654567442],[-121.030828643619,50.4688531015014],[-121.030767778501,50.4691913913157],[-121.030776513773,50.4694007103852],[-121.030873728892,50.4696304310986],[-121.031027723276,50.4699351975068],[-121.031330639951,50.4704038960672],[-121.031530705848,50.4707110891026],[-121.03175035566,50.4710829921981],[-121.032146119818,50.4717289244232],[-121.032381408584,50.47214522581],[-121.032466084361,50.4721453156851]]]}},{"type":"Feature","id":"883059532","properties":{"name":"iSP_22kph_%TR_Brake_CTRL_NOREMOVE","oid":"883059532","speedLimit":6.111111},"geometry":{"type":"Polygon","coordinates":[[[-121.02726225767,50.4773221204946],[-121.027030068517,50.4772099563904],[-121.027334534998,50.4769441957685],[-121.027716491791,50.476632598854],[-121.028033215831,50.4763228893163],[-121.028190450719,50.4761689332982],[-121.028621296854,50.4756925054806],[-121.028907306552,50.475325905015],[-121.029263902879,50.474887763983],[-121.029472704048,50.4746568748934],[-121.029691508511,50.4745405765354],[-121.029801544754,50.4744883591119],[-121.029952298634,50.4745927939589],[-121.02978872363,50.4745421942869],[-121.029556111802,50.4747916875187],[-121.029251927104,50.4751732072482],[-121.029072994929,50.4754781534065],[-121.028853204225,50.4757749209322],[-121.028696110229,50.475974892993],[-121.028408973399,50.4762707617678],[-121.028041669319,50.476570135671],[-121.027243941779,50.4772195730243],[-121.02726225767,50.4773221204946]]]}},{"type":"Feature","id":"903864124","properties":{"name":"SP_20KPH_%TR_OLD_GARBAGEDUMP_AUG_9_NS","oid":"903864124","speedLimit":5.5555553},"geometry":{"type":"Polygon","coordinates":[[[-121.042585191998,50.4670022140319],[-121.042132366792,50.4673288200853],[-121.040894071604,50.4666614975903],[-121.040723733809,50.4661230559651],[-121.042264382106,50.4668263284935],[-121.042585191998,50.4670022140319]]]}},{"type":"Feature","id":"908328496","properties":{"name":"SP_12KPH_%TR_9019_SOFT_GROUND_AUG_9_NS","oid":"908328496","speedLimit":3.3333333},"geometry":{"type":"Polygon","coordinates":[[[-121.039000208375,50.464489037072],[-121.038982315157,50.4647359239264],[-121.038909756047,50.4649878437854],[-121.038202480834,50.465721494092],[-121.037624684888,50.4662169754273],[-121.037445048255,50.4665117657012],[-121.037342338369,50.4667328584066],[-121.036963622079,50.4670236043017],[-121.035974845696,50.4664709624133],[-121.037881670941,50.4651400023018],[-121.038520754679,50.4648144747493],[-121.039000208375,50.464489037072]]]}},{"type":"Feature","id":"910445950","properties":{"name":"SP_30KPH_%TR_1635_FLATS_AUG_9_NS","oid":"910445950","speedLimit":8.333333},"geometry":{"type":"Polygon","coordinates":[[[-121.02022557376,50.4571641278918],[-121.019044480511,50.4569612798283],[-121.018650829725,50.4569226335424],[-121.017454520197,50.4572317139546],[-121.018090504322,50.4544690437629],[-121.018771855504,50.4538991458584],[-121.01893853012,50.4535127728745],[-121.019559297967,50.4545173965578],[-121.02022557376,50.4571448047488],[-121.020210498372,50.4571448047488],[-121.02022557376,50.4571641278918]]]}},{"type":"Feature","id":"915576987","properties":{"name":"iSP_15kph_prevent shifting","oid":"915576987","speedLimit":4.1666665},"geometry":{"type":"Polygon","coordinates":[[[-121.036998281383,50.4448632847136],[-121.037512394381,50.4453131993816],[-121.03798170389,50.4457956488299],[-121.038525685881,50.4462189604731],[-121.039458387457,50.4468500633095],[-121.03991572119,50.4470998261665],[-121.040471678957,50.4471951836301],[-121.041224884791,50.4473228961238],[-121.041643332477,50.4475097464224],[-121.042321865828,50.4480951927162],[-121.042704527079,50.4485279412433],[-121.042847954602,50.4487949601164],[-121.043009416235,50.4493917306708],[-121.043188630193,50.4501982696701],[-121.043326140274,50.4505014183268],[-121.043687808695,50.4511688306968],[-121.043858287382,50.4514891454944],[-121.04412724921,50.4522537128297],[-121.044384376155,50.4529382913407],[-121.044698141474,50.4537982161397],[-121.044737027521,50.4541948348831],[-121.044572607168,50.455071925823],[-121.044216997081,50.4568394092151],[-121.044052576728,50.457207447682],[-121.043006316622,50.4583991014141],[-121.041906376864,50.4595374592217],[-121.041344501655,50.4600007652772],[-121.040373054923,50.4605976257067],[-121.039924597353,50.4607310902057],[-121.039135464192,50.4608073042765],[-121.038944274458,50.4608054168997],[-121.039001053723,50.4612935284782],[-121.03906079171,50.4609274672631],[-121.039879793863,50.4608798334688],[-121.040707813072,50.4606319579886],[-121.041511880729,50.4600580157053],[-121.042874864874,50.458700362694],[-121.044243766462,50.4571425578717],[-121.044429179645,50.4562902724549],[-121.044814799617,50.4544216795939],[-121.044811700004,50.453786712129],[-121.044261800571,50.4523014364991],[-121.04383433583,50.4511859968378],[-121.043347133104,50.4503374861745],[-121.043051261003,50.4493097645947],[-121.042928685418,50.4486919632707],[-121.042241135012,50.4478873116481],[-121.041547667164,50.4473915606875],[-121.041093292152,50.4472218765299],[-121.040459703181,50.4471303836949],[-121.039918679911,50.4470197474671],[-121.038821698874,50.4463333714544],[-121.038196986066,50.4458718629007],[-121.037153825573,50.4449070538793],[-121.037377983912,50.4446973753095],[-121.036998281383,50.4448632847136]]]}},{"type":"Feature","id":"917291012","properties":{"name":"SP_15KPH_%TR_CORNER_RUTS_AUG_9_NS","oid":"917291012","speedLimit":4.1666665},"geometry":{"type":"Polygon","coordinates":[[[-121.040555227603,50.4664422023866],[-121.04036417876,50.4663130518916],[-121.040274149107,50.4660943858134],[-121.040330364806,50.4660010954768],[-121.039807516536,50.4659760203285],[-121.040088595032,50.4660441456418],[-121.040094230691,50.4663095467633],[-121.040229204726,50.4665139227032],[-121.040538320625,50.4666465783265],[-121.040712603382,50.4667254886498],[-121.040819399121,50.4665820480165],[-121.040543956284,50.4664386073832],[-121.040555227603,50.4664422023866]]]}},{"type":"Feature","id":"917665392","properties":{"name":"SP_15KPH_22SH RUTS_AUG 9_NS","oid":"917665392","speedLimit":4.1666665},"geometry":{"type":"Polygon","coordinates":[[[-121.035647836579,50.4455196424484],[-121.035215581528,50.4452077759087],[-121.034706963298,50.4452031922794],[-121.03503735381,50.4456322559281],[-121.035586407895,50.4459567049795],[-121.03600668717,50.4464644992013],[-121.036509247067,50.446208085588],[-121.035647836579,50.4455196424484]]]}},{"type":"Feature","id":"917773475","properties":{"name":"SP_15KPH_%TR_1200_CORNER_AUG_9_NS","oid":"917773475","speedLimit":4.1666665},"geometry":{"type":"Polygon","coordinates":[[[-121.03709915968,50.4446825459207],[-121.036925017815,50.4448621163376],[-121.036629427497,50.444820594049],[-121.036414849778,50.4448699354698],[-121.036323270318,50.4449676296856],[-121.036254656169,50.445082130542],[-121.03624239861,50.4451449532253],[-121.036263532332,50.445267273214],[-121.036316225744,50.4453514861672],[-121.036184351322,50.4453952553329],[-121.036089249575,50.4451942946462],[-121.0361632176,50.4449316796522],[-121.036260010045,50.4447913846468],[-121.036516855207,50.444715080701],[-121.036713962383,50.4447117553229],[-121.036923327117,50.4447700842521],[-121.037093946695,50.4446836244217],[-121.03709915968,50.4446825459207]]]}},{"type":"Feature","id":"919196848","properties":{"name":"SPD_25_kph_1445bench_aug10_ds","oid":"919196848","speedLimit":6.9444447},"geometry":{"type":"Polygon","coordinates":[[[-121.037820101366,50.4671984113391],[-121.037496614536,50.4670224359256],[-121.038303781805,50.4660837805536],[-121.038721525034,50.4655213422811],[-121.038860725813,50.4653851815296],[-121.039482620791,50.465497615259],[-121.039065018454,50.4661726670112],[-121.038888622325,50.4666285134347],[-121.038990627754,50.4671732463158],[-121.038944274458,50.4674219306718],[-121.038155282189,50.4672679746538],[-121.037719082177,50.4671258821468],[-121.037820101366,50.4671984113391]]]}},{"type":"Feature","id":"919266915","properties":{"name":"SP_15KM","oid":"919266915","speedLimit":4.1666665},"geometry":{"type":"Polygon","coordinates":[[[-121.042086858845,50.4624109453913],[-121.041935259616,50.4623151385523],[-121.041229111535,50.4628176301442],[-121.04149004255,50.4629420172597],[-121.042086858845,50.4624109453913]]]}}]}