{"type":"FeatureCollection","features":[{"type":"Feature","id":"702602533","properties":{"name":"iSP_4KPH_%TR_CR01_SLOW BUMP","oid":"702602533","speedLimit":1.1111112},"geometry":{"type":"Polygon","coordinates":[[[-121.033358437201,50.4648090409618],[-121.033653187349,50.464692021043],[-121.033696582686,50.4647327353465],[-121.03336872246,50.4648708763721],[-121.033358437201,50.4648090409618]]]}},{"type":"Feature","id":"707947583","properties":{"name":"iSP_22KPH_%TR_Permission Gate 1 from west dump_Jun","oid":"707947583","speedLimit":6.111111},"geometry":{"type":"Polygon","coordinates":[[[-121.038628152797,50.4619790822948],[-121.038854851166,50.4618005864739],[-121.037980604194,50.4613520999954],[-121.037743479672,50.4615433583574],[-121.037959610995,50.461497610939],[-121.038666616846,50.4618471427857],[-121.038628152797,50.4619790822948]]]}},{"type":"Feature","id":"742345972","properties":{"name":"iSP_4KPH_%TR_CR01_PITSIDE_SLOW BUMP","oid":"742345972","speedLimit":1.1111112},"geometry":{"type":"Polygon","coordinates":[[[-121.03339831019,50.4648839984213],[-121.033705599899,50.4647454978876],[-121.033755758146,50.4647775839944],[-121.03347425203,50.464919499856],[-121.03339831019,50.4648839984213]]]}},{"type":"Feature","id":"776427243","properties":{"name":"iSP_7KPH_%TR_CR1_PermissionBlocker_DO_NOT_DELETE","oid":"776427243","speedLimit":1.9444444},"geometry":{"type":"Polygon","coordinates":[[[-121.034099539389,50.4652140269482],[-121.03405107187,50.4652343391615],[-121.034029937777,50.4652757724814],[-121.0341156013,50.4652266996122],[-121.034099539389,50.4652140269482]]]}},{"type":"Feature","id":"794004438","properties":{"name":"iSP_11KPH_%TR_LOWER_FUEL_BAY","oid":"794004438","speedLimit":3.0555556},"geometry":{"type":"Polygon","coordinates":[[[-121.036776383585,50.4606965367941],[-121.036778496994,50.4607263759747],[-121.03674876837,50.4606719104825],[-121.037124955223,50.4606001885968],[-121.037534956623,50.4605571374899],[-121.03754270579,50.460582482818],[-121.036944188282,50.4606513286381],[-121.036776383585,50.4606965367941]]]}},{"type":"Feature","id":"801543391","properties":{"name":"iSP_4KPH_%TR_CR1_PermissionBlocker_DO_NOT_DELETE_","oid":"801543391","speedLimit":1.1111112},"geometry":{"type":"Polygon","coordinates":[[[-121.033154986335,50.4645244902221],[-121.033154140971,50.4644750578448],[-121.033175697746,50.4644329953854],[-121.033107645967,50.4644605876397],[-121.033154986335,50.4645244902221]]]}},{"type":"Feature","id":"806473874","properties":{"name":"iSP_4KPH_%TR_Permission Blocker - DO NOT DELETE","oid":"806473874","speedLimit":1.1111112},"geometry":{"type":"Polygon","coordinates":[[[-121.022718689515,50.4815467540689],[-121.022685579437,50.4815444172656],[-121.022677971163,50.4815730880445],[-121.022700091514,50.4815741665691],[-121.022704177438,50.4815500795197],[-121.022718689515,50.4815467540689]]]}},{"type":"Feature","id":"815785951","properties":{"name":"SP_15KPH_%TR_1665-1650W_aug_14_DS","oid":"815785951","speedLimit":4.1666665},"geometry":{"type":"Polygon","coordinates":[[[-121.051821885153,50.4696487403394],[-121.051754819632,50.4694755472644],[-121.053196305655,50.4691274534506],[-121.054114088859,50.4689219945147],[-121.054507605668,50.4687970654155],[-121.054685695623,50.4686994589394],[-121.054828984772,50.4685942129141],[-121.054871957428,50.468480248815],[-121.054883933414,50.4684057407407],[-121.054909717007,50.4679727131147],[-121.054902813203,50.467316161266],[-121.054904644824,50.4671571687649],[-121.055085270871,50.4671617524944],[-121.055009610819,50.4671815254454],[-121.055011583334,50.4676949031538],[-121.05501285138,50.4682072922147],[-121.054985377059,50.4685219517661],[-121.054906335552,50.4686501164391],[-121.054797988103,50.4687291183658],[-121.05458326572,50.4688540474651],[-121.05440108984,50.4689175905393],[-121.053687039291,50.4690879075487],[-121.052934524692,50.4692611006236],[-121.051819489956,50.4695257885353],[-121.051821885153,50.4696487403394]]]}},{"type":"Feature","id":"824566967","properties":{"name":"iSP_4Cr_3KPH","oid":"824566967","speedLimit":0.8333333},"geometry":{"type":"Polygon","coordinates":[[[-121.023301567795,50.4810698664426],[-121.02328141996,50.4810698664426],[-121.023278742975,50.4811879648861],[-121.023303822098,50.4811872458697],[-121.023301567795,50.4810698664426]]]}},{"type":"Feature","id":"826307302","properties":{"name":"iSP_4KPH_TR%_CRUSHER POCKETS","oid":"826307302","speedLimit":1.1111112},"geometry":{"type":"Polygon","coordinates":[[[-121.023296777401,50.4813230500919],[-121.023336227707,50.4814787171422],[-121.02354094662,50.4814392611173],[-121.023459932597,50.4811903915664],[-121.023051621924,50.4811911105828],[-121.023056975894,50.4813617871004],[-121.023281842642,50.4813278135756],[-121.023296777401,50.4813230500919]]]}},{"type":"Feature","id":"849417440","properties":{"name":"iSP_Permissions_35_KPH_June_19_NS","oid":"849417440","speedLimit":9.722222},"geometry":{"type":"Polygon","coordinates":[[[-121.032694967581,50.4660353234293],[-121.033009583776,50.4660159998636],[-121.033216556992,50.4658151246573],[-121.033805352817,50.4653806589985],[-121.033726170416,50.4652518651862],[-121.03396230868,50.46540133072],[-121.033426066298,50.4658096421572],[-121.033023673171,50.4661891929385],[-121.032694967581,50.4660353234293]]]}},{"type":"Feature","id":"853029148","properties":{"name":"SP_15KPH_%TR_1635 Flats_AUG_11_DS","oid":"853029148","speedLimit":4.1666665},"geometry":{"type":"Polygon","coordinates":[[[-121.01858908778,50.4569718520964],[-121.017425303735,50.4572818380411],[-121.01578769333,50.457943962267],[-121.014823556016,50.4590974443241],[-121.018348159122,50.4588940525604],[-121.020691366439,50.4589881538316],[-121.020239660428,50.4572326752949],[-121.019421911931,50.457097500212],[-121.018967669829,50.4570008823834],[-121.01858908778,50.4569718520964]]]}},{"type":"Feature","id":"883050998","properties":{"name":"iSP_22kph_%TR_4CR_Brake_Temp_CTRL_NOREMOVE","oid":"883050998","speedLimit":6.111111},"geometry":{"type":"Polygon","coordinates":[[[-121.031798600258,50.4745604312339],[-121.032187890247,50.4743138086092],[-121.032489544199,50.4745761597176],[-121.03279119815,50.4748035486536],[-121.032969006318,50.4748859659082],[-121.033177811155,50.474936117302],[-121.033461712468,50.4749609233678],[-121.033665586017,50.474923354761],[-121.033826768698,50.474863946031],[-121.033917927085,50.4748119072192],[-121.034007253851,50.4747487236532],[-121.034057693886,50.4746595656198],[-121.034051917234,50.4745493763568],[-121.03405572137,50.4744850243891],[-121.033993587137,50.4743810366425],[-121.033875236218,50.474260960904],[-121.033508348366,50.4739390213116],[-121.033060023811,50.4735613579483],[-121.032946745073,50.4734268120048],[-121.032821772138,50.4732222518394],[-121.032604936346,50.4728162772055],[-121.03225143342,50.4722103261357],[-121.032486444532,50.4721574784304],[-121.032429382481,50.4722070006849],[-121.032901940797,50.4730502271661],[-121.033041144021,50.4733109604876],[-121.033248962601,50.4735483257761],[-121.033741950539,50.4739630184839],[-121.034097003298,50.4742725550434],[-121.034202391974,50.4743958663557],[-121.034255086312,50.4744630943889],[-121.03426213101,50.4745942250046],[-121.034237192781,50.4746802373413],[-121.034182666821,50.4747930330388],[-121.034085168206,50.4748772478344],[-121.033972312151,50.4749390832447],[-121.033789713589,50.4750175459092],[-121.033530186929,50.4750658098849],[-121.033262206632,50.4750694948439],[-121.033070590857,50.4750277020158],[-121.032806837379,50.474917962138],[-121.03265608085,50.4748365335309],[-121.032494475487,50.474706751071],[-121.032143931334,50.474414470905],[-121.031798600258,50.4745604312339]]]}},{"type":"Feature","id":"883053336","properties":{"name":"iSP_22kph_%TR_Brake_Temp_CTRL_NOREMOVE","oid":"883053336","speedLimit":6.111111},"geometry":{"type":"Polygon","coordinates":[[[-121.032465169545,50.4721466033074],[-121.032250306268,50.4722268635129],[-121.031487647306,50.4710096586275],[-121.030815724048,50.4699246628823],[-121.030660458913,50.4696615028805],[-121.030595647695,50.4694590098873],[-121.030549293585,50.4692580448039],[-121.030595647695,50.4689742130807],[-121.030721888676,50.4686255800045],[-121.030883634933,50.4683768003306],[-121.031088072057,50.4680990802468],[-121.03168743493,50.4675377980708],[-121.032431354997,50.4668949075336],[-121.032787675801,50.4665574192116],[-121.033146814485,50.4662236158486],[-121.033483691925,50.4658719269527],[-121.03377872386,50.4660353234293],[-121.033586685404,50.4659945192487],[-121.032918566283,50.4666533180237],[-121.032553791841,50.4669925140096],[-121.032177745883,50.467308971102],[-121.031773521134,50.4676696477028],[-121.031381131478,50.4680357169266],[-121.03114626126,50.4682876422972],[-121.031007903399,50.4684711712329],[-121.03090420545,50.4686557786932],[-121.030827700034,50.4688543170962],[-121.030766833847,50.4691926143117],[-121.030775569272,50.4694019379606],[-121.030872786099,50.4696316636999],[-121.031026783188,50.4699364367758],[-121.031329705185,50.4704051455905],[-121.031529774597,50.4707123453467],[-121.031749428269,50.4710842565788],[-121.03214519938,50.4717302029357],[-121.03238049228,50.4721465134304],[-121.032465169545,50.4721466033074]]]}},{"type":"Feature","id":"883059532","properties":{"name":"iSP_22kph_%TR_Brake_CTRL_NOREMOVE","oid":"883059532","speedLimit":6.111111},"geometry":{"type":"Polygon","coordinates":[[[-121.027261251425,50.4773235213759],[-121.027029058192,50.4772113548177],[-121.027333530022,50.4769455883814],[-121.027715493526,50.4766339846498],[-121.028032223131,50.4763242683362],[-121.028189460781,50.4761703089499],[-121.028620314487,50.4756938707089],[-121.028906329209,50.4753272622228],[-121.029262931802,50.474889111605],[-121.029471736639,50.4746582174641],[-121.029690544947,50.4745419165616],[-121.029800583123,50.4744896979957],[-121.029951339652,50.4745941351276],[-121.029787761774,50.4745435343485],[-121.029555145859,50.4747930330388],[-121.029250955816,50.4751745611152],[-121.029072020497,50.4754795139451],[-121.028852225932,50.4757762879636],[-121.028695129175,50.4759762643994],[-121.028407987301,50.4762721396473],[-121.028040676768,50.4765715201002],[-121.027242935211,50.477220971662],[-121.027261251425,50.4773235213759]]]}},{"type":"Feature","id":"884401102","properties":{"name":"SP_25KPH_MAIN INT. DUST_AUG_ 7_NS","oid":"884401102","speedLimit":6.9444447},"geometry":{"type":"Polygon","coordinates":[[[-121.035772091495,50.4609101745415],[-121.035953985587,50.4612037129862],[-121.038294375025,50.4609932209355],[-121.038278031326,50.4603990437593],[-121.03811952563,50.4605669340883],[-121.035902841082,50.4608522038444],[-121.035709675474,50.4607580126962],[-121.035772091495,50.4609101745415]]]}},{"type":"Feature","id":"908328496","properties":{"name":"SP_15KPH_%TR_9019_SOFT_GROUND_AUG_13_NS","oid":"908328496","speedLimit":4.1666665},"geometry":{"type":"Polygon","coordinates":[[[-121.039688238893,50.4639776782512],[-121.039873796228,50.4641981466543],[-121.039738115352,50.4650147695288],[-121.039439561067,50.4657765674029],[-121.039204972637,50.4663546565872],[-121.038927834233,50.4669803806079],[-121.037872256744,50.4685924153731],[-121.036176879819,50.4681979450015],[-121.035227959052,50.4668171638855],[-121.037880851275,50.4651411366608],[-121.038519946242,50.4648156019864],[-121.039688238893,50.4639776782512]]]}},{"type":"Feature","id":"910445950","properties":{"name":"SP_20KPH_%TR_1635_FLATS_AUG_13_NS","oid":"910445950","speedLimit":5.5555553},"geometry":{"type":"Polygon","coordinates":[[[-121.020224443882,50.4571650877534],[-121.019043329881,50.456962235252],[-121.018649672179,50.4569235881206],[-121.017841645364,50.4571479212369],[-121.018447630252,50.456413445986],[-121.018502156211,50.4555089233568],[-121.019217193018,50.4555089233568],[-121.019235368338,50.4564598225437],[-121.019423179976,50.4568928501696],[-121.019756535067,50.4570628975478],[-121.020224443882,50.4571650877534]]]}},{"type":"Feature","id":"915576987","properties":{"name":"iSP_15kph_prevent shifting","oid":"915576987","speedLimit":4.1666665},"geometry":{"type":"Polygon","coordinates":[[[-121.036997446196,50.4448639754556],[-121.037511568227,50.4453138999669],[-121.037980885981,50.4457963599702],[-121.03852487753,50.4462196808748],[-121.039457595493,50.4468507975185],[-121.039914937262,50.4471005658399],[-121.040470904797,50.4471959253897],[-121.041224123865,50.4473236406775],[-121.041642578902,50.447510495064],[-121.042321124176,50.4480959541664],[-121.042703792149,50.4485287121612],[-121.042847222193,50.4487957368761],[-121.043008686662,50.4493925204868],[-121.043187903769,50.4501990771317],[-121.043325416266,50.4505022324207],[-121.043687091041,50.4511696593925],[-121.043857572723,50.451489981198],[-121.044126539278,50.4522545652606],[-121.04438367074,50.4529391587489],[-121.044697441571,50.4537991023614],[-121.044736328302,50.4541957297822],[-121.04457190506,50.4550728399112],[-121.044216288725,50.4568403619725],[-121.044051865483,50.4572084084914],[-121.043005586995,50.4584000882947],[-121.041905627911,50.4595384710075],[-121.04134374283,50.4600017871992],[-121.04037227903,50.4605986606869],[-121.039923813581,50.4607321281059],[-121.039134666555,50.4608083438441],[-121.038943473462,50.460806456426],[-121.039000253725,50.4612945786835],[-121.039059992761,50.4609285094597],[-121.039879009304,50.4608808746233],[-121.04070704306,50.4606329937199],[-121.041511124845,50.4600590388799],[-121.042874132938,50.4587013561657],[-121.044243058576,50.4571435172615],[-121.044428475017,50.4562912131982],[-121.044814101764,50.4544225794559],[-121.044811002097,50.453787598099],[-121.044261093002,50.452302289974],[-121.043833620751,50.451186825909],[-121.043346409465,50.4503382966818],[-121.043050532166,50.4493105526174],[-121.042927954427,50.4486927377771],[-121.042240391941,50.4478880685502],[-121.041546911909,50.4473923067435],[-121.041092528913,50.4472226188735],[-121.040458928811,50.4471311240368],[-121.039917896035,50.4470204853885],[-121.038820895724,50.4463340943592],[-121.03819617194,50.4458725757085],[-121.037152993119,50.4449077455789],[-121.037377155397,50.4446980624217],[-121.036997446196,50.4448639754556]]]}},{"type":"Feature","id":"917291012","properties":{"name":"SP_15KPH_%TR_CORNER_RUTS_AUG_10_NS","oid":"917291012","speedLimit":4.1666665},"geometry":{"type":"Polygon","coordinates":[[[-121.040609826233,50.466222627201],[-121.040684077346,50.4661084833478],[-121.040422155489,50.4659274709695],[-121.040528812211,50.465666647771],[-121.040025539014,50.4656491217463],[-121.04021898641,50.4657720735504],[-121.040016240013,50.4663117852344],[-121.039933253476,50.4664871353586],[-121.039994401451,50.4668212982298],[-121.040666606496,50.466740498762],[-121.040548678258,50.4666235687202],[-121.040531207408,50.4663785638824],[-121.040609826233,50.466222627201]]]}},{"type":"Feature","id":"920440343","properties":{"name":"iSP_17KPH_CAL_PAD_ROAD_LIMIT_AUG_12_DS","oid":"920440343","speedLimit":4.7222223},"geometry":{"type":"Polygon","coordinates":[[[-121.00595385905,50.4378312760629],[-121.005967525764,50.4376135938483],[-121.005585280472,50.43757881143],[-121.00528503546,50.4376832485619],[-121.00518950936,50.4378355901613],[-121.00528503546,50.4381621134832],[-121.005987955387,50.4392592426301],[-121.007468891717,50.441370634284],[-121.00767361063,50.4416492531384],[-121.007782803442,50.4421542722812],[-121.007932996395,50.4426636055224],[-121.008117285685,50.4432338754034],[-121.008322004597,50.443651803685],[-121.008683679372,50.4445617189371],[-121.008758775849,50.4449230246773],[-121.008758775849,50.4451798932857],[-121.008690583176,50.4456195718133],[-121.008492627173,50.446229028088],[-121.008943065138,50.4462159959157],[-121.009134117337,50.445732816896],[-121.009318406626,50.4449187105789],[-121.009215976723,50.4444528778298],[-121.008997591097,50.443799831186],[-121.008772442562,50.443377588806],[-121.008458530837,50.4427375743344],[-121.00829467117,50.4420758994938],[-121.008240145211,50.4417450620735],[-121.007919329682,50.4411964525615],[-121.00681373484,50.4398338266095],[-121.006602253018,50.4394942711154],[-121.00622691153,50.4387802878318],[-121.005987955387,50.4383885137717],[-121.005933429427,50.4380576763514],[-121.00595385905,50.4378312760629]]]}},{"type":"Feature","id":"921284584","properties":{"name":"SP_15kph_rough ground_aug 14 ns ","oid":"921284584","speedLimit":4.1666665},"geometry":{"type":"Polygon","coordinates":[[[-121.03998439798,50.4678271122941],[-121.040543887864,50.467971364959],[-121.040343113982,50.4682555561905],[-121.039851253195,50.4686657550458],[-121.0396671048,50.4688370607027],[-121.039206663365,50.4685678789385],[-121.03998439798,50.4678271122941]]]}},{"type":"Feature","id":"921393777","properties":{"name":"SP_15KPH_ROUGH GROUND 1475_AUG14 NS ","oid":"921393777","speedLimit":4.1666665},"geometry":{"type":"Polygon","coordinates":[[[-121.041952404703,50.4675067904886],[-121.042716754393,50.4677675238101],[-121.04273802938,50.4684041229538],[-121.040089363974,50.4705879555098],[-121.039383485275,50.4703340528441],[-121.039155237072,50.4699717584564],[-121.040322966147,50.4689356558263],[-121.041952404703,50.4675067904886]]]}},{"type":"Feature","id":"921438373","properties":{"name":"SP_15KPH_AMT DOWN ","oid":"921438373","speedLimit":4.1666665},"geometry":{"type":"Polygon","coordinates":[[[-121.015585369615,50.4538499727716],[-121.015254550616,50.4533425269484],[-121.015716400991,50.453412181662],[-121.015657084637,50.4537584779349],[-121.015585369615,50.4538499727716]]]}},{"type":"Feature","id":"921727643","properties":{"name":"25 KPH HIGHMONT TRIAL","oid":"921727643","speedLimit":6.9444447},"geometry":{"type":"Polygon","coordinates":[[[-121.012891759039,50.4364017815859],[-121.008608864684,50.436768479949],[-121.006921659607,50.436952548147],[-121.006214935544,50.4370766683528],[-121.005313636932,50.436952548147],[-121.005010855829,50.4368144969985],[-121.005349705784,50.436198120191],[-121.006027546587,50.4355449836701],[-121.006827965129,50.4347814781321],[-121.007520177116,50.4339029299703],[-121.007844655887,50.4331163260304],[-121.008010488069,50.4323941639353],[-121.008068113695,50.4319158382763],[-121.00795990714,50.4313454785182],[-121.007642754854,50.4309636808107],[-121.007058608529,50.4305451233898],[-121.005775205519,50.4297677767861],[-121.004938718126,50.4292204255528],[-121.004167182844,50.4288294603862],[-121.003575850927,50.4285580316958],[-121.003357465301,50.4283912198914],[-121.002695263726,50.4286976107541],[-121.003705755151,50.4291652410442],[-121.004945903717,50.4298229612947],[-121.006265516472,50.4306600761365],[-121.006878405164,50.4311246506069],[-121.007174000675,50.4315202893801],[-121.007246138379,50.4319801902439],[-121.007246138379,50.4325965670515],[-121.006928845199,50.4332543771789],[-121.006698060905,50.4337878873466],[-121.006352025359,50.4342340370218],[-121.005832831146,50.4348412463702],[-121.005241499229,50.4352919797749],[-121.004772885944,50.4359681248206],[-121.004397967137,50.4365799178986],[-121.004210437287,50.437003059049],[-121.004405152729,50.4373480970432],[-121.005799298385,50.4381875486883],[-121.006272702064,50.4375229079051],[-121.007613871594,50.4375136505689],[-121.008774837759,50.4372423117556],[-121.010022171917,50.4371595349927],[-121.013097886891,50.4372025860996],[-121.012891759039,50.4364017815859]]]}},{"type":"Feature","id":"921769135","properties":{"name":"SP_15kph_TR_Highmont_1620_AUG_16","oid":"921769135","speedLimit":4.1666665},"geometry":{"type":"Polygon","coordinates":[[[-121.013165093306,50.4372628936],[-121.012880628417,50.4363296103149],[-121.013429269466,50.4359493405172],[-121.013686682717,50.4355777887933],[-121.013889851796,50.4354567244072],[-121.014533314475,50.4356598465398],[-121.015203969687,50.4361135458872],[-121.015813476924,50.4368178224494],[-121.015989594364,50.4373795540106],[-121.015976068544,50.4375782721677],[-121.015529012034,50.4377813943003],[-121.015095622238,50.4377813943003],[-121.014513025746,50.4376992466768],[-121.013639342349,50.4373363231497],[-121.013490276548,50.4373190667561],[-121.013165093306,50.4372628936]]]}},{"type":"Feature","id":"921770139","properties":{"name":"15_ KPH HIGHMONT TRIAL1","oid":"921770139","speedLimit":4.1666665},"geometry":{"type":"Polygon","coordinates":[[[-121.003357465301,50.4283912198914],[-121.003136120903,50.4282222510377],[-121.003078354382,50.427771517633],[-121.003183320377,50.4276357134107],[-121.002535630879,50.4274536225078],[-121.002602414612,50.4286546495243],[-121.002695263726,50.4286976107541],[-121.003357465301,50.4283912198914]]]}},{"type":"Feature","id":"921772515","properties":{"name":"10_ KPH HIGHMONT TRIAL11","oid":"921772515","speedLimit":2.7777777},"geometry":{"type":"Polygon","coordinates":[[[-121.003183320377,50.4276357134107],[-121.003345207527,50.4274264796388],[-121.004969151219,50.426670523773],[-121.002652995541,50.4273206943512],[-121.002535630879,50.4274536225078],[-121.003183320377,50.4276357134107]]]}}]}