{"type":"FeatureCollection","features":[{"type":"Feature","id":"702602533","properties":{"name":"iSP_4KPH_%TR_CR01_SLOW BUMP","oid":"702602533","speedLimit":1.1111112},"geometry":{"type":"Polygon","coordinates":[[[-121.033349704682,50.4648094343569],[-121.033644510475,50.4646924214787],[-121.033687914004,50.4647331333326],[-121.033359991883,50.4648712660467],[-121.033349704682,50.4648094343569]]]}},{"type":"Feature","id":"707947583","properties":{"name":"iSP_22KPH_%TR_Permission Gate 1 from west dump_Jun","oid":"707947583","speedLimit":6.111111},"geometry":{"type":"Polygon","coordinates":[[[-121.038620415124,50.4619796459574],[-121.03884715629,50.4618011608759],[-121.037972744272,50.4613527013811],[-121.037735574985,50.4615439482358],[-121.03795174711,50.4614982035699],[-121.038658886434,50.4618477143866],[-121.038620415124,50.4619796459574]]]}},{"type":"Feature","id":"742345972","properties":{"name":"iSP_4KPH_%TR_CR01_PITSIDE_SLOW BUMP","oid":"742345972","speedLimit":1.1111112},"geometry":{"type":"Polygon","coordinates":[[[-121.033389585198,50.4648843873065],[-121.03369693292,50.4647458951058],[-121.033747100636,50.4647779792821],[-121.033465541375,50.4649198866052],[-121.033389585198,50.4648843873065]]]}},{"type":"Feature","id":"776427243","properties":{"name":"iSP_7KPH_%TR_CR1_PermissionBlocker_DO_NOT_DELETE","oid":"776427243","speedLimit":1.9444444},"geometry":{"type":"Polygon","coordinates":[[[-121.03409094678,50.4652143959768],[-121.03404247011,50.465234706968],[-121.034021332028,50.4652761377951],[-121.034107011722,50.4652270678784],[-121.03409094678,50.4652143959768]]]}},{"type":"Feature","id":"794004438","properties":{"name":"iSP_11KPH_%TR_LOWER_FUEL_BAY","oid":"794004438","speedLimit":3.0555556},"geometry":{"type":"Polygon","coordinates":[[[-121.036768296324,50.4606971776226],[-121.036770410133,50.4607270150078],[-121.036740675896,50.4606725527926],[-121.037116933767,50.4606008352221],[-121.03752701257,50.4605577867055],[-121.0375347632,50.4605831305086],[-121.0369361327,50.4606519721865],[-121.036768296324,50.4606971776226]]]}},{"type":"Feature","id":"801543391","properties":{"name":"iSP_4KPH_%TR_CR1_PermissionBlocker_DO_NOT_DELETE_","oid":"801543391","speedLimit":1.1111112},"geometry":{"type":"Polygon","coordinates":[[[-121.033146215407,50.4645249007375],[-121.033145369884,50.4644754713343],[-121.033166930728,50.4644334114057],[-121.033098866102,50.4644610019999],[-121.033146215407,50.4645249007375]]]}},{"type":"Feature","id":"806473874","properties":{"name":"iSP_4KPH_%TR_Permission Blocker - DO NOT DELETE","oid":"806473874","speedLimit":1.1111112},"geometry":{"type":"Polygon","coordinates":[[[-121.022707948368,50.4815461404208],[-121.022674832039,50.4815438037581],[-121.022667222329,50.481572472812],[-121.022689346855,50.4815735512717],[-121.022693433551,50.4815494656716],[-121.022707948368,50.4815461404208]]]}},{"type":"Feature","id":"824566967","properties":{"name":"iSP_4Cr_3KPH","oid":"824566967","speedLimit":0.8333333},"geometry":{"type":"Polygon","coordinates":[[[-121.023290936687,50.4810692814871],[-121.023270785048,50.4810692814871],[-121.023268107557,50.481187372825],[-121.023293191415,50.4811866538518],[-121.023290936687,50.4810692814871]]]}},{"type":"Feature","id":"826307302","properties":{"name":"iSP_4KPH_TR%_CRUSHER POCKETS","oid":"826307302","speedLimit":1.1111112},"geometry":{"type":"Polygon","coordinates":[[[-121.023286145388,50.4813224499033],[-121.023325603142,50.4814781075877],[-121.023530360702,50.4814386539367],[-121.023449331386,50.4811897993593],[-121.02304094363,50.4811905183325],[-121.02304629861,50.4813611845811],[-121.02327120781,50.4813272131003],[-121.023286145388,50.4813224499033]]]}},{"type":"Feature","id":"849417440","properties":{"name":"iSP_Permissions_35_KPH_June_19_NS","oid":"849417440","speedLimit":9.722222},"geometry":{"type":"Polygon","coordinates":[[[-121.032686109809,50.4660356430437],[-121.033000785399,50.4660163206406],[-121.033207797688,50.4658154575202],[-121.03379670467,50.4653810180016],[-121.03371750732,50.4652522319382],[-121.033953690163,50.4654016884793],[-121.033417346547,50.46580997535],[-121.033014877454,50.4661895032952],[-121.032686109809,50.4660356430437]]]}},{"type":"Feature","id":"853029148","properties":{"name":"SP_30KPH_%TR_1635 Flats_AUG_5_DS","oid":"853029148","speedLimit":8.333333},"geometry":{"type":"Polygon","coordinates":[[[-121.018577567024,50.4569727170246],[-121.017396089126,50.4572914917396],[-121.016417395901,50.458459283859],[-121.018336592882,50.4588948018373],[-121.020680242562,50.4589888974468],[-121.020228451277,50.4572335245304],[-121.0194105484,50.4570983575805],[-121.018956220544,50.457001745565],[-121.018577567024,50.4569727170246]]]}},{"type":"Feature","id":"883050998","properties":{"name":"iSP_22kph_%TR_4CR_Brake_Temp_CTRL_NOREMOVE","oid":"883050998","speedLimit":6.111111},"geometry":{"type":"Polygon","coordinates":[[[-121.031789573264,50.4745602379257],[-121.032178936746,50.4743136301394],[-121.032480647646,50.4745759654631],[-121.032782358545,50.474803340718],[-121.03296020028,50.4748857530139],[-121.033169044536,50.4749359013903],[-121.033452999446,50.4749607059636],[-121.033656911483,50.4749231396171],[-121.033818124593,50.4748637344616],[-121.03390930019,50.4748116987807],[-121.033998643819,50.4747485190162],[-121.034049093376,50.4746593663471],[-121.034043315634,50.4745491837137],[-121.034047120488,50.4744848356179],[-121.033984974525,50.4743808541278],[-121.033866601263,50.4742607856137],[-121.033499644148,50.4739388653912],[-121.033051234956,50.4735612247505],[-121.032937934833,50.4734266869021],[-121.032812938304,50.4732221390443],[-121.032596061577,50.4728161888363],[-121.032242491915,50.4722102742242],[-121.032477547394,50.4721574296986],[-121.03242047457,50.4722069489735],[-121.032893122098,50.473050124721],[-121.033032351602,50.4733108423552],[-121.033240209414,50.4735481933624],[-121.033733290422,50.4739628611197],[-121.03408841021,50.4742723790556],[-121.034193818782,50.4743956829488],[-121.034246523068,50.4744629069372],[-121.034253569095,50.4745940296632],[-121.034228626158,50.4746800368248],[-121.034174089905,50.4747928257358],[-121.034076572884,50.4748770354646],[-121.033963695522,50.4749388671545],[-121.033781062488,50.4750173250982],[-121.033521486834,50.4750655861701],[-121.033253455946,50.4750692709074],[-121.033061803997,50.4750274805938],[-121.032798000726,50.4749177473186],[-121.032647215737,50.4748363236107],[-121.032485579865,50.4747065489593],[-121.032134969535,50.4744142863787],[-121.031789573264,50.4745602379257]]]}},{"type":"Feature","id":"883053336","properties":{"name":"iSP_22kph_%TR_Brake_Temp_CTRL_NOREMOVE","oid":"883053336","speedLimit":6.111111},"geometry":{"type":"Polygon","coordinates":[[[-121.03245626839,50.4721465552299],[-121.03224136455,50.4722268106064],[-121.031478561609,50.4710096789555],[-121.030806511502,50.4699247484903],[-121.030651217055,50.4696616043218],[-121.030586393602,50.4694591235118],[-121.030540030741,50.4692581705197],[-121.030586393602,50.4689743558735],[-121.030712658415,50.4686257437732],[-121.030874435208,50.4683769790675],[-121.031078910927,50.468099275693],[-121.03167838695,50.4675380272871],[-121.032422447458,50.4668951754301],[-121.032778835531,50.4665577074135],[-121.033138042015,50.4662239241342],[-121.033474983052,50.4658722563981],[-121.033770070685,50.4660356430437],[-121.033577995975,50.4659948413181],[-121.032909750723,50.4666536004558],[-121.032544907417,50.4669927760336],[-121.032168790467,50.467309214086],[-121.031764489406,50.4676698689863],[-121.031372025672,50.4680359161852],[-121.031137111114,50.4682878263984],[-121.030998727133,50.4684713442919],[-121.030895009608,50.468655940645],[-121.030818489749,50.4688544671028],[-121.030757612071,50.4691927439642],[-121.030766349145,50.469402055019],[-121.030863584325,50.4696317669365],[-121.031017610487,50.4699365216754],[-121.031320589671,50.4704052022897],[-121.031520696854,50.4707123835629],[-121.031740391992,50.4710842724185],[-121.032136237819,50.4717301799114],[-121.032371575139,50.4721464653582],[-121.03245626839,50.4721465552299]]]}},{"type":"Feature","id":"883059532","properties":{"name":"iSP_22kph_%TR_Brake_CTRL_NOREMOVE","oid":"883059532","speedLimit":6.111111},"geometry":{"type":"Polygon","coordinates":[[[-121.027251367846,50.4773231618233],[-121.027019130779,50.4772110020138],[-121.027323660089,50.4769452515677],[-121.027705695702,50.476633666584],[-121.0280224851,50.4763239689048],[-121.028179752435,50.4761700187816],[-121.028610687479,50.4756936092061],[-121.028896756198,50.4753270227774],[-121.029253426112,50.4748888985214],[-121.029462270368,50.4746580182725],[-121.029681119983,50.4745417243674],[-121.029791178934,50.4744895089433],[-121.029941963923,50.4745939397916],[-121.029778355163,50.474543342057],[-121.029545695334,50.4747928257358],[-121.029241447865,50.4751743308572],[-121.029062478765,50.4754792653393],[-121.028842642706,50.475776021502],[-121.028685516292,50.475975985906],[-121.028398320209,50.4762718433523],[-121.028030940333,50.4765712057926],[-121.027233048175,50.4772206182795],[-121.027251367846,50.4773231618233]]]}},{"type":"Feature","id":"884401102","properties":{"name":"SP_25KPH_MAIN INT. DUST_AUG_ 5_DS","oid":"884401102","speedLimit":6.9444447},"geometry":{"type":"Polygon","coordinates":[[[-121.036548601186,50.4607700635244],[-121.036670497462,50.4610420151139],[-121.038286574339,50.4609938439136],[-121.038270227555,50.4603997024868],[-121.038111691935,50.4605675827145],[-121.036679234536,50.4607394172944],[-121.036546205536,50.4606139564819],[-121.036548601186,50.4607700635244]]]}},{"type":"Feature","id":"908328496","properties":{"name":"SP_12KPH_%TR_9019_SOFT_GROUND_AUG_5_DS","oid":"908328496","speedLimit":3.3333333},"geometry":{"type":"Polygon","coordinates":[[[-121.038991740775,50.4644905697702],[-121.039296270085,50.4646785812458],[-121.039195793733,50.4648782760348],[-121.039027252754,50.4652649038398],[-121.038605759386,50.4661251551994],[-121.037770664202,50.4664886859923],[-121.03665964658,50.4659706658463],[-121.037872972522,50.465141510075],[-121.038512188141,50.4648159949868],[-121.038991740775,50.4644905697702]]]}},{"type":"Feature","id":"910445950","properties":{"name":"SP_30KPH_%TR_1635_FLATS_AUG_5_DS","oid":"910445950","speedLimit":8.333333},"geometry":{"type":"Polygon","coordinates":[[[-121.020213231857,50.4571659410554],[-121.01903189488,50.4569631007589],[-121.018638162861,50.4569244559527],[-121.017441606464,50.4572335245304],[-121.01807772183,50.4544709601194],[-121.018759213614,50.4539010840359],[-121.018925922626,50.4535147258459],[-121.019546818572,50.4545193110629],[-121.020213231857,50.4571466186523],[-121.020198153358,50.4571466186523],[-121.020213231857,50.4571659410554]]]}},{"type":"Feature","id":"913788494","properties":{"name":"SP_15KPH_%TR_ROUGH GROUND_21SH_AUG_5_DS","oid":"913788494","speedLimit":4.1666665},"geometry":{"type":"Polygon","coordinates":[[[-121.040482257441,50.4520550306325],[-121.041012541473,50.4519663273216],[-121.041183337181,50.4542755791691],[-121.040538061979,50.4542458316556],[-121.040569769103,50.4525639737425],[-121.040482257441,50.4520550306325]]]}},{"type":"Feature","id":"915576987","properties":{"name":"iSP_15kph_prevent shifting","oid":"915576987","speedLimit":4.1666665},"geometry":{"type":"Polygon","coordinates":[[[-121.036989400669,50.4448655688677],[-121.037503619758,50.4453154663088],[-121.037973026113,50.4457978972844],[-121.03851712036,50.4462211927193],[-121.039450014406,50.4468522713912],[-121.039907442514,50.447102024685],[-121.040463515008,50.4471973784974],[-121.041216876272,50.447325086101],[-121.041635410308,50.4475119292453],[-121.042314083681,50.4480973531229],[-121.042696823897,50.4485300850803],[-121.042840281017,50.4487970937294],[-121.043001775969,50.4493938414339],[-121.043181026909,50.4502003495515],[-121.043318565367,50.4505034866008],[-121.043680308421,50.4511708734161],[-121.043850822287,50.451491175949],[-121.044119839619,50.4522557140096],[-121.044377019624,50.4529402663086],[-121.044690849691,50.4538001581816],[-121.044729743763,50.4541967617389],[-121.04456528948,50.4550738190956],[-121.04420960601,50.456841234812],[-121.044045151727,50.457209259187],[-121.042998675716,50.4584008672915],[-121.041898508976,50.4595391815122],[-121.04133651782,50.460002469828],[-121.040364870622,50.4605993074042],[-121.039916320509,50.4607327667929],[-121.039127024504,50.4608089779455],[-121.038935795316,50.4608070906411],[-121.038992586298,50.4612951835301],[-121.039052336612,50.4609291363312],[-121.039871507774,50.4608815043608],[-121.040699697851,50.4606336383715],[-121.041503931434,50.4600597180641],[-121.042867196843,50.4587021170364],[-121.044236380914,50.4571443718613],[-121.044421832359,50.4562921190779],[-121.044807531907,50.4544235977639],[-121.044804431654,50.4537886546114],[-121.044254418745,50.4523034358517],[-121.043826865794,50.4511880388997],[-121.043339562529,50.4503395607253],[-121.043043629372,50.4493118784962],[-121.042921028493,50.4486941008274],[-121.042233336205,50.4478894800144],[-121.041539725254,50.4473937480357],[-121.041085256478,50.4472240703752],[-121.040451536761,50.4471325810434],[-121.039910401846,50.4470219490518],[-121.038813194437,50.4463355993199],[-121.038188352715,50.445874108437],[-121.037144976957,50.4449093363575],[-121.037369181553,50.4446996658161],[-121.036989400669,50.4448655688677]]]}},{"type":"Feature","id":"916679368","properties":{"name":"sp_15kph_rough ground _AUG 5 _DS","oid":"916679368","speedLimit":4.1666665},"geometry":{"type":"Polygon","coordinates":[[[-121.039120542158,50.4663634947946],[-121.03917733314,50.466532453482],[-121.038704121931,50.4665855676226],[-121.038666355223,50.4664214620038],[-121.039120542158,50.4663634947946]]]}}]}