{"type":"FeatureCollection","features":[{"type":"Feature","id":"702602533","properties":{"name":"iSP_4KPH_%TR_CR01_Slow Bump","oid":"702602533","speedLimit":1.1111112},"geometry":{"type":"Polygon","coordinates":[[[-121.033359221768,50.464808018735],[-121.033653960045,50.464691000888],[-121.033697353634,50.4647317144707],[-121.033369506612,50.4648698530504],[-121.033359221768,50.464808018735]]]}},{"type":"Feature","id":"707947583","properties":{"name":"iSP_25KPH_%TR_Permission Gate 1 From West Dump","oid":"707947583","speedLimit":6.9444447},"geometry":{"type":"Polygon","coordinates":[[[-121.038628725122,50.4619781101737],[-121.038855414361,50.4617996175132],[-121.038140406353,50.4614083896424],[-121.037992755438,50.4616710956076],[-121.038192253239,50.4615670198266],[-121.038667187622,50.4618461730007],[-121.038628725122,50.4619781101737]]]}},{"type":"Feature","id":"742345972","properties":{"name":"iSP_4KPH_%TR_CR01_Pit Side_Slow Bump","oid":"742345972","speedLimit":1.1111112},"geometry":{"type":"Polygon","coordinates":[[[-121.033399093151,50.4648829748674],[-121.033706370484,50.4647444767858],[-121.033756526711,50.4647765623245],[-121.033475031932,50.4649184756735],[-121.033399093151,50.4648829748674]]]}},{"type":"Feature","id":"776427243","properties":{"name":"iSP_7KPH_%TR_CR1_PermissionBlocker","oid":"776427243","speedLimit":1.9444444},"geometry":{"type":"Polygon","coordinates":[[[-121.034100294108,50.4652129975509],[-121.03405182854,50.4652333094045],[-121.034030695298,50.4652747419909],[-121.034116355371,50.4652256699906],[-121.034100294108,50.4652129975509]]]}},{"type":"Feature","id":"794004438","properties":{"name":"iSP_11KPH_%TR_Lower_Fuel_Bay","oid":"794004438","speedLimit":3.0555556},"geometry":{"type":"Polygon","coordinates":[[[-121.036777030491,50.4606955873812],[-121.036779143816,50.4607254260334],[-121.036749416389,50.4606709615055],[-121.03712558809,50.4605992408897],[-121.037535572977,50.4605561905451],[-121.037543321833,50.4605815354244],[-121.03694482843,50.4606503800256],[-121.036777030491,50.4606955873812]]]}},{"type":"Feature","id":"801543391","properties":{"name":"iSP_4KPH_%TR_CR01_PermissionBlocker_2","oid":"801543391","speedLimit":1.1111112},"geometry":{"type":"Polygon","coordinates":[[[-121.033155779095,50.4645234730334],[-121.033154933766,50.4644740415313],[-121.033176489672,50.4644319798167],[-121.033108440634,50.4644595715824],[-121.033155779095,50.4645234730334]]]}},{"type":"Feature","id":"806473874","properties":{"name":"iSP_4KPH_%TR_CR04_PermissionBlocker","oid":"806473874","speedLimit":1.1111112},"geometry":{"type":"Polygon","coordinates":[[[-121.022719902606,50.4815454354929],[-121.022686793861,50.4815430987309],[-121.022679185894,50.4815717690022],[-121.022701305353,50.4815728475077],[-121.022705391113,50.4815487608848],[-121.022719902606,50.4815454354929]]]}},{"type":"Feature","id":"824566967","properties":{"name":"iSP_3KPH_%TR_CR04","oid":"824566967","speedLimit":0.8333333},"geometry":{"type":"Polygon","coordinates":[[[-121.02330275741,50.4810685563102],[-121.023282610386,50.4810685563102],[-121.023279933509,50.4811866526626],[-121.023305011622,50.4811859336589],[-121.02330275741,50.4810685563102]]]}},{"type":"Feature","id":"826307302","properties":{"name":"iSP_4KPH_%TR_CR04_Pockets","oid":"826307302","speedLimit":1.1111112},"geometry":{"type":"Polygon","coordinates":[[[-121.023297967208,50.4813217354767],[-121.023337415926,50.4814773997708],[-121.023542126593,50.4814379444445],[-121.023461115834,50.4811890793],[-121.023052821606,50.4811897983036],[-121.02305817536,50.4813604717993],[-121.023283033051,50.481326498876],[-121.023297967208,50.4813217354767]]]}},{"type":"Feature","id":"883050998","properties":{"name":"iSP_22KPH_%TR_4CR_Brake_Temp_Ctrl","oid":"883050998","speedLimit":6.111111},"geometry":{"type":"Polygon","coordinates":[[[-121.031799447648,50.474559236354],[-121.032188721959,50.474312618096],[-121.032490363761,50.4745749645593],[-121.032792005563,50.4748023494692],[-121.032969806569,50.4748847652647],[-121.033178602996,50.4749349157705],[-121.033462492875,50.474959721397],[-121.033666358213,50.4749221534554],[-121.033827534402,50.4748627457773],[-121.033918689118,50.4748107078869],[-121.034008012286,50.4747475254396],[-121.034058450289,50.4746583689848],[-121.03405267387,50.4745481816726],[-121.034056477853,50.4744838308444],[-121.033994346123,50.4743798449389],[-121.03387599997,50.4742597713264],[-121.033509126895,50.4739378374341],[-121.033060820396,50.4735601807575],[-121.032947546221,50.4734256371962],[-121.032822578319,50.4732210806527],[-121.03260575126,50.4728151132067],[-121.032252262572,50.4722091728656],[-121.032487264219,50.472156326096],[-121.032430204466,50.4722058474737],[-121.032902743749,50.4730490590251],[-121.033041941367,50.4733097877302],[-121.033249751576,50.4735471488161],[-121.033742719659,50.4739618341815],[-121.034097758119,50.4742713652605],[-121.03420314255,50.4743946743896],[-121.034255834766,50.4744619012325],[-121.03426287918,50.4745930295264],[-121.034237941955,50.4746790403402],[-121.034183418191,50.4747918340406],[-121.034085923503,50.4748760473452],[-121.033973071993,50.4749378816606],[-121.033790480785,50.4750163429359],[-121.033530964578,50.4750646060571],[-121.033262995075,50.4750682909509],[-121.033071387017,50.4750264988627],[-121.032807644162,50.4749167609279],[-121.032656893705,50.4748353337625],[-121.032495294851,50.4747055536004],[-121.032144764816,50.4744132786095],[-121.031799447648,50.474559236354]]]}},{"type":"Feature","id":"883053336","properties":{"name":"iSP_22KPH_%TR_Brake_Temp_Ctrl","oid":"883053336","speedLimit":6.111111},"geometry":{"type":"Polygon","coordinates":[[[-121.032465990089,50.4721454511656],[-121.032251135466,50.47222570995],[-121.03148850722,50.4710085266157],[-121.030816611024,50.4699235500809],[-121.030661352143,50.4696603947385],[-121.030596543535,50.4694579053305],[-121.030550191292,50.4692569438054],[-121.030596543535,50.4689731171075],[-121.030722779432,50.468624490204],[-121.030884519174,50.4683757149349],[-121.031088948065,50.4680979997682],[-121.031688286797,50.46753672753],[-121.032432176902,50.4668938483755],[-121.032788483356,50.4665563660289],[-121.033147607575,50.466222568576],[-121.033484471447,50.465870885907],[-121.0337794915,50.4660342794905],[-121.033587460778,50.4659934760324],[-121.032919368566,50.4666522631431],[-121.032554608815,50.4669914531234],[-121.032178578003,50.4673079046127],[-121.031774369535,50.4676685748276],[-121.031381995682,50.46803463757],[-121.031147134923,50.4682865584801],[-121.031008782635,50.4684700841663],[-121.030905088863,50.4686546883581],[-121.030828586528,50.4688532232459],[-121.030767722792,50.4691915144716],[-121.030776457865,50.4694008344144],[-121.030873670777,50.4696305560863],[-121.031027661664,50.469935323766],[-121.031330571461,50.470404024282],[-121.031530632815,50.4707112185991],[-121.031750277639,50.4710831232463],[-121.032146032811,50.4717290581664],[-121.032381316234,50.4721453612901],[-121.032465990089,50.4721454511656]]]}},{"type":"Feature","id":"883059532","properties":{"name":"iSP_22KPH_%TR_Brake_Ctrl","oid":"883059532","speedLimit":6.111111},"geometry":{"type":"Polygon","coordinates":[[[-121.02726228156,50.4773222775742],[-121.027030097679,50.477210113002],[-121.027334557246,50.4769443512713],[-121.027716505367,50.4766327530567],[-121.028033222214,50.4763230422268],[-121.028190453532,50.4761690855664],[-121.028621289885,50.475692655761],[-121.028907293088,50.4753260537658],[-121.029263881318,50.4748879109057],[-121.029472677746,50.4746570208529],[-121.02969147724,50.4745407220096],[-121.029801510985,50.4744885043682],[-121.029952261442,50.474592939651],[-121.029788690152,50.4745423397678],[-121.029556083606,50.4747918340406],[-121.029251905815,50.4751733553619],[-121.029072977702,50.4754783027925],[-121.028853191989,50.4757750715564],[-121.02869610156,50.4759750444515],[-121.028408971251,50.4762709144609],[-121.028041675511,50.4765702896131],[-121.027243966084,50.4772197296761],[-121.02726228156,50.4773222775742]]]}},{"type":"Feature","id":"884401102","properties":{"name":"iSP_30KPH_%TR_Maint_Limit_Policy","oid":"884401102","speedLimit":8.333333},"geometry":{"type":"Polygon","coordinates":[[[-121.036992589556,50.4611014649517],[-121.037108681497,50.4611079359847],[-121.038294960793,50.4609922662696],[-121.038278617753,50.4603980996136],[-121.038120118441,50.46056598697],[-121.037033024492,50.4607086193226],[-121.036745330629,50.460537945827],[-121.036992589556,50.4611014649517]]]}},{"type":"Feature","id":"910445950","properties":{"name":"SP_22KPH_%TR_1635_FLATS_SEP_24_NS","oid":"910445950","speedLimit":6.111111},"geometry":{"type":"Polygon","coordinates":[[[-121.017369811157,50.455493955346],[-121.018002963076,50.4544142814632],[-121.01814821889,50.4539986074678],[-121.018532843888,50.4537516297078],[-121.018948886971,50.4536881776342],[-121.018866749105,50.4543417519682],[-121.01826191573,50.4560722140459],[-121.018276004558,50.4557009385269],[-121.017369811157,50.455493955346]]]}},{"type":"Feature","id":"915576987","properties":{"name":"iSP_15KPH_%TR_Preventing Shifting","oid":"915576987","speedLimit":4.1666665},"geometry":{"type":"Polygon","coordinates":[[[-121.036998084199,50.4448633063657],[-121.037512185523,50.4453132229108],[-121.037981484376,50.445795674372],[-121.038525454015,50.4462189877814],[-121.039458134412,50.4468500932509],[-121.03991545776,50.44709985715],[-121.040471402903,50.4471952150115],[-121.041224591635,50.447322928038],[-121.041643029819,50.4475097791162],[-121.042321547763,50.4480952278527],[-121.042704200325,50.4485279781853],[-121.042847624591,50.4487949981725],[-121.043009082557,50.4493917712168],[-121.043188292446,50.4501983135812],[-121.043325799405,50.4505014635027],[-121.043687459613,50.4511688786574],[-121.043857934429,50.4514891947914],[-121.044126890151,50.4522537653168],[-121.044384011257,50.452938346684],[-121.044697769451,50.4537982750708],[-121.044736654616,50.4541948954691],[-121.044572237996,50.4550719900684],[-121.044216635984,50.456839480835],[-121.044052219364,50.4572075208374],[-121.043005983015,50.4583991795415],[-121.041906068233,50.4595375420986],[-121.041344205782,50.4600008500871],[-121.040372781109,50.4605977130069],[-121.039924333722,50.4607311780627],[-121.03913521848,50.4608073924515],[-121.038497839913,50.4608389387374],[-121.038645631716,50.4611437064172],[-121.038758483226,50.4609497551778],[-121.03987953125,50.4608799219465],[-121.040707531656,50.460632045432],[-121.041511581056,50.4600581007541],[-121.042874534252,50.4587004420783],[-121.044243404756,50.4571426307564],[-121.04442881373,50.4562903417836],[-121.044814424945,50.4544217411263],[-121.044811325403,50.4537867710121],[-121.044261438456,50.4523014891852],[-121.043833983422,50.45118604487],[-121.043346791758,50.4503375306664],[-121.043050926376,50.4493098047987],[-121.042928353574,50.4486920008971],[-121.04224081878,50.4478873459173],[-121.041547366679,50.4473915928883],[-121.041093001984,50.4472219080227],[-121.0404594274,50.4471304148059],[-121.039918416414,50.4470197781165],[-121.038821460286,50.4463333992401],[-121.038196761664,50.4458718887608],[-121.037153624857,50.444907075714],[-121.037377778107,50.4446973962693],[-121.036998084199,50.4448633063657]]]}},{"type":"Feature","id":"917773475","properties":{"name":"SP_15KPH_%TR_1200_CORNER_Sept_24_NS","oid":"917773475","speedLimit":4.1666665},"geometry":{"type":"Polygon","coordinates":[[[-121.037098960205,50.4446825668187],[-121.036924822294,50.4448621379847],[-121.036629238688,50.4448206155229],[-121.036414665842,50.4448699571496],[-121.036323088461,50.444967651773],[-121.03625447587,50.4450821531071],[-121.03624221859,50.4451449760526],[-121.036263351832,50.4452672965516],[-121.036316044047,50.4453515098562],[-121.03618417262,50.4453952792044],[-121.036089073032,50.4451943176793],[-121.036163039378,50.4449317015896],[-121.036259829625,50.4447914059989],[-121.036516668955,50.4447151017346],[-121.036713771655,50.4447117763427],[-121.036923131635,50.4447701055152],[-121.037093747339,50.4446836453242],[-121.037098960205,50.4446825668187]]]}},{"type":"Feature","id":"926367691","properties":{"name":"SP_30KPH_%TR_24SH_EMPTY_LANE_SEP_24_NS","oid":"926367691","speedLimit":8.333333},"geometry":{"type":"Polygon","coordinates":[[[-121.038784265781,50.4508575500692],[-121.038613086523,50.4512056377199],[-121.038639009967,50.4520121800844],[-121.038945019305,50.454427762782],[-121.039193405338,50.4545000226506],[-121.038782293345,50.4517187367124],[-121.038784265781,50.4508575500692]]]}},{"type":"Feature","id":"929009157","properties":{"name":"iSP_22KPH_%TR_Long_Single_Lane","oid":"929009157","speedLimit":6.111111},"geometry":{"type":"Polygon","coordinates":[[[-121.005680733439,50.4380559593892],[-121.004751011696,50.4382240264966],[-121.005175508076,50.4381975132364],[-121.007935791209,50.4431705021052],[-121.00852456332,50.4445349014404],[-121.008211650456,50.4465097348896],[-121.007833647208,50.4466802286344],[-121.008935111761,50.4466469747147],[-121.008824373575,50.4465929595642],[-121.009404410613,50.4448176496328],[-121.008765482275,50.4430684035843],[-121.008263779119,50.4415401612883],[-121.007260231918,50.4401561691031],[-121.00644054392,50.4389840133736],[-121.005861493099,50.4383130032005],[-121.005680733439,50.4380559593892]]]}},{"type":"Feature","id":"934051091","properties":{"name":"iSP_17KPH_%TR_Ramp_Permission Blocker","oid":"934051091","speedLimit":4.7222223},"geometry":{"type":"Polygon","coordinates":[[[-121.03951308084,50.4610298342113],[-121.039465037937,50.46077180177],[-121.039017576768,50.46079238325],[-121.039076468068,50.4610451130392],[-121.039163959688,50.4609000540492],[-121.039379941418,50.4608869322323],[-121.03951308084,50.4610298342113]]]}},{"type":"Feature","id":"936169885","properties":{"name":"SP_15KPH_%TR_24shl_loadplan_Sept_24_NS","oid":"936169885","speedLimit":4.1666665},"geometry":{"type":"Polygon","coordinates":[[[-121.039169031666,50.4546368130984],[-121.038619144719,50.4545683279991],[-121.038154636069,50.4553923960779],[-121.038670146276,50.4555194799762],[-121.038842170863,50.4552447306996],[-121.039002219946,50.4549475125584],[-121.039087598242,50.4547918482643],[-121.039169031666,50.4546368130984]]]}},{"type":"Feature","id":"936513295","properties":{"name":"SP_30KPH_%TR_1635_FLATS_SEP_24_NS","oid":"936513295","speedLimit":8.333333},"geometry":{"type":"Polygon","coordinates":[[[-121.017285982632,50.4555553402841],[-121.018050160649,50.4557853315824],[-121.017434056212,50.4574539593446],[-121.015227041345,50.458517096143],[-121.014498226285,50.4578797892669],[-121.016177332776,50.456619555588],[-121.017285982632,50.4555553402841]]]}},{"type":"Feature","id":"937786749","properties":{"name":"SP_32KPH_%TR_24SH_Loaded_LANE_SEP_24_NS","oid":"937786749","speedLimit":8.888889},"geometry":{"type":"Polygon","coordinates":[[[-121.038410348292,50.4510853843565],[-121.038213245592,50.4510392782463],[-121.038253821416,50.4516608569171],[-121.038601533685,50.4544464568774],[-121.038809766559,50.4542670654622],[-121.038403867431,50.451675326866],[-121.038410348292,50.4510853843565]]]}},{"type":"Feature","id":"938065675","properties":{"name":"SP_8KPH_CR01_YARD_RUTIING_SEP_24_NS","oid":"938065675","speedLimit":2.2222223},"geometry":{"type":"Polygon","coordinates":[[[-121.034289366176,50.4648013679511],[-121.034099167001,50.4648581692408],[-121.033940949466,50.4649071513657],[-121.033829506838,50.4650051156154],[-121.034044361461,50.4650690170664],[-121.03396433692,50.465011496773],[-121.034242732156,50.4648882775194],[-121.034319375379,50.4649375292707],[-121.034289366176,50.4648013679511]]]}},{"type":"Feature","id":"938165680","properties":{"name":"SP_10KPH_%TR_22SH_Sept_24_NS","oid":"938165680","speedLimit":2.7777777},"geometry":{"type":"Polygon","coordinates":[[[-121.034080569749,50.4466114739086],[-121.035055375741,50.4472506681694],[-121.035497201379,50.447447405548],[-121.035795320974,50.4469122870682],[-121.03485503261,50.4461954404113],[-121.034080569749,50.4466114739086]]]}},{"type":"Feature","id":"940771585","properties":{"name":"SP_20KPH_%TR_1660_HMT_SEPT24_DS","oid":"940771585","speedLimit":5.5555553},"geometry":{"type":"Polygon","coordinates":[[[-121.002708836114,50.4281184299448],[-121.002603592571,50.4277112941178],[-121.002231929295,50.4276979026745],[-121.002505393442,50.4277963163016],[-121.002533430209,50.4281139361718],[-121.002673754933,50.4280825696368],[-121.002708836114,50.4281184299448]]]}},{"type":"Feature","id":"940778315","properties":{"name":"SP_20KPH_%TR_HMT_SPILLING_ROCK_IN_CORNER_SEPT24_NS","oid":"940778315","speedLimit":5.5555553},"geometry":{"type":"Polygon","coordinates":[[[-121.004784683995,50.4367080072629],[-121.004770595167,50.4370436022249],[-121.004987985779,50.4372761999114],[-121.00512126609,50.4371687987386],[-121.004889927538,50.436936201052],[-121.004882883124,50.4367572590142],[-121.005198472866,50.4367975232196],[-121.004798631934,50.4366991095925],[-121.004784683995,50.4367080072629]]]}},{"type":"Feature","id":"944724972","properties":{"name":"SP_20KPH_%TR_21SH_LOADED_SEPT 24_NS","oid":"944724972","speedLimit":5.5555553},"geometry":{"type":"Polygon","coordinates":[[[-121.038848229059,50.4522168265033],[-121.0391818525,50.4521685633821],[-121.039251028644,50.4519693094907],[-121.039327812755,50.4516356917888],[-121.039213552362,50.4512647757716],[-121.038913178555,50.4506403210861],[-121.03881864252,50.4509654904949],[-121.038886128005,50.4509783426854],[-121.03905829348,50.4512927270392],[-121.039102109735,50.4515747562279],[-121.039047022418,50.4519346175637],[-121.038997288856,50.4521383652281],[-121.038848229059,50.4522168265033]]]}},{"type":"Feature","id":"945133230","properties":{"name":"SP_10KPH_%TR_21SH_SEPT_24_NS","oid":"945133230","speedLimit":2.7777777},"geometry":{"type":"Polygon","coordinates":[[[-121.040087341459,50.4526997273418],[-121.039651714905,50.453168877235],[-121.039099291969,50.4529223488524],[-121.038927549159,50.4522620338589],[-121.039713987524,50.4522161074996],[-121.039764848192,50.4525625773921],[-121.04009297699,50.4526997273418],[-121.040087341459,50.4526997273418]]]}},{"type":"Feature","id":"945606742","properties":{"name":"SP_20KPH_19SH_SEPT 24_NS","oid":"945606742","speedLimit":5.5555553},"geometry":{"type":"Polygon","coordinates":[[[-121.002893822423,50.4271197338501],[-121.002444529706,50.4275246227906],[-121.001789962769,50.4273168307305],[-121.002101748527,50.4269691924571],[-121.002893822423,50.4271197338501]]]}}]}