{"type":"FeatureCollection","features":[{"type":"Feature","id":"702602533","properties":{"name":"iSP_4KPH_%TR_CR01_SLOW BUMP","oid":"702602533","speedLimit":1.1111112},"geometry":{"type":"Polygon","coordinates":[[[-121.033359357519,50.4648080857782],[-121.033654100925,50.4646910684433],[-121.033697495269,50.4647317818478],[-121.033369642542,50.464869919823],[-121.033359357519,50.4648080857782]]]}},{"type":"Feature","id":"707947583","properties":{"name":"iSP_22KPH_%TR_Permission Gate 1 from west dump_Jun","oid":"707947583","speedLimit":6.111111},"geometry":{"type":"Polygon","coordinates":[[[-121.038628952582,50.4619781896009],[-121.038855645765,50.4617996977214],[-121.037981418789,50.4613512211462],[-121.037744299691,50.4615424752849],[-121.03796042607,50.4614967288767],[-121.038667415751,50.4618462530052],[-121.038628952582,50.4619781896009]]]}},{"type":"Feature","id":"742345972","properties":{"name":"iSP_4KPH_%TR_CR01_PITSIDE_SLOW BUMP","oid":"742345972","speedLimit":1.1111112},"geometry":{"type":"Polygon","coordinates":[[[-121.033399229595,50.4648830415825],[-121.033706512276,50.4647445441071],[-121.033756669376,50.4647766295054],[-121.033475169698,50.4649185422333],[-121.033399229595,50.4648830415825]]]}},{"type":"Feature","id":"776427243","properties":{"name":"iSP_7KPH_%TR_CR1_PermissionBlocker_DO_NOT_DELETE","oid":"776427243","speedLimit":1.9444444},"geometry":{"type":"Polygon","coordinates":[[[-121.034100442755,50.4652130628219],[-121.034051976345,50.4652333745866],[-121.034030842735,50.4652748069916],[-121.034116504299,50.4652257352061],[-121.034100442755,50.4652130628219]]]}},{"type":"Feature","id":"794004438","properties":{"name":"iSP_11KPH_%TR_LOWER_FUEL_BAY","oid":"794004438","speedLimit":3.0555556},"geometry":{"type":"Polygon","coordinates":[[[-121.036777225724,50.4606956724208],[-121.036779339085,50.4607255109424],[-121.036749611141,50.4606710466529],[-121.037125789389,50.4605993263509],[-121.037535781412,50.4605562761947],[-121.037543530402,50.4605816209631],[-121.036945026583,50.460650465263],[-121.036777225724,50.4606956724208]]]}},{"type":"Feature","id":"801543391","properties":{"name":"iSP_4KPH_%TR_CR1_PermissionBlocker_DO_NOT_DELETE_","oid":"801543391","speedLimit":1.1111112},"geometry":{"type":"Polygon","coordinates":[[[-121.033155911305,50.4645235413218],[-121.033155065961,50.464474110036],[-121.033176622242,50.4644320485055],[-121.03310857202,50.4644596401505],[-121.033155911305,50.4645235413218]]]}},{"type":"Feature","id":"806473874","properties":{"name":"iSP_4KPH_%TR_Permission Blocker - DO NOT DELETE","oid":"806473874","speedLimit":1.1111112},"geometry":{"type":"Polygon","coordinates":[[[-121.022719853193,50.4815454292913],[-121.022686743871,50.4815430925396],[-121.022679135772,50.4815717626854],[-121.022701255616,50.4815728411862],[-121.022705341448,50.4815487546687],[-121.022719853193,50.4815454292913]]]}},{"type":"Feature","id":"824566967","properties":{"name":"iSP_4Cr_3KPH","oid":"824566967","speedLimit":0.8333333},"geometry":{"type":"Polygon","coordinates":[[[-121.02330271814,50.4810685521955],[-121.023282570766,50.4810685521955],[-121.023279893842,50.4811866480311],[-121.023304972392,50.4811859290306],[-121.02330271814,50.4810685521955]]]}},{"type":"Feature","id":"826307302","properties":{"name":"iSP_4KPH_TR%_CRUSHER POCKETS","oid":"826307302","speedLimit":1.1111112},"geometry":{"type":"Polygon","coordinates":[[[-121.023297927856,50.4813217302541],[-121.02333737726,50.481477393867],[-121.02354209149,50.4814379387134],[-121.02346107932,50.4811890746579],[-121.023052777986,50.4811897936584],[-121.023058131834,50.4813604664072],[-121.023282993438,50.4813264936325],[-121.023297927856,50.4813217302541]]]}},{"type":"Feature","id":"835348611","properties":{"name":"SP_30KPH_%TR_switchback to 1 gate_AUG_26_DS","oid":"835348611","speedLimit":8.333333},"geometry":{"type":"Polygon","coordinates":[[[-121.03992077968,50.4634036081346],[-121.039548546373,50.4634580724241],[-121.039801727014,50.4633743987384],[-121.039545446777,50.462922956286],[-121.039365529315,50.4625825095392],[-121.039179412662,50.4622613859313],[-121.038987237707,50.4620181840049],[-121.038746314559,50.4618371756236],[-121.038563297502,50.4617302242961],[-121.038026503823,50.4614324682051],[-121.037959298945,50.4614149425674],[-121.037840387169,50.4614578129735],[-121.037954931332,50.4613479856439],[-121.038145415598,50.4613858230463],[-121.038483976021,50.4615706061803],[-121.038867762368,50.4617909798401],[-121.039055287929,50.4619264215634],[-121.039239854785,50.4621307075865],[-121.039454008693,50.4625357745053],[-121.039582078367,50.4627537215383],[-121.039759037123,50.4630611841363],[-121.0398627327,50.4632596282802],[-121.039944731104,50.4633240687019],[-121.03992077968,50.4634036081346]]]}},{"type":"Feature","id":"849417440","properties":{"name":"iSP_Permissions_35_KPH_June_19_NS","oid":"849417440","speedLimit":9.722222},"geometry":{"type":"Polygon","coordinates":[[[-121.032695903073,50.4660343411675],[-121.033010512072,50.4660150180284],[-121.033217480554,50.4658141472578],[-121.033806262912,50.4653796911927],[-121.033727082322,50.4652509002243],[-121.033963215185,50.4654003624577],[-121.033426985069,50.4658086648788],[-121.033024601145,50.4661882072791],[-121.032695903073,50.4660343411675]]]}},{"type":"Feature","id":"853029148","properties":{"name":"SP_15KPH_%TR_1635 Flats_AUG_24_NS","oid":"853029148","speedLimit":4.1666665},"geometry":{"type":"Polygon","coordinates":[[[-121.018590345912,50.4569710699697],[-121.017426588487,50.4572810490695],[-121.015789015538,50.4579431586746],[-121.014824900277,50.4590966152611],[-121.018349422765,50.4588932279886],[-121.020692576486,50.4589873271819],[-121.020240880808,50.4572318874088],[-121.019423151014,50.4570967153108],[-121.018968919302,50.4570000996157],[-121.018590345912,50.4569710699697]]]}},{"type":"Feature","id":"855316169","properties":{"name":"SP_20KPH_TR%_CRUSHER YARD EMPTY_AUG_24_NS","oid":"855316169","speedLimit":5.5555553},"geometry":{"type":"Polygon","coordinates":[[[-121.037912664113,50.4622350525372],[-121.037771209821,50.4621196529535],[-121.037596646207,50.4622035063893],[-121.037546207326,50.4622377487891],[-121.037609326373,50.4622266941561],[-121.037905760467,50.4624614478264],[-121.037947464123,50.4632585497794],[-121.037501544965,50.4637416282548],[-121.037077886541,50.4639815946788],[-121.036452190812,50.4642047544656],[-121.036236627996,50.464103285517],[-121.036399215897,50.4643265351789],[-121.036720869433,50.4642318068602],[-121.037063093015,50.4640567302333],[-121.037842359639,50.4636955223463],[-121.037980291663,50.4635591818724],[-121.038131890088,50.4633174179471],[-121.038185992128,50.4629462339279],[-121.038121605065,50.4624943421002],[-121.037912664113,50.4622350525372]]]}},{"type":"Feature","id":"859384545","properties":{"name":"SP_20KPH_TR%_MAINT_CREW_L1590_DUST_AUG_20_NS","oid":"859384545","speedLimit":5.5555553},"geometry":{"type":"Polygon","coordinates":[[[-121.013533918523,50.4515905194426],[-121.013429659383,50.4510356307902],[-121.012756483478,50.4483269760759],[-121.012536130377,50.4488174243065],[-121.013394154919,50.4517794368296],[-121.013277356504,50.4521786618692],[-121.013116741073,50.4521879190009],[-121.013442903111,50.4522151511456],[-121.013533918523,50.4515905194426]]]}},{"type":"Feature","id":"863534413","properties":{"name":"SP_20KPH_%TRAC_1590_AUG_24_NS","oid":"863534413","speedLimit":5.5555553},"geometry":{"type":"Polygon","coordinates":[[[-121.012339446918,50.4562544061999],[-121.013045450364,50.455569198703],[-121.01334611118,50.4553103585153],[-121.013523633499,50.4551324058862],[-121.013057707857,50.4549761131479],[-121.013287218855,50.4550943887337],[-121.01189944517,50.4565735525564],[-121.011627526062,50.4565414671581],[-121.012024697029,50.4566651352478],[-121.012339446918,50.4562544061999]]]}},{"type":"Feature","id":"878230085","properties":{"name":"SP_20KPH_TR%_PUNCH_OUT_L1590_DMP_AUG_24_NS1","oid":"878230085","speedLimit":5.5555553},"geometry":{"type":"Polygon","coordinates":[[[-121.013652830298,50.4533277145775],[-121.013645222199,50.4527798361801],[-121.013741027895,50.4524496351907],[-121.013097861715,50.4524619480746],[-121.013065456847,50.4528631503656],[-121.013204938669,50.4533676191064],[-121.013610281298,50.4545821907372],[-121.013328922511,50.4549548127574],[-121.013044182347,50.4549502291291],[-121.013783295114,50.4551891170524],[-121.014112979421,50.4546827609352],[-121.014059300053,50.4542962981549],[-121.013652830298,50.4533277145775]]]}},{"type":"Feature","id":"883050998","properties":{"name":"iSP_22kph_%TR_4CR_Brake_Temp_CTRL_NOREMOVE","oid":"883050998","speedLimit":6.111111},"geometry":{"type":"Polygon","coordinates":[[[-121.031799556253,50.4745592607248],[-121.032188837338,50.474312643546],[-121.03249048439,50.4745749888612],[-121.032792131442,50.4748023727762],[-121.032969935542,50.4748847882109],[-121.033178735603,50.4749349384973],[-121.033462630423,50.4749597440153],[-121.033666499309,50.474922176238],[-121.033827678303,50.47486276882],[-121.033918834605,50.4748107311572],[-121.034008159328,50.4747475489864],[-121.034058598209,50.4746583929217],[-121.034052821689,50.4745482060918],[-121.034056625739,50.4744838555452],[-121.033994492927,50.4743798700948],[-121.033876144714,50.4742597970077],[-121.033509265255,50.4739378645242],[-121.033060950954,50.4735602095003],[-121.032947674807,50.4734256665278],[-121.03282270473,50.4732211108794],[-121.032605873897,50.47281514521],[-121.032252379057,50.4722092075206],[-121.032487384794,50.4721563609822],[-121.032430324048,50.4722058821431],[-121.032902871555,50.4730490900046],[-121.033042071596,50.4733098175687],[-121.033249885422,50.4735471776159],[-121.033742862084,50.4739618611666],[-121.034097906722,50.4742713908911],[-121.034203292988,50.4743946994805],[-121.034255986121,50.4744619260293],[-121.034263030657,50.4745930537494],[-121.034238092998,50.4746790641867],[-121.034183568286,50.4747918573935],[-121.034086071901,50.4748760703296],[-121.033973218427,50.4749379043744],[-121.033790624041,50.4750163653063],[-121.033531103318,50.4750646282163],[-121.03326312915,50.475068313094],[-121.033071517758,50.4750265211887],[-121.032807770313,50.4749167837341],[-121.032657017232,50.4748353569251],[-121.032495415565,50.474705577331],[-121.032144879431,50.474413303619],[-121.031799556253,50.4745592607248]]]}},{"type":"Feature","id":"883053336","properties":{"name":"iSP_22kph_%TR_Brake_Temp_CTRL_NOREMOVE","oid":"883053336","speedLimit":6.111111},"geometry":{"type":"Polygon","coordinates":[[[-121.032466110294,50.4721454860993],[-121.032251251931,50.4722257445326],[-121.031488610413,50.4710085665248],[-121.030816702524,50.469923594738],[-121.03066144094,50.4696604405472],[-121.030596631205,50.4694579520253],[-121.030550278155,50.4692569913796],[-121.030596631205,50.4689731659237],[-121.030722869298,50.4686245405459],[-121.030884611856,50.4683757663655],[-121.031089044304,50.4680980524141],[-121.031688393467,50.467536782632],[-121.032432296519,50.4668939062908],[-121.032788609173,50.4665564254211],[-121.033147739643,50.466222629429],[-121.033484609377,50.465870948299],[-121.033779634564,50.4660343411675],[-121.0335876005,50.4659935378879],[-121.032919496661,50.4666523221156],[-121.032554730563,50.4669915106116],[-121.032178693206,50.4673079607161],[-121.031774477703,50.4676686293527],[-121.031382097021,50.4680346904932],[-121.031147232175,50.4682866103008],[-121.031008877479,50.4684701351839],[-121.030905181902,50.4686547385678],[-121.030828678236,50.4688532725868],[-121.030767813441,50.4691915623321],[-121.030776548666,50.4694008813589],[-121.030873763269,50.4696306020255],[-121.031027756837,50.4699353683715],[-121.031330671905,50.4704040668364],[-121.031530736741,50.4707112598092],[-121.031750385388,50.4710831628289],[-121.032146147447,50.4717290949224],[-121.032381434965,50.4721453962243],[-121.032466110294,50.4721454860993]]]}},{"type":"Feature","id":"883059532","properties":{"name":"iSP_22kph_%TR_Brake_CTRL_NOREMOVE","oid":"883059532","speedLimit":6.111111},"geometry":{"type":"Polygon","coordinates":[[[-121.027262311201,50.4773222898536],[-121.027030123279,50.4772101257723],[-121.027334588145,50.4769443652046],[-121.027716542913,50.4766327683536],[-121.028033265273,50.476323058879],[-121.028190499327,50.4761691028923],[-121.028621343178,50.4756926751718],[-121.028907351358,50.475326074781],[-121.029263945795,50.4748879338382],[-121.029472745856,50.4746570447958],[-121.029691549159,50.4745407464614],[-121.029801584818,50.4744885290486],[-121.029952337899,50.4745929638743],[-121.029788763762,50.4745423642126],[-121.029556153167,50.4747918573935],[-121.029251970083,50.4751733770452],[-121.029073038856,50.4754783231414],[-121.028853249318,50.4757750906066],[-121.028696156155,50.4759750626266],[-121.028409020848,50.4762709313412],[-121.028041718717,50.4765703051833],[-121.027243995406,50.4772197424043],[-121.027262311201,50.4773222898536]]]}},{"type":"Feature","id":"891249991","properties":{"name":"SP_30KPH_TR%_1590 #1_AUG_24_NS","oid":"891249991","speedLimit":8.333333},"geometry":{"type":"Polygon","coordinates":[[[-121.012956970986,50.4498608738133],[-121.013847541286,50.4497489793571],[-121.01337893872,50.4450042949162],[-121.01213881852,50.4430839343985],[-121.011299532444,50.4419104356725],[-121.010529705498,50.4421498628461],[-121.011008733979,50.4427017856214],[-121.01124078101,50.4430300093594],[-121.011456343826,50.4435200980898],[-121.011774334202,50.4445107909333],[-121.012956970986,50.4498608738133]]]}},{"type":"Feature","id":"893804793","properties":{"name":"SP_20KPH_%TR_1590Dynamic_AUG_24_NS","oid":"893804793","speedLimit":5.5555553},"geometry":{"type":"Polygon","coordinates":[[[-121.011186538079,50.4418409622471],[-121.010484197793,50.4421102279424],[-121.005981893642,50.4380483243716],[-121.0065144606,50.4376818138559],[-121.010067302124,50.440733521694],[-121.011186538079,50.4418409622471]]]}},{"type":"Feature","id":"903864124","properties":{"name":"SP_15KPH_%TR_OLD_GARBAGEDUMP_AUG_24_NS","oid":"903864124","speedLimit":4.1666665},"geometry":{"type":"Polygon","coordinates":[[[-121.042585164265,50.4670023854945],[-121.04213234146,50.4673289914814],[-121.040894052839,50.4666616691224],[-121.040723715947,50.4661232276069],[-121.042264356074,50.466826499992],[-121.042585164265,50.4670023854945]]]}},{"type":"Feature","id":"903865068","properties":{"name":"SP_15KPH_%TR_OLD_GARBAGE_DUMP_AUG_24_NS","oid":"903865068","speedLimit":4.1666665},"geometry":{"type":"Polygon","coordinates":[[[-121.042926683393,50.467201638514],[-121.042599535119,50.4670069691228],[-121.042142767374,50.4673432816167],[-121.042537261417,50.4674836664685],[-121.043338647886,50.4678204283378],[-121.043755825336,50.468475707438],[-121.043667205067,50.468588860145],[-121.044339394737,50.4682704327891],[-121.044047891818,50.468266208661],[-121.04376625125,50.4678703089989],[-121.043313710227,50.4674095195398],[-121.042926683393,50.467201638514]]]}},{"type":"Feature","id":"903996942","properties":{"name":"MRK_CULVERT_1185EL_JULY_6_DS","oid":"903996942","speedLimit":1.9444444},"geometry":{"type":"Polygon","coordinates":[[[-121.036707907486,50.4471636332322],[-121.036651832975,50.4471423328417],[-121.037062529452,50.4468899636587],[-121.037120717323,50.4469101855484],[-121.036707907486,50.4471636332322]]]}},{"type":"Feature","id":"908328496","properties":{"name":"SP_15KPH_%TR_9019_SOFT_GROUND_AUG_24_NS","oid":"908328496","speedLimit":4.1666665},"geometry":{"type":"Polygon","coordinates":[[[-121.038886219054,50.4644518210198],[-121.038900589908,50.4647532619884],[-121.039282122004,50.4648805250807],[-121.039728322944,50.4650717792194],[-121.039264792444,50.4662042949157],[-121.038928627163,50.4669793774778],[-121.037505208124,50.469461726778],[-121.035259550787,50.4690835325038],[-121.035228836608,50.4668161643595],[-121.037881668153,50.465140174144],[-121.038520748502,50.4648146466579],[-121.038886219054,50.4644518210198]]]}},{"type":"Feature","id":"910445950","properties":{"name":"SP_20KPH_%TR_1635_FLATS_AUG_24_NS","oid":"910445950","speedLimit":5.5555553},"geometry":{"type":"Polygon","coordinates":[[[-121.020225664609,50.4571643013598],[-121.019044577624,50.4569614533377],[-121.018650928926,50.4569228070597],[-121.017842920592,50.4571471352224],[-121.01844889162,50.4564126761897],[-121.018503416332,50.4555081735338],[-121.019218436784,50.4555081735338],[-121.019236611688,50.4564590517233],[-121.019424419031,50.4568920697874],[-121.019757766497,50.4570621134107],[-121.020225664609,50.4571643013598]]]}},{"type":"Feature","id":"917291012","properties":{"name":"SP_15KPH_%TR_CORNER_RUTS_AUG_24_NS","oid":"917291012","speedLimit":4.1666665},"geometry":{"type":"Polygon","coordinates":[[[-121.040610580692,50.4662216408033],[-121.040684830106,50.4661074994705],[-121.04042291424,50.4659264910892],[-121.040121126297,50.4658983601938],[-121.040017008048,50.466310796868],[-121.039934023409,50.4664861431201],[-121.039995169985,50.4668202986125],[-121.040667359656,50.4667395009289],[-121.040549434115,50.4666225734691],[-121.040531963665,50.4663775740414],[-121.040610580692,50.4662216408033]]]}},{"type":"Feature","id":"917773475","properties":{"name":"SP_11KPH_%TR_1200_CORNER_AUG_24_NS","oid":"917773475","speedLimit":3.0555556},"geometry":{"type":"Polygon","coordinates":[[[-121.037099161041,50.444682721933],[-121.0369250201,50.4448622923132],[-121.036629431349,50.4448207700331],[-121.036414854768,50.4448701114439],[-121.036323275794,50.4449678056398],[-121.036254662009,50.4450823064728],[-121.036242404515,50.4451451291433],[-121.036263538125,50.445267449107],[-121.036316231258,50.4453516620431],[-121.036184357535,50.4453954311999],[-121.036089256293,50.4451944705541],[-121.036163223925,50.4449318556137],[-121.036260015857,50.4447915606369],[-121.036516859656,50.4447152567066],[-121.036713965787,50.4447119313292],[-121.036923329411,50.4447702602465],[-121.037093948084,50.4446838004338],[-121.037099161041,50.444682721933]]]}},{"type":"Feature","id":"920440343","properties":{"name":"iSP_17KPH_CAL_PAD_ROAD_LIMIT_AUG_23_NS","oid":"920440343","speedLimit":4.7222223},"geometry":{"type":"Polygon","coordinates":[[[-121.005955406185,50.437830916589],[-121.005969072586,50.4376132391811],[-121.005586836037,50.4375784575309],[-121.005286597892,50.4376828923566],[-121.005191073978,50.4378352305921],[-121.005286597892,50.4381617467039],[-121.005989501742,50.4392588516245],[-121.007470404199,50.4413701966557],[-121.007675118429,50.4416488093578],[-121.007784308744,50.442153817349],[-121.007934498262,50.4426631393434],[-121.008118783336,50.4432333966319],[-121.008323497566,50.443651315685],[-121.008685164068,50.4445612108449],[-121.008760258827,50.4449225086069],[-121.008760258827,50.4451793715432],[-121.008692067714,50.445619040362],[-121.008494116239,50.446228483179],[-121.008944543901,50.4462154512946],[-121.00913559173,50.4457322829442],[-121.009319876805,50.4449181946038],[-121.009217449244,50.4444523721409],[-121.008999068614,50.4437993399174],[-121.008773925228,50.4433771068612],[-121.008460020683,50.442737106522],[-121.008296164764,50.4420754462922],[-121.008241640052,50.4417446161772],[-121.007920831861,50.4411960187794],[-121.006815262307,50.4398334229162],[-121.006603785322,50.43949387492],[-121.006228452419,50.4387799074022],[-121.005989501742,50.4383881419931],[-121.005934977029,50.4380573118782],[-121.005955406185,50.437830916589]]]}},{"type":"Feature","id":"921284584","properties":{"name":"SP_22kph_rough ground_23SH_AUG 24_NS","oid":"921284584","speedLimit":6.111111},"geometry":{"type":"Polygon","coordinates":[[[-121.039975304392,50.4679547915602],[-121.040298648617,50.4674448404404],[-121.040047158664,50.4668717970248],[-121.040675813099,50.4668030425999],[-121.040882499799,50.4674219222988],[-121.040343874541,50.4682545249026],[-121.039116575396,50.4697887821402],[-121.039354258057,50.4704372307355],[-121.039939518147,50.4707937651191],[-121.039580669459,50.4711138102262],[-121.03866332992,50.470557932948],[-121.038403668305,50.4695221228218],[-121.039975304392,50.4679547915602]]]}},{"type":"Feature","id":"921727643","properties":{"name":"SP_35KPH_%TR_ HIGHMONT TRIAL_Aug 24_NS","oid":"921727643","speedLimit":9.722222},"geometry":{"type":"Polygon","coordinates":[[[-121.012709425974,50.4365927976911],[-121.010156626847,50.4366191310852],[-121.007266957986,50.4370212321268],[-121.006148567375,50.4371702449849],[-121.005263773594,50.4370779432929],[-121.004924367827,50.4368543341308],[-121.005302800326,50.4361090002152],[-121.005970481493,50.4354593832441],[-121.006755101965,50.4347246545863],[-121.007317115085,50.4339047243667],[-121.007674695757,50.4330514504978],[-121.007912519308,50.432392576395],[-121.007906883679,50.4319204626776],[-121.007795580003,50.431384537664],[-121.007511826073,50.4310047256385],[-121.006988839686,50.4305646074444],[-121.00575350977,50.429783683003],[-121.004890976724,50.4292689685048],[-121.00411762751,50.4288927514819],[-121.003316663713,50.4284988290712],[-121.00347065728,50.428323392944],[-121.003115753533,50.4285319030952],[-121.004389828399,50.4291671400559],[-121.005350984956,50.4296955155641],[-121.00657448005,50.4304921681418],[-121.007130857541,50.4309177265754],[-121.007500836596,50.4313875934162],[-121.007671596161,50.4318535057541],[-121.00763679615,50.4325371853749],[-121.007399677053,50.4332027102326],[-121.00717312476,50.4338689540907],[-121.006590682484,50.4345641377199],[-121.006158570617,50.4350395768147],[-121.005745197217,50.4354070759562],[-121.005112597841,50.4360623550564],[-121.004793198558,50.4366456442294],[-121.004711763716,50.436933244438],[-121.004893371866,50.4370850434231],[-121.005450876483,50.4372768368122],[-121.006283822475,50.4372648834285],[-121.00758649816,50.4371449900915],[-121.008820278278,50.4369812377228],[-121.009459076845,50.4368812966503],[-121.011037334797,50.4367894443337],[-121.012887793637,50.4367964545888],[-121.012878494849,50.4364190691901],[-121.012709425974,50.4365927976911]]]}},{"type":"Feature","id":"922262468","properties":{"name":"SP_20kph_HMT_DUMP_AUG_24_NS","oid":"922262468","speedLimit":5.5555553},"geometry":{"type":"Polygon","coordinates":[[[-121.012501612148,50.4364266186956],[-121.012481746555,50.437417311539],[-121.016364131496,50.4384079145074],[-121.017180452383,50.4369600272074],[-121.016523478911,50.4359058825679],[-121.0147713618,50.435308932385],[-121.01289991024,50.4352073735614],[-121.012501612148,50.4364266186956]]]}},{"type":"Feature","id":"922385545","properties":{"name":"SP_20KPH_RUTS_AUG 24_NS","oid":"922385545","speedLimit":5.5555553},"geometry":{"type":"Polygon","coordinates":[[[-121.007511826073,50.4337193121072],[-121.006870350582,50.4335259009669],[-121.006518969103,50.4340724312383],[-121.007226240565,50.4343190484171],[-121.007511826073,50.4337193121072]]]}},{"type":"Feature","id":"923351007","properties":{"name":"iSP_17KPH_PERMISSIONS_AUG 18_NS","oid":"923351007","speedLimit":4.7222223},"geometry":{"type":"Polygon","coordinates":[[[-121.038853955077,50.4608774896776],[-121.038873397997,50.4611350716144],[-121.038784073275,50.4608898025616],[-121.038539346078,50.4608898025616],[-121.038535542028,50.4608303951435],[-121.038881146987,50.4608229355131],[-121.038853955077,50.4608774896776]]]}},{"type":"Feature","id":"923607825","properties":{"name":"MRK_CROSS DITCH ","oid":"923607825","speedLimit":2.7777777},"geometry":{"type":"Polygon","coordinates":[[[-121.035186005826,50.4458455255263],[-121.03561741324,50.4454862050157],[-121.035586980842,50.4454715553801],[-121.035137680306,50.4458267416377],[-121.035186005826,50.4458455255263]]]}},{"type":"Feature","id":"924222108","properties":{"name":"sp_11kph_rough ground_23SH _AUG 24_NS","oid":"924222108","speedLimit":3.0555556},"geometry":{"type":"Polygon","coordinates":[[[-121.039474296958,50.4712559925793],[-121.039829623378,50.4714071624389],[-121.041446203608,50.4722546843035],[-121.041822663637,50.4718507857606],[-121.039781016077,50.4709828622562],[-121.039644352069,50.4710719284458],[-121.039474296958,50.4712559925793]]]}},{"type":"Feature","id":"924266047","properties":{"name":"SP_12KPH_%TR_CROSS DITCH_AUG_24 NS ","oid":"924266047","speedLimit":3.3333333},"geometry":{"type":"Polygon","coordinates":[[[-121.037616089128,50.4473124663401],[-121.037894066537,50.4474716350806],[-121.037657651893,50.4477508769081],[-121.037462940905,50.4476921884905],[-121.037268089026,50.4475135168609],[-121.037616089128,50.4473124663401]]]}},{"type":"Feature","id":"925208014","properties":{"name":"SP_18KPH_BAD RAMPS_AUG 24_NS","oid":"925208014","speedLimit":5},"geometry":{"type":"Polygon","coordinates":[[[-121.036765109122,50.4451607674047],[-121.036033604454,50.445237071335],[-121.03630510089,50.4456361166244],[-121.037266539228,50.4467982012172],[-121.03791970865,50.447434966054],[-121.038246434251,50.4478047120721],[-121.03887198909,50.4475376932535],[-121.03687091806,50.4452751783627],[-121.036765109122,50.4451607674047]]]}},{"type":"Feature","id":"925558402","properties":{"name":"SP_15KPH_LAKE2_AUG 24_NS","oid":"925558402","speedLimit":4.1666665},"geometry":{"type":"Polygon","coordinates":[[[-121.025278006167,50.4783483934728],[-121.025271666085,50.4783786813697],[-121.025225876598,50.478425955654],[-121.025197557561,50.4784832959456],[-121.025186427193,50.4785366817343],[-121.025153317872,50.4786282644257],[-121.025082308944,50.4787309916252],[-121.025000169649,50.4788125083094],[-121.024911831162,50.4788688599752],[-121.0248535024,50.4789111911309],[-121.024719374425,50.4789514551601],[-121.024604125808,50.4789836304335],[-121.024498316871,50.4789886634371],[-121.024400538704,50.4789907305636],[-121.025243206157,50.4783504605993],[-121.025278006167,50.4783483934728]]]}},{"type":"Feature","id":"925953053","properties":{"name":"SP_10KPH_TR%_CR4_AUG24_NS","oid":"925953053","speedLimit":2.7777777},"geometry":{"type":"Polygon","coordinates":[[[-121.023426138419,50.4818269179954],[-121.023320611263,50.4815910858244],[-121.022660538196,50.4817321896768],[-121.02280241516,50.4819995679956],[-121.023234808809,50.4818858760382],[-121.023620990298,50.4820626602914],[-121.023426138419,50.4818289851219],[-121.023426138419,50.4818269179954]]]}},{"type":"Feature","id":"926023128","properties":{"name":"SP_10KPH_TR%_4CR_1_AUG24_NS","oid":"926023128","speedLimit":2.7777777},"geometry":{"type":"Polygon","coordinates":[[[-121.02286229372,50.4811970735387],[-121.022835806263,50.4815106476411],[-121.02215149999,50.4816166103429],[-121.021885780074,50.481273377469],[-121.02198538982,50.4808326301494],[-121.022417219906,50.4808791854331],[-121.022510207787,50.4812225081821],[-121.022822421644,50.4810190310346],[-121.022981909949,50.4812606152098],[-121.02286229372,50.4811970735387]]]}},{"type":"Feature","id":"926367691","properties":{"name":"SP_10KPH_%TR_Aug25_NS","oid":"926367691","speedLimit":2.7777777},"geometry":{"type":"Polygon","coordinates":[[[-121.038765053026,50.4500239970566],[-121.037839964497,50.4500350516896],[-121.038207407519,50.4520288401355],[-121.038181483625,50.4523873517705],[-121.038951028789,50.4525307024994],[-121.039076421539,50.4524590720725],[-121.038821268427,50.4510167570265],[-121.038765053026,50.4500239970566]]]}},{"type":"Feature","id":"926715370","properties":{"name":"speed limit 30 truck single lane","oid":"926715370","speedLimit":4.1666665},"geometry":{"type":"Polygon","coordinates":[[[-121.037522396793,50.445827191013],[-121.038065389664,50.4456008855989],[-121.036950662212,50.4446301450199],[-121.0366681763,50.4451354226363],[-121.03743490365,50.4457038824236],[-121.037522396793,50.445827191013]]]}}]}