{"type":"FeatureCollection","features":[{"type":"Feature","id":"702602533","properties":{"name":"iSP_4KPH_%TR_CR01_Slow Bump","oid":"702602533","speedLimit":1.1111112},"geometry":{"type":"Polygon","coordinates":[[[-121.033359051553,50.4648078880153],[-121.033653788586,50.4646908707176],[-121.033697181992,50.4647315841092],[-121.033369336354,50.4648697220406],[-121.033359051553,50.4648078880153]]]}},{"type":"Feature","id":"707947583","properties":{"name":"iSP_25KPH_%TR_Permission Gate 1 From West Dump","oid":"707947583","speedLimit":6.9444447},"geometry":{"type":"Polygon","coordinates":[[[-121.038628532666,50.4619779927353],[-121.038855220948,50.4617995009125],[-121.038140215958,50.4614082748778],[-121.037992565666,50.46167097961],[-121.038192062625,50.4615669043175],[-121.038666995004,50.4618460561815],[-121.038628532666,50.4619779927353]]]}},{"type":"Feature","id":"742345972","properties":{"name":"iSP_4KPH_%TR_CR01_Pit Side_Slow Bump","oid":"742345972","speedLimit":1.1111112},"geometry":{"type":"Polygon","coordinates":[[[-121.033398922768,50.4648828437959],[-121.033706198804,50.4647443463644],[-121.033756354819,50.4647764317525],[-121.033474861229,50.4649183444354],[-121.033398922768,50.4648828437959]]]}},{"type":"Feature","id":"776427243","properties":{"name":"iSP_7KPH_%TR_CR1_PermissionBlocker","oid":"776427243","speedLimit":1.9444444},"geometry":{"type":"Polygon","coordinates":[[[-121.034100120765,50.4652128649306],[-121.034051655402,50.4652331766889],[-121.03403052225,50.4652746090808],[-121.034116181961,50.4652255373108],[-121.034100120765,50.4652128649306]]]}},{"type":"Feature","id":"794004438","properties":{"name":"iSP_11KPH_%TR_Lower_Fuel_Bay","oid":"794004438","speedLimit":3.0555556},"geometry":{"type":"Polygon","coordinates":[[[-121.036776845851,50.4606954759618],[-121.036778959166,50.460725314474],[-121.036749231865,50.4606708502018],[-121.037125401978,50.4605991299225],[-121.037535385135,50.46055607978],[-121.037543133958,50.4605814245403],[-121.036944643081,50.4606502688184],[-121.036776845851,50.4606954759618]]]}},{"type":"Feature","id":"801543391","properties":{"name":"iSP_4KPH_%TR_CR01_PermissionBlocker_2","oid":"801543391","speedLimit":1.1111112},"geometry":{"type":"Polygon","coordinates":[[[-121.033155609739,50.4645233436492],[-121.033154764413,50.464473912379],[-121.033176320229,50.4644318508619],[-121.033108271478,50.4644594424981],[-121.033155609739,50.4645233436492]]]}},{"type":"Feature","id":"806473874","properties":{"name":"iSP_4KPH_%TR_CR04_PermissionBlocker","oid":"806473874","speedLimit":1.1111112},"geometry":{"type":"Polygon","coordinates":[[[-121.022719777298,50.4815452262217],[-121.022686668692,50.4815428894708],[-121.022679060757,50.4815715596075],[-121.022701180123,50.4815726381079],[-121.022705265866,50.4815485515981],[-121.022719777298,50.4815452262217]]]}},{"type":"Feature","id":"824566967","properties":{"name":"iSP_3KPH_%TR_CR04","oid":"824566967","speedLimit":0.8333333},"geometry":{"type":"Polygon","coordinates":[[[-121.023302629641,50.4810683492771],[-121.023282482703,50.4810683492771],[-121.023279805837,50.4811864450753],[-121.023304883844,50.481185726075],[-121.023302629641,50.4810683492771]]]}},{"type":"Feature","id":"826307302","properties":{"name":"iSP_4KPH_%TR_CR04_Pockets","oid":"826307302","speedLimit":1.1111112},"geometry":{"type":"Polygon","coordinates":[[[-121.02329783946,50.4813215272554],[-121.023337288011,50.481477190819],[-121.023541997814,50.4814377356778],[-121.023460987397,50.4811888717013],[-121.023052694892,50.4811895907016],[-121.023058048624,50.4813602633962],[-121.023282905366,50.4813262906324],[-121.02329783946,50.4813215272554]]]}},{"type":"Feature","id":"875953603","properties":{"name":"SP_30KPH_%TR_CR01_YARD_LOADED_Sept_27_DS","oid":"875953603","speedLimit":8.333333},"geometry":{"type":"Polygon","coordinates":[[[-121.03811091132,50.4622576838495],[-121.038364790924,50.46289597636],[-121.038315762011,50.4633432844176],[-121.038101612733,50.4637140189439],[-121.037625553252,50.4639750160504],[-121.037928320883,50.4642050062693],[-121.037828995066,50.4640213016943],[-121.03827504547,50.4637269609492],[-121.038556398173,50.4631644330946],[-121.038355915,50.4621661011871],[-121.03811091132,50.4622576838495]]]}},{"type":"Feature","id":"883050998","properties":{"name":"iSP_22KPH_%TR_4CR_Brake_Temp_Ctrl","oid":"883050998","speedLimit":6.111111},"geometry":{"type":"Polygon","coordinates":[[[-121.031799284017,50.4745590598703],[-121.032188556685,50.4743124427696],[-121.032490197214,50.4745747880017],[-121.032791837742,50.4748021718445],[-121.032969637998,50.4748845872532],[-121.033178433544,50.4749347375236],[-121.033462322225,50.4749595430338],[-121.033666186702,50.4749219752684],[-121.033827362211,50.4748625678692],[-121.033918516542,50.4748105302229],[-121.034007839333,50.4747473480722],[-121.034058277123,50.4746581920358],[-121.034052500728,50.4745480052408],[-121.034056304696,50.4744836547145],[-121.033994173228,50.4743796692971],[-121.033875827574,50.4742595962481],[-121.033508956048,50.4739376638667],[-121.033060651441,50.4735600089625],[-121.032947377744,50.4734254660326],[-121.03282241037,50.4732209104491],[-121.032605584226,50.4728149449084],[-121.03225209703,50.4722090074111],[-121.032487097684,50.4721561608896],[-121.032430038173,50.4722056820348],[-121.032902575461,50.4730488896289],[-121.033041772492,50.4733096171103],[-121.033249581824,50.4735469770822],[-121.033742547826,50.4739616605015],[-121.034097584787,50.4742711901278],[-121.034202968774,50.4743944986781],[-121.034255660767,50.4744617252056],[-121.034262705151,50.4745928528841],[-121.034237768031,50.4746788632942],[-121.034183244498,50.4747916564652],[-121.034085750221,50.4748758693746],[-121.033972899188,50.4749377033998],[-121.033790308751,50.4750161643069],[-121.033530793639,50.4750644272016],[-121.033262825266,50.4750681120781],[-121.033071218017,50.475026320186],[-121.032807476275,50.4749165827662],[-121.032656726455,50.474835155983],[-121.032495128282,50.47470537643],[-121.032144599728,50.4744131028107],[-121.031799284017,50.4745590598703]]]}},{"type":"Feature","id":"883053336","properties":{"name":"iSP_22KPH_%TR_Brake_Temp_Ctrl","oid":"883053336","speedLimit":6.111111},"geometry":{"type":"Polygon","coordinates":[[[-121.032465823644,50.4721452860101],[-121.032250969928,50.4722255444179],[-121.031488344901,50.4710083667961],[-121.030816451542,50.4699233953532],[-121.030661193315,50.4696602412458],[-121.030596384981,50.4694577527882],[-121.030550032933,50.4692567922062],[-121.030596384981,50.4689729668403],[-121.030722620345,50.468624341573],[-121.030884359405,50.4683755674715],[-121.031088787432,50.4680978536081],[-121.031688123635,50.4675365840041],[-121.032432010601,50.4668937078667],[-121.03278831555,50.4665562271039],[-121.033147438254,50.4662224312177],[-121.033484300704,50.4658707501991],[-121.033779319511,50.4660341430158],[-121.0335872896,50.4659933397492],[-121.032919200208,50.4666521237681],[-121.032554441997,50.4669913121565],[-121.032178412771,50.4673077621607],[-121.031774206009,50.4676684306829],[-121.031381833813,50.4680344917073],[-121.031146974046,50.4682864114351],[-121.031008622341,50.46846993626],[-121.030904929006,50.4686545395854],[-121.030828426995,50.4688530735414],[-121.030767563516,50.4691913631795],[-121.030776298552,50.4694006821399],[-121.030873511053,50.4696304027337],[-121.03102750129,50.469935168983],[-121.031330409809,50.4704038672993],[-121.031530470318,50.4707110601747],[-121.031750114216,50.4710829630765],[-121.032145867717,50.4717288949652],[-121.032381150147,50.4721451961351],[-121.032465823644,50.4721452860101]]]}},{"type":"Feature","id":"883059532","properties":{"name":"iSP_22KPH_%TR_Brake_Ctrl","oid":"883059532","speedLimit":6.111111},"geometry":{"type":"Polygon","coordinates":[[[-121.027262137079,50.477322088123],[-121.027029954178,50.4772099240773],[-121.027334412461,50.4769441635938],[-121.027716358969,50.4766325668416],[-121.02803307448,50.4763228574652],[-121.028190305134,50.4761689015274],[-121.028621139668,50.4756924739579],[-121.028907141664,50.4753258736833],[-121.029263728389,50.4748877328794],[-121.029472523935,50.4746568439102],[-121.029691322507,50.4745405456127],[-121.029801355787,50.4744883282164],[-121.029952105607,50.4745927630091],[-121.029788535008,50.4745421633634],[-121.029555929443,50.4747916564652],[-121.029251752936,50.475173175996],[-121.029072825579,50.4754781219954],[-121.028853040794,50.4757748893665],[-121.028695951027,50.4759748613232],[-121.02840882193,50.4762707299439],[-121.028041527741,50.4765701036911],[-121.027243821681,50.4772195407062],[-121.027262137079,50.477322088123]]]}},{"type":"Feature","id":"884401102","properties":{"name":"iSP_30KPH_%TR_Maint_Limit_Policy","oid":"884401102","speedLimit":8.333333},"geometry":{"type":"Polygon","coordinates":[[[-121.036992404006,50.4611013516275],[-121.037108495456,50.4611078226301],[-121.038294769746,50.4609921534579],[-121.038278426775,50.4603979895904],[-121.038119928131,50.4605658761589],[-121.037032838771,50.4607085078422],[-121.036745146122,50.4605378351475],[-121.036992404006,50.4611013516275]]]}},{"type":"Feature","id":"910445950","properties":{"name":"SP_22KPH_%TR_1635_FLATS_SEP_26_NS","oid":"910445950","speedLimit":6.111111},"geometry":{"type":"Polygon","coordinates":[[[-121.01736970843,50.4554938683388],[-121.018002857677,50.4544141995231],[-121.018148112878,50.4539985274785],[-121.018532736252,50.4537515508777],[-121.018948777579,50.4536880991018],[-121.01886664006,50.4543416703685],[-121.018261809238,50.4560721243248],[-121.018275898006,50.4557008505483],[-121.01736970843,50.4554938683388]]]}},{"type":"Feature","id":"915576987","properties":{"name":"iSP_15KPH_%TR_Preventing Shifting","oid":"915576987","speedLimit":4.1666665},"geometry":{"type":"Polygon","coordinates":[[[-121.036997898625,50.4448632692499],[-121.03751199778,50.4453131836835],[-121.037981294652,50.4457956328804],[-121.038525261995,50.4462189443032],[-121.039457938455,50.4468500468108],[-121.039915259874,50.4470998095377],[-121.04047120267,50.4471951669517],[-121.041224388222,50.4473228793788],[-121.04164282464,50.44750972958],[-121.042321339721,50.448095175569],[-121.042703990667,50.4485279238706],[-121.042847414328,50.4487949426046],[-121.043008871613,50.4493917128482],[-121.043188080746,50.4501982514274],[-121.043325587124,50.4505013999261],[-121.043687245806,50.4511688119485],[-121.043857719902,50.4514891265792],[-121.044126674488,50.4522536935163],[-121.04438379451,50.4529382716707],[-121.044697551379,50.4537981960217],[-121.04473643638,50.4541948145586],[-121.044572020454,50.4550719050416],[-121.044216419942,50.456839387513],[-121.044052004017,50.4572074257882],[-121.043005772084,50.4583990788996],[-121.041905861944,50.4595374361142],[-121.041344001865,50.4600007419283],[-121.040372581292,50.4605976020469],[-121.039924135798,50.4607310664764],[-121.039135023886,50.4608072805075],[-121.038497648009,50.4608388266454],[-121.038645439188,50.4611435928947],[-121.038758290222,50.4609496425656],[-121.039879333514,50.4608798096621],[-121.040707330426,50.4606319343109],[-121.041511376432,50.4600579923267],[-121.042874323876,50.4587003400225],[-121.044243188602,50.4571425360117],[-121.044428596793,50.4562902510388],[-121.044814206381,50.4544216591512],[-121.044811106852,50.453786692017],[-121.044261222226,50.4523014171608],[-121.043833768996,50.4511859780805],[-121.043346579389,50.4503374678592],[-121.043050715255,50.4493097468147],[-121.042928142971,50.4486919458126],[-121.042240611079,50.4478872946092],[-121.041547161904,50.4473915439068],[-121.041092799127,50.4472218598376],[-121.040459227217,50.4471303670502],[-121.039918218515,50.4470197308801],[-121.038821267016,50.4463333552249],[-121.038196571031,50.4458718469115],[-121.037153438627,50.4449070383928],[-121.037377590931,50.4446973599322],[-121.036997898625,50.4448632692499]]]}},{"type":"Feature","id":"917773475","properties":{"name":"SP_15KPH_%TR_1200_CORNER_Sept_26_NS","oid":"917773475","speedLimit":4.1666665},"geometry":{"type":"Polygon","coordinates":[[[-121.037098774206,50.4446825305511],[-121.03692463703,50.4448621008744],[-121.036629054672,50.4448205786075],[-121.036414482731,50.4448699200026],[-121.036322905737,50.4449676141675],[-121.036254293435,50.4450821149642],[-121.036242036207,50.4451449376149],[-121.036263169359,50.4452672575398],[-121.036315861353,50.4453514704492],[-121.036183990482,50.445395239592],[-121.036088891296,50.44519427901],[-121.036162857329,50.4449316641528],[-121.036259647167,50.4447913692205],[-121.036516485413,50.4447150653144],[-121.036713587281,50.444711739938],[-121.036922946378,50.4447700688368],[-121.037093561362,50.4446836090516],[-121.037098774206,50.4446825305511]]]}},{"type":"Feature","id":"926367691","properties":{"name":"SP_30KPH_%TR_24SH_EMPTY_LANE_SEP_26_NS","oid":"926367691","speedLimit":8.333333},"geometry":{"type":"Polygon","coordinates":[[[-121.038923410587,50.4549415862384],[-121.039203354412,50.4546235184836],[-121.039438918618,50.453830730785],[-121.039920895381,50.4514269330539],[-121.039502458963,50.4515917638711],[-121.039433142223,50.4530471103401],[-121.039204199738,50.4540991875196],[-121.038923410587,50.4549415862384]]]}},{"type":"Feature","id":"927549571","properties":{"name":"SP_30KPH_TR70%_CRUSHER YARD EMPTY_SEPT_27_DS","oid":"927549571","speedLimit":8.333333},"geometry":{"type":"Polygon","coordinates":[[[-121.037754888145,50.46192829184],[-121.037448457435,50.4612607899426],[-121.036778536503,50.4614646265258],[-121.037246988049,50.461509294419],[-121.037728401261,50.4623116088715],[-121.037507066711,50.4624617900578],[-121.038037508837,50.4623441436348],[-121.037754888145,50.46192829184]]]}},{"type":"Feature","id":"929009157","properties":{"name":"iSP_22KPH_%TR_Long_Single_Lane","oid":"929009157","speedLimit":6.111111},"geometry":{"type":"Polygon","coordinates":[[[-121.005680680049,50.4380559542215],[-121.00475096223,50.4382240205401],[-121.005175456819,50.4381975074042],[-121.007935728301,50.443170472934],[-121.008524497927,50.4445348658659],[-121.008211586384,50.4465096900469],[-121.007833584731,50.4466801829915],[-121.008935044635,50.4466469292279],[-121.008824306916,50.4465929143308],[-121.009404341506,50.4448176127313],[-121.008765415865,50.4430683748923],[-121.008263714826,50.4415401397686],[-121.007260171861,50.4401561540787],[-121.006440487323,50.4389840038502],[-121.005861438946,50.4383129968264],[-121.005680680049,50.4380559542215]]]}},{"type":"Feature","id":"932268643","properties":{"name":"SP_35KPH_%traction_1185_1170_SEP_27_DS","oid":"932268643","speedLimit":9.722222},"geometry":{"type":"Polygon","coordinates":[[[-121.038728985584,50.4481974533608],[-121.03846721627,50.4482556923845],[-121.038947079717,50.4498293144018],[-121.03950626293,50.4497913871363],[-121.039105719248,50.4497306316115],[-121.038621910945,50.4483442192956],[-121.038851980531,50.4481595260953],[-121.038728985584,50.4481974533608]]]}},{"type":"Feature","id":"932654885","properties":{"name":"SP_11KPH_%TR_LOTS OF MUD_SEPT_26_NS","oid":"932654885","speedLimit":3.0555556},"geometry":{"type":"Polygon","coordinates":[[[-121.03636531293,50.4453591098273],[-121.036057755118,50.4454651623706],[-121.036262746696,50.4454606686187],[-121.038009472188,50.4473914540318],[-121.038175719654,50.4473147007504],[-121.03636531293,50.4453591098273]]]}},{"type":"Feature","id":"934051091","properties":{"name":"iSP_17KPH_%TR_Ramp_Permission Blocker","oid":"934051091","speedLimit":4.7222223},"geometry":{"type":"Polygon","coordinates":[[[-121.039512884651,50.4610297212233],[-121.039464841952,50.460771689993],[-121.039017382671,50.4607922713764],[-121.039076273722,50.4610449999795],[-121.039163764973,50.4608999416703],[-121.039379745791,50.4608868199149],[-121.039512884651,50.4610297212233]]]}},{"type":"Feature","id":"934181442","properties":{"name":"SP_30KPH_TR%_1590_3_SEPT 27_DS_Rough_section ","oid":"934181442","speedLimit":8.333333},"geometry":{"type":"Polygon","coordinates":[[[-121.01106216687,50.4415092227559],[-121.010401121862,50.4418073382526],[-121.01160697954,50.4432053444482],[-121.012272532953,50.4429313154614],[-121.011824369234,50.4429215190824],[-121.010901273136,50.4417730958636],[-121.01106216687,50.4415092227559]]]}},{"type":"Feature","id":"934181877","properties":{"name":"SP_30KPH_TR%_1590_7_SEPT 27_DS","oid":"934181877","speedLimit":8.333333},"geometry":{"type":"Polygon","coordinates":[[[-121.013995448426,50.4497859047591],[-121.013325245719,50.4498808127978],[-121.013673801847,50.4515053939609],[-121.014402754717,50.4513828942859],[-121.0139843183,50.4512796278687],[-121.01370705134,50.4500006162217],[-121.013995448426,50.4497859047591]]]}},{"type":"Feature","id":"934182273","properties":{"name":"SP_30KPH_TR%_1590_17_SEPT 27_DS","oid":"934182273","speedLimit":8.333333},"geometry":{"type":"Polygon","coordinates":[[[-121.008849525811,50.441369736699],[-121.009440549641,50.4411108067183],[-121.007219596209,50.4391735503026],[-121.006130534421,50.4382650934318],[-121.005749151463,50.437978931315],[-121.004975396309,50.4375496881398],[-121.0045156798,50.4371634052322],[-121.00358483488,50.4374710474827],[-121.004111895701,50.4376569989336],[-121.005053870748,50.4380647619751],[-121.006107992391,50.4386441863366],[-121.007075749885,50.4394768785514],[-121.008913629707,50.4411153004702],[-121.008849525811,50.441369736699]]]}},{"type":"Feature","id":"934860743","properties":{"name":"SP_30KPH_TR70%_CRUSHER YARD EMPTY1_SEPT_27_DS","oid":"934860743","speedLimit":8.333333},"geometry":{"type":"Polygon","coordinates":[[[-121.037495795696,50.4624816524409],[-121.037861681009,50.4624689800607],[-121.037920008509,50.4626184422467],[-121.037907046843,50.4632760578901],[-121.037748266424,50.4634696487191],[-121.037563844447,50.4634605713404],[-121.037937196807,50.4636155159037],[-121.037979885775,50.4635589845056],[-121.038210237136,50.4632687780121],[-121.038183891139,50.4627772514365],[-121.038038072388,50.4623455816353],[-121.037495795696,50.4624816524409]]]}},{"type":"Feature","id":"934860935","properties":{"name":"SP_30KPH_TR%_CRUSHER YARD EMPTY2_SEPT_27_DS","oid":"934860935","speedLimit":8.333333},"geometry":{"type":"Polygon","coordinates":[[[-121.037546797038,50.4634732437206],[-121.037682894539,50.4636378947878],[-121.037077500166,50.463981397178],[-121.036451817967,50.4642045568941],[-121.036236259812,50.4641030879777],[-121.036398844198,50.4643263375688],[-121.036720490778,50.4642316092801],[-121.037430846475,50.463964231046],[-121.037846887802,50.4637352294525],[-121.037937196807,50.4636155159037],[-121.037546797038,50.4634732437206]]]}},{"type":"Feature","id":"936169885","properties":{"name":"SP_15KPH_%TR_24shl_loadplan_Sept_26_NS","oid":"936169885","speedLimit":4.1666665},"geometry":{"type":"Polygon","coordinates":[[[-121.03916883693,50.454636730114],[-121.038618952304,50.454568245336],[-121.038154445614,50.4553923095473],[-121.038669953645,50.4555193928492],[-121.038841977506,50.4552446448621],[-121.039002025914,50.4549474281158],[-121.039087403849,50.4547917645522],[-121.03916883693,50.454636730114]]]}},{"type":"Feature","id":"936513295","properties":{"name":"SP_30KPH_%TR_1635_FLATS_SEP_26_NS","oid":"936513295","speedLimit":8.333333},"geometry":{"type":"Polygon","coordinates":[[[-121.017285880259,50.4555552529888],[-121.01805005505,50.4557852432077],[-121.017433953213,50.4574538631388],[-121.015226947662,50.4585169949477],[-121.014498135679,50.4578796910626],[-121.016177235083,50.4566194632982],[-121.017285880259,50.4555552529888]]]}},{"type":"Feature","id":"937786749","properties":{"name":"SP_32KPH_%TR_24SH_Loaded_LANE_SEP_26_NS","oid":"937786749","speedLimit":8.888889},"geometry":{"type":"Polygon","coordinates":[[[-121.038280117427,50.4554284393121],[-121.038456367918,50.4555012380918],[-121.038969621746,50.4539575444617],[-121.039257032619,50.4521234645882],[-121.038991882,50.4522688823975],[-121.038490603625,50.4548541378277],[-121.038280117427,50.4554284393121]]]}},{"type":"Feature","id":"938065675","properties":{"name":"SP_8KPH_CR01_YARD_RUTIING_SEP_26_NS","oid":"938065675","speedLimit":2.2222223},"geometry":{"type":"Polygon","coordinates":[[[-121.034289192035,50.4648012372626],[-121.034098993664,50.4648580382858],[-121.033940776796,50.4649070201808],[-121.033829334639,50.4650049839708],[-121.034044188355,50.4650688851219],[-121.033964164151,50.4650113650984],[-121.034242558212,50.4648881464231],[-121.034319201112,50.4649373979432],[-121.034289192035,50.4648012372626]]]}},{"type":"Feature","id":"938165680","properties":{"name":"SP_10KPH_%TR_22SH_Sept_26_NS","oid":"938165680","speedLimit":2.7777777},"geometry":{"type":"Polygon","coordinates":[[[-121.03408039649,50.4466114285884],[-121.035055198367,50.4472506198493],[-121.03549702214,50.4474473563046],[-121.035795140477,50.4469122403362],[-121.034854856082,50.4461953970436],[-121.03408039649,50.4466114285884]]]}},{"type":"Feature","id":"940771585","properties":{"name":"SP_20KPH_%TR_1660_HMT_SEPT26_DS","oid":"940771585","speedLimit":5.5555553},"geometry":{"type":"Polygon","coordinates":[[[-121.002708795268,50.4281184714155],[-121.002603552169,50.4277113374993],[-121.002231890462,50.4276979461188],[-121.002505353454,50.427796359284],[-121.002533390103,50.4281139776636],[-121.002673714235,50.4280826112758],[-121.002708795268,50.4281184714155]]]}},{"type":"Feature","id":"940778315","properties":{"name":"SP_20KPH_%TR_HMT_SPILLING_ROCK_IN_CORNER_SEPT26_NS","oid":"940778315","speedLimit":5.5555553},"geometry":{"type":"Polygon","coordinates":[[[-121.004784634387,50.4367080084213],[-121.004770545618,50.4370436018083],[-121.004987935313,50.4372761984032],[-121.005121215061,50.4371687977344],[-121.004889877486,50.4369362011394],[-121.004882833102,50.4367572599414],[-121.005198421511,50.4367975239578],[-121.004798582267,50.4366991107927],[-121.004784634387,50.4367080084213]]]}},{"type":"Feature","id":"944724443","properties":{"name":"SP_12KPH_%TR_21SH_EMPTY_SEPT 26_NS","oid":"944724443","speedLimit":3.3333333},"geometry":{"type":"Polygon","coordinates":[[[-121.039134601223,50.4501831524212],[-121.038912703123,50.4501673344148],[-121.038927778105,50.4505369904406],[-121.03926548588,50.4511709689494],[-121.039344805646,50.4515559936065],[-121.039732387661,50.451498383708],[-121.039710831846,50.4511095842993],[-121.039407218889,50.4509586841128],[-121.039104451259,50.450356611242],[-121.039084586096,50.4502970240927],[-121.039134601223,50.4501831524212]]]}},{"type":"Feature","id":"944724972","properties":{"name":"SP_20KPH_%TR_21SH_LOADED_SEPT 26_NS","oid":"944724972","speedLimit":5.5555553},"geometry":{"type":"Polygon","coordinates":[[[-121.038848035676,50.4522167548762],[-121.039181657709,50.4521684919815],[-121.039250833561,50.4519692390252],[-121.039327617349,50.451635622889],[-121.039213357438,50.4512647086127],[-121.038912984898,50.4506402568578],[-121.038818449263,50.4509654247405],[-121.038885934463,50.4509782768707],[-121.039058099211,50.4512926597491],[-121.039101915281,50.4515746876142],[-121.039046828197,50.451934547261],[-121.038997094845,50.4521382939692],[-121.038848035676,50.4522167548762]]]}},{"type":"Feature","id":"945606742","properties":{"name":"SP_20KPH_19SH_SEPT 26_NS","oid":"945606742","speedLimit":5.5555553},"geometry":{"type":"Polygon","coordinates":[[[-121.002893780795,50.4271197800078],[-121.002444489975,50.4275246670481],[-121.001789925801,50.4273168759633],[-121.002101710243,50.4269692393214],[-121.002893780795,50.4271197800078]]]}},{"type":"Feature","id":"947290154","properties":{"name":"Sp_30KPH__DRAGGING_CENTER_SLIME_SEPT_27_DS","oid":"947290154","speedLimit":8.333333},"geometry":{"type":"Polygon","coordinates":[[[-121.042355575428,50.4500107721009],[-121.042952093877,50.4498496261601],[-121.043015211559,50.450033150985],[-121.043127499042,50.4504204225181],[-121.043373207161,50.4508905588349],[-121.043460839299,50.4510472110239],[-121.042885454003,50.4511814843287],[-121.043145110002,50.451044964148],[-121.042906446268,50.4505324068138],[-121.042762599943,50.4499883932167],[-121.042355575428,50.4500107721009]]]}},{"type":"Feature","id":"947418386","properties":{"name":"SP_30KPH_TR%_HMT_LOADED_DOWN_RAMP1_SEPT_27_DS","oid":"947418386","speedLimit":8.333333},"geometry":{"type":"Polygon","coordinates":[[[-121.00387421818,50.4282679336015],[-121.003307427032,50.4286848638966],[-121.003640908177,50.4288635354696],[-121.004201077604,50.4290635074262],[-121.004621204675,50.4292677035095],[-121.005288026077,50.4296547952925],[-121.00616829232,50.4301738236294],[-121.006641815822,50.4305056422648],[-121.00700854646,50.4307736496242],[-121.007268625122,50.4309778457075],[-121.007475307353,50.4312628394488],[-121.008188903467,50.4309607694506],[-121.007675367863,50.4310756297474],[-121.006094889837,50.4299015022682],[-121.00469446627,50.4291485292109],[-121.003614139518,50.4286295907491],[-121.00387421818,50.4282679336015]]]}},{"type":"Feature","id":"947419674","properties":{"name":"SP_30KPH_TR%_HMT_LOADED_DOWN_RAMP2_SEPT_27_DS","oid":"947419674","speedLimit":8.333333},"geometry":{"type":"Polygon","coordinates":[[[-121.008213981474,50.4310791348739],[-121.007514755904,50.4313131694694],[-121.007638737065,50.4316643112377],[-121.007728059856,50.4320881619107],[-121.007747925019,50.4322969416209],[-121.00768832953,50.4325594666031],[-121.007579282463,50.432863154352],[-121.007489959672,50.4331067157014],[-121.007281727677,50.4336254744132],[-121.00713802224,50.4339291621621],[-121.00704869945,50.4341410874986],[-121.006557846763,50.43463450145],[-121.005734640032,50.4354853484223],[-121.00528844874,50.4358997622164],[-121.004931439352,50.4363331396433],[-121.004797596053,50.4366494098974],[-121.005293379809,50.4367190630508],[-121.005050489444,50.4366589366513],[-121.005516545899,50.4361275055594],[-121.007326389072,50.4341790147641],[-121.007658602228,50.4335811660201],[-121.008005749479,50.432287414867],[-121.007861903155,50.4313670046164],[-121.008213981474,50.4310791348739]]]}},{"type":"Feature","id":"947527865","properties":{"name":"SP_15KPH_TR%","oid":"947527865","speedLimit":4.1666665},"geometry":{"type":"Polygon","coordinates":[[[-121.039106705462,50.4616432980987],[-121.038707429769,50.4618726591923],[-121.039173627111,50.4623346168809],[-121.039637429363,50.462151092056],[-121.039625031247,50.462151092056],[-121.039106705462,50.4616432980987]]]}}]}