{"type":"FeatureCollection","features":[{"type":"Feature","id":"702602533","properties":{"name":"iSP_4KPH_%TR_CR01_Slow Bump","oid":"702602533","speedLimit":1.1111112},"geometry":{"type":"Polygon","coordinates":[[[-121.033358418244,50.4648077565848],[-121.033653142783,50.46469073978],[-121.03369653435,50.4647314530001],[-121.033368702609,50.4648695903495],[-121.033358418244,50.4648077565848]]]}},{"type":"Feature","id":"707947583","properties":{"name":"iSP_25KPH_%TR_Permission Gate 1 From West Dump","oid":"707947583","speedLimit":6.9444447},"geometry":{"type":"Polygon","coordinates":[[[-121.038627675992,50.4619778732278],[-121.038854354665,50.461799382157],[-121.038139379982,50.4614081577707],[-121.037991735949,50.461670861396],[-121.038191224452,50.4615667865421],[-121.038666136699,50.4618459372299],[-121.038627675992,50.4619778732278]]]}},{"type":"Feature","id":"742345972","properties":{"name":"iSP_4KPH_%TR_CR01_Pit Side_Slow Bump","oid":"742345972","speedLimit":1.1111112},"geometry":{"type":"Polygon","coordinates":[[[-121.033398287768,50.4648827120496],[-121.03370555078,50.4647442152016],[-121.033755704669,50.4647763004545],[-121.033474223011,50.4649182125395],[-121.033398287768,50.4648827120496]]]}},{"type":"Feature","id":"776427243","properties":{"name":"iSP_7KPH_%TR_CR1_PermissionBlocker","oid":"776427243","speedLimit":1.9444444},"geometry":{"type":"Polygon","coordinates":[[[-121.034099456043,50.4652127317938],[-121.034050992735,50.4652330434665],[-121.034029860478,50.4652744756839],[-121.034115516558,50.4652254041206],[-121.034099456043,50.4652127317938]]]}},{"type":"Feature","id":"794004438","properties":{"name":"iSP_11KPH_%TR_Lower_Fuel_Bay","oid":"794004438","speedLimit":3.0555556},"geometry":{"type":"Polygon","coordinates":[[[-121.036776067667,50.4606953618579],[-121.036778180892,50.4607252002444],[-121.036748454851,50.4606707362016],[-121.037124609019,50.4605990162245],[-121.037534574798,50.4605559662634],[-121.037542323292,50.4605813109169],[-121.036943857784,50.460650154905],[-121.036776067667,50.4606953618579]]]}},{"type":"Feature","id":"801543391","properties":{"name":"iSP_4KPH_%TR_CR01_PermissionBlocker_2","oid":"801543391","speedLimit":1.1111112},"geometry":{"type":"Polygon","coordinates":[[[-121.033154985054,50.4645232134175],[-121.033154139764,50.4644737823556],[-121.033175694665,50.4644317210156],[-121.033107648799,50.4644593125356],[-121.033154985054,50.4645232134175]]]}},{"type":"Feature","id":"806473874","properties":{"name":"iSP_4KPH_%TR_CR04_PermissionBlocker","oid":"806473874","speedLimit":1.1111112},"geometry":{"type":"Polygon","coordinates":[[[-121.022719594971,50.4815450242724],[-121.022686487769,50.4815426875313],[-121.022678880157,50.4815713575472],[-121.022700998585,50.4815724360431],[-121.022705084155,50.4815483496348],[-121.022719594971,50.4815450242724]]]}},{"type":"Feature","id":"824566967","properties":{"name":"iSP_3KPH_%TR_CR04","oid":"824566967","speedLimit":0.8333333},"geometry":{"type":"Polygon","coordinates":[[[-121.023302422609,50.481068149337],[-121.023282276524,50.481068149337],[-121.023279599772,50.4811862446376],[-121.023304676716,50.4811855256404],[-121.023302422609,50.481068149337]]]}},{"type":"Feature","id":"826307302","properties":{"name":"iSP_4KPH_%TR_CR04_Pockets","oid":"826307302","speedLimit":1.1111112},"geometry":{"type":"Polygon","coordinates":[[[-121.023297632631,50.4813213262486],[-121.02333707951,50.4814769891563],[-121.023541780635,50.4814375341814],[-121.023460773652,50.4811886712534],[-121.023052498454,50.4811893902507],[-121.023057851959,50.4813600622262],[-121.023282699169,50.4813260896055],[-121.023297632631,50.4813213262486]]]}},{"type":"Feature","id":"883050998","properties":{"name":"iSP_22KPH_%TR_4CR_Brake_Temp_Ctrl","oid":"883050998","speedLimit":6.111111},"geometry":{"type":"Polygon","coordinates":[[[-121.031798716824,50.4745588873555],[-121.032187972991,50.4743122712939],[-121.032489600734,50.4745746154207],[-121.032791228477,50.4748019983055],[-121.032969021196,50.4748844133669],[-121.033177807891,50.474934563426],[-121.033461684538,50.4749593688317],[-121.033665540374,50.4749218012246],[-121.033826709051,50.4748623940757],[-121.033917859518,50.4748103566487],[-121.034007178523,50.4747471747641],[-121.034057614175,50.4746580191033],[-121.034051838025,50.4745478327726],[-121.034055641831,50.4744834825175],[-121.033993512997,50.4743794975381],[-121.03387517236,50.474259424995],[-121.033508316385,50.47393749397],[-121.033060030781,50.473559840657],[-121.032946761885,50.473425298294],[-121.032821799808,50.4732207435723],[-121.032604982855,50.4728147797421],[-121.032251510643,50.4722088447977],[-121.032486501336,50.4721559984988],[-121.032429444243,50.4722055194354],[-121.032901961501,50.4730487234769],[-121.033041152632,50.4733094498598],[-121.033248953155,50.4735468088316],[-121.033741898261,50.4739614905037],[-121.034096920172,50.4742710188259],[-121.034202299692,50.4743943268567],[-121.034254989452,50.4744615531009],[-121.034262033537,50.474592680227],[-121.034237097475,50.4746786902747],[-121.034182576253,50.4747914829705],[-121.034085086109,50.474875695525],[-121.033972239858,50.4749375292898],[-121.033789657161,50.4750159898662],[-121.03353015305,50.4750642525576],[-121.033262196036,50.4750679374185],[-121.033070596909,50.4750261457026],[-121.032806866347,50.4749164087451],[-121.032656122916,50.474834982305],[-121.032494531594,50.4747052032988],[-121.032144017897,50.4744129309109],[-121.031798716824,50.4745588873555]]]}},{"type":"Feature","id":"883053336","properties":{"name":"iSP_22KPH_%TR_Brake_Temp_Ctrl","oid":"883053336","speedLimit":6.111111},"geometry":{"type":"Polygon","coordinates":[[[-121.032465228198,50.4721451236652],[-121.032250383589,50.4722253817348],[-121.031487790888,50.4710082092413],[-121.030815926009,50.4699232423697],[-121.030660674364,50.4696600893711],[-121.030595868777,50.4694576017666],[-121.030549518694,50.4692566420312],[-121.030595868777,50.4689728178612],[-121.03072209879,50.4686241940628],[-121.030883830994,50.4683754210094],[-121.031088250356,50.4680977083161],[-121.031687561154,50.4675364410768],[-121.032431416587,50.466893567648],[-121.032787706434,50.4665560883072],[-121.033146813915,50.4662222938273],[-121.033483662085,50.4658706142905],[-121.033778668388,50.4660340064187],[-121.033586646616,50.465993203324],[-121.032918585543,50.4666519845673],[-121.032553842794,50.4669911715266],[-121.032177829508,50.4673076201975],[-121.031773639879,50.4676682872001],[-121.031381284315,50.4680343466822],[-121.031146434503,50.4682862653486],[-121.031008088663,50.4684697894003],[-121.030904399724,50.4686543919479],[-121.030827900955,50.4688529250674],[-121.030767040056,50.4691912132802],[-121.030775774722,50.4694005313587],[-121.030872983102,50.4696302509846],[-121.031026966812,50.4699350159499],[-121.03132986249,50.4704037122915],[-121.03152991452,50.4707109038726],[-121.031749549107,50.4710828052074],[-121.032145285833,50.4717287343746],[-121.03238055829,50.4721450337905],[-121.032465228198,50.4721451236652]]]}},{"type":"Feature","id":"883059532","properties":{"name":"iSP_22KPH_%TR_Brake_Ctrl","oid":"883059532","speedLimit":6.111111},"geometry":{"type":"Polygon","coordinates":[[[-121.027261762209,50.4773219039669],[-121.02702958915,50.4772097403937],[-121.027334034527,50.47694398103],[-121.027715964845,50.4766323855906],[-121.028032666931,50.4763226775191],[-121.02818989092,50.4761687222299],[-121.028620707192,50.4756922966678],[-121.028906697065,50.4753256979377],[-121.029263268675,50.4748875589799],[-121.02947205537,50.4746566709835],[-121.029690844667,50.474540373176],[-121.029800873283,50.4744881559997],[-121.029951616714,50.4745925903523],[-121.029788053047,50.4745419909198],[-121.029555457343,50.4747914829705],[-121.029251293729,50.4751730008938],[-121.029072373957,50.4754779456084],[-121.028852598488,50.4757747117292],[-121.02869551538,50.4759746828433],[-121.028408398453,50.4762705502174],[-121.028041119833,50.4765699227033],[-121.027243447587,50.4772193569821],[-121.027261762209,50.4773219039669]]]}},{"type":"Feature","id":"884401102","properties":{"name":"iSP_30KPH_%TR_Maint_Limit_Policy","oid":"884401102","speedLimit":8.333333},"geometry":{"type":"Polygon","coordinates":[[[-121.036991616684,50.4611012358135],[-121.037107703214,50.4611077067889],[-121.038293927219,50.460992038104],[-121.038277584941,50.4603978767399],[-121.038119093016,50.4605657626011],[-121.037032049735,50.4607083936834],[-121.036744369282,50.4605377217078],[-121.036991616684,50.4611012358135]]]}},{"type":"Feature","id":"910445950","properties":{"name":"SP_22KPH_%TR_1635_FLATS_SEP_29_NS","oid":"910445950","speedLimit":6.111111},"geometry":{"type":"Polygon","coordinates":[[[-121.017369752885,50.4554937761506],[-121.018002875293,50.4544141118839],[-121.018148124337,50.4539984415905],[-121.018532731408,50.4537514660303],[-121.0189487551,50.4536880145217],[-121.018866621062,50.4543415830348],[-121.018261815878,50.4560720297003],[-121.018275904049,50.455700757488],[-121.017369752885,50.4554937761506]]]}},{"type":"Feature","id":"915576987","properties":{"name":"iSP_15KPH_%TR_Preventing Shifting","oid":"915576987","speedLimit":4.1666665},"geometry":{"type":"Polygon","coordinates":[[[-121.036997111071,50.4448632218512],[-121.037511188434,50.4453131343892],[-121.037980465412,50.4457955815534],[-121.038524409698,50.4462188911927],[-121.039457046623,50.4468499910413],[-121.039914348657,50.4470997527159],[-121.040470267888,50.447195109728],[-121.041223421513,50.4473228216171],[-121.041641840195,50.4475096710311],[-121.042320326514,50.4480951145534],[-121.04270296124,50.4485278610318],[-121.042846378822,50.4487948786407],[-121.043007829263,50.44939164637],[-121.043187030799,50.450198181551],[-121.043324531348,50.4505013287725],[-121.0436861747,50.4511687379829],[-121.04385664157,50.4514890512641],[-121.044125584756,50.4522536149798],[-121.044382693878,50.4529381902499],[-121.044696437448,50.4537981109778],[-121.0447353208,50.4541947278436],[-121.044570911844,50.4550718146312],[-121.044215326406,50.4568392896558],[-121.044050917449,50.4572073263803],[-121.043004729865,50.458398974471],[-121.041904866349,50.4595373268894],[-121.041343030086,50.4600006307515],[-121.04037165069,50.4605974883554],[-121.039923224204,50.4607309522225],[-121.039134145742,50.4608071659325],[-121.038496796883,50.4608387119375],[-121.038644581797,50.4611434769028],[-121.038757428048,50.4609495273908],[-121.03987842382,50.4608796947815],[-121.040706385635,50.4606318204747],[-121.041510397558,50.4600578809086],[-121.042873287229,50.4587002343246],[-121.044242093931,50.4571424368772],[-121.044427494262,50.4562901554953],[-121.044813087505,50.4544215714805],[-121.044809988107,50.4537866070216],[-121.04426012679,50.4523013384232],[-121.043832691679,50.4511859040426],[-121.043345522723,50.4503373973963],[-121.043049671131,50.4493096806818],[-121.042927104042,50.4486918822826],[-121.042239601294,50.4478872344694],[-121.041546181513,50.4473914858558],[-121.041091837996,50.4472218025015],[-121.040458292942,50.4471303100996],[-121.039917307173,50.4470196743956],[-121.038820402172,50.4463333016323],[-121.038195732667,50.4458717952634],[-121.03715264448,50.4449069908096],[-121.037376787282,50.4446973132325],[-121.036997111071,50.4448632218512]]]}},{"type":"Feature","id":"917773475","properties":{"name":"SP_15KPH_%TR_1200_CORNER_Sept_29_DS","oid":"917773475","speedLimit":4.1666665},"geometry":{"type":"Polygon","coordinates":[[[-121.037097982376,50.4446824839139],[-121.036923852581,50.4448620534806],[-121.036628282752,50.4448205313886],[-121.036413719907,50.4448698725758],[-121.036322146795,50.4449675663291],[-121.036253537401,50.4450820666434],[-121.036241280693,50.4451448890294],[-121.036262412949,50.4452672084389],[-121.036315102709,50.4453514209935],[-121.036183237428,50.445395189952],[-121.036088142273,50.4451942302166],[-121.036162105171,50.4449316164659],[-121.036258890906,50.4447913221247],[-121.036515718265,50.4447150185401],[-121.036712811779,50.4447116931777],[-121.036922162001,50.4447700218308],[-121.037092769753,50.4446835624098],[-121.037097982376,50.4446824839139]]]}},{"type":"Feature","id":"929009157","properties":{"name":"iSP_22KPH_%TR_Long_Single_Lane","oid":"929009157","speedLimit":6.111111},"geometry":{"type":"Polygon","coordinates":[[[-121.005681219985,50.4380559355037],[-121.004751541575,50.4382240011142],[-121.00517601817,50.4381974880901],[-121.007936172648,50.4431704326674],[-121.008524917317,50.4445348198508],[-121.008212019038,50.4465096357114],[-121.007834033407,50.4466801279376],[-121.008935446623,50.4466468743141],[-121.008824713598,50.4465928596447],[-121.009404723601,50.4448175655249],[-121.008765825043,50.4430683350559],[-121.008264145271,50.441540106371],[-121.007260644844,50.4401561265122],[-121.006440995051,50.4389839812224],[-121.00586197122,50.4383129770256],[-121.005681219985,50.4380559355037]]]}},{"type":"Feature","id":"932114358","properties":{"name":"SP_30KPH_%TR_23SH_LOADED_LANES_SEP_30_DS","oid":"932114358","speedLimit":8.333333},"geometry":{"type":"Polygon","coordinates":[[[-121.042097451647,50.4671396444617],[-121.041264699855,50.4667316135143],[-121.040733575805,50.4664967710329],[-121.040688071012,50.4664763694855],[-121.040376440668,50.4667812243255],[-121.040592975858,50.4666718468667],[-121.041765534337,50.4671897046462],[-121.041837947536,50.467547675409],[-121.042097451647,50.4671396444617]]]}},{"type":"Feature","id":"932268643","properties":{"name":"SP_35KPH_%traction_1185_1170_SEP_30_NS","oid":"932268643","speedLimit":9.722222},"geometry":{"type":"Polygon","coordinates":[[[-121.038728124652,50.4481973919142],[-121.038466366433,50.4482556306926],[-121.03894620954,50.4498292460798],[-121.03950536905,50.4497913189742],[-121.039104842346,50.4497305637053],[-121.038621054551,50.4483441572308],[-121.038851114385,50.4481594648086],[-121.038728124652,50.4481973919142]]]}},{"type":"Feature","id":"933371104","properties":{"name":"SP_17KPH_1590_HMT_INTERSECT_SEPT_30_DS","oid":"933371104","speedLimit":4.7222223},"geometry":{"type":"Polygon","coordinates":[[[-121.006360974239,50.4374888264116],[-121.005863239155,50.4376812480544],[-121.00594438702,50.4378152511695],[-121.006254045021,50.4380938626094],[-121.006606108416,50.438316302388],[-121.007163295582,50.4382767575385],[-121.006791790511,50.4381831980195],[-121.006117812406,50.4376596781365],[-121.006360974239,50.4374888264116]]]}},{"type":"Feature","id":"934051091","properties":{"name":"iSP_17KPH_%TR_Ramp_Permission Blocker","oid":"934051091","speedLimit":4.7222223},"geometry":{"type":"Polygon","coordinates":[[[-121.039511990491,50.4610296057111],[-121.039463949827,50.4607715755679],[-121.039016509514,50.4607921568646],[-121.039075398069,50.461044884403],[-121.039162885611,50.4608998267049],[-121.039378857274,50.4608867050048],[-121.039511990491,50.4610296057111]]]}},{"type":"Feature","id":"934181442","properties":{"name":"SP_30KPH_TR%_1590_3_SEPT 29_NS_Rough_section ","oid":"934181442","speedLimit":8.333333},"geometry":{"type":"Polygon","coordinates":[[[-121.011062478692,50.4415091894887],[-121.010401461705,50.4418073037293],[-121.011607268268,50.4432053040347],[-121.01227279347,50.4429312762024],[-121.011824648748,50.4429214798647],[-121.010901591779,50.4417730614846],[-121.011062478692,50.4415091894887]]]}},{"type":"Feature","id":"934181877","properties":{"name":"SP_30KPH_TR%_1590_7_SEPT 29_NS","oid":"934181877","speedLimit":8.333333},"geometry":{"type":"Polygon","coordinates":[[[-121.013995635911,50.44978583662],[-121.013325461613,50.4498807442589],[-121.013674002965,50.4515053185772],[-121.014402924937,50.4513828194183],[-121.013984506256,50.4512795534362],[-121.013707251049,50.450000547178],[-121.013995635911,50.44978583662]]]}},{"type":"Feature","id":"934182273","properties":{"name":"SP_30KPH_TR%_1590_17_SEPT 29_NS","oid":"934182273","speedLimit":8.333333},"geometry":{"type":"Polygon","coordinates":[[[-121.008849931424,50.4413697040194],[-121.009440930201,50.4411107751297],[-121.007220070912,50.4391735268761],[-121.006298563641,50.4396569626616],[-121.007076230685,50.4394768538469],[-121.008914032602,50.4411152688626],[-121.008849931424,50.4413697040194]]]}},{"type":"Feature","id":"934859271","properties":{"name":"SP_30KPH_%TR_23SH_LOADED_LANES2_SEP_29_NS","oid":"934859271","speedLimit":8.333333},"geometry":{"type":"Polygon","coordinates":[[[-121.04049844423,50.4654083889243],[-121.040444345653,50.4651300471084],[-121.039927732419,50.4634422010309],[-121.039469866859,50.4634990916894],[-121.039719650132,50.4635597570836],[-121.040034943401,50.4645694089917],[-121.04027697818,50.4653841227666],[-121.040002681489,50.4654675264493],[-121.04049844423,50.4654083889243]]]}},{"type":"Feature","id":"934859421","properties":{"name":"SP_30KPH_%TR_23SH_LOADED_LANES1_SEP_29_NS","oid":"934859421","speedLimit":8.333333},"geometry":{"type":"Polygon","coordinates":[[[-121.040688071012,50.4664763694855],[-121.040510419175,50.4663966506638],[-121.040353476949,50.466311988736],[-121.040359534863,50.4660656422984],[-121.040449980921,50.4657768750222],[-121.040516336207,50.4655112954077],[-121.040496753649,50.4654082990496],[-121.040012543209,50.4654843330103],[-121.040283176976,50.4655169575112],[-121.04024485715,50.4657153108814],[-121.040100030752,50.4659577927088],[-121.039979295125,50.4662195975875],[-121.040160328124,50.4664852670766],[-121.040469704361,50.4666104624753],[-121.040352349896,50.4667716077371],[-121.040688071012,50.4664763694855]]]}},{"type":"Feature","id":"936169885","properties":{"name":"SP_15KPH_%TR_24shl_loadplan_Sept_29_NS","oid":"936169885","speedLimit":4.1666665},"geometry":{"type":"Polygon","coordinates":[[[-121.038737141081,50.4550728032525],[-121.03804865216,50.4548564749506],[-121.037412853,50.4555983003779],[-121.037844232798,50.45581849329],[-121.03838874061,50.4556977017496],[-121.038576676813,50.4556101638327],[-121.038585975005,50.4552048291251],[-121.038737141081,50.4550728032525]]]}},{"type":"Feature","id":"936513295","properties":{"name":"SP_30KPH_%TR_1635_FLATS_SEP_29_NS","oid":"936513295","speedLimit":8.333333},"geometry":{"type":"Polygon","coordinates":[[[-121.017285928267,50.455555160542],[-121.018050070667,50.4557851497919],[-121.017433994945,50.4574537626926],[-121.015227082945,50.4585168900223],[-121.014498301855,50.4578795888223],[-121.016177330085,50.4566193663676],[-121.017285928267,50.455555160542]]]}},{"type":"Feature","id":"938065675","properties":{"name":"iSP_8KPH_CR01_YARD_RUTIING_SEP_30_DS","oid":"938065675","speedLimit":2.2222223},"geometry":{"type":"Polygon","coordinates":[[[-121.034288519299,50.4648011058601],[-121.03409832899,50.464857906644],[-121.033940118828,50.4649068883326],[-121.033828681395,50.4650048517098],[-121.034043526004,50.4650687525917],[-121.033963505192,50.4650112328105],[-121.034241887453,50.4648880146544],[-121.034318527103,50.464937265967],[-121.034288519299,50.4648011058601]]]}},{"type":"Feature","id":"938165680","properties":{"name":"SP_10KPH_%TR_22SH_Sept_30_DS","oid":"938165680","speedLimit":2.7777777},"geometry":{"type":"Polygon","coordinates":[[[-121.034079732604,50.4466113738242],[-121.035054493161,50.447250562392],[-121.035496298206,50.4474472980184],[-121.035794403906,50.4469121843046],[-121.034854159368,50.4461953440323],[-121.034079732604,50.4466113738242]]]}},{"type":"Feature","id":"945606742","properties":{"name":"SP_20KPH_19SH_SEPT 29_NS","oid":"945606742","speedLimit":5.5555553},"geometry":{"type":"Polygon","coordinates":[[[-121.003173807296,50.4271972793222],[-121.00272453552,50.4276021646566],[-121.002069999092,50.4273943744472],[-121.002381770318,50.42704673927],[-121.003173807296,50.4271972793222]]]}},{"type":"Feature","id":"948238095","properties":{"name":"SP_30KPH_CRUSHER YARD_SEPT_29_NS","oid":"948238095","speedLimit":8.333333},"geometry":{"type":"Polygon","coordinates":[[[-121.035558145277,50.4644267779094],[-121.035667469484,50.4645726444794],[-121.036764092721,50.4642006532699],[-121.036575170347,50.4640971176638],[-121.035955713465,50.4643168612027],[-121.035558145277,50.4644267779094]]]}},{"type":"Feature","id":"948333262","properties":{"name":"SP_15KPH_19SH_SEP_30_DS","oid":"948333262","speedLimit":4.1666665},"geometry":{"type":"Polygon","coordinates":[[[-121.001736250319,50.4276538425849],[-121.002116490056,50.427400755548],[-121.001865297966,50.4271372430507],[-121.00167045856,50.4267523098904],[-121.002057742383,50.4262431699527],[-121.001738504426,50.4261428698344],[-121.001125809866,50.42652771312],[-121.001736250319,50.4276538425849]]]}},{"type":"Feature","id":"949425853","properties":{"name":"SP_25KPH_BUMPS_SEPT 30_DS","oid":"949425853","speedLimit":6.9444447},"geometry":{"type":"Polygon","coordinates":[[[-121.009260319848,50.4399087914534],[-121.00871369881,50.4402507645271],[-121.009638728123,50.4408945367025],[-121.010327217044,50.4414478050972],[-121.010779165572,50.4419272863978],[-121.011094599722,50.4423463719281],[-121.011835637521,50.4421183599207],[-121.011425671743,50.4421284258824],[-121.010700412696,50.441390824564],[-121.009743825879,50.4405491483917],[-121.00915508121,50.4401300628614],[-121.009260319848,50.4399087914534]]]}},{"type":"Feature","id":"949509237","properties":{"name":"SP_15KPH_%TR_24SH__LANE_SEP_30_DS1","oid":"949509237","speedLimit":4.1666665},"geometry":{"type":"Polygon","coordinates":[[[-121.038500037162,50.4535461024367],[-121.038401701728,50.4537048210828],[-121.038103736909,50.454821693458],[-121.038681774569,50.4548349050327],[-121.039163026493,50.4537169541616],[-121.038500037162,50.4535461024367]]]}}]}