{"type":"FeatureCollection","features":[{"type":"Feature","id":"702602533","properties":{"name":"iSP_4KPH_%TR_CR01_Slow Bump","oid":"702602533","speedLimit":1.1111112},"geometry":{"type":"Polygon","coordinates":[[[-121.033356000038,50.4648077498583],[-121.033650736814,50.4646907324928],[-121.033694130182,50.464731445908],[-121.03336628483,50.4648695839194],[-121.033356000038,50.4648077498583]]]}},{"type":"Feature","id":"707947583","properties":{"name":"iSP_25KPH_%TR_Permission Gate 1 From West Dump","oid":"707947583","speedLimit":6.9444447},"geometry":{"type":"Polygon","coordinates":[[[-121.038625476556,50.4619778529395],[-121.03885216464,50.4617993610133],[-121.038137160274,50.4614081347521],[-121.037989510111,50.4616708396364],[-121.038189006896,50.4615667642837],[-121.03866393886,50.4618459163093],[-121.038625476556,50.4619778529395]]]}},{"type":"Feature","id":"742345972","properties":{"name":"iSP_4KPH_%TR_CR01_Pit Side_Slow Bump","oid":"742345972","speedLimit":1.1111112},"geometry":{"type":"Polygon","coordinates":[[[-121.033395871218,50.4648827056823],[-121.033703146986,50.4647442081706],[-121.033753302958,50.4647762935773],[-121.033471809613,50.4649182063424],[-121.033395871218,50.4648827056823]]]}},{"type":"Feature","id":"776427243","properties":{"name":"iSP_7KPH_%TR_CR1_PermissionBlocker","oid":"776427243","speedLimit":1.9444444},"geometry":{"type":"Polygon","coordinates":[[[-121.034097068604,50.4652127270081],[-121.034048603283,50.4652330387782],[-121.034027470149,50.4652744711941],[-121.034113129786,50.4652253993956],[-121.034097068604,50.4652127270081]]]}},{"type":"Feature","id":"794004438","properties":{"name":"iSP_11KPH_%TR_Lower_Fuel_Bay","oid":"794004438","speedLimit":3.0555556},"geometry":{"type":"Polygon","coordinates":[[[-121.036773791356,50.4606953354234],[-121.036775904669,50.4607251739528],[-121.036746177394,50.4606707096491],[-121.037122347179,50.4605989893283],[-121.037532329979,50.4605559391608],[-121.037540078794,50.4605812839358],[-121.03694158844,50.4606501282538],[-121.036773791356,50.4606953354234]]]}},{"type":"Feature","id":"801543391","properties":{"name":"iSP_4KPH_%TR_CR01_PermissionBlocker_2","oid":"801543391","speedLimit":1.1111112},"geometry":{"type":"Polygon","coordinates":[[[-121.033152558402,50.4645232053274],[-121.033151713076,50.4644737740286],[-121.033173268873,50.4644317124871],[-121.033105220182,50.4644593041393],[-121.033152558402,50.4645232053274]]]}},{"type":"Feature","id":"806473874","properties":{"name":"iSP_4KPH_%TR_CR04_PermissionBlocker","oid":"806473874","speedLimit":1.1111112},"geometry":{"type":"Polygon","coordinates":[[[-121.02271673506,50.481545097757],[-121.022683626483,50.4815427610047],[-121.022676018555,50.481571431158],[-121.022698137902,50.4815725096591],[-121.022702223641,50.4815484231353],[-121.02271673506,50.481545097757]]]}},{"type":"Feature","id":"824566967","properties":{"name":"iSP_3KPH_%TR_CR04","oid":"824566967","speedLimit":0.8333333},"geometry":{"type":"Polygon","coordinates":[[[-121.023299586895,50.4810682205362],[-121.023279439974,50.4810682205362],[-121.023276763111,50.4811863164028],[-121.023301841096,50.4811855974021],[-121.023299586895,50.4810682205362]]]}},{"type":"Feature","id":"826307302","properties":{"name":"iSP_4KPH_%TR_CR04_Pockets","oid":"826307302","speedLimit":1.1111112},"geometry":{"type":"Polygon","coordinates":[[[-121.023294796718,50.4813213986612],[-121.023334245235,50.4814770623149],[-121.02353895486,50.4814376071509],[-121.023457944513,50.4811887430302],[-121.023049652364,50.4811894620309],[-121.023055006091,50.4813601348244],[-121.023279862637,50.4813261620409],[-121.023294796718,50.4813213986612]]]}},{"type":"Feature","id":"883050998","properties":{"name":"iSP_22KPH_%TR_4CR_Brake_Temp_Ctrl","oid":"883050998","speedLimit":6.111111},"geometry":{"type":"Polygon","coordinates":[[[-121.031796233862,50.47455892736],[-121.03218550619,50.4743123101166],[-121.032487146456,50.4745746555006],[-121.032788786722,50.474802039475],[-121.032966586823,50.4748844549314],[-121.033175382187,50.4749346052309],[-121.03345927062,50.4749594107554],[-121.033663134919,50.4749218429683],[-121.033824310288,50.4748624355347],[-121.033915464539,50.4748103978583],[-121.034004787252,50.4747472156709],[-121.034055224999,50.4746580595829],[-121.034049448609,50.4745478727241],[-121.034053252573,50.4744835221606],[-121.033991121159,50.4743795366829],[-121.033872775608,50.4742594635644],[-121.033505904402,50.4739375309966],[-121.033057600186,50.4735598758737],[-121.032944326588,50.4734253328659],[-121.032819359323,50.473220777164],[-121.032602533368,50.4728148113882],[-121.03224904648,50.47220887354],[-121.03248404693,50.4721560269878],[-121.032426987468,50.4722055481617],[-121.032899524344,50.4730487562441],[-121.033038721253,50.4733094838765],[-121.033246530404,50.4735468439859],[-121.033739495977,50.4739615276453],[-121.034094532628,50.4742710574508],[-121.034199916523,50.4743943660726],[-121.03425260847,50.4744615926389],[-121.034259652848,50.4745927203934],[-121.03423471575,50.4746787308533],[-121.034180192264,50.4747915240897],[-121.034082698073,50.4748757370478],[-121.033969847137,50.4749375711088],[-121.03378725686,50.4750160320613],[-121.033527741974,50.475064294984],[-121.033259773835,50.4750679798626],[-121.033068166753,50.4750261879463],[-121.032804425241,50.474916450463],[-121.032653675552,50.4748350236326],[-121.032492077521,50.4747052440045],[-121.032141549272,50.4744129702159],[-121.031796233862,50.47455892736]]]}},{"type":"Feature","id":"883053336","properties":{"name":"iSP_22KPH_%TR_Brake_Temp_Ctrl","oid":"883053336","speedLimit":6.111111},"geometry":{"type":"Polygon","coordinates":[[[-121.032462772908,50.4721451521021],[-121.032247919379,50.4722254105563],[-121.031485295017,50.4710082322297],[-121.030813402244,50.4699232601585],[-121.030658144153,50.4696601058987],[-121.030593335875,50.4694576173238],[-121.030546983868,50.4692566566254],[-121.030593335875,50.4689728310952],[-121.030719571129,50.4686242056261],[-121.030881310048,50.4683754313805],[-121.031085737897,50.4680977173563],[-121.031685073577,50.4675364474272],[-121.032428959894,50.4668935709175],[-121.032785264533,50.4665560899594],[-121.033144386923,50.4662222938798],[-121.033481249079,50.4658706126576],[-121.03377626763,50.4660340055689],[-121.033584237886,50.4659932022786],[-121.032916149076,50.466651986679],[-121.032551391183,50.4669911752639],[-121.032175362286,50.4673076254513],[-121.031771155876,50.4676682941824],[-121.031378784022,50.4680343554187],[-121.031143924459,50.4682862752924],[-121.031005572875,50.4684698002236],[-121.030901879631,50.4686544036559],[-121.030825377686,50.4688529377269],[-121.03076451426,50.4691912275608],[-121.030773249289,50.4694005466425],[-121.030870461705,50.4696302673693],[-121.031024451808,50.4699350337952],[-121.031327360062,50.4704037323829],[-121.031527420398,50.4707109254362],[-121.031747064104,50.4710828285533],[-121.03214281726,50.471728760816],[-121.032378099485,50.472145062227],[-121.032462772908,50.4721451521021]]]}},{"type":"Feature","id":"883059532","properties":{"name":"iSP_22KPH_%TR_Brake_Ctrl","oid":"883059532","speedLimit":6.111111},"geometry":{"type":"Polygon","coordinates":[[[-121.027259090881,50.4773219572128],[-121.027026908182,50.4772097931021],[-121.027331366199,50.4769440324647],[-121.027713312374,50.4766324355321],[-121.028030027609,50.4763227259763],[-121.028187258126,50.4761687699493],[-121.028618092284,50.475692342104],[-121.028904094031,50.4753257416171],[-121.029260680445,50.4748876005595],[-121.029469475809,50.4746567114566],[-121.02968827419,50.4745404130918],[-121.029798307374,50.4744881956652],[-121.029949057063,50.4745926305183],[-121.029785486606,50.4745420308434],[-121.029552881245,50.4747915240897],[-121.029248705003,50.4751730438413],[-121.029069777801,50.4754779900174],[-121.028849993208,50.4757747575604],[-121.028692903579,50.4759747296328],[-121.028405774731,50.4762705984249],[-121.028038480862,50.4765699723454],[-121.027240775498,50.4772194097366],[-121.027259090881,50.4773219572128]]]}},{"type":"Feature","id":"884401102","properties":{"name":"iSP_30KPH_%TR_Maint_Limit_Policy","oid":"884401102","speedLimit":8.333333},"geometry":{"type":"Polygon","coordinates":[[[-121.036989349323,50.4611012113241],[-121.037105440672,50.4611076823305],[-121.038291713927,50.4609920130913],[-121.03827537097,50.4603978488797],[-121.038116872465,50.4605657355454],[-121.037029784052,50.4607083673113],[-121.036742091655,50.4605376945178],[-121.036989349323,50.4611012113241]]]}},{"type":"Feature","id":"910445950","properties":{"name":"SP_22KPH_%TR_1635_FLATS_OCT_2_NS","oid":"910445950","speedLimit":6.111111},"geometry":{"type":"Polygon","coordinates":[[[-121.017366670857,50.4554937247882],[-121.017999819552,50.4544140553473],[-121.018145074626,50.4539983830619],[-121.018529697665,50.4537514063181],[-121.01894573863,50.4536879545055],[-121.018863601182,50.4543415261507],[-121.018258770887,50.4560719811091],[-121.018272859643,50.4557007071175],[-121.017366670857,50.4554937247882]]]}},{"type":"Feature","id":"915576987","properties":{"name":"iSP_15KPH_%TR_Preventing Shifting","oid":"915576987","speedLimit":4.1666665},"geometry":{"type":"Polygon","coordinates":[[[-121.036994843937,50.4448631195433],[-121.037508942644,50.4453130342374],[-121.037978239106,50.4457954837137],[-121.038522205975,50.4462187953816],[-121.039454881622,50.4468498982547],[-121.039912202642,50.4470996611262],[-121.040468144953,50.4471950185954],[-121.041221329849,50.4473227310965],[-121.041639765902,50.4475095814059],[-121.042318280391,50.4480950277339],[-121.042700931004,50.4485277762861],[-121.04284435454,50.4487947951748],[-121.043005811684,50.4493915657639],[-121.04318502066,50.4501981048102],[-121.043322526918,50.4505012534844],[-121.043684185285,50.4511686658933],[-121.043854659232,50.4514889807096],[-121.044123613584,50.4522535480894],[-121.044380733381,50.4529381266402],[-121.044694489977,50.4537980514891],[-121.044733374944,50.4541946702557],[-121.044568959161,50.4550717612466],[-121.04421335896,50.4568392447415],[-121.044048943178,50.4572072832299],[-121.043002712157,50.4583989370313],[-121.041902802977,50.4595372949051],[-121.041340943387,50.4600006009875],[-121.040369523661,50.4605974614518],[-121.039921078558,50.4607309259585],[-121.039131967335,50.4608071400338],[-121.038494592013,50.4608386861899],[-121.038642383064,50.4611434526158],[-121.038755233999,50.4609495021743],[-121.039876276314,50.4608796692304],[-121.040704272504,50.4606317937357],[-121.041508317809,50.460057851419],[-121.042871264064,50.4587001983287],[-121.044240127596,50.4571423934158],[-121.044425535625,50.4562901079494],[-121.044811144877,50.4544215149796],[-121.044808045351,50.4537865474778],[-121.044258161204,50.4523012717615],[-121.043830708347,50.4511858320353],[-121.043343519165,50.4503373213226],[-121.043047655289,50.449309599683],[-121.042925083112,50.4486917983231],[-121.042237551819,50.4478871466537],[-121.041544103249,50.4473913956643],[-121.041089740868,50.4472217114967],[-121.040456169511,50.4471302186564],[-121.03991516128,50.4470195824222],[-121.038818210739,50.4463332063696],[-121.038193515298,50.445871697789],[-121.037150383804,50.4449068887115],[-121.037374535912,50.4446972101295],[-121.036994843937,50.4448631195433]]]}},{"type":"Feature","id":"917773475","properties":{"name":"SP_15KPH_%TR_1200_CORNER_OCT_2_NS","oid":"917773475","speedLimit":4.1666665},"geometry":{"type":"Polygon","coordinates":[[[-121.03709571943,50.4446823807398],[-121.036921582406,50.4448619511671],[-121.036626000305,50.4448204288761],[-121.036411428552,50.4448697702998],[-121.036319851638,50.4449674645213],[-121.036251239396,50.4450819653843],[-121.036238982178,50.4451447880713],[-121.036260115312,50.4452671080671],[-121.03631280726,50.4453513210252],[-121.036180936503,50.4453950901934],[-121.0360858374,50.445194129495],[-121.036159803369,50.4449315144858],[-121.036256593123,50.4447912194723],[-121.036513431145,50.4447149155219],[-121.036710532841,50.4447115901437],[-121.036919891755,50.4447699190762],[-121.037090506591,50.4446834592409],[-121.03709571943,50.4446823807398]]]}},{"type":"Feature","id":"929009157","properties":{"name":"iSP_22KPH_%TR_Long_Single_Lane","oid":"929009157","speedLimit":6.111111},"geometry":{"type":"Polygon","coordinates":[[[-121.005677652669,50.4380558005728],[-121.004747935661,50.4382238669887],[-121.005172429879,50.4381973538376],[-121.007932698954,50.4431703222471],[-121.008521468067,50.444534715969],[-121.008208556797,50.4465095412937],[-121.007830555473,50.446680034337],[-121.008932014417,50.4466467805542],[-121.008821276795,50.4465927656258],[-121.009401310879,50.4448174629982],[-121.008762385795,50.4430682241463],[-121.008260685194,50.4415399881375],[-121.007257143104,50.4401560016462],[-121.00643745928,50.438983850739],[-121.005858411409,50.4383128433266],[-121.005677652669,50.4380558005728]]]}},{"type":"Feature","id":"932268643","properties":{"name":"SP_35KPH_%traction_1185_1170_OCT_2_NS","oid":"932268643","speedLimit":9.722222},"geometry":{"type":"Polygon","coordinates":[[[-121.038725929387,50.4481973055849],[-121.0384641603,50.4482555446424],[-121.03894402333,50.4498291675709],[-121.039503206055,50.4497912402835],[-121.039102662722,50.4497304847235],[-121.038618854841,50.4483440716048],[-121.038848924227,50.4481593782974],[-121.038725929387,50.4481973055849]]]}},{"type":"Feature","id":"933371104","properties":{"name":"SP_17KPH_%TR_1590_HMT_INTERSECT_OCT_2_NS","oid":"933371104","speedLimit":4.7222223},"geometry":{"type":"Polygon","coordinates":[[[-121.006357435146,50.437488688763],[-121.005859679397,50.4376811113279],[-121.005940830631,50.4378151150852],[-121.006250501488,50.4380937278603],[-121.006602579501,50.4383161687049],[-121.0071597898,50.4382766236658],[-121.006788269305,50.4381830636985],[-121.006114263218,50.4376595413066],[-121.006357435146,50.437488688763]]]}},{"type":"Feature","id":"934051091","properties":{"name":"iSP_17KPH_%TR_Ramp_Permission Blocker","oid":"934051091","speedLimit":4.7222223},"geometry":{"type":"Polygon","coordinates":[[[-121.03950982777,50.4610295808784],[-121.039461785112,50.4607715494986],[-121.039014326222,50.460792130894],[-121.039073217222,50.4610448596435],[-121.039160708397,50.4608998012502],[-121.039376689026,50.4608866794873],[-121.03950982777,50.4610295808784]]]}},{"type":"Feature","id":"936169885","properties":{"name":"SP_10KPH_%TR_24shl_loadplan_OCT_2_NS","oid":"936169885","speedLimit":2.7777777},"geometry":{"type":"Polygon","coordinates":[[[-121.038969101315,50.454907110084],[-121.038046428685,50.454856420534],[-121.037410603127,50.4555982495164],[-121.037842000835,50.4558184434838],[-121.038386531255,50.4556976513645],[-121.03857447526,50.4556101130281],[-121.038690707497,50.4552655319379],[-121.038969101315,50.454907110084]]]}},{"type":"Feature","id":"936513295","properties":{"name":"SP_30KPH_%TR_1635_FLATS_OCT_2_NS","oid":"936513295","speedLimit":8.333333},"geometry":{"type":"Polygon","coordinates":[[[-121.017282842759,50.4555551094738],[-121.018047016885,50.4557850998258],[-121.017430915585,50.4574537207232],[-121.015223911958,50.4585168531477],[-121.01449510061,50.4578795488936],[-121.01617419855,50.4566193203994],[-121.017282842759,50.4555551094738]]]}},{"type":"Feature","id":"938065675","properties":{"name":"iSP_8KPH_CR01_YARD_RUTIING_OCT_2_NS","oid":"938065675","speedLimit":2.2222223},"geometry":{"type":"Polygon","coordinates":[[[-121.034286139709,50.4648010991018],[-121.034095941503,50.4648579001578],[-121.033937724774,50.4649068820812],[-121.033826282714,50.4650048459279],[-121.034041136243,50.465068747116],[-121.033961112109,50.4650112270592],[-121.034239505927,50.4648880083126],[-121.03431614876,50.4649372598612],[-121.034286139709,50.4648010991018]]]}},{"type":"Feature","id":"938165680","properties":{"name":"SP_10KPH_%TR_22SH_OCT_2_NS","oid":"938165680","speedLimit":2.7777777},"geometry":{"type":"Polygon","coordinates":[[[-121.034077344346,50.4466112798941],[-121.035052145373,50.4472504715251],[-121.035493968761,50.4474472080944],[-121.035792086838,50.4469120918161],[-121.034851803263,50.4461952481084],[-121.034077344346,50.4466112798941]]]}},{"type":"Feature","id":"944724443","properties":{"name":"SP_10KPH_%TR_21SH_EMPTY_OCT_2_NS","oid":"944724443","speedLimit":2.7777777},"geometry":{"type":"Polygon","coordinates":[[[-121.039131544672,50.4501830057952],[-121.038909646765,50.4501671877796],[-121.038924721734,50.4505368440196],[-121.038948390844,50.4512094691836],[-121.039434171151,50.4515126178579],[-121.039939253053,50.4513548870772],[-121.039707774792,50.4511094382098],[-121.039502501617,50.4509152181431],[-121.039101394734,50.4503564647165],[-121.039081529588,50.4502968775327],[-121.039131544672,50.4501830057952]]]}},{"type":"Feature","id":"948333262","properties":{"name":"SP_15KPH_%TR_19SH_LOADAREA_OCT_2_NS","oid":"948333262","speedLimit":4.1666665},"geometry":{"type":"Polygon","coordinates":[[[-121.001825645892,50.4258158919891],[-121.001353672566,50.4259954624164],[-121.001487374861,50.426292859085],[-121.001511748409,50.4266962184832],[-121.001607974612,50.4268353451206],[-121.001751961698,50.426952272611],[-121.001945541206,50.4270054786635],[-121.00235411513,50.4268576341426],[-121.001825645892,50.4258158919891]]]}},{"type":"Feature","id":"949509237","properties":{"name":"SP_20KPH_%TR_24SH__LANE_OCT_2_NS","oid":"949509237","speedLimit":5.5555553},"geometry":{"type":"Polygon","coordinates":[[[-121.038497832427,50.4535460417404],[-121.03839949291,50.453704761147],[-121.038101515721,50.4548216388747],[-121.038986571373,50.454813819742],[-121.039315684713,50.4537390934309],[-121.038497832427,50.4535460417404]]]}},{"type":"Feature","id":"950380359","properties":{"name":"SP_20KPH_%TR_EMPTY_23SH_SOFT_OCT_2_NS","oid":"950380359","speedLimit":5.5555553},"geometry":{"type":"Polygon","coordinates":[[[-121.038897671322,50.4647303674069],[-121.038783270624,50.4646501089527],[-121.038306084458,50.4649202734694],[-121.038374837587,50.4649519993757],[-121.038779325772,50.4647035846305],[-121.038890063394,50.4647279407795],[-121.038897671322,50.4647303674069]]]}},{"type":"Feature","id":"950427531","properties":{"name":"SP_15KPH_%TR_1590_DUMP_HEAD_OCT_2_NS","oid":"950427531","speedLimit":4.1666665},"geometry":{"type":"Polygon","coordinates":[[[-121.014466782211,50.4503498139599],[-121.014249956256,50.4491357812614],[-121.014358439677,50.4478526346196],[-121.014447057952,50.4473997540475],[-121.013687814891,50.4470537349559],[-121.01354988597,50.4483118064479],[-121.013944230251,50.45053226039],[-121.014555541373,50.4504253090344],[-121.014466782211,50.4503498139599]]]}}]}