{"type":"FeatureCollection","features":[{"type":"Feature","id":"702602533","properties":{"name":"iSP_4KPH_%TR_CR01_SLOW BUMP","oid":"702602533","speedLimit":1.1111112},"geometry":{"type":"Polygon","coordinates":[[[-121.033337483226,50.4648103319256],[-121.033632195894,50.4646933139189],[-121.033675585713,50.4647340275572],[-121.033347767177,50.4648721663255],[-121.033337483226,50.4648103319256]]]}},{"type":"Feature","id":"707947583","properties":{"name":"iSP_22KPH_%TR_Permission Gate 1 from west dump_Jun","oid":"707947583","speedLimit":6.111111},"geometry":{"type":"Polygon","coordinates":[[[-121.038606528729,50.4619804195008],[-121.038833198271,50.4618019265965],[-121.037959062467,50.4613534474464],[-121.037721968098,50.4615447026832],[-121.037938071938,50.4614989560123],[-121.038644987887,50.4618484821476],[-121.038606528729,50.4619804195008]]]}},{"type":"Feature","id":"742345972","properties":{"name":"iSP_4KPH_%TR_CR01_PITSIDE_SLOW BUMP","oid":"742345972","speedLimit":1.1111112},"geometry":{"type":"Polygon","coordinates":[[[-121.033377351144,50.4648852881603],[-121.033684601779,50.4647467898897],[-121.033734753648,50.4647788754722],[-121.033453283328,50.4649207890149],[-121.033377351144,50.4648852881603]]]}},{"type":"Feature","id":"776427243","properties":{"name":"iSP_7KPH_%TR_CR1_PermissionBlocker_DO_NOT_DELETE","oid":"776427243","speedLimit":1.9444444},"geometry":{"type":"Polygon","coordinates":[[[-121.034078491176,50.4652153112945],[-121.03403002982,50.4652356231758],[-121.034008898414,50.4652770558187],[-121.034094551044,50.4652279837514],[-121.034078491176,50.4652153112945]]]}},{"type":"Feature","id":"794004438","properties":{"name":"iSP_11KPH_%TR_LOWER_FUEL_BAY","oid":"794004438","speedLimit":3.0555556},"geometry":{"type":"Polygon","coordinates":[[[-121.036754994986,50.4606978949572],[-121.036757108127,50.4607277336501],[-121.036727383283,50.4606732690479],[-121.0371035223,50.4606015483342],[-121.037513471565,50.4605584979308],[-121.037521219747,50.4605838428447],[-121.036922778345,50.4606526875399],[-121.036754994986,50.4606978949572]]]}},{"type":"Feature","id":"801543391","properties":{"name":"iSP_4KPH_%TR_CR1_PermissionBlocker_DO_NOT_DELETE_","oid":"801543391","speedLimit":1.1111112},"geometry":{"type":"Polygon","coordinates":[[[-121.03313405823,50.4645257858356],[-121.033133212974,50.4644763542659],[-121.033154767007,50.4644342924939],[-121.033086723882,50.4644618842974],[-121.03313405823,50.4645257858356]]]}},{"type":"Feature","id":"806473874","properties":{"name":"iSP_4KPH_%TR_Permission Blocker - DO NOT DELETE","oid":"806473874","speedLimit":1.1111112},"geometry":{"type":"Polygon","coordinates":[[[-121.022699088482,50.4815477715347],[-121.022665982614,50.4815454347696],[-121.022658375308,50.48157410508],[-121.022680492845,50.481575183587],[-121.02268457825,50.4815510969312],[-121.022699088482,50.4815477715347]]]}},{"type":"Feature","id":"824566967","properties":{"name":"iSP_4Cr_3KPH","oid":"824566967","speedLimit":0.8333333},"geometry":{"type":"Polygon","coordinates":[[[-121.023281892644,50.4810708917009],[-121.02326174737,50.4810708917009],[-121.023259070726,50.4811889882146],[-121.02328414666,50.48118826921],[-121.023281892644,50.4810708917009]]]}},{"type":"Feature","id":"826307302","properties":{"name":"iSP_4KPH_TR%_CRUSHER POCKETS","oid":"826307302","speedLimit":1.1111112},"geometry":{"type":"Polygon","coordinates":[[[-121.023277102858,50.4813240712131],[-121.023316548148,50.4814797357198],[-121.023521241029,50.4814402803396],[-121.023440237308,50.4811914148553],[-121.023031978555,50.48119213386],[-121.023037331845,50.4813628075886],[-121.023262169998,50.4813288346189],[-121.023277102858,50.4813240712131]]]}},{"type":"Feature","id":"849417440","properties":{"name":"iSP_Permissions_35_KPH_June_19_NS","oid":"849417440","speedLimit":9.722222},"geometry":{"type":"Polygon","coordinates":[[[-121.032674097972,50.4660365943554],[-121.032988674161,50.4660172711054],[-121.033195621058,50.4658163991814],[-121.033784342013,50.465381940622],[-121.03370516968,50.4652531489141],[-121.033941277917,50.4654026120057],[-121.033405103723,50.465810916771],[-121.033002761764,50.4661904613503],[-121.032674097972,50.4660365943554]]]}},{"type":"Feature","id":"853029148","properties":{"name":"SP_30KPH_%TR_1635 Flats_July_27_DS","oid":"853029148","speedLimit":8.333333},"geometry":{"type":"Polygon","coordinates":[[[-121.018570011863,50.4569732711216],[-121.017388907176,50.4572920598081],[-121.016410523106,50.45845990311],[-121.018329113842,50.4588954401765],[-121.020672023198,50.45898953991],[-121.020220374626,50.4572340900582],[-121.019402730113,50.4570989171841],[-121.018948545772,50.4570023009343],[-121.018570011863,50.4569732711216]]]}},{"type":"Feature","id":"883050998","properties":{"name":"iSP_22kph_%TR_4CR_Brake_Temp_CTRL_NOREMOVE","oid":"883050998","speedLimit":6.111111},"geometry":{"type":"Polygon","coordinates":[[[-121.03177784463,50.4745615628578],[-121.032167085118,50.474314944263],[-121.032468700711,50.4745772910845],[-121.032770316305,50.4748046763049],[-121.032948101862,50.4748870922129],[-121.033156880148,50.4749372427872],[-121.033440745361,50.4749620484476],[-121.033644592985,50.4749244804546],[-121.03380575517,50.4748650726955],[-121.033896901966,50.474813034734],[-121.033986217372,50.4747498522004],[-121.034036650993,50.4746606956238],[-121.034030875076,50.4745505081613],[-121.034034678729,50.4744861572452],[-121.033972552397,50.4743821711977],[-121.033854216527,50.4742620974213],[-121.033487375328,50.4739401630895],[-121.033039107782,50.4735625058973],[-121.032925843449,50.4734279621523],[-121.032800886404,50.4732234053295],[-121.032584078185,50.4728174373293],[-121.03223062021,50.4722114961609],[-121.032465601438,50.4721586493192],[-121.032408546644,50.4722081707644],[-121.032881044869,50.4730513834671],[-121.033020230393,50.4733121125281],[-121.033228022546,50.473549473938],[-121.033720947796,50.4739641598696],[-121.034075955407,50.4742736913712],[-121.034181330682,50.4743970006686],[-121.03423401832,50.4744642276034],[-121.034241062122,50.4745953560763],[-121.034216127063,50.4746813670075],[-121.034161608037,50.4747941608619],[-121.03406412182,50.4748783742815],[-121.033951280115,50.4749402086813],[-121.033768704773,50.4750186700637],[-121.033509211114,50.4750669332508],[-121.033241264893,50.4750706181496],[-121.033049673484,50.4750288260044],[-121.032785953545,50.4749190879198],[-121.032635216186,50.4748376606432],[-121.032473631373,50.474707880304],[-121.032123131795,50.4744156049139],[-121.03177784463,50.4745615628578]]]}},{"type":"Feature","id":"883053336","properties":{"name":"iSP_22kph_%TR_Brake_Temp_CTRL_NOREMOVE","oid":"883053336","speedLimit":6.111111},"geometry":{"type":"Polygon","coordinates":[[[-121.032444329157,50.4721477743738],[-121.032229493202,50.4722280332678],[-121.031466931218,50.4710108482718],[-121.030795093402,50.4699258702557],[-121.03063984801,50.469662714554],[-121.030575045034,50.4694602248696],[-121.030528696818,50.46925926307],[-121.030575045034,50.4689754359846],[-121.030701269962,50.4686268086052],[-121.030862995652,50.4683780329965],[-121.03106740678,50.4681003174506],[-121.031666693438,50.4675390444461],[-121.032410518908,50.4668961644138],[-121.032766794404,50.4665586816065],[-121.03312588742,50.4662248836979],[-121.033462722022,50.4658732005488],[-121.033757716442,50.4660365943554],[-121.033565702405,50.4659957908415],[-121.032897668241,50.4666545788516],[-121.032532940184,50.466993769295],[-121.032156942043,50.4673102212164],[-121.031752768696,50.4676708919237],[-121.031360428935,50.4680369551659],[-121.031125588583,50.4682888764199],[-121.030987248315,50.4684724023567],[-121.030883563553,50.4686570068005],[-121.030807067865,50.4688555419593],[-121.030746209418,50.4691938336469],[-121.030754943732,50.4694031538755],[-121.030852148197,50.469632875861],[-121.031006125704,50.4699376439568],[-121.031309009182,50.4704063451127],[-121.031509053153,50.4707135398492],[-121.031728678894,50.4710854450042],[-121.032124399679,50.4717313808062],[-121.032359662659,50.4721476844982],[-121.032444329157,50.4721477743738]]]}},{"type":"Feature","id":"883059532","properties":{"name":"iSP_22kph_%TR_Brake_CTRL_NOREMOVE","oid":"883059532","speedLimit":6.111111},"geometry":{"type":"Polygon","coordinates":[[[-121.027241072763,50.4773246078503],[-121.027008909055,50.4772124431249],[-121.027313342169,50.4769466810314],[-121.027695257103,50.4766350823914],[-121.028011946432,50.4763253711386],[-121.028169164089,50.476171414268],[-121.028599963007,50.4756949838122],[-121.028885941361,50.4753283813165],[-121.029242498608,50.4748902378582],[-121.029451276894,50.4746593474901],[-121.029670057378,50.4745430484881],[-121.029780081562,50.4744908307754],[-121.029930818921,50.4745952662007],[-121.029767261843,50.4745446662485],[-121.029534675507,50.4747941608619],[-121.029230524145,50.4751756827041],[-121.029051611579,50.475480630551],[-121.028831844963,50.4757773997201],[-121.028674768182,50.4759773728882],[-121.028387662821,50.4762732433015],[-121.028020398995,50.4765726188625],[-121.027222758878,50.4772220598121],[-121.027241072763,50.4773246078503]]]}},{"type":"Feature","id":"886231481","properties":{"name":"SP_15KPH_%TR_1200_SWITCHBACK_July_27_DS","oid":"886231481","speedLimit":4.1666665},"geometry":{"type":"Polygon","coordinates":[[[-121.036887277584,50.4452298580568],[-121.036946304643,50.4446828752697],[-121.03626192886,50.4447481249416],[-121.036018072441,50.4452775819904],[-121.03650184075,50.4453477748193],[-121.036596227694,50.4451043917455],[-121.036750205201,50.4451336013093],[-121.036887277584,50.4452298580568]]]}},{"type":"Feature","id":"899288147","properties":{"name":"SP_30KPH_%TR_1185_BENCH_JULY_27_DS","oid":"899288147","speedLimit":8.333333},"geometry":{"type":"Polygon","coordinates":[[[-121.039737763299,50.4500585135317],[-121.039521236832,50.4496343007885],[-121.039817499136,50.449591699763],[-121.040128553423,50.4505456391818],[-121.040312114899,50.4509558313343],[-121.040178000912,50.4511955295093],[-121.039995425569,50.4506030696781],[-121.039737763299,50.4500585135317]]]}},{"type":"Feature","id":"902669831","properties":{"name":"SP_15KPH_%TR_22 shovel loaded_Jul_27_DS","oid":"902669831","speedLimit":4.1666665},"geometry":{"type":"Polygon","coordinates":[[[-121.035341303964,50.4461879317523],[-121.035486688033,50.4460789126723],[-121.03535708208,50.4463009053578],[-121.035208457862,50.4462545295579],[-121.034175132137,50.4459484133284],[-121.034426736737,50.4457290270347],[-121.034361792885,50.4458907132053],[-121.035341303964,50.4461879317523]]]}},{"type":"Feature","id":"902935346","properties":{"name":"SP_20KPH_%TRX_NEW LANES_July27_DS","oid":"902935346","speedLimit":5.5555553},"geometry":{"type":"Polygon","coordinates":[[[-121.039130164955,50.448282032794],[-121.039099031351,50.4482930874904],[-121.039054091896,50.4483261617043],[-121.039223988396,50.448728175179],[-121.039488271839,50.449270035058],[-121.039606185082,50.449586127477],[-121.039807919565,50.4495443353317],[-121.039686766174,50.4493158716044],[-121.039204688379,50.4483000977858],[-121.039130164955,50.448282032794]]]}},{"type":"Feature","id":"908328496","properties":{"name":"SP_15KPH_%TR_9019_SOFT_GROUND_July 27_DS","oid":"908328496","speedLimit":4.1666665},"geometry":{"type":"Polygon","coordinates":[[[-121.038977737084,50.4644914533636],[-121.039302315472,50.46470508762],[-121.039481368914,50.4648807943813],[-121.039369372465,50.4652180075619],[-121.038512987041,50.4663473841151],[-121.038083033379,50.4666005636273],[-121.038006678567,50.4662289280991],[-121.037859322234,50.4651424221981],[-121.038498335933,50.464816892843],[-121.038977737084,50.4644914533636]]]}},{"type":"Feature","id":"908575258","properties":{"name":"iSP_15km_permissions ","oid":"908575258","speedLimit":4.1666665},"geometry":{"type":"Polygon","coordinates":[[[-121.041847241064,50.4595528800529],[-121.041437150923,50.4599154381474],[-121.041061575411,50.4602085224176],[-121.040666277253,50.4604261111997],[-121.04032521637,50.4605868986144],[-121.039934848874,50.4607161397002],[-121.039495033889,50.4607822881279],[-121.039154113882,50.4607981062302],[-121.039099735732,50.4612142301711],[-121.039233145338,50.4609399298973],[-121.039781716623,50.4608485264313],[-121.040251115575,50.4607067027642],[-121.040918304482,50.4603945648707],[-121.041521113041,50.4599879677414],[-121.041921482735,50.4596537204549],[-121.042069684325,50.4595307706599],[-121.041921482735,50.4594929330402],[-121.041847241064,50.4595528800529]]]}},{"type":"Feature","id":"910445950","properties":{"name":"SP_30KPH_%TR_1635_FLATS_JULY27_DS","oid":"910445950","speedLimit":8.333333},"geometry":{"type":"Polygon","coordinates":[[[-121.020205160015,50.4571665036211],[-121.019024196204,50.4569636544344],[-121.018630588559,50.4569250079345],[-121.017434410136,50.4572340900582],[-121.018070324563,50.4544714045681],[-121.018751601074,50.4539015035077],[-121.018918257425,50.4535151283842],[-121.01953895724,50.4545197576307],[-121.020205160015,50.4571471803712],[-121.020190086279,50.4571471803712],[-121.020205160015,50.4571665036211]]]}},{"type":"Feature","id":"911981461","properties":{"name":"SP_20KPH_%TR_NEWLANES_21SH_1185_JULY_27_DS","oid":"911981461","speedLimit":5.5555553},"geometry":{"type":"Polygon","coordinates":[[[-121.040557098325,50.4504001306158],[-121.040405093082,50.4504234982669],[-121.040431296025,50.4507110102511],[-121.040394668256,50.4509015464833],[-121.04021646007,50.4512392989174],[-121.040436508438,50.4518777750461],[-121.040944930053,50.4517875399626],[-121.040468064671,50.4504769742377],[-121.040578088855,50.4504001306158],[-121.040557098325,50.4504001306158]]]}},{"type":"Feature","id":"912904239","properties":{"name":"SP_30KPH_%TR_1445_BENCH_JULY_27_DS","oid":"912904239","speedLimit":4.1666665},"geometry":{"type":"Polygon","coordinates":[[[-121.039438260846,50.4653060856315],[-121.039001263382,50.4653019513547],[-121.038544965901,50.4663802785778],[-121.038917723893,50.4664335747975],[-121.039438260846,50.4653060856315]]]}}]}