{"type":"FeatureCollection","features":[{"type":"Feature","id":"702602533","properties":{"name":"iSP_4KPH_%TR_CR01_Slow Bump","oid":"702602533","speedLimit":1.1111112},"geometry":{"type":"Polygon","coordinates":[[[-121.033357395313,50.4648082199168],[-121.033652123527,50.4646912026441],[-121.033695515635,50.464731916027],[-121.033367679806,50.4648700539287],[-121.033357395313,50.4648082199168]]]}},{"type":"Feature","id":"707947583","properties":{"name":"iSP_25KPH_%TR_Permission Gate 1 From West Dump","oid":"707947583","speedLimit":6.9444447},"geometry":{"type":"Polygon","coordinates":[[[-121.038626718771,50.4619783252445],[-121.03885340027,50.46179983346],[-121.038138416672,50.4614086075094],[-121.037990770798,50.4616713121852],[-121.038190261788,50.461567236915],[-121.038665179957,50.461846388719],[-121.038626718771,50.4619783252445]]]}},{"type":"Feature","id":"742345972","properties":{"name":"iSP_4KPH_%TR_CR01_Pit Side_Slow Bump","oid":"742345972","speedLimit":1.1111112},"geometry":{"type":"Polygon","coordinates":[[[-121.033397265334,50.4648831756812],[-121.033704532177,50.4647446782795],[-121.033754686692,50.4647767636607],[-121.033473201523,50.4649186763131],[-121.033397265334,50.4648831756812]]]}},{"type":"Feature","id":"776427243","properties":{"name":"iSP_7KPH_%TR_CR1_PermissionBlocker","oid":"776427243","speedLimit":1.9444444},"geometry":{"type":"Polygon","coordinates":[[[-121.034098442353,50.4652131967451],[-121.03404997844,50.465233508499],[-121.03402884592,50.465274940882],[-121.034114503068,50.4652258691225],[-121.034098442353,50.4652131967451]]]}},{"type":"Feature","id":"794004438","properties":{"name":"iSP_11KPH_%TR_Lower_Fuel_Bay","oid":"794004438","speedLimit":3.0555556},"geometry":{"type":"Polygon","coordinates":[[[-121.036775087355,50.4606958087465],[-121.036777200607,50.4607256472523],[-121.036747474195,50.4606711829918],[-121.037123633054,50.4605994627279],[-121.037533603945,50.4605564125946],[-121.037541352536,50.4605817573495],[-121.036942879565,50.4606506016128],[-121.036775087355,50.4606958087465]]]}},{"type":"Feature","id":"801543391","properties":{"name":"iSP_4KPH_%TR_CR01_PermissionBlocker_2","oid":"801543391","speedLimit":1.1111112},"geometry":{"type":"Polygon","coordinates":[[[-121.033153959586,50.4645236756117],[-121.033153114285,50.4644742443522],[-121.033174669455,50.464432182844],[-121.03310662274,50.4644597744744],[-121.033153959586,50.4645236756117]]]}},{"type":"Feature","id":"806473874","properties":{"name":"iSP_4KPH_%TR_CR04_PermissionBlocker","oid":"806473874","speedLimit":1.1111112},"geometry":{"type":"Polygon","coordinates":[[[-121.022718439368,50.4815455545283],[-121.022685331753,50.4815432177778],[-121.022677724046,50.4815718879084],[-121.02269984275,50.4815729664086],[-121.022703928371,50.4815488799039],[-121.022718439368,50.4815455545283]]]}},{"type":"Feature","id":"824566967","properties":{"name":"iSP_3KPH_%TR_CR04","oid":"824566967","speedLimit":0.8333333},"geometry":{"type":"Polygon","coordinates":[[[-121.023301274274,50.4810686776861],[-121.023281127938,50.4810686776861],[-121.023278451152,50.4811867734589],[-121.023303528409,50.4811860544587],[-121.023301274274,50.4810686776861]]]}},{"type":"Feature","id":"826307302","properties":{"name":"iSP_4KPH_%TR_CR04_Pockets","oid":"826307302","speedLimit":1.1111112},"geometry":{"type":"Polygon","coordinates":[[[-121.023296484236,50.48132185561],[-121.023335931607,50.4814775191401],[-121.023540635286,50.4814380640075],[-121.023459627292,50.4811892000844],[-121.023051347002,50.4811899190845],[-121.023056700574,50.4813605917425],[-121.023281550588,50.4813266189859],[-121.023296484236,50.48132185561]]]}},{"type":"Feature","id":"883050998","properties":{"name":"iSP_22KPH_%TR_4CR_Brake_Temp_Ctrl","oid":"883050998","speedLimit":6.111111},"geometry":{"type":"Polygon","coordinates":[[[-121.031797674442,50.4745593896773],[-121.032186935463,50.4743127726297],[-121.032488566968,50.4745751178054],[-121.032790198472,50.4748025015994],[-121.032967993408,50.4748849169903],[-121.033176782707,50.47493506725],[-121.033460662895,50.4749598727548],[-121.033664521272,50.4749223049975],[-121.033825691959,50.474862897611],[-121.033916843563,50.474810859976],[-121.034006163682,50.4747476778388],[-121.034056599963,50.4746585218215],[-121.034050823741,50.4745483350502],[-121.034054627594,50.4744839845378],[-121.033992497985,50.4743799991427],[-121.033874155872,50.4742599261194],[-121.033507295322,50.4739379938072],[-121.033059004128,50.4735603389842],[-121.03294573382,50.4734257960831],[-121.032820770185,50.4732212405436],[-121.032603950528,50.4728152750901],[-121.032250473907,50.4722093377229],[-121.032485467531,50.4721564912127],[-121.032428409727,50.4722060123473],[-121.032900932878,50.4730492197603],[-121.033040125744,50.4733099471857],[-121.033247928858,50.4735473071066],[-121.033740880112,50.4739619904368],[-121.03409590645,50.4742715199967],[-121.034201287284,50.4743948285205],[-121.034253977701,50.4744620550335],[-121.034261021875,50.4745931826839],[-121.034236085501,50.4746791930755],[-121.034181563599,50.4747919862223],[-121.034084072239,50.4748761991136],[-121.033971224582,50.4749380331256],[-121.033788639607,50.4750164940157],[-121.03352913226,50.4750647569001],[-121.033261171904,50.4750684417758],[-121.033069570388,50.4750266498927],[-121.032805836537,50.4749169124965],[-121.032655091227,50.4748354857307],[-121.032493497889,50.4747057062056],[-121.032142979822,50.4744134326491],[-121.031797674442,50.4745593896773]]]}},{"type":"Feature","id":"883053336","properties":{"name":"iSP_22KPH_%TR_Brake_Temp_Ctrl","oid":"883053336","speedLimit":6.111111},"geometry":{"type":"Polygon","coordinates":[[[-121.032464194128,50.4721456163356],[-121.03224934684,50.4722258747261],[-121.031486744629,50.4710086973657],[-121.030814871372,50.469923726156],[-121.03065961779,50.4696605721051],[-121.030594811395,50.4694580836909],[-121.030548460734,50.469257123152],[-121.030594811395,50.4689732978472],[-121.030721042982,50.4686246726548],[-121.030882777203,50.4683758986066],[-121.031087199115,50.4680981848029],[-121.031686517386,50.4675369153194],[-121.032430382096,50.4668940393201],[-121.032786676385,50.4665565586298],[-121.033145788344,50.4662227628153],[-121.033482640716,50.4658710818723],[-121.033777650697,50.4660344746539],[-121.03358562653,50.465993671396],[-121.032917557127,50.4666524552734],[-121.032552809829,50.466991643589],[-121.032176791854,50.4673080935252],[-121.031772597185,50.4676687619699],[-121.031380236728,50.4680348229157],[-121.031145383987,50.4682867425894],[-121.031007036422,50.4684702673749],[-121.030903346189,50.4686548706606],[-121.030826846467,50.468853404574],[-121.030765984809,50.4691916941394],[-121.030774719584,50.4694010130549],[-121.030871929176,50.4696307335993],[-121.031025914806,50.4699354997832],[-121.031328814262,50.4704041979989],[-121.031528868786,50.4707113908083],[-121.031748506112,50.4710832936302],[-121.032144247773,50.4717292253801],[-121.032379523164,50.4721455264606],[-121.032464194128,50.4721456163356]]]}},{"type":"Feature","id":"883059532","properties":{"name":"iSP_22KPH_%TR_Brake_Ctrl","oid":"883059532","speedLimit":6.111111},"geometry":{"type":"Polygon","coordinates":[[[-121.027260663249,50.4773224173366],[-121.027028487295,50.4772102533149],[-121.027332936468,50.4769444928886],[-121.027714871549,50.4766328962033],[-121.028031577584,50.4763231868934],[-121.028188803534,50.4761692309886],[-121.028619625179,50.4756928035215],[-121.028905618618,50.4753262033256],[-121.029262194675,50.4748880626159],[-121.029470983974,50.4746571736963],[-121.029689775999,50.4745408754238],[-121.029799805987,50.4744886580387],[-121.029950551298,50.4745930928089],[-121.029786985592,50.4745424931741],[-121.029554386987,50.4747919862223],[-121.02925021958,50.4751735056711],[-121.029071297576,50.4754784516051],[-121.028851519366,50.4757752189124],[-121.0286944343,50.4759751908261],[-121.028407313793,50.4762710593833],[-121.028040030593,50.4765704330662],[-121.027242348399,50.4772198699418],[-121.027260663249,50.4773224173366]]]}},{"type":"Feature","id":"884401102","properties":{"name":"iSP_30KPH_%TR_Maint_Limit_Policy","oid":"884401102","speedLimit":8.333333},"geometry":{"type":"Polygon","coordinates":[[[-121.036990639061,50.461101684325],[-121.037106727038,50.4611081553263],[-121.038292965836,50.4609924861789],[-121.038276623354,50.460398322439],[-121.038118129452,50.4605662089715],[-121.037031072616,50.4607088406241],[-121.036743388575,50.4605381679661],[-121.036990639061,50.461101684325]]]}},{"type":"Feature","id":"908328496","properties":{"name":"SP_25KPH_%TR_1445_SOFT_GROUND_SEPT_23_DS","oid":"908328496","speedLimit":6.9444447},"geometry":{"type":"Polygon","coordinates":[[[-121.039329727274,50.4644971624816],[-121.039938766505,50.4647094472727],[-121.039187012322,50.4666751037778],[-121.038824800926,50.4674281665484],[-121.038450050902,50.4678946178886],[-121.037913144007,50.468238299955],[-121.037178154956,50.468026194914],[-121.038311139803,50.4667055714086],[-121.038791834195,50.4655663156884],[-121.039329727274,50.4644971624816]]]}},{"type":"Feature","id":"910445950","properties":{"name":"SP_22KPH_%TR_1635_FLATS_SEP_23_DS","oid":"910445950","speedLimit":6.111111},"geometry":{"type":"Polygon","coordinates":[[[-121.017368530567,50.4554942022407],[-121.018001660871,50.4544145336569],[-121.018146911726,50.4539988617015],[-121.018531523592,50.4537518851538],[-121.018947552472,50.4536884333915],[-121.018865417411,50.4543420045179],[-121.018260604684,50.4560724581025],[-121.018274693031,50.4557011844057],[-121.017368530567,50.4554942022407]]]}},{"type":"Feature","id":"915576987","properties":{"name":"iSP_15KPH_%TR_Preventing Shifting","oid":"915576987","speedLimit":4.1666665},"geometry":{"type":"Polygon","coordinates":[[[-121.036996133516,50.444863605435],[-121.037510217289,50.445313519772],[-121.03797950012,50.4457959688654],[-121.038523451189,50.4462192801972],[-121.039456099745,50.4468503825692],[-121.039913407481,50.4471001452425],[-121.040469333644,50.447195502636],[-121.041222496663,50.4473232150357],[-121.041640920562,50.4475100651968],[-121.042319415342,50.44809551106],[-121.04270205484,50.4485282592687],[-121.04284547421,50.4487952779453],[-121.043006926664,50.4493920480607],[-121.043186130435,50.4501985864667],[-121.043323632699,50.4505017349003],[-121.043685280561,50.4511691467794],[-121.043855749557,50.4514894613413],[-121.044124696097,50.4522540281141],[-121.044381808425,50.4529386061215],[-121.044695555908,50.4537985302878],[-121.044734439745,50.4541951487395],[-121.044570028738,50.4550722390341],[-121.044214438866,50.4568397211259],[-121.044050027859,50.457207759322],[-121.043003827228,50.4583994121775],[-121.041903949996,50.4595377691476],[-121.041342106727,50.4600010748622],[-121.040370715217,50.4605979348526],[-121.039922283139,50.4607313992534],[-121.039133194837,50.4608076132682],[-121.038495838029,50.4608391593993],[-121.038643624787,50.4611439255832],[-121.038756472444,50.4609499752957],[-121.039877482197,50.4608801424072],[-121.040705454336,50.4606322671092],[-121.041509476286,50.4600583252483],[-121.042872382952,50.4587006732357],[-121.044241206724,50.4571428695595],[-121.044426609368,50.4562905847697],[-121.044812207419,50.4544219932834],[-121.044809107983,50.4537870262856],[-121.044259239808,50.4523017517484],[-121.043831799367,50.4511863129077],[-121.043344624336,50.4503378028686],[-121.043048769054,50.4493100820449],[-121.042926200437,50.4486922811754],[-121.042238689115,50.4478876301448],[-121.041545260687,50.4473918795489],[-121.041090911504,50.4472221955161],[-121.04045735855,50.4471307027484],[-121.039916366034,50.447020066602],[-121.038819447354,50.4463336910943],[-121.038194770059,50.4458721828801],[-121.037151668864,50.4449073745685],[-121.037375814461,50.444697696153],[-121.036996133516,50.444863605435]]]}},{"type":"Feature","id":"917773475","properties":{"name":"SP_15KPH_%TR_1200_CORNER_Sept_23_DS","oid":"917773475","speedLimit":4.1666665},"geometry":{"type":"Polygon","coordinates":[[[-121.037097006079,50.4446828667751],[-121.036922874113,50.4448624370598],[-121.036627300598,50.4448209148018],[-121.036412735076,50.4448702561863],[-121.036321160822,50.4449679503302],[-121.036252550574,50.4450824511024],[-121.036240293712,50.4451452737395],[-121.036261426232,50.4452675936382],[-121.036314116649,50.4453518065295],[-121.036182249723,50.4453955756629],[-121.036087153382,50.4451946151241],[-121.036161117203,50.4449320003233],[-121.036257904145,50.4447917054211],[-121.036514734707,50.4447154015314],[-121.036711830678,50.4447120761558],[-121.036921183511,50.444770405042],[-121.03709179339,50.4446839452753],[-121.037097006079,50.4446828667751]]]}},{"type":"Feature","id":"926367691","properties":{"name":"SP_30KPH_%TR_24SH_EMPTY_LANE_SEP_23_DS","oid":"926367691","speedLimit":8.333333},"geometry":{"type":"Polygon","coordinates":[[[-121.038782254119,50.4508578197192],[-121.038611080706,50.4512059056615],[-121.038637003264,50.4520124440674],[-121.03886396653,50.4535988279992],[-121.039043170301,50.4535759098698],[-121.03878028175,50.4517190021357],[-121.038782254119,50.4508578197192]]]}},{"type":"Feature","id":"929009157","properties":{"name":"iSP_22KPH_%TR_Long_Single_Lane","oid":"929009157","speedLimit":6.111111},"geometry":{"type":"Polygon","coordinates":[[[-121.005679851904,50.4380562918687],[-121.004750161901,50.4382243581512],[-121.005174643789,50.4381978450211],[-121.007934832688,50.4431708094827],[-121.008523584699,50.4445352021216],[-121.008210682518,50.4465100258784],[-121.007832692174,50.4466805187864],[-121.008934119124,50.44664726503],[-121.008823384719,50.4465932501445],[-121.009403401955,50.4448179489262],[-121.008764495429,50.443068711463],[-121.008262809401,50.4415404766675],[-121.007259296461,50.4401564912748],[-121.006439636446,50.4389843412982],[-121.005860605394,50.4383133344184],[-121.005679851904,50.4380562918687]]]}},{"type":"Feature","id":"934051091","properties":{"name":"iSP_17KPH_%TR_Ramp_Permission Blocker","oid":"934051091","speedLimit":4.7222223},"geometry":{"type":"Polygon","coordinates":[[[-121.039511044297,50.4610300539362],[-121.039463003035,50.4607720227613],[-121.039015557142,50.4607926041402],[-121.039074446431,50.4610453326891],[-121.039161935064,50.4609002744111],[-121.03937790942,50.4608871526585],[-121.039511044297,50.4610300539362]]]}},{"type":"Feature","id":"934773555","properties":{"name":"SP_10KPH_NEW RAMP_SEPT_23_DS","oid":"934773555","speedLimit":2.7777777},"geometry":{"type":"Polygon","coordinates":[[[-121.033901346382,50.4443405328339],[-121.034412894253,50.4442044620576],[-121.0357734059,50.4443195020798],[-121.036275373695,50.4444739073597],[-121.035930350083,50.44478595342],[-121.034621120018,50.4446111465112],[-121.034343438703,50.4446013501343],[-121.033901346382,50.4443405328339]]]}},{"type":"Feature","id":"936169885","properties":{"name":"SP_15KPH_%TR_24shl_loadplan_Sept_23_NS","oid":"936169885","speedLimit":4.1666665},"geometry":{"type":"Polygon","coordinates":[[[-121.039050918892,50.4535941544983],[-121.038505840755,50.4536751318889],[-121.038610376288,50.4545483575578],[-121.039161935064,50.4545298433042],[-121.039142634029,50.4542343342471],[-121.03909839662,50.4539213894366],[-121.039075855266,50.4537570080298],[-121.039050918892,50.4535941544983]]]}},{"type":"Feature","id":"936513295","properties":{"name":"SP_30KPH_%TR_1635_FLATS_SEP_23_DS","oid":"936513295","speedLimit":8.333333},"geometry":{"type":"Polygon","coordinates":[[[-121.017284704904,50.4555555868776],[-121.018048856832,50.455785577047],[-121.017432773428,50.4574541966197],[-121.015225833907,50.4585173282003],[-121.014497043729,50.457880024452],[-121.016176092896,50.4566197969584],[-121.017284704904,50.4555555868776]]]}},{"type":"Feature","id":"937786749","properties":{"name":"SP_32KPH_%TR_24SH_Loaded_LANE_SEP_23_DS","oid":"937786749","speedLimit":8.888889},"geometry":{"type":"Polygon","coordinates":[[[-121.038408349396,50.4510856528882],[-121.038211253425,50.4510395470043],[-121.038251827863,50.4516611226245],[-121.038477523178,50.4536766597642],[-121.038644751855,50.4536489782589],[-121.038401868756,50.4516755925023],[-121.038408349396,50.4510856528882]]]}},{"type":"Feature","id":"938065675","properties":{"name":"SP_8KPH_CR01_YARD_RUTIING_SEP_23_DS","oid":"938065675","speedLimit":2.2222223},"geometry":{"type":"Polygon","coordinates":[[[-121.034287507966,50.4648015691655],[-121.034097315285,50.4648583701764],[-121.033939103151,50.4649073520609],[-121.033827664328,50.4650053158299],[-121.034042511616,50.4650692169672],[-121.033962489807,50.4650116969561],[-121.034240875539,50.4648884783073],[-121.034317516145,50.4649377298168],[-121.034287507966,50.4648015691655]]]}},{"type":"Feature","id":"938165680","properties":{"name":"SP_10KPH_%TR_22SH_Sept_23_DS","oid":"938165680","speedLimit":2.7777777},"geometry":{"type":"Polygon","coordinates":[[[-121.034078718667,50.4466117643981],[-121.03505349138,50.4472509555217],[-121.035495301935,50.4474476919347],[-121.035793411352,50.4469125760813],[-121.034853155089,50.4461957329426],[-121.034078718667,50.4466117643981]]]}},{"type":"Feature","id":"939481274","properties":{"name":"SP_10KPH_%TR_LRNX_PIT_BOTTOM_SEP_23_DS","oid":"939481274","speedLimit":2.7777777},"geometry":{"type":"Polygon","coordinates":[[[-121.03405364141,50.4452366766322],[-121.034060685583,50.4449965305858],[-121.033301182809,50.4447667201663],[-121.033467425301,50.4448879615648],[-121.033356268245,50.446994092722],[-121.033813857748,50.4469744100932],[-121.033662126253,50.4469203053328],[-121.03405364141,50.4452366766322]]]}},{"type":"Feature","id":"940771585","properties":{"name":"SP_20KPH_%TR_1660_HMT_SEPT23_DS","oid":"940771585","speedLimit":5.5555553},"geometry":{"type":"Polygon","coordinates":[[[-121.002708056037,50.4281188111971],[-121.002602816087,50.4277116773684],[-121.002231165499,50.4276982859908],[-121.00250462031,50.4277966991348],[-121.00253265612,50.4281143174462],[-121.002672976054,50.4280829510652],[-121.002708056037,50.4281188111971]]]}},{"type":"Feature","id":"940778315","properties":{"name":"SP_25KPH_%TR_HMT_SPILLING_ROCK_IN_CORNER_SEPT23_DS","oid":"940778315","speedLimit":6.9444447},"geometry":{"type":"Polygon","coordinates":[[[-121.00478383305,50.4367083463581],[-121.004769744703,50.437043939673],[-121.004987127894,50.4372765362179],[-121.005120403654,50.4371691355722],[-121.004889073,50.4369365390272],[-121.004882028827,50.4367575978676],[-121.005197607795,50.4367978618754],[-121.004797780513,50.4366994487313],[-121.00478383305,50.4367083463581]]]}},{"type":"Feature","id":"943619660","properties":{"name":"SP_10KPH_%TR_21SH_SWAIL_SEPT 23_DS","oid":"943619660","speedLimit":2.7777777},"geometry":{"type":"Polygon","coordinates":[[[-121.039443279349,50.451012314874],[-121.038970051781,50.4510774742616],[-121.039043029418,50.4514498264586],[-121.039537107739,50.4513500651893],[-121.039443279349,50.451012314874]]]}},{"type":"Feature","id":"944340040","properties":{"name":"SP_11KPH_%TR_1590-1635_LOADED_CORNER_SEPT23_DS","oid":"944340040","speedLimit":3.0555556},"geometry":{"type":"Polygon","coordinates":[[[-121.012391399421,50.4565115874374],[-121.012739804236,50.4562913037698],[-121.012332791898,50.4564637739282],[-121.012388159101,50.4565115874374],[-121.012391399421,50.4565115874374]]]}},{"type":"Feature","id":"944556835","properties":{"name":"New Zone1181","oid":"944556835","speedLimit":4.1666665},"geometry":{"type":"Polygon","coordinates":[[[-121.03890947189,50.4522642738661],[-121.038990198117,50.4526841699473],[-121.038805499891,50.4528598756063],[-121.038268170346,50.4528490906042],[-121.038224496471,50.4524249703972],[-121.03890947189,50.4522642738661]]]}}]}