{"type":"FeatureCollection","features":[{"type":"Feature","id":"702602533","properties":{"name":"iSP_4KPH_%TR_CR01_SLOW BUMP","oid":"702602533","speedLimit":1.1111112},"geometry":{"type":"Polygon","coordinates":[[[-121.033353730275,50.464810016772],[-121.033648497778,50.4646929985061],[-121.03369189567,50.4647337122346],[-121.033364016139,50.4648718513087],[-121.033353730275,50.464810016772]]]}},{"type":"Feature","id":"707947583","properties":{"name":"iSP_22KPH_%TR_Permission Gate 1 from west dump_Jun","oid":"707947583","speedLimit":6.111111},"geometry":{"type":"Polygon","coordinates":[[[-121.038623756157,50.4619800980807],[-121.038850467874,50.4618016047812],[-121.037976169425,50.461353124638],[-121.037739030941,50.4615443802982],[-121.03795517499,50.4614986335261],[-121.038662222471,50.4618481604353],[-121.038623756157,50.4619800980807]]]}},{"type":"Feature","id":"739334284","properties":{"name":"SP_30KPH_%TR_1590 - GATE1(3)_DUSTY_JULY25_DS","oid":"739334284","speedLimit":8.333333},"geometry":{"type":"Polygon","coordinates":[[[-121.010373278127,50.4591801080242],[-121.010269010464,50.4589955031716],[-121.010258865502,50.458906616025],[-121.010246043397,50.4588098198097],[-121.010243366255,50.4586982839665],[-121.010253793021,50.4586397748336],[-121.010278310012,50.4585127803562],[-121.010402303991,50.4583330287958],[-121.010543206239,50.4582108876105],[-121.010802184571,50.4580105544964],[-121.011025796438,50.457843475421],[-121.011307600934,50.4579842208928],[-121.011110055983,50.4579206787162],[-121.01069185811,50.4582206840705],[-121.010443729251,50.4584971419704],[-121.010414703388,50.4586417521008],[-121.010397936021,50.458811347698],[-121.010424425644,50.4589525425487],[-121.010507980677,50.4591017363438],[-121.010638737963,50.4592384374055],[-121.011021569371,50.4594853261738],[-121.012110461944,50.4600665528443],[-121.012376485388,50.4602029842787],[-121.012884156188,50.4604923842909],[-121.013031821744,50.4604414247236],[-121.012804123711,50.460585585475],[-121.011774973691,50.4600277265073],[-121.010766959009,50.4594830792792],[-121.010373278127,50.4591801080242]]]}},{"type":"Feature","id":"739337561","properties":{"name":"SP_30KPH_%TR_1590 GATE3__DUSTY_JULY 25_DS","oid":"739337561","speedLimit":8.333333},"geometry":{"type":"Polygon","coordinates":[[[-121.022223720798,50.4632602886939],[-121.020346902854,50.463555081253],[-121.019827818972,50.4635588560357],[-121.019807810853,50.4634301539185],[-121.019715660783,50.4636494508222],[-121.020066507381,50.4636649094564],[-121.020664214717,50.4636240159764],[-121.020961377558,50.4635766514402],[-121.021322791824,50.4635206588291],[-121.021704355112,50.4634430960308],[-121.022602606943,50.4632794322351],[-121.025604529338,50.4627279544477],[-121.028268849947,50.4621744095175],[-121.030592046213,50.4617156835353],[-121.032597930616,50.4614658288663],[-121.034188435192,50.4612698097897],[-121.034965088384,50.461147039474],[-121.034850253052,50.4608368781565],[-121.034843489744,50.4610565345633],[-121.033560292971,50.4612396115276],[-121.030595427867,50.4616208645872],[-121.029886266852,50.4617501059591],[-121.028984774269,50.461903074537],[-121.027610413742,50.4621916656673],[-121.024115333479,50.4629131884307],[-121.022223720798,50.4632602886939]]]}},{"type":"Feature","id":"742345972","properties":{"name":"iSP_4KPH_%TR_CR01_PITSIDE_SLOW BUMP","oid":"742345972","speedLimit":1.1111112},"geometry":{"type":"Polygon","coordinates":[[[-121.033393605611,50.4648849731726],[-121.033700913414,50.4647464745954],[-121.033751074614,50.4647785602489],[-121.033469551923,50.4649204741058],[-121.033393605611,50.4648849731726]]]}},{"type":"Feature","id":"776427243","properties":{"name":"iSP_4KPH_%TR_CR1_PermissionBlocker_DO_NOT_DELETE","oid":"776427243","speedLimit":1.1111112},"geometry":{"type":"Polygon","coordinates":[[[-121.033921989041,50.4651553195195],[-121.034051055501,50.4652442066661],[-121.03407669971,50.4652294670382],[-121.034162368277,50.4651803948622],[-121.033921989041,50.4651553195195]]]}},{"type":"Feature","id":"794004438","properties":{"name":"iSP_11KPH_%TR_LOWER_FUEL_BAY","oid":"794004438","speedLimit":3.0555556},"geometry":{"type":"Polygon","coordinates":[[[-121.036771877911,50.4606975706972],[-121.036773991444,50.4607274094562],[-121.03674426107,50.4606729447334],[-121.037120470072,50.4606012238608],[-121.037530495614,50.460558173362],[-121.037538245238,50.4605835183321],[-121.036939692488,50.4606523631797],[-121.036771877911,50.4606975706972]]]}},{"type":"Feature","id":"801543391","properties":{"name":"iSP_4KPH_%TR_CR1_PermissionBlocker_DO_NOT_DELETE_","oid":"801543391","speedLimit":1.1111112},"geometry":{"type":"Polygon","coordinates":[[[-121.033150267429,50.4645254700518],[-121.033149422015,50.4644760383727],[-121.033170980059,50.4644339765076],[-121.033102924273,50.4644615683721],[-121.033150267429,50.4645254700518]]]}},{"type":"Feature","id":"806473874","properties":{"name":"iSP_4KPH_%TR_Permission Blocker - DO NOT DELETE","oid":"806473874","speedLimit":1.1111112},"geometry":{"type":"Polygon","coordinates":[[[-121.02271335611,50.4815474934436],[-121.022680244082,50.4815451566733],[-121.022672635361,50.4815738270472],[-121.022694757014,50.4815749055566],[-121.022698843179,50.4815508188475],[-121.02271335611,50.4815474934436]]]}},{"type":"Feature","id":"824566967","properties":{"name":"iSP_4Cr_3KPH","oid":"824566967","speedLimit":0.8333333},"geometry":{"type":"Polygon","coordinates":[[[-121.023296268711,50.4810706125539],[-121.023276119689,50.4810706125539],[-121.023273442546,50.481188709329],[-121.023298523147,50.4811879903228],[-121.023296268711,50.4810706125539]]]}},{"type":"Feature","id":"826307302","properties":{"name":"iSP_4KPH_TR%_CRUSHER POCKETS","oid":"826307302","speedLimit":1.1111112},"geometry":{"type":"Polygon","coordinates":[[[-121.023291478034,50.4813237926267],[-121.023330930664,50.481479457478],[-121.02353566163,50.4814400020105],[-121.023454642837,50.4811911359751],[-121.023046308123,50.4811918549814],[-121.023051662408,50.481362529088],[-121.023276542396,50.481328556043],[-121.023291478034,50.4813237926267]]]}},{"type":"Feature","id":"837655370","properties":{"name":"SP_30KPH_%TR_1620 To 1590_MT_DUSTY _JULY_25_DS","oid":"837655370","speedLimit":8.333333},"geometry":{"type":"Polygon","coordinates":[[[-121.011032982453,50.4578359258554],[-121.011893190677,50.4572150639658],[-121.012081013374,50.4571003824702],[-121.01338759992,50.4562104324947],[-121.013874135383,50.4559000015498],[-121.014181161381,50.4556887035906],[-121.014538489482,50.4554529594191],[-121.014980358932,50.455087434621],[-121.015276112751,50.4547370988298],[-121.015467317102,50.4542825970093],[-121.015461258305,50.453774439348],[-121.015781388213,50.453771563323],[-121.015623577695,50.4538076933867],[-121.015615968973,50.4542288512927],[-121.015535936496,50.4545561788842],[-121.01536319034,50.4548745188977],[-121.015161700126,50.4551161948707],[-121.014859605706,50.4553512200359],[-121.013359278568,50.4563635808241],[-121.011170362145,50.4578707077824],[-121.011313659731,50.4579789182218],[-121.011032982453,50.4578359258554]]]}},{"type":"Feature","id":"849417440","properties":{"name":"iSP_Permissions_35_KPH_June_19_NS","oid":"849417440","speedLimit":9.722222},"geometry":{"type":"Polygon","coordinates":[[[-121.032690221589,50.4660362819171],[-121.033004856309,50.4660169586243],[-121.033211841711,50.4658160862556],[-121.033800672206,50.465381626734],[-121.033721485142,50.465252834741],[-121.03395763731,50.4654022981635],[-121.033421363354,50.465810603833],[-121.033018946534,50.4661901492528],[-121.032690221589,50.4660362819171]]]}},{"type":"Feature","id":"853029148","properties":{"name":"SP_25KPH_%TR_1635 Flats_July_24_NS","oid":"853029148","speedLimit":6.9444447},"geometry":{"type":"Polygon","coordinates":[[[-121.01858351122,50.4569729386139],[-121.017402186772,50.4572917280063],[-121.016423620659,50.4584595738943],[-121.018342568376,50.4588951119252],[-121.020685913663,50.458989211867],[-121.020234181056,50.4572337581281],[-121.019416384408,50.4570985849546],[-121.01896211556,50.4570019684909],[-121.01858351122,50.4569729386139]]]}},{"type":"Feature","id":"867844514","properties":{"name":"SP_30KPH_%TR_Garbage_Dump_DUSTY_JULY 35_DS","oid":"867844514","speedLimit":8.333333},"geometry":{"type":"Polygon","coordinates":[[[-121.013054929713,50.4604521199414],[-121.012820750176,50.4606063467802],[-121.015626818446,50.4626950599122],[-121.015945821136,50.4628714860687],[-121.016940168301,50.4631417425398],[-121.017612976535,50.4632672990048],[-121.019726228451,50.463651967344],[-121.019853322279,50.4634231436076],[-121.019716224392,50.4635407011281],[-121.016790530113,50.4629955146454],[-121.015953288955,50.4627395484234],[-121.015385030189,50.462383550458],[-121.01300589573,50.4605784852884],[-121.013054929713,50.4604521199414]]]}},{"type":"Feature","id":"883050998","properties":{"name":"iSP_22kph_%TR_4CR_Brake_Temp_CTRL_NOREMOVE","oid":"883050998","speedLimit":6.111111},"geometry":{"type":"Polygon","coordinates":[[[-121.031793801487,50.4745612692968],[-121.032183114398,50.4743146501559],[-121.032484786111,50.4745769975583],[-121.032786457824,50.4748043832822],[-121.032964276461,50.4748867993727],[-121.033173093593,50.474936950058],[-121.033457011623,50.4749617557734],[-121.033660897176,50.4749241876972],[-121.033822089347,50.4748647798065],[-121.033913253102,50.4748127417298],[-121.034002585127,50.4747495590563],[-121.034053028132,50.4746604022823],[-121.03404725114,50.4745502145758],[-121.034051055501,50.4744858635172],[-121.033988917609,50.4743818772395],[-121.033870559721,50.4742618031971],[-121.033503650267,50.4739398681524],[-121.033055299314,50.473562210124],[-121.032942013906,50.4734276660811],[-121.032817033612,50.4732231088053],[-121.032600185052,50.4728171399061],[-121.032246661312,50.472211197396],[-121.032481686262,50.4721583504372],[-121.032424620851,50.4722078719921],[-121.032897206991,50.473051086562],[-121.033036418412,50.4733118162004],[-121.033244249228,50.4735491781359],[-121.033737266194,50.4739638649858],[-121.034092339859,50.4742733971728],[-121.034197734741,50.4743967067432],[-121.034250432182,50.4744639338268],[-121.034257477294,50.4745950625901],[-121.034232537596,50.4746810737118],[-121.034178008426,50.474793867816],[-121.03408050407,50.474878081422],[-121.03396764137,50.4749399159588],[-121.033785032056,50.4750183775149],[-121.033525490115,50.4750666408089],[-121.033257494039,50.4750703257159],[-121.033065866982,50.4750285334781],[-121.032802097974,50.4749187951504],[-121.032651332568,50.4748373676936],[-121.03248971769,50.474707587067],[-121.032139152897,50.4744153110297],[-121.031793801487,50.4745612692968]]]}},{"type":"Feature","id":"883053336","properties":{"name":"iSP_22kph_%TR_Brake_Temp_CTRL_NOREMOVE","oid":"883053336","speedLimit":6.111111},"geometry":{"type":"Polygon","coordinates":[[[-121.032460410022,50.4721474754678],[-121.032245534094,50.4722277345396],[-121.031482830225,50.4710105468482],[-121.030810867404,50.4699255664296],[-121.030655593127,50.4696624101452],[-121.030590778093,50.4694599200124],[-121.030544421253,50.4692589577678],[-121.030590778093,50.468975130054],[-121.030717026507,50.4686265019026],[-121.030878782288,50.468377725743],[-121.03108323145,50.4681000095821],[-121.031682629613,50.4675387353347],[-121.032426593483,50.4668958538789],[-121.032782935268,50.4665583703243],[-121.033142095098,50.4662245716766],[-121.033478992373,50.4658728877486],[-121.033774041681,50.4660362819171],[-121.033581991917,50.4659954783128],[-121.032913833456,50.4666542677818],[-121.032549037536,50.4669934589762],[-121.032172969436,50.4673099115983],[-121.031768720886,50.4676705831043],[-121.031376308126,50.4680366471571],[-121.031141424078,50.468288568969],[-121.031003058071,50.4684720953122],[-121.030899354016,50.4686567001647],[-121.030822844095,50.4688552357632],[-121.030761974324,50.4691935281999],[-121.030770710263,50.469402848892],[-121.030867932815,50.4696325713862],[-121.031021938972,50.4699373401568],[-121.031324878805,50.4704060423506],[-121.031524959997,50.4707132377673],[-121.031744626602,50.4710851437458],[-121.032140421017,50.4717310809781],[-121.032375727771,50.472147385592],[-121.032460410022,50.4721474754678]]]}},{"type":"Feature","id":"883059532","properties":{"name":"iSP_22kph_%TR_Brake_CTRL_NOREMOVE","oid":"883059532","speedLimit":6.111111},"geometry":{"type":"Polygon","coordinates":[[[-121.02725618549,50.4773243204076],[-121.027023978585,50.4772121554339],[-121.027328468343,50.4769463927518],[-121.027710454338,50.4766347934219],[-121.028027202591,50.4763250814833],[-121.0281844495,50.4761711242718],[-121.028615328575,50.4756946927609],[-121.028901360138,50.4753280894535],[-121.029257983728,50.474889945025],[-121.02946680086,50.4746590541456],[-121.029685622051,50.4745427548861],[-121.029795666707,50.4744905370578],[-121.029946432112,50.4745949727144],[-121.029782844602,50.4745443726501],[-121.029550214991,50.474793867816],[-121.029246007037,50.4751753905029],[-121.029067061182,50.4754803390251],[-121.028847253675,50.4757771088514],[-121.028690147669,50.4759770824623],[-121.028402988887,50.4762729535308],[-121.028035656726,50.4765723297546],[-121.027237868198,50.4772217721424],[-121.02725618549,50.4773243204076]]]}},{"type":"Feature","id":"884401102","properties":{"name":"SP_25KPH_MAIN INT. DUST_JULY 25_DS","oid":"884401102","speedLimit":6.9444447},"geometry":{"type":"Polygon","coordinates":[[[-121.036552211306,50.4607704599549],[-121.03667409175,50.4610424240658],[-121.038289958731,50.4609942506476],[-121.03827361407,50.4604000818647],[-121.038115099041,50.4605679698221],[-121.03668282769,50.4607398123138],[-121.036549815968,50.4606143457247],[-121.036552211306,50.4607704599549]]]}},{"type":"Feature","id":"886231481","properties":{"name":"SP_15KPH_%TR_1200_SWITCHBACK_July_24_NS","oid":"886231481","speedLimit":4.1666665},"geometry":{"type":"Polygon","coordinates":[[[-121.036904185122,50.4452294995451],[-121.036963223163,50.4446825155468],[-121.036278720042,50.4447477653632],[-121.036034818251,50.4452772235844],[-121.036518676571,50.4453474165687],[-121.036613081077,50.4451040329559],[-121.036767087234,50.4451332425845],[-121.036904185122,50.4452294995451]]]}},{"type":"Feature","id":"899288147","properties":{"name":"SP_30KPH_%TR_1185_BENCH_JULY_24_NS","oid":"899288147","speedLimit":8.333333},"geometry":{"type":"Polygon","coordinates":[[[-121.039755201209,50.4500581657123],[-121.039538634454,50.4496339520298],[-121.039834951881,50.44959135091],[-121.040146064045,50.450545292441],[-121.040329659674,50.4509554855019],[-121.040195520734,50.4511951842077],[-121.04001291142,50.4506027230646],[-121.039755201209,50.4500581657123]]]}},{"type":"Feature","id":"902935346","properties":{"name":"SP_20KPH_%TRX_NEW LANES_July24_NS","oid":"902935346","speedLimit":5.5555553},"geometry":{"type":"Polygon","coordinates":[[[-121.039147489813,50.4482816810408],[-121.039116350416,50.4482927357618],[-121.039071402599,50.4483258100489],[-121.03924133071,50.4487278244138],[-121.039505663327,50.4492696854926],[-121.039623598509,50.4495857786116],[-121.039825370528,50.4495439863738],[-121.039704194595,50.4493155221405],[-121.039222027102,50.4482997460726],[-121.039147489813,50.4482816810408]]]}},{"type":"Feature","id":"903864124","properties":{"name":"SP_15KPH_%TR_OLD_GARBAGEDUMP_July_24_NS","oid":"903864124","speedLimit":4.1666665},"geometry":{"type":"Polygon","coordinates":[[[-121.042580291282,50.4670043339456],[-121.042127431457,50.4673309425309],[-121.03992766556,50.4663009660898],[-121.040718690781,50.4661251690637],[-121.042259456864,50.4668284470438],[-121.042580291282,50.4670043339456]]]}},{"type":"Feature","id":"908328496","properties":{"name":"SP_15KPH_%TR_9019_SOFT_GROUND_July 24_NS","oid":"908328496","speedLimit":4.1666665},"geometry":{"type":"Polygon","coordinates":[[[-121.03899503358,50.4644911375038],[-121.03931967236,50.4647047722333],[-121.039498759117,50.4648804793836],[-121.03938674183,50.465217693311],[-121.038206262796,50.4655629061827],[-121.037876410633,50.4651421077798],[-121.03851554323,50.4648165777039],[-121.03899503358,50.4644911375038]]]}},{"type":"Feature","id":"908575258","properties":{"name":"iSP_15km_permissions ","oid":"908575258","speedLimit":4.1666665},"geometry":{"type":"Polygon","coordinates":[[[-121.041865071471,50.4595525532573],[-121.041454905027,50.4599151121547],[-121.041079259634,50.4602081970739],[-121.040683887926,50.4604257863378],[-121.040342763583,50.4605865741086],[-121.039952323454,50.4607158154805],[-121.039512426635,50.4607819640548],[-121.039171443195,50.4607977821921],[-121.039117054927,50.4612139070544],[-121.039250489356,50.4609396061732],[-121.03979916271,50.4608482025048],[-121.040268649001,50.4607063785236],[-121.040935962048,50.460394239939],[-121.041538882767,50.4599876419093],[-121.041939326956,50.4596533938827],[-121.042087556121,50.4595304438154],[-121.041939326956,50.459492606112],[-121.041865071471,50.4595525532573]]]}},{"type":"Feature","id":"910445950","properties":{"name":"SP_30KPH_%TR_1635_FLATS_JULY24_NS","oid":"910445950","speedLimit":8.333333},"geometry":{"type":"Polygon","coordinates":[[[-121.020218963613,50.4571661715414],[-121.019037780067,50.4569633219054],[-121.018644099186,50.45692467532],[-121.017447698198,50.4572337581281],[-121.018083730946,50.4544710665204],[-121.018765134217,50.4539011641981],[-121.018931821577,50.453514788219],[-121.019552636882,50.4545194196901],[-121.020218963613,50.4571468482486],[-121.020203887072,50.4571468482486],[-121.020218963613,50.4571661715414]]]}},{"type":"Feature","id":"911981461","properties":{"name":"SP_15KPH_%TR_NEWLANES_21SH_1185_JULY_24_NS","oid":"911981461","speedLimit":4.1666665},"geometry":{"type":"Polygon","coordinates":[[[-121.040574688684,50.4503997835529],[-121.040422655158,50.4504231512558],[-121.040448862976,50.4507106638766],[-121.040412228392,50.4509012005307],[-121.040233987048,50.4512389537127],[-121.040454076359,50.4518774312552],[-121.040962592572,50.4517871959719],[-121.040485638463,50.450476627345],[-121.040595683118,50.4503997835529],[-121.040574688684,50.4503997835529]]]}}]}