{"type":"FeatureCollection","features":[{"type":"Feature","id":"702602533","properties":{"name":"iSP_4KPH_%TR_CR01_SLOW BUMP","oid":"702602533","speedLimit":1.1111112},"geometry":{"type":"Polygon","coordinates":[[[-121.033353360437,50.464810016772],[-121.03364813113,50.4646929985061],[-121.033691529492,50.4647337122346],[-121.033363646412,50.4648718513087],[-121.033353360437,50.464810016772]]]}},{"type":"Feature","id":"707947583","properties":{"name":"iSP_22KPH_%TR_Permission Gate 1 from west dump_Jun","oid":"707947583","speedLimit":6.111111},"geometry":{"type":"Polygon","coordinates":[[[-121.03862344335,50.4619800980807],[-121.038850157521,50.4618016047812],[-121.03797584961,50.461353124638],[-121.03773870856,50.4615443802982],[-121.037954854948,50.4614986335261],[-121.03866191008,50.4618481604353],[-121.03862344335,50.4619800980807]]]}},{"type":"Feature","id":"742345972","properties":{"name":"iSP_4KPH_%TR_CR01_PITSIDE_SLOW BUMP","oid":"742345972","speedLimit":1.1111112},"geometry":{"type":"Polygon","coordinates":[[[-121.033393236205,50.4648849731726],[-121.033700547333,50.4647464745954],[-121.033750709076,50.4647785602489],[-121.033469183338,50.4649204741058],[-121.033393236205,50.4648849731726]]]}},{"type":"Feature","id":"776427243","properties":{"name":"iSP_4KPH_%TR_CR1_PermissionBlocker_DO_NOT_DELETE","oid":"776427243","speedLimit":1.1111112},"geometry":{"type":"Polygon","coordinates":[[[-121.033921625353,50.4651553195195],[-121.034050693209,50.4652442066661],[-121.034076337696,50.4652294670382],[-121.034162007189,50.4651803948622],[-121.033921625353,50.4651553195195]]]}},{"type":"Feature","id":"794004438","properties":{"name":"iSP_11KPH_%TR_LOWER_FUEL_BAY","oid":"794004438","speedLimit":3.0555556},"geometry":{"type":"Polygon","coordinates":[[[-121.036771545063,50.4606975706972],[-121.03677365862,50.4607274094562],[-121.036743927924,50.4606729447334],[-121.037120140997,50.4606012238608],[-121.037530170976,50.460558173362],[-121.037537920684,50.4605835183321],[-121.036939361457,50.4606523631797],[-121.036771545063,50.4606975706972]]]}},{"type":"Feature","id":"801543391","properties":{"name":"iSP_4KPH_%TR_CR1_PermissionBlocker_DO_NOT_DELETE_","oid":"801543391","speedLimit":1.1111112},"geometry":{"type":"Polygon","coordinates":[[[-121.033149895389,50.4645254700518],[-121.033149049966,50.4644760383727],[-121.033170608243,50.4644339765076],[-121.033102551721,50.4644615683721],[-121.033149895389,50.4645254700518]]]}},{"type":"Feature","id":"806473874","properties":{"name":"iSP_4KPH_%TR_Permission Blocker - DO NOT DELETE","oid":"806473874","speedLimit":1.1111112},"geometry":{"type":"Polygon","coordinates":[[[-121.022712871124,50.4815474934436],[-121.022679758738,50.4815451566733],[-121.022672149934,50.4815738270472],[-121.022694271826,50.4815749055566],[-121.022698358036,50.4815508188475],[-121.022712871124,50.4815474934436]]]}},{"type":"Feature","id":"824566967","properties":{"name":"iSP_4Cr_3KPH","oid":"824566967","speedLimit":0.8333333},"geometry":{"type":"Polygon","coordinates":[[[-121.023295790033,50.4810706125539],[-121.023275640793,50.4810706125539],[-121.023272963622,50.481188709329],[-121.023298044493,50.4811879903228],[-121.023295790033,50.4810706125539]]]}},{"type":"Feature","id":"826307302","properties":{"name":"iSP_4KPH_TR%_CRUSHER POCKETS","oid":"826307302","speedLimit":1.1111112},"geometry":{"type":"Polygon","coordinates":[[[-121.023290999304,50.4813237926267],[-121.023330452361,50.481479457478],[-121.023535185543,50.4814400020105],[-121.023454165873,50.4811911359751],[-121.02304582674,50.4811918549814],[-121.023051181083,50.481362529088],[-121.023276063505,50.481328556043],[-121.023290999304,50.4813237926267]]]}},{"type":"Feature","id":"849417440","properties":{"name":"iSP_Permissions_35_KPH_June_19_NS","oid":"849417440","speedLimit":9.722222},"geometry":{"type":"Polygon","coordinates":[[[-121.03268984457,50.4660362819171],[-121.033004482695,50.4660169586243],[-121.033211470338,50.4658160862556],[-121.033800307204,50.465381626734],[-121.033721119284,50.465252834741],[-121.033957274007,50.4654022981635],[-121.033420994248,50.465810603833],[-121.033018573073,50.4661901492528],[-121.03268984457,50.4660362819171]]]}},{"type":"Feature","id":"853029148","properties":{"name":"SP_25KPH_%TR_1635 Flats_July_22_NS","oid":"853029148","speedLimit":6.9444447},"geometry":{"type":"Polygon","coordinates":[[[-121.018582981541,50.4569729386139],[-121.01740164431,50.4572917280063],[-121.016423067607,50.4584595738943],[-121.01834203609,50.4588951119252],[-121.020685406736,50.458989211867],[-121.020233669241,50.4572337581281],[-121.019415863743,50.4570985849546],[-121.018961589979,50.4570019684909],[-121.018582981541,50.4569729386139]]]}},{"type":"Feature","id":"883050998","properties":{"name":"iSP_22kph_%TR_4CR_Brake_Temp_CTRL_NOREMOVE","oid":"883050998","speedLimit":6.111111},"geometry":{"type":"Polygon","coordinates":[[[-121.031793414767,50.4745612692968],[-121.032182731892,50.4743146501559],[-121.03248440687,50.4745769975583],[-121.032786081847,50.4748043832822],[-121.032963902409,50.4748867993727],[-121.0331727218,50.474936950058],[-121.033456642902,50.4749617557734],[-121.033660530662,50.4749241876972],[-121.033821724578,50.4748647798065],[-121.033912889319,50.4748127417298],[-121.034002222311,50.4747495590563],[-121.034052665862,50.4746604022823],[-121.034046888807,50.4745502145758],[-121.034050693209,50.4744858635172],[-121.033988554645,50.4743818772395],[-121.033870195476,50.4742618031971],[-121.033503282051,50.4739398681524],[-121.033054926246,50.473562210124],[-121.032941639613,50.4734276660811],[-121.032816657966,50.4732231088053],[-121.03259980706,50.4728171399061],[-121.032246279493,50.472211197396],[-121.032481306987,50.4721583504372],[-121.032424240959,50.4722078719921],[-121.032896832213,50.473051086562],[-121.03303604514,50.4733118162004],[-121.033243878205,50.4735491781359],[-121.033736900507,50.4739638649858],[-121.034091978014,50.4742733971728],[-121.034197374036,50.4743967067432],[-121.034250072047,50.4744639338268],[-121.034257117236,50.4745950625901],[-121.034232177268,50.4746810737118],[-121.034177647508,50.474793867816],[-121.034080142097,50.474878081422],[-121.033967278175,50.4749399159588],[-121.033784666886,50.4750183775149],[-121.033525122136,50.4750666408089],[-121.03325712316,50.4750703257159],[-121.033065494029,50.4750285334781],[-121.032801722166,50.4749187951504],[-121.032650955129,50.4748373676936],[-121.032489338502,50.474707587067],[-121.032138769915,50.4744153110297],[-121.031793414767,50.4745612692968]]]}},{"type":"Feature","id":"883053336","properties":{"name":"iSP_22kph_%TR_Brake_Temp_CTRL_NOREMOVE","oid":"883053336","speedLimit":6.111111},"geometry":{"type":"Polygon","coordinates":[[[-121.032460030517,50.4721474754678],[-121.032245152263,50.4722277345396],[-121.031482440141,50.4710105468482],[-121.030810470048,50.4699255664296],[-121.03065519409,50.4696624101452],[-121.030590378355,50.4694599200124],[-121.030544021013,50.4692589577678],[-121.030590378355,50.468975130054],[-121.030716628135,50.4686265019026],[-121.030878385666,50.468377725743],[-121.031082837041,50.4681000095821],[-121.031682241691,50.4675387353347],[-121.032426213611,50.4668958538789],[-121.032782559253,50.4665583703243],[-121.03314172297,50.4662245716766],[-121.033478623891,50.4658728877486],[-121.033773676391,50.4660362819171],[-121.033581624549,50.4659954783128],[-121.032913458858,50.4666542677818],[-121.03254865899,50.4669934589762],[-121.03217258682,50.4673099115983],[-121.031768333896,50.4676705831043],[-121.031375916888,50.4680366471571],[-121.031141030299,50.468288568969],[-121.031002662794,50.4684720953122],[-121.030898957617,50.4686567001647],[-121.030822446868,50.4688552357632],[-121.030761576439,50.4691935281999],[-121.030770312473,50.469402848892],[-121.030867536076,50.4696325713862],[-121.0310215439,50.4699373401568],[-121.031324487011,50.4704060423506],[-121.031524570369,50.4707132377673],[-121.031744239351,50.4710851437458],[-121.032140038049,50.4717310809781],[-121.032375347349,50.472147385592],[-121.032460030517,50.4721474754678]]]}},{"type":"Feature","id":"883059532","properties":{"name":"iSP_22kph_%TR_Brake_CTRL_NOREMOVE","oid":"883059532","speedLimit":6.111111},"geometry":{"type":"Polygon","coordinates":[[[-121.027255749666,50.4773243204076],[-121.027023540248,50.4772121554339],[-121.027328033301,50.4769463927518],[-121.027710023429,50.4766347934219],[-121.028026775111,50.4763250814833],[-121.028184023721,50.4761711242718],[-121.028614907459,50.4756946927609],[-121.028900942118,50.4753280894535],[-121.029257569567,50.474889945025],[-121.029466388958,50.4746590541456],[-121.029685212518,50.4745427548861],[-121.029795258364,50.4744905370578],[-121.029946025401,50.4745949727144],[-121.029782436121,50.4745443726501],[-121.029549803992,50.474793867816],[-121.029245592746,50.4751753905029],[-121.029066644955,50.4754803390251],[-121.028846835069,50.4757771088514],[-121.028689727362,50.4759770824623],[-121.028402565473,50.4762729535308],[-121.028035229337,50.4765723297546],[-121.027237432175,50.4772217721424],[-121.027255749666,50.4773243204076]]]}},{"type":"Feature","id":"886231481","properties":{"name":"SP_15KPH_%TR_1200_SWITCHBACK_July_22_NS","oid":"886231481","speedLimit":4.1666665},"geometry":{"type":"Polygon","coordinates":[[[-121.036903853706,50.4452294995451],[-121.036962892387,50.4446825155468],[-121.036278381858,50.4447477653632],[-121.036034477427,50.4452772235844],[-121.036518340983,50.4453474165687],[-121.036612746511,50.4451040329559],[-121.036766754335,50.4451332425845],[-121.036903853706,50.4452294995451]]]}},{"type":"Feature","id":"899288147","properties":{"name":"SP_20KPH_%TR_1185_BENCH_JULY_23_NS","oid":"899288147","speedLimit":5.5555553},"geometry":{"type":"Polygon","coordinates":[[[-121.039826338859,50.4507689033822],[-121.039538331547,50.4496339520298],[-121.040222701172,50.4495225959381],[-121.040482386826,50.4508712718958],[-121.039986687353,50.4518857897028],[-121.040019799739,50.4524276507816],[-121.039403909348,50.452807375953],[-121.039425044914,50.4516660434202],[-121.039826338859,50.4507689033822]]]}},{"type":"Feature","id":"902245095","properties":{"name":"SP_10KPH_%TR_RUTS_WATER_MANAGEMENT_July_23_NS","oid":"902245095","speedLimit":2.7777777},"geometry":{"type":"Polygon","coordinates":[[[-121.039535654376,50.455005647661],[-121.039035023271,50.4549376116954],[-121.039388691741,50.4537756976089],[-121.039415604361,50.4534300353583],[-121.040022758718,50.4533883329963],[-121.039535654376,50.455005647661]]]}},{"type":"Feature","id":"902935346","properties":{"name":"SP_20KPH_%TRX_NEW LANES_July22_NS","oid":"902935346","speedLimit":5.5555553},"geometry":{"type":"Polygon","coordinates":[[[-121.039513532483,50.4480046838862],[-121.039303304054,50.4480202323962],[-121.038800700296,50.4477540203352],[-121.039241024587,50.4487278244138],[-121.039505360064,50.4492696854926],[-121.039623296522,50.4495857786116],[-121.040156617303,50.4494894317752],[-121.040029240292,50.4492395771062],[-121.039364174484,50.4480513294162],[-121.039513532483,50.4480046838862]]]}},{"type":"Feature","id":"908328496","properties":{"name":"SP_20KPH_%TR_9019_SOFT_GROUND_July 22_NS","oid":"908328496","speedLimit":5.5555553},"geometry":{"type":"Polygon","coordinates":[[[-121.038994724792,50.4644911375038],[-121.039319367084,50.4647047722333],[-121.03949845578,50.4648804793836],[-121.03938643728,50.465217693311],[-121.038205945471,50.4655629061827],[-121.037876089739,50.4651421077798],[-121.038515229252,50.4648165777039],[-121.038994724792,50.4644911375038]]]}},{"type":"Feature","id":"908575258","properties":{"name":"iSP_15km_permissions ","oid":"908575258","speedLimit":4.1666665},"geometry":{"type":"Polygon","coordinates":[[[-121.041864793741,50.4595525532573],[-121.041454622858,50.4599151121547],[-121.0410789734,50.4602081970739],[-121.040683597413,50.4604257863378],[-121.040342469379,50.4605865741086],[-121.039952025024,50.4607158154805],[-121.039512123446,50.4607819640548],[-121.039171136315,50.4607977821921],[-121.039116747459,50.4612139070544],[-121.039250183332,50.4609396061732],[-121.039798862623,50.4608482025048],[-121.040268353995,50.4607063785236],[-121.040935674263,50.460394239939],[-121.041538601507,50.4599876419093],[-121.04193905003,50.4596533938827],[-121.042087280799,50.4595304438154],[-121.04193905003,50.459492606112],[-121.041864793741,50.4595525532573]]]}},{"type":"Feature","id":"910445950","properties":{"name":"SP_30KPH_%TR_1635_FLATS_JULY22_NS","oid":"910445950","speedLimit":8.333333},"geometry":{"type":"Polygon","coordinates":[[[-121.020218451633,50.4571661715414],[-121.019037255305,50.4569633219054],[-121.018643570164,50.45692467532],[-121.017447156228,50.4572337581281],[-121.018083195859,50.4544710665204],[-121.018764606505,50.4539011641981],[-121.018931295668,50.453514788219],[-121.019552117691,50.4545194196901],[-121.020218451633,50.4571468482486],[-121.020203374929,50.4571468482486],[-121.020218451633,50.4571661715414]]]}},{"type":"Feature","id":"911053123","properties":{"name":"SP_15KPH_1175_BERM_WORK","oid":"911053123","speedLimit":4.1666665},"geometry":{"type":"Polygon","coordinates":[[[-121.042444330959,50.4673798349553],[-121.041833794911,50.4675355896824],[-121.041027684427,50.4684392007766],[-121.039586520638,50.4694986564737],[-121.039171418123,50.4696622303936],[-121.039171418123,50.4702075067521],[-121.039733201465,50.4703555321621],[-121.040111668999,50.4701218551336],[-121.042383319625,50.4676446090038],[-121.042444330959,50.4673798349553]]]}},{"type":"Feature","id":"911432953","properties":{"name":"New Zone1648","oid":"911432953","speedLimit":4.1666665},"geometry":{"type":"Polygon","coordinates":[[[-121.01091344828,50.4584132878675],[-121.010296712466,50.4581598381673],[-121.00983525261,50.4585561004822],[-121.009862728846,50.4591679747938],[-121.009940366824,50.4592758257301],[-121.010525117482,50.459001884352],[-121.010853986888,50.4585619424079],[-121.01091344828,50.4584132878675]]]}}]}