{"type":"FeatureCollection","features":[{"type":"Feature","id":"702602533","properties":{"name":"iSP_4KPH_%TR_CR01_SLOW BUMP","oid":"702602533","speedLimit":1.1111112},"geometry":{"type":"Polygon","coordinates":[[[-121.033359746733,50.4648080929831],[-121.033654495523,50.4646910758011],[-121.03369789066,50.4647317891524],[-121.033370031944,50.4648699269472],[-121.033359746733,50.4648080929831]]]}},{"type":"Feature","id":"707947583","properties":{"name":"iSP_22KPH_%TR_Permission Gate 1 from west dump_Jun","oid":"707947583","speedLimit":6.111111},"geometry":{"type":"Polygon","coordinates":[[[-121.038629438059,50.4619782005023],[-121.038856135384,50.461799708856],[-121.037981892438,50.4613512328666],[-121.037744769008,50.4615424867554],[-121.037960899335,50.461496740407],[-121.038667901931,50.4618462640789],[-121.038629438059,50.4619782005023]]]}},{"type":"Feature","id":"742345972","properties":{"name":"iSP_4KPH_%TR_CR01_PITSIDE_SLOW BUMP","oid":"742345972","speedLimit":1.1111112},"geometry":{"type":"Polygon","coordinates":[[[-121.033399619537,50.4648830486896],[-121.033706907832,50.464744551395],[-121.033757065848,50.4647766367514],[-121.033475561028,50.464918549294],[-121.033399619537,50.4648830486896]]]}},{"type":"Feature","id":"776427243","properties":{"name":"iSP_7KPH_%TR_CR1_PermissionBlocker_DO_NOT_DELETE","oid":"776427243","speedLimit":1.9444444},"geometry":{"type":"Polygon","coordinates":[[[-121.034100845507,50.4652130694978],[-121.034052378211,50.465233381236],[-121.034031244216,50.465274813587],[-121.034116907344,50.4652257418655],[-121.034100845507,50.4652130694978]]]}},{"type":"Feature","id":"794004438","properties":{"name":"iSP_11KPH_%TR_LOWER_FUEL_BAY","oid":"794004438","speedLimit":3.0555556},"geometry":{"type":"Polygon","coordinates":[[[-121.036777677375,50.4606956849974],[-121.036779790775,50.4607255234801],[-121.036750062288,50.4606710592617],[-121.037126247407,50.4605993390534],[-121.03753624692,50.4605562889534],[-121.037543996051,50.4605816336887],[-121.036945481299,50.4606504778987],[-121.036777677375,50.4606956849974]]]}},{"type":"Feature","id":"801543391","properties":{"name":"iSP_4KPH_%TR_CR1_PermissionBlocker_DO_NOT_DELETE_","oid":"801543391","speedLimit":1.1111112},"geometry":{"type":"Polygon","coordinates":[[[-121.033156296803,50.4645235488984],[-121.033155451443,50.4644741176772],[-121.033177008118,50.4644320562016],[-121.033108956653,50.4644596478106],[-121.033156296803,50.4645235488984]]]}},{"type":"Feature","id":"806473874","properties":{"name":"iSP_4KPH_%TR_Permission Blocker - DO NOT DELETE","oid":"806473874","speedLimit":1.1111112},"geometry":{"type":"Polygon","coordinates":[[[-121.022720048047,50.4815454146338],[-121.022686938121,50.4815430778851],[-121.022679329883,50.4815717479935],[-121.022701450131,50.4815728264928],[-121.022705536037,50.4815487400068],[-121.022720048047,50.4815454146338]]]}},{"type":"Feature","id":"824566967","properties":{"name":"iSP_4Cr_3KPH","oid":"824566967","speedLimit":0.8333333},"geometry":{"type":"Polygon","coordinates":[[[-121.023302923643,50.4810685381608],[-121.0232827759,50.4810685381608],[-121.023280098928,50.4811866338422],[-121.023305177936,50.4811859148426],[-121.023302923643,50.4810685381608]]]}},{"type":"Feature","id":"826307302","properties":{"name":"iSP_4KPH_TR%_CRUSHER POCKETS","oid":"826307302","speedLimit":1.1111112},"geometry":{"type":"Polygon","coordinates":[[[-121.023298133271,50.4813217158887],[-121.023337583395,50.4814773792983],[-121.023542301365,50.4814379241962],[-121.023461287716,50.4811890604658],[-121.023052978923,50.4811897794654],[-121.023058332868,50.4813604519912],[-121.02328319858,50.481326479261],[-121.023298133271,50.4813217158887]]]}},{"type":"Feature","id":"849417440","properties":{"name":"iSP_Permissions_35_KPH_June_19_NS","oid":"849417440","speedLimit":9.722222},"geometry":{"type":"Polygon","coordinates":[[[-121.032696280168,50.4660343467707],[-121.033010894914,50.4660150236569],[-121.033217867176,50.4658141531486],[-121.03380666029,50.465379697651],[-121.033727478254,50.4652509068508],[-121.03396361543,50.465400368889],[-121.033427375518,50.4658086707768],[-121.033024984244,50.4661882126813],[-121.032696280168,50.4660343467707]]]}},{"type":"Feature","id":"853029148","properties":{"name":"SP_30KPH_%TR_1635 Flats_AUG_9_NS","oid":"853029148","speedLimit":8.333333},"geometry":{"type":"Polygon","coordinates":[[[-121.01859046533,50.4569710874114],[-121.017409215876,50.4572898738512],[-121.016430711886,50.4584577089227],[-121.018349537782,50.4588932429196],[-121.020692734308,50.45898734199],[-121.020241030377,50.4572319045099],[-121.019423285646,50.4570967325884],[-121.018969045636,50.4570001170195],[-121.01859046533,50.4569710874114]]]}},{"type":"Feature","id":"883050998","properties":{"name":"iSP_22kph_%TR_4CR_Brake_Temp_CTRL_NOREMOVE","oid":"883050998","speedLimit":6.111111},"geometry":{"type":"Polygon","coordinates":[[[-121.031799916973,50.4745592551927],[-121.032189205169,50.474312638336],[-121.032490857732,50.4745749833086],[-121.032792510294,50.4748023669265],[-121.032970317642,50.4748847822536],[-121.033179121518,50.4749349324745],[-121.033463021524,50.47495973796],[-121.033666894134,50.4749221702319],[-121.033828076072,50.4748627628914],[-121.03391923404,50.4748107252966],[-121.034008560394,50.4747475432083],[-121.034059000196,50.4746583872601],[-121.034053223571,50.4745482005741],[-121.03405702769,50.4744838501115],[-121.033994893743,50.4743798647969],[-121.033876543369,50.4742597918667],[-121.033509657207,50.4739378598038],[-121.033061334716,50.4735602052732],[-121.032948056501,50.4734256624763],[-121.032823084141,50.4732211070952],[-121.032606249347,50.472815141956],[-121.032252748049,50.4722092050581],[-121.032487758079,50.4721563585888],[-121.032430696291,50.472205879685],[-121.03290325243,50.4730490864451],[-121.033042455014,50.4733098136686],[-121.033250272636,50.4735471734057],[-121.033743258304,50.4739618564148],[-121.034098309428,50.474271385735],[-121.034203697619,50.4743946941633],[-121.034256391714,50.4744619206243],[-121.034263436379,50.4745930481731],[-121.034238498265,50.4746790584981],[-121.034183972556,50.4747918515576],[-121.03408647439,50.4748760643837],[-121.033973618855,50.4749378983477],[-121.033791021134,50.4750163591771],[-121.033531495669,50.4750646220241],[-121.033263516606,50.475068306897],[-121.033071901714,50.4750265150462],[-121.03280814945,50.474916777735],[-121.032657393616,50.4748353510323],[-121.032495788997,50.4747055716077],[-121.032145246459,50.4744132982775],[-121.031799916973,50.4745592551927]]]}},{"type":"Feature","id":"883053336","properties":{"name":"iSP_22kph_%TR_Brake_Temp_CTRL_NOREMOVE","oid":"883053336","speedLimit":6.111111},"geometry":{"type":"Polygon","coordinates":[[[-121.03246648319,50.4721454837201],[-121.032251620903,50.4722257420485],[-121.031488965453,50.4710085656307],[-121.03081704529,50.469923595261],[-121.030661780869,50.4696604414139],[-121.03059696995,50.4694579531566],[-121.030550616053,50.4692569927733],[-121.03059696995,50.4689731676882],[-121.03072321035,50.4686245427658],[-121.030884955862,50.4683757689103],[-121.031089392045,50.4680980553217],[-121.031688752156,50.4675367862728],[-121.032432668797,50.4668939107713],[-121.032788987961,50.4665564303423],[-121.033148124991,50.4662226347863],[-121.033485000879,50.4658709541156],[-121.033780031456,50.4660343467707],[-121.033587993884,50.4659935435444],[-121.03291987784,50.4666523269116],[-121.032555105078,50.4669915149646],[-121.032179060852,50.4673079646557],[-121.031774837965,50.4676686328212],[-121.031382450115,50.4680346934835],[-121.031147580979,50.4682866129621],[-121.031009223755,50.4684701376055],[-121.030905526284,50.4686547407482],[-121.03082902122,50.4688532745079],[-121.030768155313,50.4691915638113],[-121.030776890698,50.4694008825647],[-121.030874107077,50.4696306029313],[-121.031028103458,50.4699353688792],[-121.03133102406,50.4704040667319],[-121.03153109255,50.4707112593034],[-121.03175074521,50.4710831618373],[-121.032146514499,50.471729093087],[-121.032381806315,50.4721453938452],[-121.03246648319,50.4721454837201]]]}},{"type":"Feature","id":"883059532","properties":{"name":"iSP_22kph_%TR_Brake_CTRL_NOREMOVE","oid":"883059532","speedLimit":6.111111},"geometry":{"type":"Polygon","coordinates":[[[-121.027262589036,50.4773222807124],[-121.027030396872,50.4772101167776],[-121.027334867301,50.476944356557],[-121.027716829046,50.476632760113],[-121.028033557191,50.476323051043],[-121.028190794118,50.4761690952574],[-121.028621645839,50.4756926681592],[-121.028907659244,50.4753260682472],[-121.029264260195,50.4748879278768],[-121.02947306407,50.4746570391359],[-121.02969187137,50.4745407409535],[-121.02980190904,50.4744885236088],[-121.029952664874,50.4745929582981],[-121.029789087749,50.4745423587025],[-121.029556472906,50.4747918515576],[-121.029252284264,50.4751733707109],[-121.029073349769,50.4754783164088],[-121.028853556216,50.4757750834863],[-121.028696460183,50.4759750552451],[-121.028409319631,50.4762709235732],[-121.02804201079,50.4765702970243],[-121.027244272907,50.477219733397],[-121.027262589036,50.4773222807124]]]}},{"type":"Feature","id":"903864124","properties":{"name":"SP_20KPH_%TR_OLD_GARBAGEDUMP_AUG_9_NS","oid":"903864124","speedLimit":5.5555553},"geometry":{"type":"Polygon","coordinates":[[[-121.042585722013,50.4670023898332],[-121.042132890937,50.4673289953935],[-121.040894579695,50.4666616739062],[-121.040724239691,50.466123233094],[-121.042264907962,50.4668265045604],[-121.042585722013,50.4670023898332]]]}},{"type":"Feature","id":"908328496","properties":{"name":"SP_12KPH_%TR_9019_SOFT_GROUND_AUG_9_NS","oid":"908328496","speedLimit":3.3333333},"geometry":{"type":"Polygon","coordinates":[[[-121.039000691913,50.4644892166684],[-121.038982798464,50.4647361031499],[-121.038910238412,50.4649880226286],[-121.03820295403,50.4657216718273],[-121.037625150594,50.4662171524145],[-121.037445511632,50.4665119422432],[-121.037342800414,50.4667330346147],[-121.036964079215,50.4670237800708],[-121.035975290013,50.4664711390169],[-121.037882139979,50.4651401809152],[-121.038521232002,50.4648146538543],[-121.039000691913,50.4644892166684]]]}},{"type":"Feature","id":"910445950","properties":{"name":"SP_30KPH_%TR_1635_FLATS_AUG_9_NS","oid":"910445950","speedLimit":8.333333},"geometry":{"type":"Polygon","coordinates":[[[-121.020225813901,50.4571643185491],[-121.01904470534,50.456961470792],[-121.018651049451,50.4569228245644],[-121.017454724413,50.4572319045099],[-121.018090716784,50.45446923849],[-121.018772076798,50.4538993414461],[-121.018938753576,50.4535129690456],[-121.01955952947,50.4545175912119],[-121.020225813901,50.4571449954354],[-121.020210738317,50.4571449954354],[-121.020225813901,50.4571643185491]]]}},{"type":"Feature","id":"915576987","properties":{"name":"iSP_15kph_prevent shifting","oid":"915576987","speedLimit":4.1666665},"geometry":{"type":"Polygon","coordinates":[[[-121.036998738968,50.4448634939459],[-121.037512858631,50.4453134079345],[-121.037982174224,50.4457958566542],[-121.038526163268,50.4462191676582],[-121.039458876935,50.4468502695416],[-121.039916216597,50.4471000320215],[-121.040472181572,50.4471953893411],[-121.041225397171,50.4473231016419],[-121.041643850281,50.4475099516583],[-121.04232239243,50.4480953970682],[-121.042705058641,50.4485281449417],[-121.042848488024,50.4487951634116],[-121.043009951749,50.4493919330649],[-121.043189168031,50.4501984708463],[-121.043326679895,50.4505016190452],[-121.043688353004,50.4511690304074],[-121.043858833901,50.4514893447213],[-121.044127799217,50.4522539109021],[-121.044384929495,50.4529384883793],[-121.044698698881,50.4537984118797],[-121.044737585433,50.4541950300243],[-121.044573162948,50.4550721196397],[-121.044217548251,50.4568396003628],[-121.044053125766,50.457207638274],[-121.043006852097,50.4583992902066],[-121.041906898078,50.4595376462952],[-121.041345015585,50.4600009516511],[-121.04037355626,50.4605978111793],[-121.039925092875,50.4607312754767],[-121.039135949484,50.4608074894325],[-121.038944757272,50.4608056020586],[-121.039001537273,50.4612937129],[-121.039061276034,50.4609276522376],[-121.039880288805,50.4608800185153],[-121.040708318748,50.4606321434093],[-121.041512396829,50.4600582019928],[-121.042875398645,50.4587005510316],[-121.044244317979,50.4571427485617],[-121.044429733566,50.4562904644318],[-121.044815358537,50.4544218743925],[-121.044812258884,50.4537869078864],[-121.044262352321,50.4523016344993],[-121.04383488204,50.4511861965224],[-121.043347672997,50.4503376871404],[-121.04305179706,50.4493099671125],[-121.042929219886,50.4486921667214],[-121.042241660567,50.4478875163139],[-121.041548183728,50.447391766102],[-121.041093802826,50.4472220822006],[-121.040460205641,50.4471305895037],[-121.039919175357,50.447019953443],[-121.038822180098,50.4463335784668],[-121.038197459192,50.4458720706099],[-121.037154285175,50.4449072630455],[-121.03737844642,50.4446975847923],[-121.036998738968,50.4448634939459]]]}},{"type":"Feature","id":"917291012","properties":{"name":"SP_15KPH_%TR_CORNER_RUTS_AUG_9_NS","oid":"917291012","speedLimit":4.1666665},"geometry":{"type":"Polygon","coordinates":[[[-121.040555731301,50.4664423790336],[-121.040364679981,50.4663132287336],[-121.040274649161,50.4660945629857],[-121.040330865589,50.4660012727899],[-121.03980801054,50.4659761976794],[-121.04008909268,50.4660443228899],[-121.040094728413,50.4663097236107],[-121.040229704197,50.4665140992419],[-121.040538824104,50.4666467546649],[-121.04071310912,50.466725664869],[-121.040819906244,50.4665822244524],[-121.040544459836,50.4664387840357],[-121.040555731301,50.4664423790336]]]}},{"type":"Feature","id":"917665392","properties":{"name":"SP_15KPH_22SH RUTS_AUG 9_NS","oid":"917665392","speedLimit":4.1666665},"geometry":{"type":"Polygon","coordinates":[[[-121.035648276657,50.4455198506895],[-121.035216016002,50.4452079846207],[-121.034707391178,50.4452034009984],[-121.035037785974,50.4456324639991],[-121.035586847176,50.4459569125606],[-121.0360071319,50.4464647060156],[-121.036509698312,50.4462082927896],[-121.035648276657,50.4455198506895]]]}},{"type":"Feature","id":"917773475","properties":{"name":"SP_15KPH_%TR_1200_CORNER_AUG_9_NS","oid":"917773475","speedLimit":4.1666665},"geometry":{"type":"Polygon","coordinates":[[[-121.037099618573,50.4446827554259],[-121.03692547445,50.4448623255716],[-121.0366298803,50.4448208033457],[-121.036415299799,50.444870144692],[-121.036323719152,50.4449678387603],[-121.036255104113,50.4450823394437],[-121.036242846396,50.4451451620322],[-121.036263980392,50.4452674818362],[-121.036316674487,50.4453516946622],[-121.036184798355,50.4453954637618],[-121.036089695376,50.4451945033786],[-121.03616366436,50.4449318887812],[-121.036260458059,50.4447915939877],[-121.036517306551,50.444715290157],[-121.036714416282,50.4447119647839],[-121.036923783731,50.444770293625],[-121.037094405521,50.4446838339253],[-121.037099618573,50.4446827554259]]]}},{"type":"Feature","id":"919196848","properties":{"name":"SPD_25_kph_1445bench_aug10_ds","oid":"919196848","speedLimit":6.9444447},"geometry":{"type":"Polygon","coordinates":[[[-121.037820569605,50.4671985868442],[-121.037497078581,50.4670226116965],[-121.038304256315,50.4660839577418],[-121.038722004959,50.4655215203186],[-121.038861207543,50.4653853597727],[-121.039483110583,50.4654977933324],[-121.039065502833,50.4661728440652],[-121.038889104417,50.4666286898004],[-121.038991111168,50.4671734218589],[-121.038944757272,50.4674221058394],[-121.038155754774,50.4672681500538],[-121.037719549107,50.4671260577614],[-121.037820569605,50.4671985868442]]]}},{"type":"Feature","id":"919266915","properties":{"name":"SP_15KM","oid":"919266915","speedLimit":4.1666665},"geometry":{"type":"Polygon","coordinates":[[[-121.0420873824,50.4624111281258],[-121.041935781206,50.4623153214314],[-121.04122962397,50.4628178122645],[-121.041490558367,50.4629421991922],[-121.0420873824,50.4624111281258]]]}}]}