{"type":"FeatureCollection","features":[{"type":"Feature","id":"702602533","properties":{"name":"iSP_4KPH_%TR_CR01_SLOW BUMP","oid":"702602533","speedLimit":1.1111112},"geometry":{"type":"Polygon","coordinates":[[[-121.033359418009,50.464807842129],[-121.03365416153,50.464690825641],[-121.033697555892,50.4647315387509],[-121.033369703037,50.4648696757264],[-121.033359418009,50.464807842129]]]}},{"type":"Feature","id":"707947583","properties":{"name":"iSP_22KPH_%TR_Permission Gate 1 from west dump_Jun","oid":"707947583","speedLimit":6.111111},"geometry":{"type":"Polygon","coordinates":[[[-121.038629015129,50.4619779664305],[-121.038855708401,50.4617994758428],[-121.037981481084,50.461351002513],[-121.037744361894,50.4615422552676],[-121.037960488357,50.4614965091905],[-121.038667478313,50.4618460307896],[-121.038629015129,50.4619779664305]]]}},{"type":"Feature","id":"742345972","properties":{"name":"iSP_4KPH_%TR_CR01_PITSIDE_SLOW BUMP","oid":"742345972","speedLimit":1.1111112},"geometry":{"type":"Polygon","coordinates":[[[-121.033399290101,50.464882797391],[-121.033706572902,50.4647443009178],[-121.033756730022,50.4647763860839],[-121.033475230234,50.4649182977848],[-121.033399290101,50.464882797391]]]}},{"type":"Feature","id":"776427243","properties":{"name":"iSP_7KPH_%TR_CR1_PermissionBlocker_DO_NOT_DELETE","oid":"776427243","speedLimit":1.9444444},"geometry":{"type":"Polygon","coordinates":[[[-121.034100503536,50.4652128162421],[-121.034052037106,50.4652331278598],[-121.034030903488,50.465274559965],[-121.034116565085,50.4652254885346],[-121.034100503536,50.4652128162421]]]}},{"type":"Feature","id":"794004438","properties":{"name":"iSP_11KPH_%TR_LOWER_FUEL_BAY","oid":"794004438","speedLimit":3.0555556},"geometry":{"type":"Polygon","coordinates":[[[-121.036777287549,50.4606954585315],[-121.036779400911,50.4607252968372],[-121.036749672955,50.4606708329418],[-121.03712585135,50.4605991131588],[-121.037535843533,50.4605560633141],[-121.037543592526,50.4605814078991],[-121.036945088473,50.4606502517008],[-121.036777287549,50.4606954585315]]]}},{"type":"Feature","id":"801543391","properties":{"name":"iSP_4KPH_%TR_CR1_PermissionBlocker_DO_NOT_DELETE_","oid":"801543391","speedLimit":1.1111112},"geometry":{"type":"Polygon","coordinates":[[[-121.033155971717,50.4645232997318],[-121.033155126372,50.4644738688037],[-121.033176682662,50.4644318075776],[-121.033108632413,50.4644593990229],[-121.033155971717,50.4645232997318]]]}},{"type":"Feature","id":"806473874","properties":{"name":"iSP_4KPH_%TR_Permission Blocker - DO NOT DELETE","oid":"806473874","speedLimit":1.1111112},"geometry":{"type":"Polygon","coordinates":[[[-121.022719909532,50.481545064521],[-121.022686800197,50.4815427277862],[-121.022679192095,50.4815713977246],[-121.022701311948,50.4815724762175],[-121.022705397781,50.4815483898744],[-121.022719909532,50.481545064521]]]}},{"type":"Feature","id":"824566967","properties":{"name":"iSP_4Cr_3KPH","oid":"824566967","speedLimit":0.8333333},"geometry":{"type":"Polygon","coordinates":[[[-121.023302774707,50.4810681908761],[-121.023282627325,50.4810681908761],[-121.0232799504,50.4811862858572],[-121.023305028959,50.4811855668619],[-121.023302774707,50.4810681908761]]]}},{"type":"Feature","id":"826307302","properties":{"name":"iSP_4KPH_TR%_CRUSHER POCKETS","oid":"826307302","speedLimit":1.1111112},"geometry":{"type":"Polygon","coordinates":[[[-121.02329798442,50.4813213671026],[-121.02333743384,50.481477029589],[-121.02354214815,50.4814375747209],[-121.023461135949,50.4811887124664],[-121.023052834455,50.4811894314617],[-121.023058188305,50.4813601029754],[-121.023283049997,50.4813261304466],[-121.02329798442,50.4813213671026]]]}},{"type":"Feature","id":"835348611","properties":{"name":"iSP_35KPH_%TR_switchback to 1 gate_AUG_27_DS","oid":"835348611","speedLimit":9.722222},"geometry":{"type":"Polygon","coordinates":[[[-121.039920842732,50.4634033746491],[-121.039548609279,50.4634578385445],[-121.039801790019,50.4633741654643],[-121.039545509682,50.4629227262788],[-121.03936559215,50.4625822819956],[-121.039179475424,50.4622611607115],[-121.038987300394,50.4620179605451],[-121.038746377153,50.4618369534737],[-121.038563360024,50.4617300029201],[-121.038026566135,50.4614322489839],[-121.037959361231,50.461414723473],[-121.037840449409,50.4614575935689],[-121.037954993616,50.461347767034],[-121.038145477957,50.4613856041626],[-121.038484038512,50.4615703859595],[-121.038867825009,50.4617907580245],[-121.039055350643,50.4619261987676],[-121.03923991757,50.4621304833124],[-121.039454071563,50.4625355472999],[-121.039582141286,50.4627534927558],[-121.039759100111,50.4630609531288],[-121.039862795728,50.4632593958366],[-121.039944794165,50.463323835792],[-121.039920842732,50.4634033746491]]]}},{"type":"Feature","id":"849417440","properties":{"name":"iSP_Permissions_35_KPH_June_19_NS","oid":"849417440","speedLimit":9.722222},"geometry":{"type":"Polygon","coordinates":[[[-121.032695963306,50.4660340886444],[-121.033010572427,50.4660147656453],[-121.03321754099,50.4658138963282],[-121.033806323578,50.4653794434071],[-121.033727142957,50.4652506533707],[-121.033963275912,50.4654001145225],[-121.033427045586,50.4658084139889],[-121.033024661506,50.4661879536426],[-121.032695963306,50.4660340886444]]]}},{"type":"Feature","id":"853029148","properties":{"name":"SP_15KPH_%TR_1635 Flats_AUG_27_DS","oid":"853029148","speedLimit":4.1666665},"geometry":{"type":"Polygon","coordinates":[[[-121.017602756241,50.4567739681909],[-121.016438998361,50.4570839450475],[-121.014801424774,50.4577460498613],[-121.013837309136,50.4588994981007],[-121.014982610323,50.4587965918958],[-121.019118600191,50.4574577327387],[-121.019253291781,50.4570347837426],[-121.018435561668,50.4568996126228],[-121.017981329779,50.4568029976269],[-121.017602756241,50.4567739681909]]]}},{"type":"Feature","id":"855316169","properties":{"name":"SP_25KPH_TR%_CRUSHER YARD EMPTY_AUG_27_DS","oid":"855316169","speedLimit":6.9444447},"geometry":{"type":"Polygon","coordinates":[[[-121.037912726381,50.462234827508],[-121.037771272033,50.4621194287594],[-121.037596708351,50.4622032815884],[-121.037546269451,50.4622375237404],[-121.037609388522,50.4622264691874],[-121.037905822733,50.4624612211589],[-121.037720128679,50.4625137976915],[-121.038123358104,50.4625063381151],[-121.038121667414,50.4624941151947],[-121.037912726381,50.462234827508]]]}},{"type":"Feature","id":"859339791","properties":{"name":"SP_15KPH_TR%_1230_to_1215_Ramp1_AUG 20_DS","oid":"859339791","speedLimit":4.1666665},"geometry":{"type":"Polygon","coordinates":[[[-121.040704195493,50.4473791259897],[-121.040682216531,50.4475609419308],[-121.040631073176,50.4474350278757],[-121.040163174881,50.4474148061323],[-121.039902386039,50.447393056524],[-121.039488167133,50.4472142963129],[-121.039190887577,50.447009113024],[-121.038966730339,50.4468505745563],[-121.038844859811,50.4468599214954],[-121.039047038087,50.4467557570487],[-121.039456466706,50.4470184599631],[-121.039719650691,50.4471738528263],[-121.040160779738,50.4472749615429],[-121.040553019681,50.4473091138205],[-121.040689542852,50.4473278076988],[-121.040704195493,50.4473791259897]]]}},{"type":"Feature","id":"859384545","properties":{"name":"SP_20KPH_TR%_MAINT_CREW_L1590_DUST_AUG_27_DS","oid":"859384545","speedLimit":5.5555553},"geometry":{"type":"Polygon","coordinates":[[[-121.013533971277,50.4515903714435],[-121.013429712097,50.4510354868066],[-121.012756535928,50.4483268516936],[-121.012536182742,50.4488172963751],[-121.013394207619,50.4517792874634],[-121.013277409159,50.4521785096139],[-121.013116793664,50.4521877666786],[-121.01344295583,50.4522149986263],[-121.013533971277,50.4515903714435]]]}},{"type":"Feature","id":"878230085","properties":{"name":"SP_30KPH_TR%_PUNCH_OUT_L1590_DMP_AUG_27_DS1","oid":"878230085","speedLimit":8.333333},"geometry":{"type":"Polygon","coordinates":[[[-121.013652883099,50.453327554007],[-121.013645274997,50.4527796795744],[-121.01374108073,50.4524494809745],[-121.013097914299,50.4524617937693],[-121.013065509419,50.4528629931569],[-121.013204991295,50.4533674582471],[-121.013610334082,50.4545820210886],[-121.013328975186,50.4549546404123],[-121.01304423491,50.4549500568172],[-121.013783347965,50.4551889430117],[-121.014113032401,50.4546825905588],[-121.014059353012,50.4542961305752],[-121.013652883099,50.453327554007]]]}},{"type":"Feature","id":"883050998","properties":{"name":"iSP_22kph_%TR_4CR_Brake_Temp_CTRL_NOREMOVE","oid":"883050998","speedLimit":6.111111},"geometry":{"type":"Polygon","coordinates":[[[-121.031799616135,50.4745589465105],[-121.032188897372,50.4743123311164],[-121.032490544542,50.4745746745331],[-121.032792191711,50.4748020568025],[-121.032969995881,50.4748844716409],[-121.033178796024,50.4749346215644],[-121.033462690954,50.4749594269028],[-121.03366655992,50.4749218593975],[-121.033827738977,50.4748624524093],[-121.033918895314,50.4748104151231],[-121.034008220072,50.4747472334095],[-121.034058658973,50.47465807799],[-121.03405288245,50.4745478919575],[-121.034056686502,50.4744835418765],[-121.033994553666,50.4743795571786],[-121.033876205407,50.4742594849605],[-121.033509325804,50.4739375548067],[-121.033061011328,50.4735599025157],[-121.032947735137,50.4734253605168],[-121.032822765012,50.4732208063487],[-121.032605934094,50.4728148436171],[-121.032252439116,50.4722089103126],[-121.032487444945,50.4721560641567],[-121.032430384177,50.4722055849593],[-121.032902931868,50.4730487867188],[-121.033042131963,50.4733095123961],[-121.03324994587,50.4735468707256],[-121.033742922725,50.4739615512754],[-121.034097967502,50.47427107876],[-121.034203353808,50.4743943864571],[-121.034256046962,50.4744616125193],[-121.034263091501,50.4745927392905],[-121.034238153832,50.4746787491054],[-121.034183629098,50.474791541496],[-121.034086132676,50.4748757538227],[-121.033973279157,50.47493758742],[-121.033790684701,50.4750160477842],[-121.033531163876,50.4750643103449],[-121.033263189604,50.4750679951959],[-121.033071578137,50.475026203593],[-121.032807830588,50.4749164669326],[-121.032657077449,50.4748350407128],[-121.032495475719,50.4747052620578],[-121.032144939448,50.4744129904609],[-121.031799616135,50.4745589465105]]]}},{"type":"Feature","id":"883053336","properties":{"name":"iSP_22kph_%TR_Brake_Temp_CTRL_NOREMOVE","oid":"883053336","speedLimit":6.111111},"geometry":{"type":"Polygon","coordinates":[[[-121.032466170436,50.4721451893525],[-121.03225131199,50.4722254472049],[-121.031488670174,50.4710082780054],[-121.030816762023,50.4699233140701],[-121.030661500378,50.4696601617836],[-121.030596690617,50.469457674727],[-121.030550337549,50.4692567155356],[-121.030596690617,50.4689728921337],[-121.03072292876,50.4686242692787],[-121.030884671381,50.4683754968986],[-121.031089103909,50.4680977849568],[-121.031688453306,50.4675365192365],[-121.032432356648,50.4668936475475],[-121.032788669442,50.46655616912],[-121.033147800051,50.4662223755434],[-121.033484669917,50.4658706969584],[-121.033779695219,50.4660340886444],[-121.03358766108,50.4659932856601],[-121.03291955698,50.4666520651205],[-121.03255479074,50.466991251162],[-121.032178753236,50.4673076989764],[-121.031774537575,50.467668365003],[-121.031382156741,50.4680344234944],[-121.031147291803,50.4682863414791],[-121.031008937053,50.4684698650341],[-121.030905241435,50.4686544670821],[-121.030828737739,50.4688529996643],[-121.03076787292,50.4691912869616],[-121.030776608149,50.4694006044736],[-121.03087382279,50.4696303234778],[-121.031027816418,50.4699350876184],[-121.031330731604,50.4704037826915],[-121.031530796518,50.4707109734413],[-121.031750445251,50.4710828737697],[-121.032146207465,50.4717288011888],[-121.032381495075,50.4721450994781],[-121.032466170436,50.4721451893525]]]}},{"type":"Feature","id":"883059532","properties":{"name":"iSP_22kph_%TR_Brake_CTRL_NOREMOVE","oid":"883059532","speedLimit":6.111111},"geometry":{"type":"Polygon","coordinates":[[[-121.027262369313,50.4773219556444],[-121.0270301813,50.4772097923748],[-121.027334646285,50.4769440337302],[-121.027716601202,50.4766324391342],[-121.028033323685,50.4763227319008],[-121.028190557801,50.4761687770283],[-121.02862140182,50.4756923527555],[-121.028907410112,50.4753257550175],[-121.029264004687,50.4748876172454],[-121.02947280483,50.4746567298738],[-121.029691608218,50.4745404323811],[-121.029801643921,50.4744882153461],[-121.02995239706,50.4745926494161],[-121.029788822859,50.4745420501206],[-121.029556212174,50.474791541496],[-121.029252028971,50.4751730583868],[-121.029073097674,50.4754780022762],[-121.028853308051,50.4757747675938],[-121.028696214826,50.4759747381667],[-121.028409079407,50.4762706047402],[-121.028041777132,50.4765699764159],[-121.027244053511,50.4772194089372],[-121.027262369313,50.4773219556444]]]}},{"type":"Feature","id":"891249991","properties":{"name":"SP_30KPH_TR%_1590 #1_AUG_27_DS","oid":"891249991","speedLimit":8.333333},"geometry":{"type":"Polygon","coordinates":[[[-121.012957023515,50.4498607383308],[-121.013847594163,50.4497488446844],[-121.013378991414,50.4450041945788],[-121.01213887073,50.443083847958],[-121.011299584327,50.4419103577241],[-121.01052975708,50.4421497831651],[-121.011008785748,50.4427017019463],[-121.011240832869,50.4430299233091],[-121.01145639577,50.443520008493],[-121.01177438627,50.4445106941672],[-121.012957023515,50.4498607383308]]]}},{"type":"Feature","id":"893804793","properties":{"name":"SP_20KPH_%TR_1590Dynamic_AUG_27_DS","oid":"893804793","speedLimit":5.5555553},"geometry":{"type":"Polygon","coordinates":[[[-121.011186589917,50.4418408848014],[-121.010484249357,50.4421101485482],[-121.005981943449,50.4380482743717],[-121.006514510615,50.4376817665082],[-121.010067353526,50.4407334522624],[-121.011186589917,50.4418408848014]]]}},{"type":"Feature","id":"908328496","properties":{"name":"SP_15KPH_%TR_9019_SOFT_GROUND_AUG_27_DS","oid":"908328496","speedLimit":4.1666665},"geometry":{"type":"Polygon","coordinates":[[[-121.038886281701,50.4644515799488],[-121.038900652561,50.464753018736],[-121.03937996301,50.4648989747856],[-121.038731301839,50.4665301055397],[-121.038275942823,50.4671547327225],[-121.037820583808,50.4675725588768],[-121.037502734198,50.4696996166517],[-121.035469680179,50.4697242422413],[-121.035228897828,50.4668159061787],[-121.037881730408,50.4651399280917],[-121.038520811007,50.4648144029613],[-121.038886281701,50.4644515799488]]]}},{"type":"Feature","id":"910445950","properties":{"name":"SP_25KPH_%TR_1635_FLATS_AUG_27_DS","oid":"910445950","speedLimit":6.9444447},"geometry":{"type":"Polygon","coordinates":[[[-121.020225719975,50.4571641130255],[-121.019044632529,50.4569612664714],[-121.018650983677,50.456922620473],[-121.017842975028,50.4571469470123],[-121.018448946292,50.4564124932946],[-121.018505302606,50.4561073696564],[-121.019236103105,50.4561250749161],[-121.019236666668,50.4564588684927],[-121.019424474084,50.4568918834231],[-121.01975782168,50.4570619258159],[-121.020225719975,50.4571641130255]]]}},{"type":"Feature","id":"917291012","properties":{"name":"SP_20KPH_%TR_CORNER_RUTS_AUG_27_DS","oid":"917291012","speedLimit":5.5555553},"geometry":{"type":"Polygon","coordinates":[[[-121.040610644012,50.4662213869249],[-121.040684893456,50.4661072464181],[-121.040422977487,50.4659262393467],[-121.040121189427,50.4658981086549],[-121.040017071137,50.4663105423443],[-121.039934086465,50.4664858873276],[-121.039995233066,50.4668200404018],[-121.040667422998,50.4667392433029],[-121.040549497412,50.4666223166892],[-121.040532026955,50.4663773190345],[-121.040610644012,50.4662213869249]]]}},{"type":"Feature","id":"917665392","properties":{"name":"SP_15KPH_%TR_22SH RUTS_AUG 27_DS","oid":"917665392","speedLimit":4.1666665},"geometry":{"type":"Polygon","coordinates":[[[-121.035647907021,50.4455197142221],[-121.035215654094,50.4452078500027],[-121.033734187496,50.4447560513196],[-121.033078200004,50.4452864002413],[-121.035586478639,50.4459567735012],[-121.036390965018,50.4468446428449],[-121.03687267061,50.4466102503711],[-121.035647907021,50.4455197142221]]]}},{"type":"Feature","id":"920440343","properties":{"name":"iSP_17KPH_CAL_PAD_ROAD_LIMIT_AUG_23_NS","oid":"920440343","speedLimit":4.7222223},"geometry":{"type":"Polygon","coordinates":[[[-121.005955455982,50.4378308681623],[-121.005969122388,50.4376131923297],[-121.00558688569,50.4375784109312],[-121.005286647428,50.4376828450012],[-121.005191123476,50.4378351821342],[-121.005286647428,50.4381616958832],[-121.005989551552,50.4392587928645],[-121.007470454587,50.4413701226168],[-121.007675168897,50.4416487333026],[-121.007784359255,50.4421537376393],[-121.007934548831,50.442663055948],[-121.008118833977,50.4432333091098],[-121.008323548287,50.4436512251386],[-121.008685214931,50.4445611137139],[-121.008760309719,50.4449224088614],[-121.008760309719,50.4451792699388],[-121.008692118579,50.445618935576],[-121.008494167027,50.4462283739827],[-121.008944594865,50.4462153421925],[-121.009135642768,50.4457321773386],[-121.009319927914,50.4449180948894],[-121.009217500314,50.4444522757976],[-121.008999119598,50.4437992482997],[-121.008773976125,50.443377018299],[-121.008460071457,50.4427370225913],[-121.008296215475,50.4420753671496],[-121.008241690741,50.4417445394288],[-121.007920882425,50.4411959460009],[-121.006815312439,50.4398333599983],[-121.006603835372,50.4394938144592],[-121.006228502322,50.4387798521081],[-121.005989551552,50.438388089534],[-121.005935026818,50.4380572618132],[-121.005955455982,50.4378308681623]]]}},{"type":"Feature","id":"922262468","properties":{"name":"SP_20kph_HMT_DUMP_AUG_27_DS","oid":"922262468","speedLimit":5.5555553},"geometry":{"type":"Polygon","coordinates":[[[-121.012501664499,50.4364265804312],[-121.012481798899,50.4374172661055],[-121.016364185355,50.4384078619053],[-121.01718050656,50.436959985083],[-121.016523532832,50.435905848072],[-121.014771415037,50.4353089022089],[-121.012899962747,50.4352073441202],[-121.012501664499,50.4364265804312]]]}},{"type":"Feature","id":"922385545","properties":{"name":"SP_27KPH_RUTS_AUG 27_DS","oid":"922385545","speedLimit":7.5},"geometry":{"type":"Polygon","coordinates":[[[-121.007511876478,50.4337192934345],[-121.006870400736,50.4335258836939],[-121.00651901912,50.4340724100102],[-121.007226290858,50.4343190254044],[-121.007511876478,50.4337192934345]]]}},{"type":"Feature","id":"923351007","properties":{"name":"iSP_17KPH_PERMISSIONS_AUG 18_NS","oid":"923351007","speedLimit":4.7222223},"geometry":{"type":"Polygon","coordinates":[[[-121.038854017712,50.4608772744726],[-121.03887346064,50.4611348545454],[-121.038784135883,50.4608895872674],[-121.03853940859,50.4608895872674],[-121.038535604539,50.4608301802792],[-121.038881209633,50.4608227207028],[-121.038854017712,50.4608772744726]]]}},{"type":"Feature","id":"923607825","properties":{"name":"MRK_CROSS DITCH ","oid":"923607825","speedLimit":2.7777777},"geometry":{"type":"Polygon","coordinates":[[[-121.03518606703,50.4458454191013],[-121.035617474612,50.4454861011909],[-121.035587042202,50.4454714516613],[-121.035137741491,50.4458266353486],[-121.03518606703,50.4458454191013]]]}},{"type":"Feature","id":"924222108","properties":{"name":"SP_11kph_rough ground_23SH _AUG_27_DS","oid":"924222108","speedLimit":3.0555556},"geometry":{"type":"Polygon","coordinates":[[[-121.040369438989,50.4714162179742],[-121.040870446619,50.4718388074725],[-121.041446267255,50.4722543867665],[-121.042123106583,50.4716711018145],[-121.040529209139,50.4711216995169],[-121.040455100586,50.4712673859433],[-121.040369438989,50.4714162179742]]]}},{"type":"Feature","id":"924266047","properties":{"name":"SP_12KPH_%TR_CROSS DITCH_AUG_27_DNS ","oid":"924266047","speedLimit":3.3333333},"geometry":{"type":"Polygon","coordinates":[[[-121.03761615128,50.4473123492995],[-121.037894128797,50.4474715168881],[-121.037657714061,50.4477507566948],[-121.037463002997,50.447692068702],[-121.037268151042,50.4475133983654],[-121.03761615128,50.4473123492995]]]}},{"type":"Feature","id":"926023128","properties":{"name":"SP_10KPH_TR%_4CR_1_AUG_27_DS","oid":"926023128","speedLimit":2.7777777},"geometry":{"type":"Polygon","coordinates":[[[-121.022862350115,50.4811967112893],[-121.022835862647,50.4815102831225],[-121.022151556107,50.4816162450575],[-121.021885836088,50.4812730146674],[-121.02189344419,50.4811096229814],[-121.02249321626,50.4810276575151],[-121.022510264044,50.4812221457487],[-121.022822478023,50.4810186700736],[-121.022981966391,50.4812602525006],[-121.022862350115,50.4811967112893]]]}},{"type":"Feature","id":"926367691","properties":{"name":"SP_10KPH_%TR_AUG_27_DS","oid":"926367691","speedLimit":2.7777777},"geometry":{"type":"Polygon","coordinates":[[[-121.038765115627,50.4500238603937],[-121.037840026736,50.4500349149467],[-121.038207469902,50.4520286889644],[-121.038181545998,50.452387198005],[-121.038951091462,50.4525305476966],[-121.03907648426,50.452458917788],[-121.03882133105,50.4510166131795],[-121.038765115627,50.4500238603937]]]}},{"type":"Feature","id":"927557801","properties":{"name":"MSG_SINGLE LANE AHEADDDDDDDD","oid":"927557801","speedLimit":5.5555553},"geometry":{"type":"Polygon","coordinates":[[[-121.038814004729,50.4461195360664],[-121.038212401079,50.4464478473036],[-121.039014633206,50.4469475490498],[-121.0398433528,50.4475196895744],[-121.041270153774,50.4476838901302],[-121.04178482781,50.4473941350169],[-121.040857625557,50.4470465007805],[-121.038950246118,50.4461581820647],[-121.038814004729,50.4461195360664]]]}},{"type":"Feature","id":"927557887","properties":{"name":"SP_15KPH_04 AMT DOWN ","oid":"927557887","speedLimit":4.1666665},"geometry":{"type":"Polygon","coordinates":[[[-121.039813061282,50.4468050981024],[-121.039317407502,50.4470803834349],[-121.039888860524,50.447326549457],[-121.040214318236,50.4470248410466],[-121.039813061282,50.4468050981024]]]}}]}