{"type":"FeatureCollection","features":[{"type":"Feature","id":"702602533","properties":{"name":"iSP_4KPH_%TR_CR01_SLOW BUMP","oid":"702602533","speedLimit":1.1111112},"geometry":{"type":"Polygon","coordinates":[[[-121.033358078749,50.4648077653768],[-121.033652830861,50.4646907484553],[-121.033696226488,50.464731461716],[-121.033368364076,50.4648695992031],[-121.033358078749,50.4648077653768]]]}},{"type":"Feature","id":"707947583","properties":{"name":"iSP_25KPH_%TR_Permission Gate 1 from west dump_Jun","oid":"707947583","speedLimit":6.9444447},"geometry":{"type":"Polygon","coordinates":[[[-121.038627829469,50.4619778791978],[-121.038854529349,50.461799387949],[-121.038139487776,50.4614081631725],[-121.03799182993,50.4616708670598],[-121.038191337096,50.4615667921021],[-121.038666293775,50.4618459430682],[-121.038627829469,50.4619778791978]]]}},{"type":"Feature","id":"742345972","properties":{"name":"iSP_4KPH_%TR_CR01_PITSIDE_SLOW BUMP","oid":"742345972","speedLimit":1.1111112},"geometry":{"type":"Polygon","coordinates":[[[-121.033397952003,50.4648827209163],[-121.033705243761,50.4647442239302],[-121.033755402342,50.4647763092151],[-121.03347389435,50.4649182214416],[-121.033397952003,50.4648827209163]]]}},{"type":"Feature","id":"776427243","properties":{"name":"iSP_7KPH_%TR_CR1_PermissionBlocker_DO_NOT_DELETE","oid":"776427243","speedLimit":1.9444444},"geometry":{"type":"Polygon","coordinates":[[[-121.034099185877,50.4652127409896],[-121.034050718034,50.4652330526826],[-121.0340295838,50.4652744849413],[-121.034115247894,50.4652254133291],[-121.034099185877,50.4652127409896]]]}},{"type":"Feature","id":"794004438","properties":{"name":"iSP_11KPH_%TR_LOWER_FUEL_BAY","oid":"794004438","speedLimit":3.0555556},"geometry":{"type":"Polygon","coordinates":[[[-121.036776047914,50.4606953665489],[-121.036778161338,50.4607252049651],[-121.036748432516,50.4606707408681],[-121.037124621875,50.4605990208194],[-121.037534626009,50.4605559708153],[-121.037542375228,50.4605813154942],[-121.03694385373,50.4606501595508],[-121.036776047914,50.4606953665489]]]}},{"type":"Feature","id":"801543391","properties":{"name":"iSP_4KPH_%TR_CR1_PermissionBlocker_DO_NOT_DELETE_","oid":"801543391","speedLimit":1.1111112},"geometry":{"type":"Polygon","coordinates":[[[-121.033154626526,50.4645232219257],[-121.033153781157,50.4644737908145],[-121.033175338075,50.4644317294326],[-121.033107285843,50.4644593209802],[-121.033154626526,50.4645232219257]]]}},{"type":"Feature","id":"806473874","properties":{"name":"iSP_4KPH_%TR_Permission Blocker - DO NOT DELETE","oid":"806473874","speedLimit":1.1111112},"geometry":{"type":"Polygon","coordinates":[[[-121.022718260146,50.4815450497554],[-121.022685149846,50.4815427130119],[-121.022677541522,50.4815713830564],[-121.02269966202,50.4815724615534],[-121.022703747972,50.481548375121],[-121.022718260146,50.4815450497554]]]}},{"type":"Feature","id":"824566967","properties":{"name":"iSP_4Cr_3KPH","oid":"824566967","speedLimit":0.8333333},"geometry":{"type":"Polygon","coordinates":[[[-121.023301142311,50.4810681743444],[-121.023280994341,50.4810681743444],[-121.023278317338,50.4811862697628],[-121.023303396629,50.4811855507648],[-121.023301142311,50.4810681743444]]]}},{"type":"Feature","id":"826307302","properties":{"name":"iSP_4KPH_TR%_CRUSHER POCKETS","oid":"826307302","speedLimit":1.1111112},"geometry":{"type":"Polygon","coordinates":[[[-121.023296351884,50.4813213515085],[-121.023335802454,50.4814770145714],[-121.023540522731,50.4814375595572],[-121.023459508168,50.481188696381],[-121.023051194774,50.4811894153789],[-121.02305654878,50.4813600875247],[-121.023281417026,50.4813261148701],[-121.023296351884,50.4813213515085]]]}},{"type":"Feature","id":"883050998","properties":{"name":"iSP_22kph_%TR_4CR_Brake_Temp_CTRL_NOREMOVE","oid":"883050998","speedLimit":6.111111},"geometry":{"type":"Polygon","coordinates":[[[-121.031798231409,50.4745589058717],[-121.032187523993,50.4743122895641],[-121.032489179955,50.4745746339525],[-121.032790835917,50.474802017064],[-121.03296864527,50.4748844322076],[-121.033177451498,50.4749345823168],[-121.033461354704,50.4749593877472],[-121.033665229612,50.4749218201026],[-121.033826413367,50.4748624128944],[-121.033917572362,50.4748103754156],[-121.034006899723,50.474747193468],[-121.034057340094,50.4746580377183],[-121.034051563403,50.4745478512777],[-121.034055367565,50.4744835009584],[-121.033993232918,50.4743795158754],[-121.03387488121,50.4742594432125],[-121.033507990913,50.4739375118665],[-121.033059663369,50.4735598581769],[-121.032946383877,50.4734253156797],[-121.032821410108,50.473220760754],[-121.032604572871,50.4728147965189],[-121.032251067589,50.4722088609703],[-121.032486080267,50.4721560146187],[-121.032429017836,50.4722055356047],[-121.032901579302,50.473048740487],[-121.033040783454,50.4733094671299],[-121.033248603419,50.4735468263385],[-121.033741594643,50.4739615084241],[-121.034096649769,50.474271037055],[-121.034202039147,50.4743943452087],[-121.034254733836,50.47446157152],[-121.034261778581,50.4745926987768],[-121.034236840185,50.4746787089103],[-121.034182313862,50.4747915017186],[-121.034084814598,50.4748757143571],[-121.03397195779,50.4749375481835],[-121.033789358011,50.4750160088382],[-121.033529829621,50.4750642715776],[-121.033261847538,50.4750679564423],[-121.033070230486,50.4750261646846],[-121.03280647525,50.4749164276178],[-121.032655717716,50.4748350010964],[-121.032494111276,50.4747052219608],[-121.032143564787,50.4744129492815],[-121.031798231409,50.4745589058717]]]}},{"type":"Feature","id":"883053336","properties":{"name":"iSP_22kph_%TR_Brake_Temp_CTRL_NOREMOVE","oid":"883053336","speedLimit":6.111111},"geometry":{"type":"Polygon","coordinates":[[[-121.032464805139,50.4721451397742],[-121.03224994043,50.4722253979239],[-121.031487276384,50.4710082242166],[-121.030815348648,50.469923256263],[-121.030660082478,50.469660103002],[-121.030595270828,50.4694576151955],[-121.030548916408,50.4692566552598],[-121.030595270828,50.4689728308067],[-121.03072151265,50.4686242066606],[-121.030883259985,50.4683754333592],[-121.031087698472,50.4680977203889],[-121.031687065339,50.4675364525899],[-121.032430990365,50.46689357852],[-121.032787313545,50.4665560988426],[-121.033146454622,50.4662223040299],[-121.033483334307,50.4658706241424],[-121.033778368209,50.4660340164336],[-121.033586328473,50.4659932132982],[-121.032918204899,50.4666519951984],[-121.032553428025,50.466991182496],[-121.032177379561,50.4673076314824],[-121.031773152118,50.4676682988447],[-121.031380759846,50.4680343586918],[-121.031145888062,50.4682862776095],[-121.031007529279,50.4684698018442],[-121.030903830639,50.4686544045758],[-121.030827324713,50.4688529378934],[-121.03076645812,50.4691912264435],[-121.030775193604,50.4694005447308],[-121.030872411079,50.4696302645857],[-121.031026409195,50.469935029855],[-121.031329333211,50.4704037266639],[-121.031529403956,50.4707109185514],[-121.031749059092,50.4710828202571],[-121.032144832841,50.4717287500684],[-121.032380127309,50.4721450498995],[-121.032464805139,50.4721451397742]]]}},{"type":"Feature","id":"883059532","properties":{"name":"iSP_22kph_%TR_Brake_CTRL_NOREMOVE","oid":"883059532","speedLimit":6.111111},"geometry":{"type":"Polygon","coordinates":[[[-121.027260852333,50.4773219252384],[-121.027028657552,50.4772097615534],[-121.027333131412,50.4769440019246],[-121.027715097462,50.4766324061745],[-121.028031829177,50.4763226977941],[-121.028189067876,50.4761687423514],[-121.028619924453,50.4756923163142],[-121.028905941082,50.4753257172185],[-121.029262546052,50.4748875778238],[-121.029471352281,50.4746566895971],[-121.029690162047,50.4745403916736],[-121.029800200957,50.4744881744453],[-121.02995095849,50.474592608902],[-121.029787379522,50.4745420094191],[-121.029554762056,50.4747915017186],[-121.029250569986,50.4751730200223],[-121.029071633474,50.475477965041],[-121.028851837444,50.4757747314578],[-121.02869473964,50.4759747027713],[-121.028407595852,50.4762705704405],[-121.028040282871,50.4765699432249],[-121.027242535997,50.4772193781514],[-121.027260852333,50.4773219252384]]]}},{"type":"Feature","id":"884401102","properties":{"name":"iSP_30KPH_MAIN INT_LIMIT_POLICY_SEPT_8_NS","oid":"884401102","speedLimit":8.333333},"geometry":{"type":"Polygon","coordinates":[[[-121.036991617098,50.4611012409093],[-121.037107714488,50.4611077118911],[-121.038294049472,50.4609920430909],[-121.038277705665,50.4603978811342],[-121.038119198912,50.4605657671628],[-121.037032053932,50.4607083983873],[-121.036744346564,50.4605377262416],[-121.036991617098,50.4611012409093]]]}},{"type":"Feature","id":"910445950","properties":{"name":"SP_22KPH_%TR_1635_FLATS_SEP_13_DS","oid":"910445950","speedLimit":6.111111},"geometry":{"type":"Polygon","coordinates":[[[-121.018915084348,50.4576034056058],[-121.01825259657,50.4578015794244],[-121.017439351258,50.4564353035107],[-121.017479224512,50.4564157108157],[-121.017771581411,50.4542397533006],[-121.018178485857,50.4539930471183],[-121.018531004875,50.4537514637966],[-121.019040621696,50.4536551180671],[-121.019218290154,50.4539289664232],[-121.019243651234,50.4568507045943],[-121.019156296402,50.45707305472],[-121.019194338022,50.4574050520378],[-121.018915084348,50.4576034056058]]]}},{"type":"Feature","id":"915576987","properties":{"name":"iSP_15kph_prevent shifting","oid":"915576987","speedLimit":4.1666665},"geometry":{"type":"Polygon","coordinates":[[[-121.036997111999,50.4448632107538],[-121.037511237457,50.4453131237405],[-121.037980558339,50.4457955713859],[-121.038524553514,50.4462188814473],[-121.039457277694,50.4468499819252],[-121.03991462251,50.4470997438489],[-121.040470593751,50.4471951009561],[-121.041223817839,50.4473228129725],[-121.041642275666,50.4475096625729],[-121.042320825462,50.448095106679],[-121.042703495987,50.4485278535889],[-121.042846926986,50.4487948714642],[-121.043008392531,50.4493916397885],[-121.043187610833,50.4501981757738],[-121.043325124247,50.4505013232976],[-121.043686801432,50.4511687331736],[-121.043857284251,50.4514890467742],[-121.044126252598,50.4522536112524],[-121.044383385774,50.4529381872052],[-121.044697158697,50.4537981087906],[-121.044736045687,50.454194726052],[-121.044571621349,50.4550718137142],[-121.044216002644,50.4568392905014],[-121.044051578306,50.4572073275929],[-121.043005292844,50.4583989768719],[-121.041905326428,50.4595373304256],[-121.041343437602,50.4600006347496],[-121.040371967327,50.4605974929487],[-121.039923498889,50.460730956949],[-121.039134346603,50.460807170735],[-121.038496938115,50.4608387167714],[-121.038644736856,50.4611434820407],[-121.038757593664,50.4609495323352],[-121.039878694313,50.4608796996563],[-121.040706733589,50.4606318251023],[-121.041510820733,50.4600578849639],[-121.04287383791,50.458700237026],[-121.044242772673,50.4571424380251],[-121.04442819035,50.4562901557933],[-121.044813819667,50.454421569915],[-121.044810719979,50.4537866048229],[-121.044260807219,50.4523013347434],[-121.043833332119,50.4511858992504],[-121.043346117585,50.450337391758],[-121.043050238314,50.4493096740187],[-121.042927659759,50.4486918750034],[-121.04224009269,50.4478872263877],[-121.041546608035,50.4473914772797],[-121.041092222011,50.4472217937562],[-121.040458617685,50.4471303012631],[-121.039917581303,50.4470196654488],[-121.03882057368,50.446333292001],[-121.038195845733,50.4458717851719],[-121.037152659958,50.4449069797559],[-121.03737682373,50.4446973019697],[-121.036997111999,50.4448632107538]]]}},{"type":"Feature","id":"917773475","properties":{"name":"SP_15KPH_%TR_1200_CORNER_Sept_13_DS","oid":"917773475","speedLimit":4.1666665},"geometry":{"type":"Polygon","coordinates":[[[-121.037097992741,50.4446824726363],[-121.036923846655,50.4448620423821],[-121.036628249173,50.4448205202487],[-121.036413666254,50.4448698614852],[-121.036322084575,50.4449675553358],[-121.036253468763,50.4450820557643],[-121.036241210907,50.4451448782129],[-121.036262345141,50.4452671977445],[-121.03631503983,50.445351410383],[-121.036183162212,50.4453951793851],[-121.036088058161,50.4451942194494],[-121.036162027979,50.4449316054368],[-121.036258822769,50.4447913109557],[-121.036515674155,50.444715007295],[-121.036712786108,50.4447116819293],[-121.036922155916,50.4447700106405],[-121.03709277963,50.4446835511333],[-121.037097992741,50.4446824726363]]]}},{"type":"Feature","id":"929009157","properties":{"name":"iSP_22kph_Long_Single_Lane_Aug30","oid":"929009157","speedLimit":6.111111},"geometry":{"type":"Polygon","coordinates":[[[-121.00567829111,50.4380559176179],[-121.004748525724,50.438223983396],[-121.005173042031,50.4381974703455],[-121.007933454739,50.443170419882],[-121.008522254489,50.4445348084259],[-121.008209326936,50.4465096262559],[-121.007831305943,50.4466801186522],[-121.008932822202,50.4466468649955],[-121.008822078818,50.4465928502722],[-121.009402143085,50.444817554382],[-121.008763184753,50.4430683221687],[-121.008261458046,50.4415400919598],[-121.007257863736,50.4401561107208],[-121.006438137259,50.4389839642621],[-121.005859059256,50.4383129593962],[-121.00567829111,50.4380559176179]]]}},{"type":"Feature","id":"930116666","properties":{"name":"SP_35KPH_9023 Rough_SEP_13_DS","oid":"930116666","speedLimit":9.722222},"geometry":{"type":"Polygon","coordinates":[[[-121.043513923401,50.4685945479939],[-121.043672148364,50.4692895494174],[-121.043315120709,50.4693036597528],[-121.042343791329,50.4680405600494],[-121.042763094526,50.4680240230959],[-121.043513923401,50.4685945479939]]]}},{"type":"Feature","id":"933252378","properties":{"name":"SP_20KPH_%TR_1615_ROUGH_SECTION_SEP_13_DS","oid":"933252378","speedLimit":5.5555553},"geometry":{"type":"Polygon","coordinates":[[[-121.007360012532,50.4314118370238],[-121.007542471416,50.4321456643383],[-121.00705117093,50.4322076779141],[-121.007396504309,50.4321239146493],[-121.007255468522,50.4314847254441],[-121.006907599036,50.4314552465269],[-121.007360012532,50.4314118370238]]]}},{"type":"Feature","id":"933252478","properties":{"name":"SP_30KPH_%TR_1605_PATCH_SEP_13_DS","oid":"933252478","speedLimit":8.333333},"geometry":{"type":"Polygon","coordinates":[[[-121.006591290005,50.4333409086072],[-121.007209395893,50.4334384227084],[-121.006978469166,50.4339627519861],[-121.006676249625,50.4343787821929],[-121.006272022182,50.4347753095795],[-121.005738735019,50.4345239299104],[-121.006210873799,50.4346040981853],[-121.006699919966,50.4339779408184],[-121.006893509547,50.4335511256419],[-121.006591290005,50.4333409086072]]]}},{"type":"Feature","id":"933252549","properties":{"name":"SP_35KPH_%TR_1590_ROUGH_SEP_13_DS","oid":"933252549","speedLimit":9.722222},"geometry":{"type":"Polygon","coordinates":[[[-121.004360501193,50.4363928752876],[-121.004777127386,50.4364500356271],[-121.004881389606,50.4362112384226],[-121.005079346928,50.4359569827615],[-121.004581847067,50.4358324163613],[-121.004795866407,50.4359808894444],[-121.004624679114,50.436368159732],[-121.004360501193,50.4363928752876]]]}},{"type":"Feature","id":"933274269","properties":{"name":"SP_25KPH_%TR_21SH_EMPTY_LANE_SEP_13_DS1","oid":"933274269","speedLimit":6.9444447},"geometry":{"type":"Polygon","coordinates":[[[-121.039293980515,50.4524185314143],[-121.039544068947,50.4523080753495],[-121.039512085806,50.4511379960099],[-121.039184927869,50.4506000956453],[-121.039287640245,50.4512178047858],[-121.039293980515,50.4524185314143]]]}},{"type":"Feature","id":"933371104","properties":{"name":"SP_25KPH_1590_HMT_INTERSECT_SEPT_13_DS","oid":"933371104","speedLimit":6.9444447},"geometry":{"type":"Polygon","coordinates":[[[-121.00635810896,50.4374888079603],[-121.00586032731,50.437681229795],[-121.006066315641,50.4377779350235],[-121.006385865254,50.4379884216825],[-121.006551698541,50.4382643371577],[-121.007085267494,50.4381537013434],[-121.006743315593,50.4380710165755],[-121.006114924378,50.4376596598556],[-121.00635810896,50.4374888079603]]]}},{"type":"Feature","id":"934051091","properties":{"name":"iSP_17KPH_PERMISSIONS BLOCKER_SEPT 7_NS","oid":"934051091","speedLimit":4.7222223},"geometry":{"type":"Polygon","coordinates":[[[-121.039512226701,50.4610296107354],[-121.039464181543,50.4607715803349],[-121.039016699369,50.4607921616521],[-121.039075593433,50.4610448894425],[-121.039163089161,50.4608998315998],[-121.039379081029,50.4608867098866],[-121.039512226701,50.4610296107354]]]}},{"type":"Feature","id":"934773555","properties":{"name":"SP_10KPH_NEW RAMP_SEPT 12_DS","oid":"934773555","speedLimit":2.7777777},"geometry":{"type":"Polygon","coordinates":[[[-121.035774285238,50.4443191090316],[-121.036276293735,50.444473513848],[-121.035931242147,50.4447855589719],[-121.034507499271,50.4446689914242],[-121.034739271367,50.4441516723768],[-121.035774285238,50.4443191090316]]]}},{"type":"Feature","id":"935505135","properties":{"name":"SP_15KPH_%TR_1590_WATERHOLES_AUG_13_DS","oid":"935505135","speedLimit":4.1666665},"geometry":{"type":"Polygon","coordinates":[[[-121.013401303676,50.4441736018152],[-121.012717399874,50.4442019123607],[-121.012966079357,50.4452613558859],[-121.013108242302,50.4462074673543],[-121.013276893487,50.446989287784],[-121.013703241428,50.4470969577317],[-121.013792146104,50.4467740377634],[-121.013436809189,50.4437486740083],[-121.01338355092,50.444162277597],[-121.013401303676,50.4441736018152]]]}},{"type":"Feature","id":"936169885","properties":{"name":"SP_10KPH_%TR_Sept_13_DS","oid":"936169885","speedLimit":2.7777777},"geometry":{"type":"Polygon","coordinates":[[[-121.039172106434,50.4536480179621],[-121.03830348943,50.4537166822693],[-121.038709971191,50.4544374777454],[-121.039308633583,50.454335739531],[-121.03951391744,50.454404853212],[-121.039377108501,50.4538957127666],[-121.039280172815,50.4537247709966],[-121.039172106434,50.4536480179621]]]}},{"type":"Feature","id":"936513295","properties":{"name":"SP_27KPH_%TR_1635_FLATS_SEP_13_DS1","oid":"936513295","speedLimit":7.5},"geometry":{"type":"Polygon","coordinates":[[[-121.01825259657,50.4578015794244],[-121.015246885856,50.4587004167755],[-121.014496197876,50.4578795907053],[-121.017439351258,50.4564353035107],[-121.01825259657,50.4578015794244]]]}},{"type":"Feature","id":"937786749","properties":{"name":"SP_35KPH_%TR_24SH_Loaded_LANE_SEP_13_DS","oid":"937786749","speedLimit":9.722222},"geometry":{"type":"Polygon","coordinates":[[[-121.038518213244,50.4505394301906],[-121.0382712245,50.4509802658278],[-121.038252908164,50.4516607075422],[-121.038255444272,50.452973148482],[-121.038536670475,50.4526664059683],[-121.038463123341,50.4516540568109],[-121.038518213244,50.4505394301906]]]}},{"type":"Feature","id":"937793793","properties":{"name":"SP_10KPH_%TR_21SH_LOAD_AREA_SEP_13_DS1","oid":"937793793","speedLimit":2.7777777},"geometry":{"type":"Polygon","coordinates":[[[-121.039540969259,50.4523448341213],[-121.038960482307,50.4525984606591],[-121.03925551621,50.4533286929837],[-121.039707647915,50.4532448398442],[-121.039544068947,50.4524267100164],[-121.039540969259,50.4523448341213]]]}},{"type":"Feature","id":"937982457","properties":{"name":"SP_15KPH_%TR1_Sept13_DS","oid":"937982457","speedLimit":4.1666665},"geometry":{"type":"Polygon","coordinates":[[[-121.038656431132,50.4613338367562],[-121.03832969588,50.4616583744699],[-121.038693486489,50.4619807551897],[-121.039188732031,50.4616626884578],[-121.039192113508,50.4616626884578],[-121.038656431132,50.4613338367562]]]}}]}