{"type":"FeatureCollection","features":[{"type":"Feature","id":"702602533","properties":{"name":"iSP_4KPH_%TR_CR01_Slow Bump","oid":"702602533","speedLimit":1.1111112},"geometry":{"type":"Polygon","coordinates":[[[-121.033359221768,50.4648080339605],[-121.033653960045,50.464691016146],[-121.033697353634,50.4647317297174],[-121.033369506612,50.4648698682588],[-121.033359221768,50.4648080339605]]]}},{"type":"Feature","id":"707947583","properties":{"name":"iSP_25KPH_%TR_Permission Gate 1 From West Dump","oid":"707947583","speedLimit":6.9444447},"geometry":{"type":"Polygon","coordinates":[[[-121.038628725122,50.4619781261827],[-121.038855414361,50.4617996335715],[-121.038140406353,50.4614084058091],[-121.037992755438,50.4616711117015],[-121.038192253239,50.4615670359494],[-121.038667187622,50.4618461890461],[-121.038628725122,50.4619781261827]]]}},{"type":"Feature","id":"742345972","properties":{"name":"iSP_4KPH_%TR_CR01_Pit Side_Slow Bump","oid":"742345972","speedLimit":1.1111112},"geometry":{"type":"Polygon","coordinates":[[[-121.033399093151,50.4648829900722],[-121.033706370484,50.464744492029],[-121.033756526711,50.4647765775588],[-121.033475031932,50.4649184908684],[-121.033399093151,50.4648829900722]]]}},{"type":"Feature","id":"776427243","properties":{"name":"iSP_7KPH_%TR_CR1_PermissionBlocker","oid":"776427243","speedLimit":1.9444444},"geometry":{"type":"Polygon","coordinates":[[[-121.034100294108,50.4652130126644],[-121.03405182854,50.4652333245124],[-121.034030695298,50.4652747570872],[-121.034116355371,50.4652256851005],[-121.034100294108,50.4652130126644]]]}},{"type":"Feature","id":"794004438","properties":{"name":"iSP_11KPH_%TR_Lower_Fuel_Bay","oid":"794004438","speedLimit":3.0555556},"geometry":{"type":"Polygon","coordinates":[[[-121.036777030491,50.4606956037452],[-121.036779143816,50.4607254423891],[-121.036749416389,50.4606709778764],[-121.03712558809,50.4605992572803],[-121.037535572977,50.4605562069476],[-121.037543321833,50.4605815518199],[-121.03694482843,50.460650396402],[-121.036777030491,50.4606956037452]]]}},{"type":"Feature","id":"801543391","properties":{"name":"iSP_4KPH_%TR_CR01_PermissionBlocker_2","oid":"801543391","speedLimit":1.1111112},"geometry":{"type":"Polygon","coordinates":[[[-121.033155779095,50.4645234883378],[-121.033154933766,50.4644740568493],[-121.033176489672,50.4644319951463],[-121.033108440634,50.4644595869045],[-121.033155779095,50.4645234883378]]]}},{"type":"Feature","id":"806473874","properties":{"name":"iSP_4KPH_%TR_CR04_PermissionBlocker","oid":"806473874","speedLimit":1.1111112},"geometry":{"type":"Polygon","coordinates":[[[-121.022719902606,50.481545446085],[-121.022686793861,50.4815431093237],[-121.022679185894,50.4815717795871],[-121.022701305353,50.4815728580923],[-121.022705391113,50.4815487714761],[-121.022719902606,50.481545446085]]]}},{"type":"Feature","id":"824566967","properties":{"name":"iSP_3KPH_%TR_CR04","oid":"824566967","speedLimit":0.8333333},"geometry":{"type":"Polygon","coordinates":[[[-121.02330275741,50.4810685670343],[-121.023282610386,50.4810685670343],[-121.023279933509,50.4811866633541],[-121.023305011622,50.4811859443506],[-121.02330275741,50.4810685670343]]]}},{"type":"Feature","id":"826307302","properties":{"name":"iSP_4KPH_%TR_CR04_Pockets","oid":"826307302","speedLimit":1.1111112},"geometry":{"type":"Polygon","coordinates":[[[-121.023297967208,50.4813217461308],[-121.023337415926,50.4814774103818],[-121.023542126593,50.4814379550664],[-121.023461115834,50.4811890899908],[-121.023052821606,50.4811898089942],[-121.02305817536,50.4813604824427],[-121.023283033051,50.4813265095288],[-121.023297967208,50.4813217461308]]]}},{"type":"Feature","id":"883050998","properties":{"name":"iSP_22KPH_%TR_4CR_Brake_Temp_Ctrl","oid":"883050998","speedLimit":6.111111},"geometry":{"type":"Polygon","coordinates":[[[-121.031799447648,50.4745592488802],[-121.032188721959,50.4743126306904],[-121.032490363761,50.4745749770811],[-121.032792005563,50.4748023619281],[-121.032969806569,50.4748847777007],[-121.033178602996,50.4749349281926],[-121.033462492875,50.4749597338123],[-121.033666358213,50.4749221658811],[-121.033827534402,50.4748627582194],[-121.033918689118,50.4748107203434],[-121.034008012286,50.4747475379136],[-121.034058450289,50.4746583814834],[-121.03405267387,50.4745481942018],[-121.034056477853,50.4744838433914],[-121.033994346123,50.4743798575147],[-121.03387599997,50.4742597839354],[-121.033509126895,50.4739378501322],[-121.033060820396,50.4735601935602],[-121.032947546221,50.4734256500361],[-121.032822578319,50.4732210935493],[-121.03260575126,50.4728151262157],[-121.032252262572,50.4722091860423],[-121.032487264219,50.4721563392874],[-121.032430204466,50.4722058606513],[-121.032902743749,50.4730490719693],[-121.033041941367,50.4733098006022],[-121.033249751576,50.4735471616224],[-121.033742719659,50.473961846873],[-121.034097758119,50.4742713778663],[-121.03420314255,50.4743946869612],[-121.034255834766,50.4744619137856],[-121.03426287918,50.4745930420432],[-121.034237941955,50.4746790528332],[-121.034183418191,50.4747918465023],[-121.034085923503,50.4748760597836],[-121.033973071993,50.4749378940819],[-121.033790480785,50.4750163553355],[-121.033530964578,50.4750646184433],[-121.033262995075,50.4750683033361],[-121.033071387017,50.4750265112595],[-121.032807644162,50.474916773355],[-121.032656893705,50.4748353462122],[-121.032495294851,50.4747055660861],[-121.032144764816,50.474413291176],[-121.031799447648,50.4745592488802]]]}},{"type":"Feature","id":"883053336","properties":{"name":"iSP_22KPH_%TR_Brake_Temp_Ctrl","oid":"883053336","speedLimit":6.111111},"geometry":{"type":"Polygon","coordinates":[[[-121.032465990089,50.4721454643599],[-121.032251135466,50.4722257231221],[-121.03148850722,50.4710085401248],[-121.030816611024,50.4699235638904],[-121.030661352143,50.4696604086208],[-121.030596543535,50.4694579192689],[-121.030550191292,50.4692569577993],[-121.030596543535,50.46897313118],[-121.030722779432,50.4686245043731],[-121.030884519174,50.4683757291728],[-121.031088948065,50.468098014083],[-121.031688286797,50.4675367420002],[-121.032432176902,50.4668938630236],[-121.032788483356,50.4665563807704],[-121.033147607575,50.46622258341],[-121.033484471447,50.4658709008383],[-121.0337794915,50.4660342943766],[-121.033587460778,50.4659934909298],[-121.032919368566,50.4666522778581],[-121.032554608815,50.4669914677445],[-121.032178578003,50.4673079191462],[-121.031774369535,50.4676685892612],[-121.031381995682,50.4680346519023],[-121.031147134923,50.4682865727427],[-121.031008782635,50.4684700983781],[-121.030905088863,50.4686547025188],[-121.030828586528,50.4688532373516],[-121.030767722792,50.4691915284837],[-121.030776457865,50.4694008483685],[-121.030873670777,50.4696305699768],[-121.031027661664,50.4699353375722],[-121.031330571461,50.4704040379584],[-121.031530632815,50.4707112321905],[-121.031750277639,50.4710831367347],[-121.032146032811,50.471729071476],[-121.032381316234,50.4721453744845],[-121.032465990089,50.4721454643599]]]}},{"type":"Feature","id":"883059532","properties":{"name":"iSP_22KPH_%TR_Brake_Ctrl","oid":"883059532","speedLimit":6.111111},"geometry":{"type":"Polygon","coordinates":[[[-121.02726228156,50.4773222893354],[-121.027030097679,50.4772101247943],[-121.027334557246,50.4769443631371],[-121.027716505367,50.4766327650088],[-121.028033222214,50.4763230542646],[-121.028190453532,50.4761690976469],[-121.028621289885,50.4756926679733],[-121.028907293088,50.4753260660797],[-121.029263881318,50.4748879233409],[-121.029472677746,50.4746570333519],[-121.02969147724,50.4745407345408],[-121.029801510985,50.4744885169139],[-121.029952261442,50.4745929521678],[-121.029788690152,50.4745423522987],[-121.029556083606,50.4747918465023],[-121.029251905815,50.475173367718],[-121.029072977702,50.4754783150642],[-121.028853191989,50.475775083746],[-121.02869610156,50.4759750565857],[-121.028408971251,50.4762709265131],[-121.028041675511,50.4765703015825],[-121.027243966084,50.4772197414657],[-121.02726228156,50.4773222893354]]]}},{"type":"Feature","id":"884401102","properties":{"name":"iSP_30KPH_%TR_Maint_Limit_Policy","oid":"884401102","speedLimit":8.333333},"geometry":{"type":"Polygon","coordinates":[[[-121.036992589556,50.4611014812033],[-121.037108681497,50.4611079522345],[-121.038294960793,50.4609922825515],[-121.038278617753,50.4603981160599],[-121.038120118441,50.4605660033699],[-121.037033024492,50.460708635683],[-121.036745330629,50.4605379622346],[-121.036992589556,50.4611014812033]]]}},{"type":"Feature","id":"910445950","properties":{"name":"SP_22KPH_%TR_1635_FLATS_SEP_24_NS","oid":"910445950","speedLimit":6.111111},"geometry":{"type":"Polygon","coordinates":[[[-121.017369811157,50.4554939731499],[-121.018002963076,50.4544142995661],[-121.01814821889,50.4539986256857],[-121.018532843888,50.4537516479941],[-121.018948886971,50.453688195938],[-121.018866749105,50.4543417700912],[-121.01826191573,50.4560722316897],[-121.018276004558,50.4557009562735],[-121.017369811157,50.4554939731499]]]}},{"type":"Feature","id":"915576987","properties":{"name":"iSP_15KPH_%TR_Preventing Shifting","oid":"915576987","speedLimit":4.1666665},"geometry":{"type":"Polygon","coordinates":[[[-121.036998084199,50.4448633271125],[-121.037512185523,50.4453132435331],[-121.037981484376,50.4457956948607],[-121.038525454015,50.446219008153],[-121.039458134412,50.4468501134477],[-121.03991545776,50.4470998772777],[-121.040471402903,50.4471952351128],[-121.041224591635,50.4473229481039],[-121.041643029819,50.4475097991304],[-121.042321547763,50.4480952477049],[-121.042704200325,50.4485279979177],[-121.042847624591,50.4487950178309],[-121.043009082557,50.44939179071],[-121.043188292446,50.4501983328512],[-121.043325799405,50.4505014826887],[-121.043687459613,50.4511688976587],[-121.043857934429,50.451489213704],[-121.044126890151,50.4522537840177],[-121.044384011257,50.4529383651954],[-121.044697769451,50.4537982933442],[-121.044736654616,50.4541949136326],[-121.044572237996,50.4550720079892],[-121.044216635984,50.4568394982664],[-121.044052219364,50.457207538167],[-121.043005983015,50.4583991965412],[-121.041906068233,50.4595375587832],[-121.041344205782,50.4600008666434],[-121.040372781109,50.460597729398],[-121.039924333722,50.4607311944169],[-121.03913521848,50.4608074087846],[-121.038497839913,50.4608389550618],[-121.038645631716,50.4611437226571],[-121.038758483226,50.4609497714714],[-121.03987953125,50.4608799382595],[-121.040707531656,50.4606320618136],[-121.041511581056,50.4600581172946],[-121.042874534252,50.4587004589946],[-121.044243404756,50.457142648104],[-121.04442881373,50.4562903593671],[-121.044814424945,50.4544217592271],[-121.044811325403,50.4537867892886],[-121.044261438456,50.4523015078729],[-121.043833983422,50.4511860638665],[-121.043346791758,50.4503375498978],[-121.043050926376,50.4493098243146],[-121.042928353574,50.448692020584],[-121.04224081878,50.4478873658269],[-121.041547366679,50.4473916129352],[-121.041093001984,50.4472219281165],[-121.0404594274,50.4471304349251],[-121.039918416414,50.4470197982664],[-121.038821460286,50.4463334195799],[-121.038196761664,50.4458719092284],[-121.037153624857,50.4449070964487],[-121.037377778107,50.4446974170621],[-121.036998084199,50.4448633271125]]]}},{"type":"Feature","id":"917773475","properties":{"name":"SP_15KPH_%TR_1200_CORNER_Sept_24_NS","oid":"917773475","speedLimit":4.1666665},"geometry":{"type":"Polygon","coordinates":[[[-121.037098960205,50.4446825876155],[-121.036924822294,50.4448621587319],[-121.036629238688,50.4448206362815],[-121.036414665842,50.4448699778946],[-121.036323088461,50.4449676724909],[-121.03625447587,50.4450821737933],[-121.03624221859,50.4451449967214],[-121.036263351832,50.4452673171865],[-121.036316044047,50.4453515304678],[-121.03618417262,50.445395299804],[-121.036089073032,50.4451943383345],[-121.036163039378,50.4449317223175],[-121.036259829625,50.4447914267656],[-121.036516668955,50.4447151225225],[-121.036713771655,50.4447117971314],[-121.036923131635,50.4447701262878],[-121.037093747339,50.4446836661207],[-121.037098960205,50.4446825876155]]]}},{"type":"Feature","id":"926367691","properties":{"name":"SP_30KPH_%TR_24SH_EMPTY_LANE_SEP_24_NS","oid":"926367691","speedLimit":8.333333},"geometry":{"type":"Polygon","coordinates":[[[-121.038784265781,50.4508575691567],[-121.038613086523,50.451205656711],[-121.038639009967,50.4520121988522],[-121.038945019305,50.4544277808811],[-121.039193405338,50.4545000407297],[-121.038782293345,50.4517187555614],[-121.038784265781,50.4508575691567]]]}},{"type":"Feature","id":"929009157","properties":{"name":"iSP_22KPH_%TR_Long_Single_Lane","oid":"929009157","speedLimit":6.111111},"geometry":{"type":"Polygon","coordinates":[[[-121.005680733439,50.4380559820205],[-121.004751011696,50.4382240490814],[-121.005175508076,50.4381975358285],[-121.007935791209,50.4431705233206],[-121.00852456332,50.4445349222781],[-121.008211650456,50.4465097551807],[-121.007833647208,50.4466802488782],[-121.008935111761,50.4466469949678],[-121.008824373575,50.4465929798322],[-121.009404410613,50.4448176703922],[-121.008765482275,50.443068424828],[-121.008263779119,50.441540182955],[-121.007260231918,50.440156191153],[-121.00644054392,50.4389840357479],[-121.005861493099,50.4383130257606],[-121.005680733439,50.4380559820205]]]}},{"type":"Feature","id":"934051091","properties":{"name":"iSP_17KPH_%TR_Ramp_Permission Blocker","oid":"934051091","speedLimit":4.7222223},"geometry":{"type":"Polygon","coordinates":[[[-121.03951308084,50.4610298504827],[-121.039465037937,50.4607718181129],[-121.039017576768,50.4607923995872],[-121.039076468068,50.4610451293064],[-121.039163959688,50.4609000703566],[-121.039379941418,50.4608869485433],[-121.03951308084,50.4610298504827]]]}},{"type":"Feature","id":"936169885","properties":{"name":"SP_15KPH_%TR_24shl_loadplan_Sept_24_NS","oid":"936169885","speedLimit":4.1666665},"geometry":{"type":"Polygon","coordinates":[[[-121.039169031666,50.4546368311397],[-121.038619144719,50.4545683460593],[-121.038154636069,50.45539241391],[-121.038670146276,50.4555194977731],[-121.038842170863,50.4552447485726],[-121.039002219946,50.4549475305136],[-121.039087598242,50.4547918662626],[-121.039169031666,50.4546368311397]]]}},{"type":"Feature","id":"936513295","properties":{"name":"SP_30KPH_%TR_1635_FLATS_SEP_24_NS","oid":"936513295","speedLimit":8.333333},"geometry":{"type":"Polygon","coordinates":[[[-121.017285982632,50.4555553580711],[-121.018050160649,50.4557853493057],[-121.017434056212,50.457453976606],[-121.015227041345,50.45851711311],[-121.014498226285,50.4578798064104],[-121.016177332776,50.4566195730804],[-121.017285982632,50.4555553580711]]]}},{"type":"Feature","id":"937786749","properties":{"name":"SP_32KPH_%TR_24SH_Loaded_LANE_SEP_24_NS","oid":"937786749","speedLimit":8.888889},"geometry":{"type":"Polygon","coordinates":[[[-121.038410348292,50.4510854033808],[-121.038213245592,50.4510392972834],[-121.038253821416,50.4516608757822],[-121.038601533685,50.4544464749713],[-121.038809766559,50.4542670836058],[-121.038403867431,50.451675345727],[-121.038410348292,50.4510854033808]]]}},{"type":"Feature","id":"938065675","properties":{"name":"SP_8KPH_CR01_YARD_RUTIING_SEP_24_NS","oid":"938065675","speedLimit":2.2222223},"geometry":{"type":"Polygon","coordinates":[[[-121.034289366176,50.4648013831784],[-121.034099167001,50.4648581844525],[-121.033940949466,50.4649071665638],[-121.033829506838,50.4650051307864],[-121.034044361461,50.4650690322197],[-121.03396433692,50.4650115119422],[-121.034242732156,50.4648882927227],[-121.034319375379,50.4649375444604],[-121.034289366176,50.4648013831784]]]}},{"type":"Feature","id":"938165680","properties":{"name":"SP_10KPH_%TR_22SH_Sept_24_NS","oid":"938165680","speedLimit":2.7777777},"geometry":{"type":"Polygon","coordinates":[[[-121.034080569749,50.4466114941715],[-121.035055375741,50.4472506882553],[-121.035497201379,50.4474474255795],[-121.035795320974,50.4469123072478],[-121.03485503261,50.4461954607894],[-121.034080569749,50.4466114941715]]]}},{"type":"Feature","id":"940771585","properties":{"name":"SP_20KPH_%TR_1660_HMT_SEPT24_DS","oid":"940771585","speedLimit":5.5555553},"geometry":{"type":"Polygon","coordinates":[[[-121.002708836114,50.428118455327],[-121.002603592571,50.4277113196128],[-121.002231929295,50.4276979281732],[-121.002505393442,50.427796341773],[-121.002533430209,50.4281139615554],[-121.002673754933,50.428082595029],[-121.002708836114,50.428118455327]]]}},{"type":"Feature","id":"940778315","properties":{"name":"SP_20KPH_%TR_HMT_SPILLING_ROCK_IN_CORNER_SEPT24_NS","oid":"940778315","speedLimit":5.5555553},"geometry":{"type":"Polygon","coordinates":[[[-121.004784683995,50.4367080302674],[-121.004770595167,50.4370436251364],[-121.004987985779,50.4372762227586],[-121.00512126609,50.4371688216154],[-121.004889927538,50.4369362239933],[-121.004882883124,50.436757282005],[-121.005198472866,50.4367975461992],[-121.004798631934,50.4366991325994],[-121.004784683995,50.4367080302674]]]}},{"type":"Feature","id":"944724972","properties":{"name":"SP_20KPH_%TR_21SH_LOADED_SEPT 24_NS","oid":"944724972","speedLimit":5.5555553},"geometry":{"type":"Polygon","coordinates":[[[-121.038848229059,50.4522168452145],[-121.0391818525,50.4521685821066],[-121.039251028644,50.4519693282703],[-121.039327812755,50.4516357106608],[-121.039213552362,50.4512647947463],[-121.038913178555,50.4506403402336],[-121.03881864252,50.4509655095524],[-121.038886128005,50.4509783617394],[-121.03905829348,50.4512927460062],[-121.039102109735,50.4515747751168],[-121.039047022418,50.451934636353],[-121.038997288856,50.4521383839609],[-121.038848229059,50.4522168452145]]]}},{"type":"Feature","id":"945133230","properties":{"name":"SP_10KPH_%TR_21SH_SEPT_24_NS","oid":"945133230","speedLimit":2.7777777},"geometry":{"type":"Polygon","coordinates":[[[-121.040087341459,50.4526997459192],[-121.039651714905,50.4531688956826],[-121.039099291969,50.4529223673682],[-121.038927549159,50.4522620525576],[-121.039713987524,50.452216126211],[-121.039764848192,50.4525625960075],[-121.04009297699,50.4526997459192],[-121.040087341459,50.4526997459192]]]}},{"type":"Feature","id":"945606742","properties":{"name":"SP_20KPH_19SH_SEPT 24_NS","oid":"945606742","speedLimit":5.5555553},"geometry":{"type":"Polygon","coordinates":[[[-121.002893822423,50.4271197595088],[-121.002444529706,50.4275246483372],[-121.001789962769,50.4273168563347],[-121.002101748527,50.4269692181576],[-121.002893822423,50.4271197595088]]]}}]}