{"type":"FeatureCollection","features":[{"type":"Feature","id":"702602533","properties":{"name":"iSP_4KPH_%TR_CR01_Slow Bump","oid":"702602533","speedLimit":1.1111112},"geometry":{"type":"Polygon","coordinates":[[[-121.033359441117,50.4648079792255],[-121.033654162859,50.4646909617288],[-121.033697554014,50.4647316751897],[-121.033369725384,50.4648698133559],[-121.033359441117,50.4648079792255]]]}},{"type":"Feature","id":"707947583","properties":{"name":"iSP_25KPH_%TR_Permission Gate 1 From West Dump","oid":"707947583","speedLimit":6.9444447},"geometry":{"type":"Polygon","coordinates":[[[-121.03862864886,50.4619780791343],[-121.038855325382,50.461799587008],[-121.038140357484,50.4614083603081],[-121.037992714852,50.461671065487],[-121.038192201462,50.4615669900176],[-121.038667109202,50.4618461423561],[-121.03862864886,50.4619780791343]]]}},{"type":"Feature","id":"742345972","properties":{"name":"iSP_4KPH_%TR_CR01_Pit Side_Slow Bump","oid":"742345972","speedLimit":1.1111112},"geometry":{"type":"Polygon","coordinates":[[[-121.033399310263,50.4648829351336],[-121.033706570358,50.4647444374666],[-121.033756723771,50.4647765229092],[-121.033475244784,50.4649184358334],[-121.033399310263,50.4648829351336]]]}},{"type":"Feature","id":"776427243","properties":{"name":"iSP_7KPH_%TR_CR1_PermissionBlocker","oid":"776427243","speedLimit":1.9444444},"geometry":{"type":"Polygon","coordinates":[[[-121.034100471883,50.4652129568293],[-121.034052009035,50.4652332686222],[-121.034030876979,50.4652747010845],[-121.034116532246,50.4652256292311],[-121.034100471883,50.4652129568293]]]}},{"type":"Feature","id":"794004438","properties":{"name":"iSP_11KPH_%TR_Lower_Fuel_Bay","oid":"794004438","speedLimit":3.0555556},"geometry":{"type":"Polygon","coordinates":[[[-121.036777058106,50.4606955601804],[-121.036779171312,50.4607253987433],[-121.036749445553,50.4606709343784],[-121.037125596151,50.4605992139772],[-121.037535558039,50.4605561637615],[-121.03754330646,50.4605815085649],[-121.036944846632,50.46065035296],[-121.036777058106,50.4606955601804]]]}},{"type":"Feature","id":"801543391","properties":{"name":"iSP_4KPH_%TR_CR01_PermissionBlocker_2","oid":"801543391","speedLimit":1.1111112},"geometry":{"type":"Polygon","coordinates":[[[-121.033156009857,50.4645234343756],[-121.033155164575,50.4644740030214],[-121.033176719272,50.4644319414327],[-121.033108674051,50.4644595331159],[-121.033156009857,50.4645234343756]]]}},{"type":"Feature","id":"806473874","properties":{"name":"iSP_4KPH_%TR_CR04_PermissionBlocker","oid":"806473874","speedLimit":1.1111112},"geometry":{"type":"Polygon","coordinates":[[[-121.022720718804,50.4815453458878],[-121.022687611916,50.4815430091328],[-121.022680004376,50.4815716793183],[-121.022702122595,50.4815727578206],[-121.022706208126,50.4815486712698],[-121.022720718804,50.4815453458878]]]}},{"type":"Feature","id":"824566967","properties":{"name":"iSP_3KPH_%TR_CR04","oid":"824566967","speedLimit":0.8333333},"geometry":{"type":"Polygon","coordinates":[[[-121.023303540911,50.4810684681324],[-121.023283395017,50.4810684681324],[-121.02328071829,50.4811865641314],[-121.023305794997,50.4811858451298],[-121.023303540911,50.4810684681324]]]}},{"type":"Feature","id":"826307302","properties":{"name":"iSP_4KPH_%TR_CR04_Pockets","oid":"826307302","speedLimit":1.1111112},"geometry":{"type":"Polygon","coordinates":[[[-121.023298750978,50.4813216465411],[-121.023338197483,50.4814773103693],[-121.023542896666,50.4814378551612],[-121.023461890451,50.4811889907615],[-121.023053619128,50.481189709763],[-121.023058972582,50.4813603827478],[-121.023283817659,50.4813264099262],[-121.023298750978,50.4813216465411]]]}},{"type":"Feature","id":"883050998","properties":{"name":"iSP_22KPH_%TR_4CR_Brake_Temp_Ctrl","oid":"883050998","speedLimit":6.111111},"geometry":{"type":"Polygon","coordinates":[[[-121.031799754498,50.4745591676589],[-121.032189006971,50.4743125501389],[-121.032490631851,50.474574895817],[-121.032792256732,50.4748022800464],[-121.032970047763,50.4748846955952],[-121.033178832478,50.4749348459509],[-121.033462706431,50.4749596515032],[-121.033666560332,50.474922083674],[-121.03382772748,50.4748626761738],[-121.033918877081,50.474810638439],[-121.034008195238,50.4747474561808],[-121.034058630412,50.4746582999929],[-121.034052854317,50.4745481130106],[-121.034056658087,50.4744837623749],[-121.033994529842,50.4743797767807],[-121.033876190328,50.4742597035275],[-121.033509337835,50.4739377705988],[-121.033061056485,50.4735601150526],[-121.032947788664,50.4734255718939],[-121.032822827773,50.4732210159627],[-121.032606012877,50.4728150497318],[-121.032252544019,50.4722091112043],[-121.032487532483,50.4721562645929],[-121.032430475932,50.4722057858223],[-121.032902988706,50.47304899485],[-121.033042178515,50.4733097227747],[-121.033249977066,50.4735470831501],[-121.033742917494,50.4739617672744],[-121.034097936037,50.474271297427],[-121.034203314556,50.4743946061869],[-121.034256003816,50.4744618328287],[-121.034263047835,50.4745929607301],[-121.034238112009,50.4746789712864],[-121.034183591304,50.4747917646493],[-121.034086102085,50.4748759777018],[-121.033973256906,50.4749378118322],[-121.033790675941,50.4750162728726],[-121.033531174293,50.4750645358493],[-121.033263219821,50.4750682207321],[-121.033071622513,50.475026428769],[-121.032807894453,50.4749166911626],[-121.032657152453,50.474835264241],[-121.032495562664,50.4747054844674],[-121.032145052294,50.4744132103512],[-121.031799754498,50.4745591676589]]]}},{"type":"Feature","id":"883053336","properties":{"name":"iSP_22KPH_%TR_Brake_Temp_Ctrl","oid":"883053336","speedLimit":6.111111},"geometry":{"type":"Polygon","coordinates":[[[-121.032466259547,50.4721453896949],[-121.032251416976,50.4722256482391],[-121.031488831513,50.471008468548],[-121.03081697301,50.4699234952605],[-121.030661722838,50.4696603407057],[-121.030596917866,50.4694578519038],[-121.030550568223,50.4692568909801],[-121.030596917866,50.4689730651317],[-121.030723146681,50.4686244392717],[-121.03088487735,50.4683756647472],[-121.031089294772,50.4680979504117],[-121.031688599883,50.4675366798534],[-121.032432448257,50.466893802623],[-121.032788734722,50.4665563212865],[-121.033147838795,50.4662225248328],[-121.033484683769,50.4658708432164],[-121.033779687272,50.4660342363108],[-121.033587667322,50.4659934329748],[-121.03291961259,50.4666522181137],[-121.032554873302,50.4669914070788],[-121.032178863584,50.467307857621],[-121.031774677791,50.4676685267564],[-121.03138232595,50.4680345884032],[-121.031147478367,50.4682865085593],[-121.03100913384,50.4684700336962],[-121.030905445885,50.4686546373354],[-121.030828947842,50.468853171629],[-121.03076808752,50.4691914618422],[-121.030776822103,50.4694007811585],[-121.030874029561,50.4696305021428],[-121.03102801181,50.4699352689104],[-121.031330904614,50.4704039680235],[-121.031530954744,50.4707111614212],[-121.031750587247,50.4710830649552],[-121.032146320218,50.471728997942],[-121.032381590442,50.4721452998197],[-121.032466259547,50.4721453896949]]]}},{"type":"Feature","id":"883059532","properties":{"name":"iSP_22KPH_%TR_Brake_Ctrl","oid":"883059532","speedLimit":6.111111},"geometry":{"type":"Polygon","coordinates":[[[-121.027262842938,50.4773222006091],[-121.027030672082,50.4772100363727],[-121.02733511457,50.4769442754374],[-121.027717041263,50.4766326781554],[-121.028033740344,50.4763229682525],[-121.028190962841,50.4761690120529],[-121.028621775024,50.4756925836734],[-121.028907762183,50.4753259827755],[-121.029264330409,50.4748878412268],[-121.029473115123,50.474656951865],[-121.029691902344,50.4745406533698],[-121.029801929916,50.4744884358847],[-121.029952671916,50.4745928708549],[-121.029789109802,50.4745422711232],[-121.029556516305,50.4747917646493],[-121.029252355578,50.4751732848286],[-121.029073437503,50.4754782313465],[-121.02885366412,50.4757749992222],[-121.028696582503,50.4759749715188],[-121.028409468301,50.4762708406426],[-121.028042193166,50.4765702148987],[-121.027244528489,50.477219653018],[-121.027262842938,50.4773222006091]]]}},{"type":"Feature","id":"884401102","properties":{"name":"iSP_30KPH_%TR_Maint_Limit_Policy","oid":"884401102","speedLimit":8.333333},"geometry":{"type":"Polygon","coordinates":[[[-121.036992605078,50.4611014365361],[-121.037108690506,50.4611079075497],[-121.038294903254,50.4609922381808],[-121.038278561131,50.4603980733032],[-121.03812007071,50.4605659601571],[-121.037033037746,50.4607085920828],[-121.036745360022,50.460537919098],[-121.036992605078,50.4611014365361]]]}},{"type":"Feature","id":"908328496","properties":{"name":"SP_25KPH_%TR_1445_SOFT_GROUND_SEPT_17_NS","oid":"908328496","speedLimit":6.9444447},"geometry":{"type":"Polygon","coordinates":[[[-121.039331641926,50.4644969211947],[-121.039940667782,50.4647092063923],[-121.039188930107,50.4666748666615],[-121.038826726666,50.4674279308742],[-121.038451984871,50.4678943831076],[-121.037915089766,50.4682380658321],[-121.037180116856,50.468025960385],[-121.038313076823,50.4667053343507],[-121.038793760658,50.4655660764488],[-121.039331641926,50.4644969211947]]]}},{"type":"Feature","id":"910445950","properties":{"name":"SP_22KPH_%TR_1635_FLATS_SEP_17_NS","oid":"910445950","speedLimit":6.111111},"geometry":{"type":"Polygon","coordinates":[[[-121.01791472573,50.4571010918522],[-121.017758912037,50.4573817720689],[-121.016600875364,50.4571353342994],[-121.017123823311,50.4561458084632],[-121.017774549758,50.454239915195],[-121.018181412278,50.4539932077998],[-121.018533894973,50.4537516232905],[-121.019043459286,50.4536552770874],[-121.018867781459,50.4543417437847],[-121.018262982014,50.456072200683],[-121.018043067751,50.4566100138168],[-121.017987983525,50.4569257453575],[-121.01791472573,50.4571010918522]]]}},{"type":"Feature","id":"915576987","properties":{"name":"iSP_15KPH_%TR_Preventing Shifting","oid":"915576987","speedLimit":4.1666665},"geometry":{"type":"Polygon","coordinates":[[[-121.036998099413,50.4448633265514],[-121.037512171897,50.44531324175],[-121.037981444423,50.4457956917671],[-121.038525383546,50.4462190039096],[-121.039458011621,50.4468501074901],[-121.039915309315,50.4470998706417],[-121.04047122327,50.4471952282177],[-121.041224369748,50.447322940862],[-121.041642784459,50.4475097913809],[-121.042321264339,50.4480952383652],[-121.042703895435,50.4485279874026],[-121.042847311655,50.4487950065905],[-121.043008760564,50.4493917778487],[-121.043187960399,50.4501983177991],[-121.043325459644,50.4505014668132],[-121.043687099564,50.4511688799703],[-121.043857564816,50.4514891951457],[-121.04412650545,50.4522537633826],[-121.044383612132,50.4529383427009],[-121.044697352725,50.4537982685139],[-121.044736235708,50.454194887725],[-121.044571828312,50.4550719796992],[-121.044216246248,50.4568394651756],[-121.044051838852,50.4572075040765],[-121.043005661196,50.4583991592139],[-121.041905808117,50.4595375183639],[-121.041343977186,50.4600008249656],[-121.040372607008,50.460597686099],[-121.039924184778,50.4607311507554],[-121.039135113804,50.4608073649161],[-121.038497770993,50.4608389111076],[-121.038645554505,50.4611436778751],[-121.038758399684,50.4609497272162],[-121.039879384819,50.460879894194],[-121.040707338776,50.4606320184214],[-121.04151134307,50.4600580754614],[-121.042874219807,50.458700420849],[-121.044243013519,50.4571426141897],[-121.044428412091,50.4562903277678],[-121.044814001674,50.4544217327033],[-121.044810902306,50.4537867644896],[-121.044261046207,50.4523014871082],[-121.043833615153,50.4511860461315],[-121.04334645082,50.4503375344676],[-121.043050602035,50.4493098116759],[-121.04292803611,50.4486920096234],[-121.042240539885,50.4478873570519],[-121.041547126685,50.4473916055067],[-121.041092787479,50.447221921149],[-121.040459248438,50.4471304282061],[-121.039918267802,50.4470197918479],[-121.038821373211,50.4463334150258],[-121.038196709634,50.4458719059278],[-121.037153631346,50.4449070957687],[-121.03737777202,50.4446974169516],[-121.036998099413,50.4448633265514]]]}},{"type":"Feature","id":"917773475","properties":{"name":"SP_15KPH_%TR_1200_CORNER_Sept_17_NS","oid":"917773475","speedLimit":4.1666665},"geometry":{"type":"Polygon","coordinates":[[[-121.037098969761,50.4446825875454],[-121.036924841619,50.4448621581739],[-121.036629274594,50.4448206358364],[-121.036414713785,50.4448699773154],[-121.036323141542,50.4449676716464],[-121.0362545328,50.4450821726378],[-121.036242276207,50.4451449953952],[-121.036263408263,50.4452673155281],[-121.036316097523,50.4453515285807],[-121.036184233493,50.445395297798],[-121.036089139241,50.4451943368743],[-121.036163101437,50.4449317215706],[-121.036259886254,50.4447914263998],[-121.036516711175,50.4447151223639],[-121.036713802818,50.4447117969819],[-121.036923151054,50.4447701259799],[-121.037093757187,50.4446836660476],[-121.037098969761,50.4446825875454]]]}},{"type":"Feature","id":"921770139","properties":{"name":"SP_20KPH_%TR_HIGHMONT_SEPT 17_NS","oid":"921770139","speedLimit":5.5555553},"geometry":{"type":"Polygon","coordinates":[[[-121.001747294026,50.4283060697689],[-121.001111078257,50.4282402811302],[-121.001000768925,50.4285433402691],[-121.001095863177,50.4288873824945],[-121.00158302751,50.4287564343434],[-121.001925225938,50.4286884887001],[-121.002548339832,50.4285670673191],[-121.002401683362,50.428187524394],[-121.001747294026,50.4283060697689]]]}},{"type":"Feature","id":"926367691","properties":{"name":"SP_25KPH_%TR_24SH_EMPTY_LANE_SEP_17_NS","oid":"926367691","speedLimit":6.9444447},"geometry":{"type":"Polygon","coordinates":[[[-121.038784180793,50.450857552314],[-121.038613011139,50.4512056389228],[-121.038638933127,50.4520121788733],[-121.03886589141,50.4535985658428],[-121.039045091245,50.4535756476695],[-121.038782208468,50.4517187363796],[-121.038784180793,50.450857552314]]]}},{"type":"Feature","id":"929009157","properties":{"name":"iSP_22KPH_%TR_Long_Single_Lane","oid":"929009157","speedLimit":6.111111},"geometry":{"type":"Polygon","coordinates":[[[-121.005682505509,50.4380559999496],[-121.004752835922,50.4382240665539],[-121.005177308488,50.438197553373],[-121.007937436773,50.4431705273575],[-121.008526175855,50.444534922609],[-121.008213280545,50.4465097501475],[-121.007835298502,50.446680243382],[-121.008936701265,50.4466469895619],[-121.008825969291,50.446592974573],[-121.00940597379,50.4448176699551],[-121.008767081295,50.4430684291422],[-121.008265406283,50.4415401914203],[-121.00726191538,50.4401562033774],[-121.006442273365,50.4389840511562],[-121.005863255029,50.4383130429915],[-121.005682505509,50.4380559999496]]]}},{"type":"Feature","id":"932114358","properties":{"name":"SP_20KPH_%TR_23SH_LOADED_LANES_SEP_","oid":"932114358","speedLimit":5.5555553},"geometry":{"type":"Polygon","coordinates":[[[-121.042098391588,50.4671398808919],[-121.041265647698,50.4667318475316],[-121.040734528689,50.4664970036615],[-121.040689024328,50.4664766019935],[-121.040377396941,50.4667814586362],[-121.040593930075,50.4666720805306],[-121.041766477427,50.4671899413724],[-121.041838889939,50.4675479142521],[-121.042098391588,50.4671398808919]]]}},{"type":"Feature","id":"932281958","properties":{"name":"SP_15KPH_%TR_1185-1170_22shl_SEPT_17_NS","oid":"932281958","speedLimit":4.1666665},"geometry":{"type":"Polygon","coordinates":[[[-121.037375095293,50.4481142919054],[-121.037408624822,50.4479621332096],[-121.03698203905,50.4479088372222],[-121.035924168323,50.4473801014825],[-121.035633109471,50.4472469064517],[-121.035475464332,50.4475380121904],[-121.035550694452,50.4474434634911],[-121.036814673166,50.4479515279372],[-121.037216182232,50.4480556034066],[-121.037334521746,50.4481912250676],[-121.037375095293,50.4481142919054]]]}},{"type":"Feature","id":"933274269","properties":{"name":"SP_15KPH_%TR_21SH_EMPTY_LANE_SEP_17_NS","oid":"933274269","speedLimit":4.1666665},"geometry":{"type":"Polygon","coordinates":[[[-121.039409548772,50.4523696125018],[-121.039606217774,50.4523825545291],[-121.039538454314,50.4510066552533],[-121.039312341314,50.4510519523488],[-121.039418846877,50.4515133715716],[-121.039409548772,50.4523696125018]]]}},{"type":"Feature","id":"934051091","properties":{"name":"iSP_17KPH_%TR_Ramp_Permission Blocker","oid":"934051091","speedLimit":4.7222223},"geometry":{"type":"Polygon","coordinates":[[[-121.039512954967,50.46102980601],[-121.039464914759,50.460771774341],[-121.039017478692,50.4607923557594],[-121.039076366688,50.4610450847923],[-121.0391638534,50.4609000262364],[-121.039379823013,50.4608869044588],[-121.039512954967,50.46102980601]]]}},{"type":"Feature","id":"934181339","properties":{"name":"SP_30KPH_TR%_1590_2_SEPT 16_NS_ROUGH_SECTION.","oid":"934181339","speedLimit":8.333333},"geometry":{"type":"Polygon","coordinates":[[[-121.009625747173,50.4401266344401],[-121.008921908826,50.4404385912228],[-121.010384387987,50.44179858259],[-121.011095974755,50.4414569669948],[-121.010562038138,50.4414850080539],[-121.009452464313,50.4404074944072],[-121.009625747173,50.4401266344401]]]}},{"type":"Feature","id":"934773555","properties":{"name":"SP_10KPH_NEW RAMP_SEPT 17_NS","oid":"934773555","speedLimit":2.7777777},"geometry":{"type":"Polygon","coordinates":[[[-121.03390338024,50.4443402529486],[-121.034414916878,50.4442041819117],[-121.035775398648,50.4443192221543],[-121.03627735542,50.4444736277298],[-121.035932339385,50.4447856743877],[-121.03462313807,50.4446108671441],[-121.034345462854,50.4446010707485],[-121.03390338024,50.4443402529486]]]}},{"type":"Feature","id":"936169885","properties":{"name":"SP_10KPH_%TR_24shl_loadplan_Sept_17_NS","oid":"936169885","speedLimit":2.7777777},"geometry":{"type":"Polygon","coordinates":[[[-121.039052839666,50.453593892333],[-121.03851185903,50.4536891600338],[-121.038693031191,50.4545086420115],[-121.039189775389,50.4544622664138],[-121.039181745208,50.4543766153582],[-121.039100316352,50.4539211278979],[-121.039077775492,50.4537567461763],[-121.039052839666,50.453593892333]]]}},{"type":"Feature","id":"936513295","properties":{"name":"SP_30KPH_%TR_1635_FLATS_SEP_17_NS","oid":"936513295","speedLimit":8.333333},"geometry":{"type":"Polygon","coordinates":[[[-121.017435168938,50.4574539418461],[-121.015228277881,50.4585170754625],[-121.014499503707,50.4578797704938],[-121.016653141982,50.4569269137349],[-121.017435168938,50.4574539418461]]]}},{"type":"Feature","id":"937786749","properties":{"name":"SP_30KPH_%TR_24SH_Loaded_LANE_SEP_17_NS","oid":"937786749","speedLimit":8.333333},"geometry":{"type":"Polygon","coordinates":[[[-121.038410284281,50.4510853859193],[-121.038213192638,50.4510392799471],[-121.038253766185,50.4516608567576],[-121.038333081836,50.4527882511344],[-121.038495798667,50.452761018952],[-121.038403803783,50.4516753266631],[-121.038410284281,50.4510853859193]]]}},{"type":"Feature","id":"937793793","properties":{"name":"SP_10KPH_%TR_21SH_LOAD_AREA_SEP_17_NS","oid":"937793793","speedLimit":2.7777777},"geometry":{"type":"Polygon","coordinates":[[[-121.039610866827,50.4523982826873],[-121.039003249774,50.4524050233265],[-121.039058897522,50.4534374196281],[-121.039658625273,50.4534069519388],[-121.039618756128,50.4529280070541],[-121.039610866827,50.4523982826873]]]}},{"type":"Feature","id":"938065675","properties":{"name":"SP_8KPH_CR01_YARD_RUTIING_SEP_17_NS","oid":"938065675","speedLimit":2.2222223},"geometry":{"type":"Polygon","coordinates":[[[-121.034289533345,50.4648013284615],[-121.03409934484,50.4648581295813],[-121.03394113618,50.4649071115595],[-121.033829699805,50.4650050755161],[-121.034044542375,50.4650689767758],[-121.033964522323,50.4650114566545],[-121.034242901941,50.4648882377697],[-121.034319540865,50.4649374893736],[-121.034289533345,50.4648013284615]]]}},{"type":"Feature","id":"938165680","properties":{"name":"SP_22SH_10kph_%TR_Sept17_NS","oid":"938165680","speedLimit":2.7777777},"geometry":{"type":"Polygon","coordinates":[[[-121.034631590893,50.4470558317988],[-121.035055499938,50.4472506812096],[-121.03549730079,50.4474474179994],[-121.035795403661,50.4469123011212],[-121.03487179193,50.446719159339],[-121.034631590893,50.4470558317988]]]}},{"type":"Feature","id":"938217281","properties":{"name":"SP_25KPH_CRUSHER_YARD_WEATHER_SEPT_17_NS","oid":"938217281","speedLimit":6.9444447},"geometry":{"type":"Polygon","coordinates":[[[-121.036883704549,50.4639826553605],[-121.037242385981,50.4642846359972],[-121.034292350953,50.465499299183],[-121.032879743444,50.4644545001053],[-121.036883704549,50.4639826553605]]]}},{"type":"Feature","id":"939481274","properties":{"name":"SP_10KPH_%TR_LRNX_PIT_BOTTOM_SEP_17_NS1","oid":"939481274","speedLimit":2.7777777},"geometry":{"type":"Polygon","coordinates":[[[-121.034055671924,50.4452363984629],[-121.034062715943,50.4449962519566],[-121.033303229848,50.4447664410971],[-121.033469468689,50.4448876827277],[-121.033358314074,50.4469938179181],[-121.033815893528,50.4469741352516],[-121.033664165366,50.4469200303875],[-121.034055671924,50.4452363984629]]]}},{"type":"Feature","id":"939584863","properties":{"name":"SP_40KPH_%TR_HMT EMPTY2_ROUGH_SECTION_SEPT 17_NS","oid":"939584863","speedLimit":11.111111},"geometry":{"type":"Polygon","coordinates":[[[-121.00596158953,50.4301700811988],[-121.005670108036,50.430397375553],[-121.005922706546,50.4302830543119],[-121.006322102406,50.4305570837647],[-121.006714876889,50.4308738039324],[-121.007138081532,50.4312429213356],[-121.00726543739,50.4315321396954],[-121.007412234739,50.4321903855832],[-121.007319394573,50.4325924871809],[-121.007053835068,50.4326145066023],[-121.0075481843,50.4326902713871],[-121.007645391758,50.4323019206933],[-121.007587067283,50.4319287589066],[-121.007418715236,50.4313516703149],[-121.007306433578,50.4311740769405],[-121.00711864004,50.4309839909147],[-121.006684728489,50.4306465994534],[-121.00596158953,50.4301700811988]]]}},{"type":"Feature","id":"939585115","properties":{"name":"SP_40KPH_%TR_HMT EMPTY22_ROUGH_SECTION_SEPT 17_NS","oid":"939585115","speedLimit":11.111111},"geometry":{"type":"Polygon","coordinates":[[[-121.007520149106,50.4327113021814],[-121.007046650169,50.4338271026588],[-121.006950006233,50.4340181773117],[-121.006753618991,50.4342996664051],[-121.005790560756,50.4352900909932],[-121.005291280711,50.4350887705688],[-121.005661655214,50.4351667822333],[-121.006611893335,50.4341291731707],[-121.00675671836,50.433927762871],[-121.006962967227,50.4334119691586],[-121.007226977048,50.432783202333],[-121.007030589806,50.4326537820601],[-121.007520149106,50.4327113021814]]]}},{"type":"Feature","id":"940771585","properties":{"name":"SP_15KPH_%TR_1660_HMT_SEPT17_NS","oid":"940771585","speedLimit":4.1666665},"geometry":{"type":"Polygon","coordinates":[[[-121.002710774903,50.4281185002484],[-121.002605537263,50.4277113656401],[-121.002233894837,50.4276979742368],[-121.002507343643,50.4277963875693],[-121.002535378837,50.428114006489],[-121.00267569569,50.4280826400478],[-121.002710774903,50.4281185002484]]]}},{"type":"Feature","id":"940772885","properties":{"name":"SP_11KPH_%TR_1654_HMT_SEPT17_NS","oid":"940772885","speedLimit":3.0555556},"geometry":{"type":"Polygon","coordinates":[[[-121.004064212654,50.4264900516902],[-121.004414863905,50.4266376267513],[-121.004611110266,50.4261544577327],[-121.004379784692,50.4258055622471],[-121.003973063052,50.4255504964593],[-121.003538165338,50.4259173669828],[-121.003839790219,50.4258323450536],[-121.004183397451,50.4261097897635],[-121.004148318238,50.4264900516902],[-121.004064212654,50.4264900516902]]]}},{"type":"Feature","id":"940778315","properties":{"name":"SP_25KPH_%TR_HMT_SPILLING_ROCK_IN_CORNER_SEPT17_NS","oid":"940778315","speedLimit":6.9444447},"geometry":{"type":"Polygon","coordinates":[[[-121.004786506331,50.4367080518577],[-121.004772418294,50.4370436458152],[-121.004989796711,50.4372762428056],[-121.005123069544,50.4371688419542],[-121.00489174397,50.4369362449638],[-121.004884699952,50.4367573034616],[-121.005200271989,50.4367975675464],[-121.004800453488,50.436699154214],[-121.004786506331,50.4367080518577]]]}}]}