{"type":"FeatureCollection","features":[{"type":"Feature","id":"702602533","properties":{"name":"iSP_4KPH_%TR_CR01_Slow Bump","oid":"702602533","speedLimit":1.1111112},"geometry":{"type":"Polygon","coordinates":[[[-121.033357998132,50.4648077498583],[-121.033652720619,50.4646907324928],[-121.033696111884,50.464731445908],[-121.033368282425,50.4648695839194],[-121.033357998132,50.4648077498583]]]}},{"type":"Feature","id":"707947583","properties":{"name":"iSP_25KPH_%TR_Permission Gate 1 From West Dump","oid":"707947583","speedLimit":6.9444447},"geometry":{"type":"Polygon","coordinates":[[[-121.038627219206,50.4619778529395],[-121.038853896302,50.4617993610133],[-121.038138926595,50.4614081347521],[-121.03799128359,50.4616708396364],[-121.038190770704,50.4615667642837],[-121.038665679646,50.4618459163093],[-121.038627219206,50.4619778529395]]]}},{"type":"Feature","id":"742345972","properties":{"name":"iSP_4KPH_%TR_CR01_Pit Side_Slow Bump","oid":"742345972","speedLimit":1.1111112},"geometry":{"type":"Polygon","coordinates":[[[-121.033397867378,50.4648827056823],[-121.033705128251,50.4647442081706],[-121.033755281791,50.4647762935773],[-121.033473802092,50.4649182063424],[-121.033397867378,50.4648827056823]]]}},{"type":"Feature","id":"776427243","properties":{"name":"iSP_7KPH_%TR_CR1_PermissionBlocker","oid":"776427243","speedLimit":1.9444444},"geometry":{"type":"Polygon","coordinates":[[[-121.034099030773,50.4652127270081],[-121.034050567802,50.4652330387782],[-121.034029435692,50.4652744711941],[-121.034115091176,50.4652253993956],[-121.034099030773,50.4652127270081]]]}},{"type":"Feature","id":"794004438","properties":{"name":"iSP_11KPH_%TR_Lower_Fuel_Bay","oid":"794004438","speedLimit":3.0555556},"geometry":{"type":"Polygon","coordinates":[[[-121.036775623768,50.4606953354234],[-121.036777736979,50.4607251739528],[-121.036748011145,50.4606707096491],[-121.037124162695,50.4605989893283],[-121.03753412562,50.4605559391608],[-121.03754187406,50.4605812839358],[-121.036943412718,50.4606501282538],[-121.036775623768,50.4606953354234]]]}},{"type":"Feature","id":"801543391","properties":{"name":"iSP_4KPH_%TR_CR01_PermissionBlocker_2","oid":"801543391","speedLimit":1.1111112},"geometry":{"type":"Polygon","coordinates":[[[-121.033154566357,50.4645232053274],[-121.033153721073,50.4644737740286],[-121.033175275824,50.4644317124871],[-121.033107230432,50.4644593041393],[-121.033154566357,50.4645232053274]]]}},{"type":"Feature","id":"806473874","properties":{"name":"iSP_4KPH_%TR_CR04_PermissionBlocker","oid":"806473874","speedLimit":1.1111112},"geometry":{"type":"Polygon","coordinates":[[[-121.022719248902,50.481545097757],[-121.02268614193,50.4815427610047],[-121.022678534371,50.481571431158],[-121.022700652645,50.4815725096591],[-121.022704738186,50.4815484231353],[-121.022719248902,50.481545097757]]]}},{"type":"Feature","id":"824566967","properties":{"name":"iSP_3KPH_%TR_CR04","oid":"824566967","speedLimit":0.8333333},"geometry":{"type":"Polygon","coordinates":[[[-121.023302072483,50.4810682205362],[-121.023281926538,50.4810682205362],[-121.023279249805,50.4811863164028],[-121.023304326575,50.4811855974021],[-121.023302072483,50.4810682205362]]]}},{"type":"Feature","id":"826307302","properties":{"name":"iSP_4KPH_%TR_CR04_Pockets","oid":"826307302","speedLimit":1.1111112},"geometry":{"type":"Polygon","coordinates":[[[-121.023297282538,50.4813213986612],[-121.023336729143,50.4814770623149],[-121.023541428844,50.4814376071509],[-121.023460422424,50.4811887430302],[-121.023052150067,50.4811894620309],[-121.023057503535,50.4813601348244],[-121.023282349181,50.4813261620409],[-121.023297282538,50.4813213986612]]]}},{"type":"Feature","id":"883050998","properties":{"name":"iSP_22KPH_%TR_4CR_Brake_Temp_Ctrl","oid":"883050998","speedLimit":6.111111},"geometry":{"type":"Polygon","coordinates":[[[-121.031798307566,50.47455892736],[-121.032187561024,50.4743123101166],[-121.032489186668,50.4745746555006],[-121.032790812311,50.474802039475],[-121.032968603793,50.4748844549314],[-121.033177389035,50.4749346052309],[-121.033461263707,50.4749594107554],[-121.033665118124,50.4749218429683],[-121.033826285679,50.4748624355347],[-121.033917435512,50.4748103978583],[-121.034006753895,50.4747472156709],[-121.034057189196,50.4746580595829],[-121.034051413086,50.4745478727241],[-121.034055216866,50.4744835221606],[-121.033993088464,50.4743795366829],[-121.03387474865,50.4742594635644],[-121.033507895229,50.4739375309966],[-121.033059612745,50.4735598758737],[-121.032946344638,50.4734253328659],[-121.03282138343,50.473220777164],[-121.032604567986,50.4728148113882],[-121.032251098233,50.47220887354],[-121.032486087292,50.4721560269878],[-121.032429030596,50.4722055481617],[-121.032901544565,50.4730487562441],[-121.033040734727,50.4733094838765],[-121.033248533804,50.4735468439859],[-121.033741475479,50.4739615276453],[-121.03409649492,50.4742710574508],[-121.034201873706,50.4743943660726],[-121.034254563099,50.4744615926389],[-121.034261607136,50.4745927203934],[-121.034236671246,50.4746787308533],[-121.034182150404,50.4747915240897],[-121.034084660938,50.4748757370478],[-121.033971815473,50.4749375711088],[-121.033789234047,50.4750160320613],[-121.033529731742,50.475064294984],[-121.033261776593,50.4750679798626],[-121.033070178799,50.4750261879463],[-121.032806450072,50.474916450463],[-121.032655707691,50.4748350236326],[-121.032494117493,50.4747052440045],[-121.032143606236,50.4744129702159],[-121.031798307566,50.47455892736]]]}},{"type":"Feature","id":"883053336","properties":{"name":"iSP_22KPH_%TR_Brake_Temp_Ctrl","oid":"883053336","speedLimit":6.111111},"geometry":{"type":"Polygon","coordinates":[[[-121.032464814301,50.4721451521021],[-121.032249971188,50.4722254105563],[-121.031487383794,50.4710082322297],[-121.030815523592,50.4699232601585],[-121.030660273027,50.4696601058987],[-121.030595467891,50.4694576173238],[-121.030549118131,50.4692566566254],[-121.030595467891,50.4689728310952],[-121.030721697025,50.4686242056261],[-121.030883428104,50.4683754313805],[-121.031087846043,50.4680977173563],[-121.03168715267,50.4675364474272],[-121.032431002926,50.4668935709175],[-121.032787290293,50.4665560899594],[-121.033146395275,50.4662222938798],[-121.033483241101,50.4658706126576],[-121.03377824535,50.4660340055689],[-121.033586224915,50.4659932022786],[-121.032918168491,50.466651986679],[-121.032553428281,50.4669911752639],[-121.032177417612,50.4673076254513],[-121.031773230796,50.4676682941824],[-121.031380877962,50.4680343554187],[-121.031146029785,50.4682862752924],[-121.031007684908,50.4684698002236],[-121.03090399669,50.4686544036559],[-121.030827498454,50.4688529377269],[-121.030766637978,50.4691912275608],[-121.030775372584,50.4694005466425],[-121.030872580287,50.4696302673693],[-121.031026562926,50.4699350337952],[-121.031329456496,50.4704037323829],[-121.031529507133,50.4707109254362],[-121.031749140191,50.4710828285533],[-121.032144874163,50.471728760816],[-121.032380144982,50.472145062227],[-121.032464814301,50.4721451521021]]]}},{"type":"Feature","id":"883059532","properties":{"name":"iSP_22KPH_%TR_Brake_Ctrl","oid":"883059532","speedLimit":6.111111},"geometry":{"type":"Polygon","coordinates":[[[-121.027261384527,50.4773219572128],[-121.027029213084,50.4772097931021],[-121.027333656342,50.4769440324647],[-121.027715584002,50.4766324355321],[-121.028032283884,50.4763227259763],[-121.028189506779,50.4761687699493],[-121.028620320052,50.475692342104],[-121.028906307935,50.4753257416171],[-121.029262877063,50.4748876005595],[-121.029471662305,50.4746567114566],[-121.029690450079,50.4745404130918],[-121.02980047793,50.4744881956652],[-121.029951220311,50.4745926305183],[-121.029787657783,50.4745420308434],[-121.029555063698,50.4747915240897],[-121.029250902201,50.4751730438413],[-121.029071983673,50.4754779900174],[-121.028852209734,50.4757747575604],[-121.02869512772,50.4759747296328],[-121.028408012791,50.4762705984249],[-121.028040736728,50.4765699723454],[-121.027243070033,50.4772194097366],[-121.027261384527,50.4773219572128]]]}},{"type":"Feature","id":"884401102","properties":{"name":"iSP_30KPH_%TR_Maint_Limit_Policy","oid":"884401102","speedLimit":8.333333},"geometry":{"type":"Polygon","coordinates":[[[-121.036991171285,50.4611012113241],[-121.037107257007,50.4611076823305],[-121.038293472756,50.4609920130913],[-121.038277130592,50.4603978488797],[-121.03811863977,50.4605657355454],[-121.037031604055,50.4607083673113],[-121.036743925604,50.4605376945178],[-121.036991171285,50.4611012113241]]]}},{"type":"Feature","id":"910445950","properties":{"name":"SP_22KPH_%TR_1635_FLATS_OCT_2_DS","oid":"910445950","speedLimit":6.111111},"geometry":{"type":"Polygon","coordinates":[[[-121.017369444049,50.4554937247882],[-121.018002562051,50.4544140553473],[-121.018147810084,50.4539983830619],[-121.018532414478,50.4537514063181],[-121.018948435274,50.4536879545055],[-121.018866301808,50.4543415261507],[-121.018261500833,50.4560719811091],[-121.018275588906,50.4557007071175],[-121.017369444049,50.4554937247882]]]}},{"type":"Feature","id":"915576987","properties":{"name":"iSP_15KPH_%TR_Preventing Shifting","oid":"915576987","speedLimit":4.1666665},"geometry":{"type":"Polygon","coordinates":[[[-121.036996665634,50.4448631195433],[-121.037510739419,50.4453130342374],[-121.037980013131,50.4457954837137],[-121.038523953631,50.4462187953816],[-121.039456584066,50.4468498982547],[-121.039913882916,50.4470996611262],[-121.040469798278,50.4471950185954],[-121.041222946662,50.4473227310965],[-121.041641362431,50.4475095814059],[-121.042319844029,50.4480950277339],[-121.042702476092,50.4485277762861],[-121.042845892676,50.4487947951748],[-121.043007341992,50.4493915657639],[-121.043186542281,50.4501981048102],[-121.043324041874,50.4505012534844],[-121.043685682709,50.4511686658933],[-121.043856148393,50.4514889807096],[-121.044125089707,50.4522535480894],[-121.04438219704,50.4529381266402],[-121.044695938426,50.4537980514891],[-121.044734821507,50.4541946702557],[-121.044570413695,50.4550717612466],[-121.044214830732,50.4568392447415],[-121.04405042292,50.4572072832299],[-121.043004242616,50.4583989370313],[-121.041904386755,50.4595372949051],[-121.041342554402,50.4600006009875],[-121.040371181767,50.4605974614518],[-121.039922758402,50.4607309259585],[-121.039133685432,50.4608071400338],[-121.038496341008,50.4608386861899],[-121.038644124894,50.4611434526158],[-121.038756970359,50.4609495021743],[-121.03987795833,50.4608796692304],[-121.040705914382,50.4606317937357],[-121.04150992071,50.460057851419],[-121.042872800895,50.4587001983287],[-121.044241598071,50.4571423934158],[-121.044426997112,50.4562901079494],[-121.044812587671,50.4544215149796],[-121.044809488295,50.4537865474778],[-121.044259630804,50.4523012717615],[-121.043832198668,50.4511858320353],[-121.043345033103,50.4503373213226],[-121.043049183569,50.449309599683],[-121.042926617334,50.4486917983231],[-121.04223911937,50.4478871466537],[-121.041545704416,50.4473913956643],[-121.04109136406,50.4472217114967],[-121.040457823416,50.4471302186564],[-121.039916841412,50.4470195824222],[-121.038819944046,50.4463332063696],[-121.038195278887,50.445871697789],[-121.03715219796,50.4449068887115],[-121.037376339202,50.4446972101295],[-121.036996665634,50.4448631195433]]]}},{"type":"Feature","id":"917773475","properties":{"name":"SP_15KPH_%TR_1200_CORNER_OCT_2_DS","oid":"917773475","speedLimit":4.1666665},"geometry":{"type":"Polygon","coordinates":[[[-121.037097536237,50.4446823807398],[-121.036923407654,50.4448619511671],[-121.036627839882,50.4448204288761],[-121.03641327853,50.4448697702998],[-121.036321706055,50.4449674645213],[-121.036253097139,50.4450819653843],[-121.036240840516,50.4451447880713],[-121.036261972625,50.4452671080671],[-121.036314662018,50.4453513210252],[-121.036182797655,50.4453950901934],[-121.036087703162,50.445194129495],[-121.036161665545,50.4449315144858],[-121.036258450607,50.4447912194723],[-121.036515276178,50.4447149155219],[-121.03671236832,50.4447115901437],[-121.036921717085,50.4447699190762],[-121.03709232365,50.4446834592409],[-121.037097536237,50.4446823807398]]]}},{"type":"Feature","id":"929009157","properties":{"name":"iSP_22KPH_%TR_Long_Single_Lane","oid":"929009157","speedLimit":6.111111},"geometry":{"type":"Polygon","coordinates":[[[-121.005680992497,50.4380558005728],[-121.004751320558,50.4382238669887],[-121.005175794199,50.4381973538376],[-121.007935929467,50.4431703222471],[-121.008524670039,50.444534715969],[-121.008211773937,50.4465095412937],[-121.007833790937,50.446680034337],[-121.008935196487,50.4466467805542],[-121.008824464233,50.4465927656258],[-121.0094044702,50.4448174629982],[-121.008765576088,50.4430682241463],[-121.008263899807,50.4415399881375],[-121.007260406365,50.4401560016462],[-121.006440762276,50.438983850739],[-121.005861742474,50.4383128433266],[-121.005680992497,50.4380558005728]]]}},{"type":"Feature","id":"932268643","properties":{"name":"SP_35KPH_%traction_1185_1170_OCT_2_DS","oid":"932268643","speedLimit":9.722222},"geometry":{"type":"Polygon","coordinates":[[[-121.038727667167,50.4481973055849],[-121.03846591077,50.4482555446424],[-121.038945750538,50.4498291675709],[-121.039504906156,50.4497912402835],[-121.03910438224,50.4497304847235],[-121.038620597812,50.4483440716048],[-121.038850656045,50.4481593782974],[-121.038727667167,50.4481973055849]]]}},{"type":"Feature","id":"933371104","properties":{"name":"SP_17KPH_%TR_1590_HMT_INTERSECT_OCT_2_DS","oid":"933371104","speedLimit":4.7222223},"geometry":{"type":"Polygon","coordinates":[[[-121.006360742021,50.437488688763],[-121.005863010401,50.4376811113279],[-121.005944157702,50.4378151150852],[-121.006253813547,50.4380937278603],[-121.006605874492,50.4383161687049],[-121.00716305778,50.4382766236658],[-121.006791555294,50.4381830636985],[-121.006117581881,50.4376595413066],[-121.006360742021,50.437488688763]]]}},{"type":"Feature","id":"934051091","properties":{"name":"iSP_17KPH_%TR_Ramp_Permission Blocker","oid":"934051091","speedLimit":4.7222223},"geometry":{"type":"Polygon","coordinates":[[[-121.039511527551,50.4610295808784],[-121.039463487222,50.4607715494986],[-121.039016050022,50.460792130894],[-121.039074938167,50.4610448596435],[-121.039162425101,50.4608998012502],[-121.03937839526,50.4608866794873],[-121.039511527551,50.4610295808784]]]}},{"type":"Feature","id":"934859271","properties":{"name":"SP_30KPH_%TR_23SH_LOADED_LANES2_OCT_2_DS","oid":"934859271","speedLimit":8.333333},"geometry":{"type":"Polygon","coordinates":[[[-121.040497974424,50.4654083850763],[-121.040443876224,50.4651300419265],[-121.039927266586,50.4634421877602],[-121.039469404212,50.4634990786914],[-121.039719185747,50.4635597443762],[-121.040034476822,50.464569401123],[-121.040276509916,50.4653841188023],[-121.040002215134,50.4654675228847],[-121.040497974424,50.4654083850763]]]}},{"type":"Feature","id":"936169885","properties":{"name":"SP_15KPH_%TR_24shl_loadplan_OCT_2_DS","oid":"936169885","speedLimit":4.1666665},"geometry":{"type":"Polygon","coordinates":[[[-121.038970827308,50.454907110084],[-121.038048199405,50.454856420534],[-121.037412404669,50.4555982495164],[-121.037843781465,50.4558184434838],[-121.038388285488,50.4556976513645],[-121.038576220382,50.4556101130281],[-121.038692446985,50.4552655319379],[-121.038970827308,50.454907110084]]]}},{"type":"Feature","id":"936513295","properties":{"name":"SP_30KPH_%TR_1635_FLATS_OCT_2_DS","oid":"936513295","speedLimit":8.333333},"geometry":{"type":"Polygon","coordinates":[[[-121.017285620014,50.4555551094738],[-121.018049757096,50.4557850998258],[-121.017433685662,50.4574537207232],[-121.015226789022,50.4585168531477],[-121.014498013004,50.4578795488936],[-121.016177029548,50.4566193203994],[-121.017285620014,50.4555551094738]]]}},{"type":"Feature","id":"938065675","properties":{"name":"iSP_8KPH_CR01_YARD_RUTIING_OCT_2_DS","oid":"938065675","speedLimit":2.2222223},"geometry":{"type":"Polygon","coordinates":[[[-121.034288092713,50.4648010991018],[-121.034097903727,50.4648579001578],[-121.033939694667,50.4649068820812],[-121.033828258009,50.4650048459279],[-121.034043101123,50.465068747116],[-121.033963080868,50.4650112270592],[-121.034241461191,50.4648880083126],[-121.034318100309,50.4649372598612],[-121.034288092713,50.4648010991018]]]}},{"type":"Feature","id":"938165680","properties":{"name":"SP_10KPH_%TR_22SH_OCT_2_DS","oid":"938165680","speedLimit":2.7777777},"geometry":{"type":"Polygon","coordinates":[[[-121.034079307471,50.4466112798941],[-121.035054061244,50.4472504715251],[-121.035495863214,50.4474472080944],[-121.035793966839,50.4469120918161],[-121.034853728845,50.4461952481084],[-121.034079307471,50.4466112798941]]]}},{"type":"Feature","id":"944724443","properties":{"name":"SP_10KPH_%TR_21SH_EMPTY_OCT_2_DS","oid":"944724443","speedLimit":2.7777777},"geometry":{"type":"Polygon","coordinates":[[[-121.03913326279,50.4501830057952],[-121.03891137564,50.4501671877796],[-121.038926449878,50.4505368440196],[-121.03895011784,50.4512094691836],[-121.039435874598,50.4515126178579],[-121.039940932017,50.4513548870772],[-121.039709464977,50.4511094382098],[-121.039504201753,50.4509152181431],[-121.039103114313,50.4503564647165],[-121.03908325013,50.4502968775327],[-121.03913326279,50.4501830057952]]]}},{"type":"Feature","id":"948333262","properties":{"name":"SP_15KPH_%TR_19SH_LOADAREA_OCT_2_DS","oid":"948333262","speedLimit":4.1666665},"geometry":{"type":"Polygon","coordinates":[[[-121.00182917245,50.4258158919891],[-121.001357222004,50.4259954624164],[-121.001490917817,50.426292859085],[-121.001515290183,50.4266962184832],[-121.001611511722,50.4268353451206],[-121.001755491828,50.426952272611],[-121.001949061952,50.4270054786635],[-121.00235761607,50.4268576341426],[-121.00182917245,50.4258158919891]]]}},{"type":"Feature","id":"949509237","properties":{"name":"SP_20KPH_%TR_24SH__LANE_OCT_2_DS","oid":"949509237","speedLimit":5.5555553},"geometry":{"type":"Polygon","coordinates":[[[-121.038499581265,50.4535460417404],[-121.038401246515,50.453704761147],[-121.03810328377,50.4548216388747],[-121.038988296518,50.454813819742],[-121.039317393904,50.4537390934309],[-121.038499581265,50.4535460417404]]]}},{"type":"Feature","id":"950241413","properties":{"name":"SP_15KPH_%TR_Oct2_DS","oid":"950241413","speedLimit":4.1666665},"geometry":{"type":"Polygon","coordinates":[[[-121.039666778115,50.4529315657587],[-121.038581151208,50.4528440274223],[-121.038489578733,50.4538215088873],[-121.039272734713,50.4538648286801],[-121.039666778115,50.4529315657587]]]}},{"type":"Feature","id":"950375436","properties":{"name":"SP_22KPH_%TR_1445_RAC_OCT_2_DS","oid":"950375436","speedLimit":6.111111},"geometry":{"type":"Polygon","coordinates":[[[-121.039805263873,50.4640111869469],[-121.039745953086,50.4638809579434],[-121.03908902624,50.4641958802543],[-121.038243037455,50.4645746138782],[-121.037812505943,50.4648373187625],[-121.037693743487,50.4647592173104],[-121.037838427997,50.464924946974],[-121.038576924786,50.4645178128221],[-121.039011119197,50.4643260193827],[-121.039523220651,50.4641224523068],[-121.039797938075,50.4640017500626],[-121.039805263873,50.4640111869469]]]}},{"type":"Feature","id":"950380359","properties":{"name":"SP_20KPH_%TR_EMPTY_23SH_SOFT_OCT_2_DS","oid":"950380359","speedLimit":5.5555553},"geometry":{"type":"Polygon","coordinates":[[[-121.038899400777,50.4647303674069],[-121.038785005624,50.4646501089527],[-121.038307842591,50.4649202734694],[-121.038376592387,50.4649519993757],[-121.038781060964,50.4647035846305],[-121.038891793218,50.4647279407795],[-121.038899400777,50.4647303674069]]]}},{"type":"Feature","id":"950427531","properties":{"name":"SP_15KPH_%TR_1590_DUMP_HEAD_OCT_2_DS","oid":"950427531","speedLimit":4.1666665},"geometry":{"type":"Polygon","coordinates":[[[-121.014469695977,50.4503498139599],[-121.014252880533,50.4491357812614],[-121.014361358695,50.4478526346196],[-121.014449972675,50.4473997540475],[-121.013690766419,50.4470537349559],[-121.013552844184,50.4483118064479],[-121.013947169348,50.45053226039],[-121.014558450837,50.4504253090344],[-121.014469695977,50.4503498139599]]]}}]}