{"type":"FeatureCollection","features":[{"type":"Feature","id":"702602533","properties":{"name":"iSP_4KPH_%TR_CR01_SLOW BUMP","oid":"702602533","speedLimit":1.1111112},"geometry":{"type":"Polygon","coordinates":[[[-121.033350531558,50.4648099569207],[-121.033645326651,50.4646929385362],[-121.033688728605,50.4647336523059],[-121.033360818385,50.4648717915201],[-121.033350531558,50.4648099569207]]]}},{"type":"Feature","id":"707947583","properties":{"name":"iSP_22KPH_%TR_Permission Gate 1 from west dump_Jun","oid":"707947583","speedLimit":6.111111},"geometry":{"type":"Polygon","coordinates":[[[-121.038621050701,50.4619800353603],[-121.038847783638,50.4618015418798],[-121.037973403356,50.4613530612819],[-121.037736242677,50.4615443171361],[-121.037952406956,50.4614985703176],[-121.038659520615,50.4618480975812],[-121.038621050701,50.4619800353603]]]}},{"type":"Feature","id":"742345972","properties":{"name":"iSP_4KPH_%TR_CR01_PITSIDE_SLOW BUMP","oid":"742345972","speedLimit":1.1111112},"geometry":{"type":"Polygon","coordinates":[[[-121.033390410627,50.4648849133974],[-121.033697747193,50.4647464146796],[-121.033747913088,50.4647785003657],[-121.033466364047,50.4649204143665],[-121.033390410627,50.4648849133974]]]}},{"type":"Feature","id":"776427243","properties":{"name":"iSP_4KPH_%TR_CR1_PermissionBlocker_DO_NOT_DELETE","oid":"776427243","speedLimit":1.1111112},"geometry":{"type":"Polygon","coordinates":[[[-121.033918843512,50.4651552600183],[-121.034047922052,50.465244147255],[-121.034073568661,50.4652294076121],[-121.034159245246,50.4651803353864],[-121.033918843512,50.4651552600183]]]}},{"type":"Feature","id":"794004438","properties":{"name":"iSP_11KPH_%TR_LOWER_FUEL_BAY","oid":"794004438","speedLimit":3.0555556},"geometry":{"type":"Polygon","coordinates":[[[-121.036768999124,50.4606975066765],[-121.036771112855,50.4607273454657],[-121.036741379698,50.4606728806877],[-121.037117623913,50.4606011597424],[-121.037527687832,50.4605581092],[-121.037535438181,50.4605834541957],[-121.036936829408,50.4606522991132],[-121.036768999124,50.4606975066765]]]}},{"type":"Feature","id":"801543391","properties":{"name":"iSP_4KPH_%TR_CR1_PermissionBlocker_DO_NOT_DELETE_","oid":"801543391","speedLimit":1.1111112},"geometry":{"type":"Polygon","coordinates":[[[-121.033147049669,50.464525409912],[-121.033146204176,50.4644759781828],[-121.033167764238,50.464433916275],[-121.033099702082,50.4644615081675],[-121.033147049669,50.464525409912]]]}},{"type":"Feature","id":"806473874","properties":{"name":"iSP_4KPH_%TR_Permission Blocker - DO NOT DELETE","oid":"806473874","speedLimit":1.1111112},"geometry":{"type":"Polygon","coordinates":[[[-121.022709161483,50.4815474505616],[-121.022676046355,50.4815451137889],[-121.022668436922,50.4815737841919],[-121.022690560645,50.4815748627024],[-121.022694647193,50.4815507759688],[-121.022709161483,50.4815474505616]]]}},{"type":"Feature","id":"824566967","properties":{"name":"iSP_4Cr_3KPH","oid":"824566967","speedLimit":0.8333333},"geometry":{"type":"Polygon","coordinates":[[[-121.023292128642,50.4810705691884],[-121.023271977735,50.4810705691884],[-121.023269300341,50.4811886660833],[-121.023294383289,50.4811879470763],[-121.023292128642,50.4810705691884]]]}},{"type":"Feature","id":"826307302","properties":{"name":"iSP_4KPH_TR%_CRUSHER POCKETS","oid":"826307302","speedLimit":1.1111112},"geometry":{"type":"Polygon","coordinates":[[[-121.023287337517,50.4813237495179],[-121.023326793839,50.481479414527],[-121.023531543968,50.4814399590195],[-121.023450517592,50.4811910927318],[-121.023042144658,50.4811918117388],[-121.023047499445,50.4813624860184],[-121.023272400481,50.481328512939],[-121.023287337517,50.4813237495179]]]}},{"type":"Feature","id":"849417440","properties":{"name":"iSP_Permissions_35_KPH_June_19_NS","oid":"849417440","speedLimit":9.722222},"geometry":{"type":"Polygon","coordinates":[[[-121.03268696077,50.466036223309],[-121.033001624939,50.4660168999967],[-121.033208629714,50.4658160274243],[-121.033797515322,50.4653815674623],[-121.033718320847,50.4652527753387],[-121.033954495118,50.4654022389127],[-121.033418170968,50.4658105449961],[-121.033015716482,50.4661900908007],[-121.03268696077,50.466036223309]]]}},{"type":"Feature","id":"853029148","properties":{"name":"SP_25KPH_%TR_1635 Flats_July_22_NS","oid":"853029148","speedLimit":6.9444447},"geometry":{"type":"Polygon","coordinates":[[[-121.018578930049,50.456972870817],[-121.017397495033,50.4572916605326],[-121.016418837329,50.4584595076046],[-121.018337964654,50.458895046077],[-121.020681529272,50.4589891461143],[-121.020229754384,50.4572336905956],[-121.019411881192,50.4570985172851],[-121.018957569826,50.4570019007235],[-121.018578930049,50.456972870817]]]}},{"type":"Feature","id":"883050998","properties":{"name":"iSP_22kph_%TR_4CR_Brake_Temp_CTRL_NOREMOVE","oid":"883050998","speedLimit":6.111111},"geometry":{"type":"Polygon","coordinates":[[[-121.031790456765,50.4745612193318],[-121.032179806115,50.4743145999409],[-121.032481506064,50.4745769476093],[-121.032783206012,50.4748043335637],[-121.032961041293,50.4748867497377],[-121.033169877969,50.4749369004739],[-121.033453822573,50.4749617062144],[-121.033657727209,50.4749241381002],[-121.033818934468,50.4748647301492],[-121.033910106755,50.4748126920198],[-121.033999447142,50.4747495092822],[-121.034049894868,50.4746603524179],[-121.034044117335,50.4745501645996],[-121.034047922052,50.4744858134757],[-121.033985778345,50.4743818270926],[-121.033867409378,50.4742617529285],[-121.033500465582,50.4739398175574],[-121.033052072665,50.4735621591461],[-121.032938776654,50.4734276149668],[-121.032813784662,50.4732230574836],[-121.032596915806,50.4728170881728],[-121.032243358977,50.4722111450484],[-121.032478405924,50.472158298036],[-121.032421335172,50.4722078196412],[-121.032893965545,50.4730510350659],[-121.033033189996,50.4733117649686],[-121.033241040265,50.4735491271448],[-121.033734103376,50.4739638144151],[-121.034089210275,50.4742733469159],[-121.034194615021,50.4743966566114],[-121.034247317394,50.4744638837631],[-121.034254363166,50.4745950126594],[-121.034229421134,50.4746810238683],[-121.03417488686,50.4747938180868],[-121.034077373378,50.4748780317782],[-121.033964500114,50.4749398663777],[-121.033781873708,50.4750183280133],[-121.033522307475,50.4750665913562],[-121.033254286316,50.475070276267],[-121.033062641322,50.4750284839868],[-121.032798847626,50.4749187455479],[-121.032648068109,50.4748373180085],[-121.032486438104,50.4747075372503],[-121.032135840499,50.4744152609168],[-121.031790456765,50.4745612193318]]]}},{"type":"Feature","id":"883053336","properties":{"name":"iSP_22kph_%TR_Brake_Temp_CTRL_NOREMOVE","oid":"883053336","speedLimit":6.111111},"geometry":{"type":"Polygon","coordinates":[[[-121.032457127693,50.4721474230556],[-121.032242231653,50.4722276822087],[-121.031479456397,50.4710104932834],[-121.030807430682,50.4699255117647],[-121.030652141872,50.4696623552135],[-121.030587320771,50.4694598648754],[-121.030540959593,50.4692589024271],[-121.030587320771,50.4689750744255],[-121.030713581002,50.4686264459206],[-121.030875351923,50.4683776695088],[-121.03107982022,50.4680999530664],[-121.031679274486,50.46753867825],[-121.032423307989,50.4668957961424],[-121.032779683127,50.4665583122455],[-121.033138876573,50.4662245132594],[-121.033475805381,50.465872828975],[-121.033770882304,50.466036223309],[-121.033578814565,50.4659954196634],[-121.032910593567,50.4666542098002],[-121.032545763503,50.4669934013386],[-121.032169660204,50.4673098542816],[-121.031765373817,50.4676705261532],[-121.031372924328,50.4680365905771],[-121.031138018296,50.4682885126444],[-121.030999639337,50.4684720391737],[-121.030895925576,50.4686566442134],[-121.030819408494,50.4688551800131],[-121.030758533026,50.4691934727928],[-121.030767269783,50.4694027936971],[-121.030864501434,50.4696325164242],[-121.031018522006,50.4699372855039],[-121.031321490193,50.4704059881728],[-121.031521590113,50.470713183901],[-121.031741277278,50.4710850902566],[-121.032137108738,50.4717310281438],[-121.032372437516,50.4721473331797],[-121.032457127693,50.4721474230556]]]}},{"type":"Feature","id":"883059532","properties":{"name":"iSP_22kph_%TR_Brake_CTRL_NOREMOVE","oid":"883059532","speedLimit":6.111111},"geometry":{"type":"Polygon","coordinates":[[[-121.027252416059,50.4773242732439],[-121.027020187421,50.4772121081565],[-121.027324705678,50.476946345205],[-121.027706727425,50.4766347455591],[-121.028023505326,50.4763250333065],[-121.028180766953,50.476171075939],[-121.028611686356,50.4756946439451],[-121.028897744692,50.4753280402659],[-121.029254401661,50.4748898953932],[-121.029463238337,50.4746590042798],[-121.029682080009,50.4745427049023],[-121.029792134965,50.474490487021],[-121.029942914482,50.4745949227835],[-121.02977931166,50.474544322668],[-121.029546660275,50.4747938180868],[-121.029242423849,50.4751753411605],[-121.029063461245,50.475480289992],[-121.028843633164,50.4757770601191],[-121.028686512453,50.4759770339328],[-121.028399326794,50.4762729053012],[-121.028031960252,50.4765722818285],[-121.027234097053,50.4772217248747],[-121.027252416059,50.4773242732439]]]}},{"type":"Feature","id":"886231481","properties":{"name":"SP_15KPH_%TR_1200_SWITCHBACK_July_22_NS","oid":"886231481","speedLimit":4.1666665},"geometry":{"type":"Polygon","coordinates":[[[-121.036901318718,50.4452294198421],[-121.036960362286,50.4446824352892],[-121.036275795097,50.4447476851718],[-121.036031870477,50.4452771439298],[-121.036515774085,50.4453473369853],[-121.036610187427,50.4451039531257],[-121.036764207999,50.4451331627839],[-121.036901318718,50.4452294198421]]]}},{"type":"Feature","id":"899288147","properties":{"name":"SP_20KPH_%TR_1185_BENCH_JULY_23_NS","oid":"899288147","speedLimit":5.5555553},"geometry":{"type":"Polygon","coordinates":[[[-121.039824045779,50.4507688292953],[-121.039536014628,50.4496338767922],[-121.040220440901,50.4495225205877],[-121.04048014805,50.4508711979128],[-121.039984407546,50.4518857167483],[-121.040017522673,50.4524275783765],[-121.039401581302,50.4528073039329],[-121.039422718617,50.4516659702429],[-121.039824045779,50.4507688292953]]]}},{"type":"Feature","id":"902245095","properties":{"name":"SP_10KPH_%TR_RUTS_WATER_MANAGEMENT_July_23_NS","oid":"902245095","speedLimit":2.7777777},"geometry":{"type":"Polygon","coordinates":[[[-121.039533337235,50.4550055778696],[-121.03903266469,50.454937541835],[-121.039386362435,50.4537756265705],[-121.039413277283,50.4534299639694],[-121.040020481897,50.4533882615651],[-121.039533337235,50.4550055778696]]]}},{"type":"Feature","id":"902935346","properties":{"name":"SP_20KPH_%TRX_NEW LANES_July22_NS","oid":"902935346","speedLimit":5.5555553},"geometry":{"type":"Polygon","coordinates":[[[-121.039511213511,50.4480046069969],[-121.03930096768,50.4480201555226],[-121.03879832232,50.4477539431918],[-121.039238683058,50.4487277482576],[-121.039503040416,50.4492696098858],[-121.039620986636,50.4495857033252],[-121.040154351562,50.4494893563912],[-121.040026964007,50.4492395014689],[-121.039361843149,50.4480512525741],[-121.039511213511,50.4480046069969]]]}},{"type":"Feature","id":"908328496","properties":{"name":"SP_20KPH_%TR_9019_SOFT_GROUND_July 22_NS","oid":"908328496","speedLimit":5.5555553},"geometry":{"type":"Polygon","coordinates":[[[-121.038992362875,50.4644910773292],[-121.03931703204,50.4647047122753],[-121.039496135559,50.4648804196038],[-121.039384107788,50.465217633873],[-121.038203518264,50.4655628470948],[-121.037873635228,50.4651420482652],[-121.038512827646,50.4648165178593],[-121.038992362875,50.4644910773292]]]}},{"type":"Feature","id":"908575258","properties":{"name":"iSP_15km_permissions ","oid":"908575258","speedLimit":4.1666665},"geometry":{"type":"Polygon","coordinates":[[[-121.041862669394,50.4595524880758],[-121.041452464559,50.4599150473407],[-121.041076784007,50.4602081325571],[-121.040681375293,50.4604257220416],[-121.040340219022,50.4605865099754],[-121.039949742348,50.4607157514783],[-121.039509804357,50.4607819001196],[-121.039168789001,50.460797718273],[-121.039114395643,50.4612138435572],[-121.039247842561,50.4609395423979],[-121.039796567269,50.4608481386368],[-121.040266097503,50.4607063145118],[-121.040933473008,50.4603941756107],[-121.041536450159,50.4599875771689],[-121.041936931829,50.4596533288034],[-121.042085174868,50.4595303786114],[-121.041936931829,50.4594925408696],[-121.041862669394,50.4595524880758]]]}},{"type":"Feature","id":"910445950","properties":{"name":"SP_30KPH_%TR_1635_FLATS_JULY22_NS","oid":"910445950","speedLimit":8.333333},"geometry":{"type":"Polygon","coordinates":[[[-121.020214535517,50.4571661039404],[-121.019033241415,50.4569632540988],[-121.018639523687,50.4569246074741],[-121.017443010719,50.4572336905956],[-121.018079102997,50.454470996187],[-121.018760570047,50.4539010932869],[-121.018927273007,50.4535147169161],[-121.019548146419,50.4545193494057],[-121.020214535517,50.457146780628],[-121.020199457565,50.457146780628],[-121.020214535517,50.4571661039404]]]}},{"type":"Feature","id":"911053123","properties":{"name":"SP_15KPH_1175_BERM_WORK","oid":"911053123","speedLimit":4.1666665},"geometry":{"type":"Polygon","coordinates":[[[-121.042442254583,50.4673797777095],[-121.041831667998,50.4675355325945],[-121.041025490788,50.4684391446048],[-121.039584207707,50.4694986013759],[-121.039169070832,50.4696621754617],[-121.039169070832,50.4702074523731],[-121.039730900676,50.4703554779331],[-121.040109399538,50.4701218006677],[-121.042381238199,50.4676445520264],[-121.042442254583,50.4673797777095]]]}},{"type":"Feature","id":"911432953","properties":{"name":"New Zone1648","oid":"911432953","speedLimit":4.1666665},"geometry":{"type":"Polygon","coordinates":[[[-121.010908761945,50.4584132215309],[-121.010291975081,50.4581597715737],[-121.009830477027,50.4585560342904],[-121.009857955537,50.4591679092224],[-121.009935599943,50.459275760268],[-121.010520399003,50.4590018186122],[-121.010849295631,50.458561876222],[-121.010908761945,50.4584132215309]]]}}]}