{"type":"FeatureCollection","features":[{"type":"Feature","id":"702602533","properties":{"name":"iSP_4KPH_%TR_CR01_SLOW BUMP","oid":"702602533","speedLimit":1.1111112},"geometry":{"type":"Polygon","coordinates":[[[-121.033358796812,50.4648080932783],[-121.033653537177,50.4646910759195],[-121.033696931073,50.4647317893323],[-121.033369081729,50.4648699273358],[-121.033358796812,50.4648080932783]]]}},{"type":"Feature","id":"707947583","properties":{"name":"iSP_22KPH_%TR_Permission Gate 1 from west dump_Jun","oid":"707947583","speedLimit":6.111111},"geometry":{"type":"Polygon","coordinates":[[[-121.038628337498,50.4619781965208],[-121.038855028342,50.4617997046048],[-121.037980810387,50.4613512279376],[-121.037743693736,50.4615424821155],[-121.037959817885,50.461496735698],[-121.03866680027,50.4618462598981],[-121.038628337498,50.4619781965208]]]}},{"type":"Feature","id":"739337561","properties":{"name":"SP_KPH_%TR_1590 GATE3__DUSTY_AUG 20_DS","oid":"739337561","speedLimit":9.722222},"geometry":{"type":"Polygon","coordinates":[[[-121.022229812043,50.4632583772117],[-121.020353166893,50.4635531674859],[-121.019834130801,50.4635569422394],[-121.019814124524,50.4634282411197],[-121.019721982938,50.4636475363237],[-121.020072797234,50.4636629948381],[-121.020670449541,50.4636221016751],[-121.020967585023,50.463574737506],[-121.021328966015,50.4635187453289],[-121.021710494174,50.4634411831318],[-121.022608663306,50.4632775206045],[-121.025610309322,50.4627260470915],[-121.028274384634,50.4621725064516],[-121.03059736701,50.4617137840249],[-121.032603066738,50.4614639312924],[-121.034193424881,50.4612679137351],[-121.034970006568,50.4611451443709],[-121.034855181808,50.4608349854574],[-121.034848419123,50.4610546401617],[-121.03356534049,50.461237715707],[-121.030600748353,50.4616189658117],[-121.029891652629,50.4617482061819],[-121.028990243044,50.4619011735742],[-121.027616009049,50.4621897624676],[-121.024121250568,50.4629112796388],[-121.022229812043,50.4632583772117]]]}},{"type":"Feature","id":"742345972","properties":{"name":"iSP_4KPH_%TR_CR01_PITSIDE_SLOW BUMP","oid":"742345972","speedLimit":1.1111112},"geometry":{"type":"Polygon","coordinates":[[[-121.033398668477,50.464883049098],[-121.033705947987,50.4647445515942],[-121.033756104569,50.4647766369991],[-121.033474607797,50.4649185497561],[-121.033398668477,50.464883049098]]]}},{"type":"Feature","id":"776427243","properties":{"name":"iSP_7KPH_%TR_CR1_PermissionBlocker_DO_NOT_DELETE","oid":"776427243","speedLimit":1.9444444},"geometry":{"type":"Polygon","coordinates":[[[-121.034099874402,50.465213070405],[-121.034051408491,50.4652333821739],[-121.034030275099,50.4652748145875],[-121.034115935779,50.4652257427918],[-121.034099874402,50.465213070405]]]}},{"type":"Feature","id":"794004438","properties":{"name":"iSP_11KPH_%TR_LOWER_FUEL_BAY","oid":"794004438","speedLimit":3.0555556},"geometry":{"type":"Polygon","coordinates":[[[-121.036776629749,50.4606956790778],[-121.036778743088,50.4607255176055],[-121.036749015451,50.4606710533049],[-121.037125189816,50.4605993329882],[-121.037535177608,50.4605562828231],[-121.037542926519,50.4605816275967],[-121.036944428876,50.4606504719107],[-121.036776629749,50.4606956790778]]]}},{"type":"Feature","id":"801543391","properties":{"name":"iSP_4KPH_%TR_CR1_PermissionBlocker_DO_NOT_DELETE_","oid":"801543391","speedLimit":1.1111112},"geometry":{"type":"Polygon","coordinates":[[[-121.033155352698,50.4645235487636],[-121.033154507362,50.4644741174676],[-121.033176063422,50.4644320559285],[-121.033108013901,50.4644596475792],[-121.033155352698,50.4645235487636]]]}},{"type":"Feature","id":"806473874","properties":{"name":"iSP_4KPH_%TR_Permission Blocker - DO NOT DELETE","oid":"806473874","speedLimit":1.1111112},"geometry":{"type":"Polygon","coordinates":[[[-121.022719402276,50.4815454402231],[-121.022686293296,50.4815431034709],[-121.022678685276,50.4815717736226],[-121.022700804892,50.4815728521236],[-121.022704890681,50.4815487656012],[-121.022719402276,50.4815454402231]]]}},{"type":"Feature","id":"824566967","properties":{"name":"iSP_4Cr_3KPH","oid":"824566967","speedLimit":0.8333333},"geometry":{"type":"Polygon","coordinates":[[[-121.023302261209,50.4810685630295],[-121.023282114043,50.4810685630295],[-121.023279437147,50.4811866588893],[-121.023304515438,50.4811859398886],[-121.023302261209,50.4810685630295]]]}},{"type":"Feature","id":"826307302","properties":{"name":"iSP_4KPH_TR%_CRUSHER POCKETS","oid":"826307302","speedLimit":1.1111112},"geometry":{"type":"Polygon","coordinates":[[[-121.023297470974,50.48132174114],[-121.023336919971,50.4814774047848],[-121.023541632089,50.4814379496231],[-121.023460620755,50.4811890855166],[-121.023052323634,50.4811898045172],[-121.023057677427,50.481360477301],[-121.023282536711,50.4813265045194],[-121.023297470974,50.48132174114]]]}},{"type":"Feature","id":"849417440","properties":{"name":"iSP_Permissions_35_KPH_June_19_NS","oid":"849417440","speedLimit":9.722222},"geometry":{"type":"Polygon","coordinates":[[[-121.032695349213,50.466034348919],[-121.033009954966,50.4660150257761],[-121.033216921311,50.4658141549642],[-121.033805697594,50.4653796988101],[-121.033726517821,50.4652509078152],[-121.033962648247,50.4654003700793],[-121.033426423664,50.4658086725841],[-121.033024043893,50.4661882150622],[-121.032695349213,50.466034348919]]]}},{"type":"Feature","id":"853029148","properties":{"name":"SP_15KPH_%TR_1635 Flats_AUG_23_NS","oid":"853029148","speedLimit":4.1666665},"geometry":{"type":"Polygon","coordinates":[[[-121.018589937608,50.456971075863],[-121.017426192192,50.4572810550264],[-121.015788636142,50.4579431647673],[-121.014824530829,50.4590966215903],[-121.018349016947,50.4588932342761],[-121.02069214649,50.4589873334886],[-121.020240455472,50.4572318933556],[-121.019422734117,50.4570967212299],[-121.018968507092,50.457000105515],[-121.018589937608,50.456971075863]]]}},{"type":"Feature","id":"855316169","properties":{"name":"SP_20KPH_TR%_CRUSHER YARD EMPTY_AUG_24_DS","oid":"855316169","speedLimit":5.5555553},"geometry":{"type":"Polygon","coordinates":[[[-121.037912056421,50.4622350595098],[-121.037770603588,50.4621196599024],[-121.037596041776,50.4622035133554],[-121.037545603415,50.4622377557623],[-121.03760872181,50.462226701127],[-121.037905152846,50.4624614548454],[-121.037946856072,50.4632585569619],[-121.037500941514,50.4637416355363],[-121.037077287463,50.4639816020095],[-121.03645159819,50.4642047618421],[-121.036236037598,50.4641032928727],[-121.036398623822,50.4643265425804],[-121.036720274038,50.4642318142422],[-121.037062494089,50.4640567375794],[-121.037841752672,50.4636955296184],[-121.037979683273,50.4635591891165],[-121.038131280133,50.4633174251416],[-121.038185381615,50.4629462410464],[-121.038120995216,50.462494349126],[-121.037912056421,50.4622350595098]]]}},{"type":"Feature","id":"859384545","properties":{"name":"SP_20KPH_TR%_MAINT_CREW_L1590_DUST_AUG_20_DS","oid":"859384545","speedLimit":5.5555553},"geometry":{"type":"Polygon","coordinates":[[[-121.013533562397,50.4515905242328],[-121.013429304333,50.4510356354666],[-121.012756135374,50.4483269801969],[-121.012535784547,50.4488174285282],[-121.013393800235,50.4517794416586],[-121.013277003026,50.4521786667799],[-121.013116389252,50.4521879239135],[-121.013442547925,50.4522151560639],[-121.013533562397,50.4515905242328]]]}},{"type":"Feature","id":"863534413","properties":{"name":"SP_20KPH_%TRAC_1590_AUG_20_DS","oid":"863534413","speedLimit":5.5555553},"geometry":{"type":"Polygon","coordinates":[[[-121.012339103118,50.4562544119463],[-121.013045099278,50.4555692043089],[-121.013345756992,50.4553103640682],[-121.01352327748,50.4551324114026],[-121.013057356645,50.4549761186322],[-121.013286865275,50.4550943942422],[-121.011899105911,50.4565735583682],[-121.011627189609,50.4565414729634],[-121.012024356477,50.4566651410784],[-121.012339103118,50.4562544119463]]]}},{"type":"Feature","id":"878230085","properties":{"name":"SP_20KPH_TR%_PUNCH_OUT_L1590_DMP_AUG_20_DS1","oid":"878230085","speedLimit":5.5555553},"geometry":{"type":"Polygon","coordinates":[[[-121.013652472945,50.4533277197238],[-121.013644864924,50.4527798412142],[-121.013740669632,50.452449640157],[-121.013097510089,50.4524619530434],[-121.013065105555,50.4528631554167],[-121.013204585938,50.4533676242609],[-121.013609924384,50.4545821961408],[-121.013328568501,50.4549548182374],[-121.013043831275,50.4549502346082],[-121.013782936414,50.4551891225804],[-121.014112617319,50.4546827663593],[-121.014058938505,50.4542963034998],[-121.013652472945,50.4533277197238]]]}},{"type":"Feature","id":"883050998","properties":{"name":"iSP_22kph_%TR_4CR_Brake_Temp_CTRL_NOREMOVE","oid":"883050998","speedLimit":6.111111},"geometry":{"type":"Polygon","coordinates":[[[-121.031799011642,50.4745592702243],[-121.03218828871,50.4743126529948],[-121.032489932649,50.4745749983639],[-121.032791576588,50.4748023823254],[-121.032969378854,50.4748847977771],[-121.033178176761,50.4749349480737],[-121.033462068651,50.4749597535968],[-121.033665935433,50.4749221858119],[-121.033827112764,50.4748627783816],[-121.033918268125,50.4748107407082],[-121.034007591926,50.4747475585244],[-121.034058030287,50.4746584024415],[-121.034052253826,50.474548215589],[-121.034056057837,50.4744838650291],[-121.033993925666,50.4743798795574],[-121.033875578675,50.4742598064457],[-121.033508703001,50.4739378738962],[-121.033060393326,50.4735602187949],[-121.032947118349,50.4734256757947],[-121.032822149561,50.4732211201045],[-121.032605320966,50.4728151543518],[-121.032251829774,50.4722092165381],[-121.032486833085,50.472156369989],[-121.032429772929,50.47220589116],[-121.032902315559,50.4730490991944],[-121.033041514163,50.473309826812],[-121.033249325845,50.4735471869078],[-121.03374229742,50.4739618705435],[-121.034097338395,50.4742714003315],[-121.034202723573,50.4743947089462],[-121.034255416162,50.4744619355087],[-121.034262460626,50.4745930632557],[-121.034237523224,50.4746790737107],[-121.034182999074,50.4747918669406],[-121.034085503696,50.474876079894],[-121.033972651386,50.4749379139515],[-121.033790058885,50.4750163748995],[-121.033530540839,50.4750646378194],[-121.033262569437,50.4750683226978],[-121.033070960022,50.4750265307839],[-121.032807215298,50.4749167933068],[-121.032656463773,50.4748353664811],[-121.032494863774,50.4747055868604],[-121.032144331256,50.4744133130885],[-121.031799011642,50.4745592702243]]]}},{"type":"Feature","id":"883053336","properties":{"name":"iSP_22kph_%TR_Brake_Temp_CTRL_NOREMOVE","oid":"883053336","speedLimit":6.111111},"geometry":{"type":"Polygon","coordinates":[[[-121.032465558805,50.4721454951039],[-121.032250702659,50.4722257535535],[-121.031488069011,50.4710085752962],[-121.030816168055,50.469923603287],[-121.030660908074,50.4696604490422],[-121.030596099007,50.4694579604788],[-121.030549746435,50.4692569997919],[-121.030596099007,50.4689731742778],[-121.030722335798,50.4686245488285],[-121.030884076686,50.4683757745971],[-121.031088507025,50.4680980605888],[-121.031687850003,50.4675367906917],[-121.032431745379,50.4668939142186],[-121.032788054357,50.4665564332797],[-121.03314718112,50.4662226372192],[-121.033484047378,50.465870956017],[-121.033779069521,50.466034348919],[-121.033587037438,50.4659935456311],[-121.032918940494,50.4666523299939],[-121.032554178159,50.4669915185594],[-121.032178144682,50.4673079687288],[-121.031773933351,50.4676686374393],[-121.031381556718,50.4680346986548],[-121.031146694296,50.4682866185142],[-121.031008341027,50.4684701434349],[-121.03090464652,50.4686547468566],[-121.030828143644,50.4688532809163],[-121.030767279477,50.469191570731],[-121.030776014612,50.4694008898007],[-121.030873228212,50.4696306105144],[-121.03102722019,50.4699353769229],[-121.031330132133,50.4704040754839],[-121.031530194904,50.4707112685197],[-121.031749841285,50.4710831716156],[-121.03214559926,50.4717291038415],[-121.03238088435,50.4721454052288],[-121.032465558805,50.4721454951039]]]}},{"type":"Feature","id":"883059532","properties":{"name":"iSP_22kph_%TR_Brake_CTRL_NOREMOVE","oid":"883059532","speedLimit":6.111111},"geometry":{"type":"Polygon","coordinates":[[[-121.027261813411,50.4773222999195],[-121.027029627884,50.4772101358152],[-121.027334089609,50.476944375193],[-121.027716040435,50.4766327782781],[-121.028032759527,50.47632306874],[-121.028189991958,50.4761691127218],[-121.028620831363,50.4756926849036],[-121.028906836592,50.4753260844376],[-121.029263427349,50.474887943405],[-121.029472225255,50.4746570543152],[-121.0296910263,50.474540755957],[-121.029801060825,50.4744885385335],[-121.02995181235,50.4745929733806],[-121.029788239901,50.4745423737085],[-121.029555631707,50.4747918669406],[-121.029251451761,50.4751733866705],[-121.029072522381,50.4754783328292],[-121.028852735111,50.4757751003553],[-121.028695643568,50.4759750724163],[-121.028408511225,50.4762709411915],[-121.028041212883,50.476570315095],[-121.027243497805,50.4772197524491],[-121.027261813411,50.4773222999195]]]}},{"type":"Feature","id":"884401102","properties":{"name":"SP_15KPH_MAIN INT. DUST_AUG_ 23_NS","oid":"884401102","speedLimit":4.1666665},"geometry":{"type":"Polygon","coordinates":[[[-121.035772370992,50.4609093121515],[-121.035954259047,50.4612028441746],[-121.038294570804,50.4609923567288],[-121.038278227648,50.4603981925511],[-121.038119727213,50.4605660792072],[-121.03590311624,50.4608513427226],[-121.035709957043,50.460757153635],[-121.035772370992,50.4609093121515]]]}},{"type":"Feature","id":"891249991","properties":{"name":"SP_30KPH_TR%_1590 #1_AUG_23_NS","oid":"891249991","speedLimit":8.333333},"geometry":{"type":"Polygon","coordinates":[[[-121.012956620813,50.4498608782488],[-121.013847181924,50.4497489837697],[-121.013378584194,50.445004298356],[-121.01213847679,50.4430839374446],[-121.011299199375,50.441910438478],[-121.010529380373,50.4421498657007],[-121.01100840391,50.4427017885892],[-121.011240448547,50.4430300123945],[-121.011456009139,50.4435201012254],[-121.011773996234,50.444510794272],[-121.012956620813,50.4498608782488]]]}},{"type":"Feature","id":"893804793","properties":{"name":"SP_20KPH_%TR_1590Dynamic_AUG_23_NS","oid":"893804793","speedLimit":5.5555553},"geometry":{"type":"Polygon","coordinates":[[[-121.011186206176,50.4418409650384],[-121.010483873137,50.4421102307889],[-121.005981615446,50.4380483263853],[-121.006514176908,50.4376818157944],[-121.010066981771,50.4407335242582],[-121.011186206176,50.4418409650384]]]}},{"type":"Feature","id":"908328496","properties":{"name":"SP_15KPH_%TR_9019_SOFT_GROUND_AUG_23_NS","oid":"908328496","speedLimit":4.1666665},"geometry":{"type":"Polygon","coordinates":[[[-121.039688388407,50.463976748755],[-121.0396976871,50.4642094353464],[-121.039281500179,50.4648805325957],[-121.039727696515,50.4650717867736],[-121.039264170799,50.4662043027021],[-121.038928008987,50.4669793854231],[-121.037872466534,50.4685913849227],[-121.036177145881,50.4681969231807],[-121.03522825661,50.4668161722713],[-121.03788106078,50.4651401817122],[-121.038520134534,50.4648146541594],[-121.039688388407,50.463976748755]]]}},{"type":"Feature","id":"910445950","properties":{"name":"SP_20KPH_%TR_1635_FLATS_AUG_23_NS","oid":"910445950","speedLimit":5.5555553},"geometry":{"type":"Polygon","coordinates":[[[-121.02022523943,50.4571643072928],[-121.019044164633,50.4569614592291],[-121.018650519997,50.4569228129431],[-121.017842520001,50.4571471411518],[-121.018448484776,50.4564126819686],[-121.018503008925,50.4555081791272],[-121.019218021999,50.4555081791272],[-121.019236196716,50.4564590575117],[-121.01942400212,50.4568920756645],[-121.019757346146,50.4570621193227],[-121.02022523943,50.4571643072928]]]}},{"type":"Feature","id":"917291012","properties":{"name":"SP_15KPH_%TR_CORNER_RUTS_AUG_23_NS","oid":"917291012","speedLimit":4.1666665},"geometry":{"type":"Polygon","coordinates":[[[-121.040609945159,50.4662216485933],[-121.040684193807,50.4661075072371],[-121.040422280644,50.4659264988187],[-121.040528933826,50.4656656813261],[-121.040025677333,50.4656481556848],[-121.040219118309,50.4657711047992],[-121.040016378641,50.4663108046762],[-121.039933394858,50.4664861509643],[-121.039994540803,50.4668203065252],[-121.040666723537,50.466739508825],[-121.040548799213,50.4666225813412],[-121.040531328943,50.4663775818633],[-121.040609945159,50.4662216485933]]]}},{"type":"Feature","id":"920440343","properties":{"name":"iSP_17KPH_CAL_PAD_ROAD_LIMIT_AUG_23_NS","oid":"920440343","speedLimit":4.7222223},"geometry":{"type":"Polygon","coordinates":[[[-121.005955128262,50.4378309185581],[-121.005968794522,50.4376132411056],[-121.005586561918,50.4375784594482],[-121.005286326871,50.4376828942954],[-121.005190803942,50.4378352325621],[-121.005286326871,50.4381617487408],[-121.005989223467,50.4392588538864],[-121.007470110643,50.4413701993505],[-121.00767482276,50.4416488121096],[-121.007784011949,50.4421538202044],[-121.007934199917,50.4426631423032],[-121.008118483089,50.4432333997087],[-121.008323195207,50.4436513188474],[-121.008684857977,50.4445612141939],[-121.008759951961,50.44492251203],[-121.008759951961,50.4451793750189],[-121.008691761552,50.4456190439279],[-121.008493812119,50.4462284868698],[-121.008944235133,50.4462154549827],[-121.009135280991,50.4457322865332],[-121.009319564164,50.4449181980259],[-121.00921713766,50.4444523754676],[-121.008998759283,50.4437993431101],[-121.008773618221,50.4433771099674],[-121.008459716915,50.442737109497],[-121.008295862687,50.4420754491315],[-121.008241338538,50.4417446189488],[-121.007920533657,50.4411960214384],[-121.006814975511,50.4398334252959],[-121.006603500709,50.43949387723],[-121.006228171679,50.4387799095659],[-121.005989223467,50.4383881440764],[-121.005934699317,50.4380573138937],[-121.005955128262,50.4378309185581]]]}},{"type":"Feature","id":"921284584","properties":{"name":"SP_22kph_rough ground_23SH_AUG 23_NS","oid":"921284584","speedLimit":6.111111},"geometry":{"type":"Polygon","coordinates":[[[-121.039984537665,50.4678260985858],[-121.040544008978,50.467970348095],[-121.04034324176,50.4682545331093],[-121.039115955281,50.4697887906616],[-121.039353635489,50.4704372393898],[-121.039938889539,50.4707937738464],[-121.039580044554,50.4711138190192],[-121.038662714481,50.4705579416271],[-121.038403055546,50.4695221312885],[-121.039984537665,50.4678260985858]]]}},{"type":"Feature","id":"921727643","properties":{"name":"SP_35KPH_%TR_ HIGHMONT TRIAL_Aug 23_NS","oid":"921727643","speedLimit":9.722222},"geometry":{"type":"Polygon","coordinates":[[[-121.012709078356,50.4365927994063],[-121.010156305571,50.4366191328058],[-121.007266666529,50.4370212339299],[-121.006148287459,50.4371702468185],[-121.005263502809,50.4370779451076],[-121.004924100544,50.4368543358996],[-121.005302529138,50.4361090018313],[-121.005970203415,50.435459384727],[-121.006754815791,50.4347246559185],[-121.007316823111,50.4339047255308],[-121.007674400093,50.433051451487],[-121.00791222119,50.4323925772491],[-121.007906585619,50.4319204634349],[-121.007795283091,50.4313845383114],[-121.00751153209,50.4310047262081],[-121.006988551099,50.4305646079237],[-121.005753233931,50.4297836833222],[-121.004890709785,50.4292689687184],[-121.004117368552,50.4288927516184],[-121.00331641302,50.428498829127],[-121.003470404998,50.4283233929638],[-121.003115504913,50.4285319031578],[-121.004389566632,50.4291671402487],[-121.00535071327,50.4296955158652],[-121.006574195739,50.4304921686063],[-121.007130567489,50.4309177271271],[-121.007500542726,50.4313875940642],[-121.007671300528,50.4318535064976],[-121.007636500877,50.4325371862586],[-121.007399384227,50.4332027112527],[-121.007172834271,50.4338689552475],[-121.006590398006,50.4345641390192],[-121.006158290598,50.4350395782115],[-121.005744921463,50.4354070774283],[-121.005112328616,50.4360623566629],[-121.004792932628,50.4366456459555],[-121.004711498627,50.436933246223],[-121.004893104903,50.4370850452392],[-121.005450603767,50.4372768386676],[-121.006283541164,50.4372648852815],[-121.007586203406,50.43714499192],[-121.008819970792,50.4369812395177],[-121.009458762768,50.4368812984247],[-121.011037004433,50.4367894460893],[-121.012887444179,50.4367964563458],[-121.012878145487,50.4364190708697],[-121.012709078356,50.4365927994063]]]}},{"type":"Feature","id":"922262468","properties":{"name":"SP_20kph_HMT_DUMP_AUG_23_NS","oid":"922262468","speedLimit":5.5555553},"geometry":{"type":"Polygon","coordinates":[[[-121.012501266674,50.4364266203767],[-121.012481401287,50.4374173134233],[-121.016363746165,50.4384079165948],[-121.017180058628,50.4369600289979],[-121.016523091936,50.4359058841423],[-121.014770992904,50.435308933837],[-121.012899560656,50.4352073749926],[-121.012501266674,50.4364266203767]]]}},{"type":"Feature","id":"922385545","properties":{"name":"SP_20KPH_RUTS_AUG 23_NS","oid":"922385545","speedLimit":5.5555553},"geometry":{"type":"Polygon","coordinates":[[[-121.00751153209,50.4337193132333],[-121.006870063218,50.4335259020534],[-121.006518685365,50.4340724324368],[-121.007225949528,50.4343190496662],[-121.00751153209,50.4337193132333]]]}},{"type":"Feature","id":"923351007","properties":{"name":"iSP_17KPH_PERMISSIONS_AUG 18_NS","oid":"923351007","speedLimit":4.7222223},"geometry":{"type":"Polygon","coordinates":[[[-121.038853337671,50.4608774963719],[-121.038872780391,50.4611350783615],[-121.03878345659,50.4608898092584],[-121.038538731918,50.4608898092584],[-121.038534927908,50.4608304018281],[-121.038880529301,50.4608229421962],[-121.038853337671,50.4608774963719]]]}},{"type":"Feature","id":"923607825","properties":{"name":"MRK_CROSS DITCH ","oid":"923607825","speedLimit":2.7777777},"geometry":{"type":"Polygon","coordinates":[[[-121.03518542627,50.4458455291386],[-121.035616829232,50.4454862085543],[-121.035586397148,50.4454715589157],[-121.035137101249,50.4458267452461],[-121.03518542627,50.4458455291386]]]}},{"type":"Feature","id":"924222108","properties":{"name":"sp_11kph_rough ground_23SH _AUG 23_NS","oid":"924222108","speedLimit":3.0555556},"geometry":{"type":"Polygon","coordinates":[[[-121.039473673151,50.4712560014014],[-121.039828995904,50.471407171292],[-121.04076731848,50.4719020235024],[-121.041129685697,50.4715872809596],[-121.039780389104,50.4709828710223],[-121.039643726507,50.4710719372302],[-121.039473673151,50.4712560014014]]]}},{"type":"Feature","id":"924266047","properties":{"name":"SP_12KPH_%TR_CROSS DITCH_AUG_22 DS ","oid":"924266047","speedLimit":3.3333333},"geometry":{"type":"Polygon","coordinates":[[[-121.037615484496,50.4473124702532],[-121.037893459036,50.4474716390263],[-121.037657046832,50.447750880911],[-121.037462337853,50.4476921924814],[-121.037267487985,50.4475135208152],[-121.037615484496,50.4473124702532]]]}},{"type":"Feature","id":"925208014","properties":{"name":"SP_18KPH_BAD RAMPS_AUG 22_NS","oid":"925208014","speedLimit":5},"geometry":{"type":"Polygon","coordinates":[[[-121.036764513271,50.4451607708766],[-121.036033016152,50.4452370748226],[-121.036304509786,50.4456361201938],[-121.037265938203,50.4467982050248],[-121.037919100884,50.4474349699921],[-121.038245823115,50.4478047160861],[-121.038871371498,50.4475376972127],[-121.036870321117,50.445275181858],[-121.036764513271,50.4451607708766]]]}},{"type":"Feature","id":"925221054","properties":{"name":"SP_18KPH_MUDDY GROUND NO SHIFTING_AUG 22_NS","oid":"925221054","speedLimit":5},"geometry":{"type":"Polygon","coordinates":[[[-121.038706812824,50.4481133471232],[-121.037512353546,50.4480199669113],[-121.037421761742,50.4487658402302],[-121.038171292688,50.4519076035278],[-121.039342505236,50.4515567312014],[-121.038716815963,50.4499629763438],[-121.038649189111,50.4489201557487],[-121.038706812824,50.4481133471232]]]}},{"type":"Feature","id":"925355648","properties":{"name":"MSG_Cross Ditch","oid":"925355648","speedLimit":4.1666665},"geometry":{"type":"Polygon","coordinates":[[[-121.038174955809,50.4604311767067],[-121.038195948311,50.4609823805945],[-121.038962667749,50.4610085342438],[-121.038959427295,50.4604595772332],[-121.038174955809,50.4604311767067]]]}},{"type":"Feature","id":"925558402","properties":{"name":"SP_15KPH_LAKE2_AUG 23_NS","oid":"925558402","speedLimit":2.7777777},"geometry":{"type":"Polygon","coordinates":[[[-121.025277528853,50.4783484037491],[-121.025271188836,50.4783786916522],[-121.025225399821,50.4784259659462],[-121.025197081077,50.4784833062496],[-121.025185950824,50.4785366920492],[-121.025152841844,50.4786282747594],[-121.025081833649,50.47873100198],[-121.024999695202,50.4788125186808],[-121.024911357626,50.4788688703582],[-121.024853029466,50.4789112015226],[-121.024718902875,50.47895146556],[-121.024603655448,50.47898364084],[-121.024497847602,50.4789886738447],[-121.024400070445,50.4789907409716],[-121.025242729202,50.478350470876],[-121.025277528853,50.4783484037491]]]}},{"type":"Feature","id":"925558964","properties":{"name":"SP_15KPH_LAKE_AUG 23_NS","oid":"925558964","speedLimit":4.1666665},"geometry":{"type":"Polygon","coordinates":[[[-121.039606672628,50.4634625734017],[-121.039997640367,50.4634253651171],[-121.040194462685,50.4642141088508],[-121.039995527028,50.464249789259],[-121.039846043507,50.4635404950992],[-121.039606672628,50.4634625734017]]]}}]}