{"type":"FeatureCollection","features":[{"type":"Feature","id":"702602533","properties":{"name":"iSP_4KPH_%TR_CR01_Slow Bump","oid":"702602533","speedLimit":1.1111112},"geometry":{"type":"Polygon","coordinates":[[[-121.033357234344,50.464807664652],[-121.033651984096,50.4646906471342],[-121.033695379375,50.4647313606024],[-121.033367519589,50.4648694987936],[-121.033357234344,50.464807664652]]]}},{"type":"Feature","id":"707947583","properties":{"name":"iSP_25KPH_%TR_Permission Gate 1 From West Dump","oid":"707947583","speedLimit":6.9444447},"geometry":{"type":"Polygon","coordinates":[[[-121.038626942866,50.4619777640494],[-121.038853640931,50.4617992718909],[-121.038138605084,50.4614080451203],[-121.03799094842,50.4616707503467],[-121.038190453989,50.4615666748584],[-121.038665406864,50.4618458272474],[-121.038626942866,50.4619777640494]]]}},{"type":"Feature","id":"742345972","properties":{"name":"iSP_4KPH_%TR_CR01_Pit Side_Slow Bump","oid":"742345972","speedLimit":1.1111112},"geometry":{"type":"Polygon","coordinates":[[[-121.033397107279,50.4648826205736],[-121.033704396576,50.4647441228816],[-121.033754554756,50.46477620833],[-121.033473049017,50.4649181212799],[-121.033397107279,50.4648826205736]]]}},{"type":"Feature","id":"776427243","properties":{"name":"iSP_7KPH_%TR_CR1_PermissionBlocker","oid":"776427243","speedLimit":1.9444444},"geometry":{"type":"Polygon","coordinates":[[[-121.034098335537,50.465212642329],[-121.034049868083,50.4652329541255],[-121.034028734018,50.4652743865954],[-121.034114397426,50.465225314733],[-121.034098335537,50.465212642329]]]}},{"type":"Feature","id":"794004438","properties":{"name":"iSP_11KPH_%TR_Lower_Fuel_Bay","oid":"794004438","speedLimit":3.0555556},"geometry":{"type":"Polygon","coordinates":[[[-121.03677517614,50.4606952448638],[-121.036777289546,50.460725083432],[-121.036747560962,50.4606706190574],[-121.037123747309,50.4605988986432],[-121.037533748159,50.4605558484197],[-121.037541497316,50.4605811932277],[-121.036942980611,50.4606500376353],[-121.03677517614,50.4606952448638]]]}},{"type":"Feature","id":"801543391","properties":{"name":"iSP_4KPH_%TR_CR01_PermissionBlocker_2","oid":"801543391","speedLimit":1.1111112},"geometry":{"type":"Polygon","coordinates":[[[-121.03315378375,50.4645231197507],[-121.033152938388,50.4644736883876],[-121.033174495134,50.4644316267913],[-121.033106443446,50.4644592184795],[-121.03315378375,50.4645231197507]]]}},{"type":"Feature","id":"806473874","properties":{"name":"iSP_4KPH_%TR_CR04_PermissionBlocker","oid":"806473874","speedLimit":1.1111112},"geometry":{"type":"Polygon","coordinates":[[[-121.022717500941,50.4815450343387],[-121.022684390907,50.4815426975834],[-121.022676782643,50.481571367774],[-121.022698902964,50.4815724462765],[-121.022702988883,50.4815483597213],[-121.022717500941,50.4815450343387]]]}},{"type":"Feature","id":"824566967","properties":{"name":"iSP_3KPH_%TR_CR04","oid":"824566967","speedLimit":0.8333333},"geometry":{"type":"Polygon","coordinates":[[[-121.023300378438,50.4810681564972],[-121.02328023063,50.4810681564972],[-121.023277553649,50.4811862525175],[-121.023302632738,50.4811855335158],[-121.023300378438,50.4810681564972]]]}},{"type":"Feature","id":"826307302","properties":{"name":"iSP_4KPH_%TR_CR04_Pockets","oid":"826307302","speedLimit":1.1111112},"geometry":{"type":"Polygon","coordinates":[[[-121.02329558805,50.4813213349517],[-121.023335038304,50.481476998808],[-121.023539756942,50.4814375435927],[-121.023458743028,50.481188679148],[-121.023050432903,50.4811893981497],[-121.023055786866,50.4813600711654],[-121.023280653311,50.4813260983376],[-121.02329558805,50.4813213349517]]]}},{"type":"Feature","id":"883050998","properties":{"name":"iSP_22KPH_%TR_4CR_Brake_Temp_Ctrl","oid":"883050998","speedLimit":6.111111},"geometry":{"type":"Polygon","coordinates":[[[-121.031797399495,50.4745588548474],[-121.032186688962,50.4743122372829],[-121.032488342508,50.4745745830084],[-121.032789996055,50.4748019672789],[-121.032967803983,50.4748843828426],[-121.03317660854,50.4749345332074],[-121.033460509472,50.4749593387641],[-121.033664382747,50.4749217709281],[-121.033825565212,50.4748623634172],[-121.033916723477,50.474810325673],[-121.034006050123,50.4747471434034],[-121.03405649009,50.4746579871993],[-121.034050713445,50.4745478001971],[-121.034054517577,50.4744834495498],[-121.033992383428,50.4743794639368],[-121.033874032667,50.474259390662],[-121.033507145308,50.4739374576751],[-121.033058821354,50.4735598020606],[-121.032945542769,50.4734252588776],[-121.032820570001,50.4732207029094],[-121.0326037345,50.4728147366052],[-121.032250232049,50.4722087979682],[-121.032485242845,50.4721559513472],[-121.032428180871,50.4722054725856],[-121.032900738552,50.4730486817657],[-121.03303994159,50.4733094097375],[-121.03324775989,50.4735467701558],[-121.033740747167,50.473961454355],[-121.03409579945,50.4742709845635],[-121.034201187984,50.4743942933457],[-121.034253882252,50.4744615199996],[-121.03426092694,50.4745926479248],[-121.034235988744,50.4746786584967],[-121.034181462857,50.4747914518798],[-121.034083964374,50.4748756649476],[-121.033971108469,50.4749374990891],[-121.033788510153,50.4750159601437],[-121.033528983841,50.4750642231292],[-121.033261003904,50.4750679080126],[-121.033069388386,50.475026116042],[-121.032805635262,50.4749163784158],[-121.032654878936,50.4748349514794],[-121.03249327379,50.4747051716823],[-121.032142730108,50.4744128975133],[-121.031797399495,50.4745588548474]]]}},{"type":"Feature","id":"883053336","properties":{"name":"iSP_22KPH_%TR_Brake_Temp_Ctrl","oid":"883053336","speedLimit":6.111111},"geometry":{"type":"Polygon","coordinates":[[[-121.032463967887,50.4721450764473],[-121.032249104899,50.472225335006],[-121.03148644696,50.4710081550949],[-121.030814524604,50.4699231816114],[-121.030659259677,50.4696600270091],[-121.030594448546,50.4694575381706],[-121.030548094498,50.4692565772106],[-121.030594448546,50.4689727513109],[-121.030720689358,50.4686241253879],[-121.030882435398,50.4683753508184],[-121.031086872248,50.4680976364328],[-121.031686234316,50.467536365773],[-121.032430153384,50.4668934884265],[-121.03278647371,50.466556007029],[-121.033145611912,50.4662222105149],[-121.033482488899,50.4658705288349],[-121.033777520439,50.4660339219589],[-121.03358548224,50.4659931186155],[-121.032917364016,50.4666519038735],[-121.032552590064,50.4669910928999],[-121.032176544611,50.4673075434992],[-121.031772320405,50.4676682126998],[-121.031379931275,50.4680342744127],[-121.031145061372,50.4682861946144],[-121.031006703697,50.4684697197844],[-121.030903005887,50.468654323457],[-121.030826500574,50.4688528577864],[-121.030765634468,50.4691911480608],[-121.030774369882,50.4694004674149],[-121.030871586578,50.4696301884408],[-121.031025583461,50.4699349552634],[-121.031328505051,50.4704036544612],[-121.031528574195,50.4707108479144],[-121.031748227571,50.4710827515157],[-121.032143998151,50.4717286846192],[-121.032379290736,50.4721449865721],[-121.032463967887,50.4721450764473]]]}},{"type":"Feature","id":"883059532","properties":{"name":"iSP_22KPH_%TR_Brake_Ctrl","oid":"883059532","speedLimit":6.111111},"geometry":{"type":"Polygon","coordinates":[[[-121.027260056752,50.477321888297],[-121.027027863831,50.4772097240402],[-121.027332335253,50.4769439630569],[-121.027714298244,50.4766323657187],[-121.028031027423,50.4763226557598],[-121.028188264863,50.4761686995324],[-121.02861911799,50.4756922710668],[-121.028905132329,50.4753256701027],[-121.029261734443,50.4748875284748],[-121.029470538999,50.4746566390713],[-121.029689347013,50.474540340555],[-121.029799385042,50.4744881230605],[-121.029950141368,50.4745925580496],[-121.02978656371,50.4745419583088],[-121.029553948107,50.4747914518798],[-121.029249758473,50.4751729721281],[-121.029070823394,50.4754779187012],[-121.028851029124,50.4757746866305],[-121.028693932578,50.4759746589632],[-121.028406791089,50.4762705281404],[-121.028039481049,50.4765699024507],[-121.027241740563,50.4772193406873],[-121.027260056752,50.477321888297]]]}},{"type":"Feature","id":"884401102","properties":{"name":"iSP_30KPH_%TR_Maint_Limit_Policy","oid":"884401102","speedLimit":8.333333},"geometry":{"type":"Polygon","coordinates":[[[-121.037217582555,50.4610266147473],[-121.037674219241,50.461079820869],[-121.03799320272,50.4608740066479],[-121.037906271269,50.4604832292534],[-121.037859071858,50.4606705291822],[-121.03719940726,50.4607815250612],[-121.03697101847,50.4606590251558],[-121.037217582555,50.4610266147473]]]}},{"type":"Feature","id":"910445950","properties":{"name":"SP_22KPH_%TR_1635_FLATS_OCT_7_DS","oid":"910445950","speedLimit":6.111111},"geometry":{"type":"Polygon","coordinates":[[[-121.017367201186,50.4554936274573],[-121.018000377757,50.4544139566109],[-121.018145639227,50.4539982837845],[-121.0185302792,50.4537513067191],[-121.018946338482,50.4536878548239],[-121.018864197418,50.4543414273199],[-121.018259340493,50.4560718845309],[-121.01827342987,50.4557006100561],[-121.017367201186,50.4554936274573]]]}},{"type":"Feature","id":"915576987","properties":{"name":"iSP_15KPH_%TR_Preventing Shifting","oid":"915576987","speedLimit":4.1666665},"geometry":{"type":"Polygon","coordinates":[[[-121.036996238454,50.4448630083739],[-121.037510359795,50.4453129236538],[-121.037979676919,50.4457953737581],[-121.038523667738,50.446218685977],[-121.039456384449,50.4468497896716],[-121.039913725603,50.4470995528683],[-121.040469692392,50.4471949104616],[-121.041222910449,50.4473226231289],[-121.041641364925,50.4475094736816],[-121.042319909287,50.4480949207717],[-121.042702576747,50.4485276698873],[-121.042846006598,50.4487946891235],[-121.04300747085,50.4493914604895],[-121.043186687717,50.4501980005856],[-121.043324200029,50.4505011496546],[-121.043685874319,50.4511685629323],[-121.043856355772,50.4514888781655],[-121.044125321966,50.4522534465406],[-121.044382453083,50.4529380259826],[-121.044696223493,50.4537979519509],[-121.044735110172,50.4541945712338],[-121.04457068715,50.4550716633664],[-121.044215071293,50.4568391491622],[-121.044050648271,50.4572071881296],[-121.043004371187,50.4583988434823],[-121.04190441358,50.459537202838],[-121.041342529253,50.4600005095235],[-121.040371066758,50.4605973707647],[-121.03992260191,50.4607308354452],[-121.039133455944,50.4608070496197],[-121.03849605256,50.4608385958169],[-121.038643850118,50.4611433626395],[-121.038756706022,50.4609494119455],[-121.039877797694,50.4608795789107],[-121.040705830339,50.4606317030933],[-121.041509911044,50.4600577600296],[-121.042872917307,50.4587001051719],[-121.044241841108,50.4571422982311],[-121.0444272573,50.4562900116552],[-121.044812883529,50.454421416253],[-121.044809783866,50.4537864479246],[-121.044259875509,50.4523011702748],[-121.043832403832,50.4511857290966],[-121.0433451932,50.4503372172793],[-121.043049316298,50.4493094943019],[-121.042926738724,50.4486916921377],[-121.042239177161,50.4478870394209],[-121.04154569806,50.4473912877861],[-121.041091315674,50.4472216033977],[-121.040457716422,50.4471301104383],[-121.039916684372,50.44701947406],[-121.038819685534,50.4463330971139],[-121.038194962589,50.4458715879325],[-121.037151785168,50.4449067775991],[-121.037375947145,50.4446970987441],[-121.036996238454,50.4448630083739]]]}},{"type":"Feature","id":"917773475","properties":{"name":"SP_15KPH_%TR_1200_CORNER_OCT_7_DS","oid":"917773475","speedLimit":4.1666665},"geometry":{"type":"Polygon","coordinates":[[[-121.037097118388,50.4446822693352],[-121.036922973697,50.4448618399962],[-121.036627378582,50.4448203176512],[-121.036412797381,50.4448696591391],[-121.036321216435,50.4449673534878],[-121.036252601173,50.4450818544998],[-121.036240343416,50.4451446772686],[-121.03626147748,50.4452669974236],[-121.036314171747,50.4453512104914],[-121.036182295185,50.4453949797166],[-121.036087191895,50.4451940187566],[-121.036161161121,50.4449314034055],[-121.036257955136,50.4447911082093],[-121.036514804466,50.4447148041597],[-121.03671191484,50.444711478777],[-121.036921282972,50.4447698077856],[-121.037091905319,50.4446833478377],[-121.037097118388,50.4446822693352]]]}},{"type":"Feature","id":"929009157","properties":{"name":"iSP_22KPH_%TR_Long_Single_Lane","oid":"929009157","speedLimit":6.111111},"geometry":{"type":"Polygon","coordinates":[[[-121.005677668355,50.438055680542],[-121.004747910414,50.4382237471767],[-121.005172423321,50.438197233991],[-121.007932813925,50.4431702088741],[-121.008521608961,50.4445346043722],[-121.008208683913,50.4465094322676],[-121.007830665947,50.4466799255328],[-121.008932173386,50.4466466717067],[-121.008821430888,50.4465926567081],[-121.00940149051,50.4448173517694],[-121.008762537295,50.4430681106404],[-121.008260814605,50.4415398726423],[-121.007257228332,50.4401558843493],[-121.006437508419,50.4389837319163],[-121.005858435053,50.4383127236304],[-121.005677668355,50.438055680542]]]}},{"type":"Feature","id":"934051091","properties":{"name":"iSP_17KPH_%TR_Ramp_Permission Blocker","oid":"934051091","speedLimit":4.7222223},"geometry":{"type":"Polygon","coordinates":[[[-121.039511333016,50.4610294907538],[-121.039463288243,50.4607714590382],[-121.039015809652,50.4607920404603],[-121.039074703245,50.4610447695388],[-121.039162198272,50.4608997109568],[-121.03937818841,50.4608865891767],[-121.039511333016,50.4610294907538]]]}},{"type":"Feature","id":"936513295","properties":{"name":"SP_30KPH_%TR_1635_FLATS_OCT_7_DS","oid":"936513295","speedLimit":8.333333},"geometry":{"type":"Polygon","coordinates":[[[-121.017283369397,50.4555550122228],[-121.018047577168,50.4557850028742],[-121.017431448742,50.4574536259437],[-121.015224347946,50.4585167597522],[-121.01449550451,50.4578794546684],[-121.016174676377,50.4566192245338],[-121.017283369397,50.4555550122228]]]}},{"type":"Feature","id":"938065675","properties":{"name":"iSP_8KPH_CR01_YARD_RUTIING_OCT_4_NS","oid":"938065675","speedLimit":2.2222223},"geometry":{"type":"Polygon","coordinates":[[[-121.034287414967,50.4648010138868],[-121.034097208387,50.4648578150168],[-121.033938984691,50.464906797004],[-121.033827537725,50.4650047609782],[-121.034042400713,50.4650686622495],[-121.033962373056,50.4650111421178],[-121.034240779132,50.4648879232108],[-121.034317425339,50.4649371748235],[-121.034287414967,50.4648010138868]]]}},{"type":"Feature","id":"938165680","properties":{"name":"SP_10KPH_%TR_22SH_OCT_7_DS","oid":"938165680","speedLimit":2.7777777},"geometry":{"type":"Polygon","coordinates":[[[-121.034078610411,50.4466111710004],[-121.035053454356,50.4472503634635],[-121.035495297197,50.4474471002889],[-121.035793428399,50.446911983314],[-121.034853103425,50.4461951386731],[-121.034078610411,50.4466111710004]]]}},{"type":"Feature","id":"950375436","properties":{"name":"SP_22KPH_%TR_1445_RAC_OCT 7_DS","oid":"950375436","speedLimit":6.111111},"geometry":{"type":"Polygon","coordinates":[[[-121.039805096512,50.4640111007037],[-121.039745780238,50.4638808715306],[-121.038843637474,50.4642869277101],[-121.038236103568,50.4646531691734],[-121.037948962079,50.4648790255654],[-121.037738466797,50.4648668025374],[-121.038011237122,50.4650194106367],[-121.038604399864,50.464543341672],[-121.03901087837,50.4643259335494],[-121.039523027199,50.4641223662084],[-121.039797770036,50.4640016638071],[-121.039805096512,50.4640111007037]]]}},{"type":"Feature","id":"950380359","properties":{"name":"SP_20KPH_%TR_EMPTY_23SH_SOFT_OCT_7_DS","oid":"950380359","speedLimit":5.5555553},"geometry":{"type":"Polygon","coordinates":[[[-121.038899149616,50.4647302820999],[-121.038784743881,50.4646500235412],[-121.038307536706,50.4649201884096],[-121.038376292862,50.4649519143572],[-121.038780798855,50.4647034992886],[-121.038891541353,50.4647278554694],[-121.038899149616,50.4647302820999]]]}},{"type":"Feature","id":"950427531","properties":{"name":"SP_15KPH_%TR_1590_DUMP_HEAD_OCT_7_DS","oid":"950427531","speedLimit":4.1666665},"geometry":{"type":"Polygon","coordinates":[[[-121.014467184864,50.4503497099329],[-121.014250349362,50.449135675654],[-121.01435883756,50.4478525273419],[-121.014447459737,50.4473996461802],[-121.013688183248,50.4470536266382],[-121.013550248254,50.4483116997679],[-121.013944609897,50.4505321566005],[-121.014555947934,50.4504252051057],[-121.014467184864,50.4503497099329]]]}},{"type":"Feature","id":"950999947","properties":{"name":"SP_15KPH_%TR_23SH_HEADING_SOFT_OCT7_DS","oid":"950999947","speedLimit":4.1666665},"geometry":{"type":"Polygon","coordinates":[[[-121.038045333413,50.4652779816036],[-121.037530084922,50.46497716929],[-121.03719828011,50.465222258976],[-121.036744179512,50.4653225597056],[-121.037381582895,50.4658350281287],[-121.038045333413,50.4652835538664],[-121.038045333413,50.4652779816036]]]}},{"type":"Feature","id":"951141721","properties":{"name":"SP_8KPH_%TR_CR1_SHOPSIDE_OCT_7_DS","oid":"951141721","speedLimit":2.2222223},"geometry":{"type":"Polygon","coordinates":[[[-121.033771884689,50.4647082626745],[-121.033827960406,50.4646111974523],[-121.033599430723,50.4645574520793],[-121.033278615624,50.4644628134877],[-121.033366956014,50.4646852546218],[-121.033563361919,50.4646290826183],[-121.033735815885,50.464634205505],[-121.033771884689,50.4647133855612],[-121.033771884689,50.4647082626745]]]}},{"type":"Feature","id":"952717701","properties":{"name":"SP_15KPH_SLIMY SECTION_OCT 7_DS","oid":"952717701","speedLimit":4.1666665},"geometry":{"type":"Polygon","coordinates":[[[-121.038292883754,50.4618265040782],[-121.03789020938,50.4619115260228],[-121.037967137374,50.462045709705],[-121.038093378186,50.4622848676274],[-121.038201443702,50.462429746459],[-121.038262732489,50.4626873287986],[-121.038278089909,50.4628095590784],[-121.038744870946,50.4627670481061],[-121.03848294944,50.4626646802468],[-121.038370938899,50.462326210222],[-121.038134800952,50.4619257263053],[-121.038292883754,50.4618265040782]]]}},{"type":"Feature","id":"953495661","properties":{"name":"SP_ZONE_SP_15_KPH_OCT_7","oid":"953495661","speedLimit":4.1666665},"geometry":{"type":"Polygon","coordinates":[[[-121.039462724668,50.453143121202],[-121.039364662609,50.4530804781836],[-121.039305769016,50.4530398545906],[-121.039237153754,50.4529240054505],[-121.039148813364,50.4527738239817],[-121.039222359908,50.4527769696139],[-121.039153744646,50.4527519843067],[-121.039168397597,50.4526924869205],[-121.039138950801,50.4526080042271],[-121.039114435286,50.4525423054517],[-121.038898586041,50.4525579437375],[-121.038825039497,50.4525610893697],[-121.039026094897,50.4529772115722],[-121.03907526682,50.453086769448],[-121.03927632222,50.4532463878134],[-121.039452862105,50.453146176959],[-121.039462724668,50.453143121202]]]}}]}