{"type":"FeatureCollection","features":[{"type":"Feature","id":"702602533","properties":{"name":"iSP_4KPH_%TR_CR01_Slow Bump","oid":"702602533","speedLimit":1.1111112},"geometry":{"type":"Polygon","coordinates":[[[-121.033360606986,50.464807950099],[-121.033655335861,50.4646909326486],[-121.033698728066,50.4647316460933],[-121.033370891502,50.464869784205],[-121.033360606986,50.464807950099]]]}},{"type":"Feature","id":"707947583","properties":{"name":"iSP_25KPH_%TR_Permission Gate 1 From West Dump","oid":"707947583","speedLimit":6.9444447},"geometry":{"type":"Polygon","coordinates":[[[-121.038629942248,50.4619780511265],[-121.038856624255,50.4617995590708],[-121.038141639055,50.4614083325256],[-121.03799399285,50.4616710376006],[-121.038193484287,50.4615669621724],[-121.038668403521,50.4618461144005],[-121.038629942248,50.4619780511265]]]}},{"type":"Feature","id":"742345972","properties":{"name":"iSP_4KPH_%TR_CR01_Pit Side_Slow Bump","oid":"742345972","speedLimit":1.1111112},"geometry":{"type":"Polygon","coordinates":[[[-121.033400477097,50.4648829059774],[-121.033707744628,50.4647444083652],[-121.033757899255,50.4647764937952],[-121.033476413456,50.4649184066632],[-121.033400477097,50.4648829059774]]]}},{"type":"Feature","id":"776427243","properties":{"name":"iSP_7KPH_%TR_CR1_PermissionBlocker","oid":"776427243","speedLimit":1.9444444},"geometry":{"type":"Polygon","coordinates":[[[-121.034101655686,50.4652129275428],[-121.034053191665,50.4652332393275],[-121.034032059097,50.4652746717735],[-121.034117716437,50.4652255999395],[-121.034101655686,50.4652129275428]]]}},{"type":"Feature","id":"794004438","properties":{"name":"iSP_11KPH_%TR_Lower_Fuel_Bay","oid":"794004438","speedLimit":3.0555556},"geometry":{"type":"Polygon","coordinates":[[[-121.036778306684,50.4606955326796],[-121.036780419941,50.4607253712308],[-121.036750693463,50.4606709068875],[-121.037126853164,50.4605991865146],[-121.037536824974,50.4605561363159],[-121.037544573582,50.4605814811093],[-121.03694609927,50.4606503254772],[-121.036778306684,50.4606955326796]]]}},{"type":"Feature","id":"801543391","properties":{"name":"iSP_4KPH_%TR_CR01_PermissionBlocker_2","oid":"801543391","speedLimit":1.1111112},"geometry":{"type":"Polygon","coordinates":[[[-121.033157170803,50.4645234053616],[-121.0331563255,50.464473974027],[-121.033177880719,50.4644319124549],[-121.033109833852,50.4644595041272],[-121.033157170803,50.4645234053616]]]}},{"type":"Feature","id":"806473874","properties":{"name":"iSP_4KPH_%TR_CR04_PermissionBlocker","oid":"806473874","speedLimit":1.1111112},"geometry":{"type":"Polygon","coordinates":[[[-121.022721627209,50.4815453101445],[-121.02268851952,50.4815429733904],[-121.022680911795,50.4815716435646],[-121.022703030549,50.4815727220664],[-121.022707116179,50.4815486355252],[-121.022721627209,50.4815453101445]]]}},{"type":"Feature","id":"824566967","properties":{"name":"iSP_3KPH_%TR_CR04","oid":"824566967","speedLimit":0.8333333},"geometry":{"type":"Polygon","coordinates":[[[-121.02330446342,50.4810684325776],[-121.023284317039,50.4810684325776],[-121.023281640247,50.4811865285299],[-121.023306717561,50.4811858095286],[-121.02330446342,50.4810684325776]]]}},{"type":"Feature","id":"826307302","properties":{"name":"iSP_4KPH_%TR_CR04_Pockets","oid":"826307302","speedLimit":1.1111112},"geometry":{"type":"Polygon","coordinates":[[[-121.023299673371,50.4813216108863],[-121.023339120831,50.4814772746529],[-121.023543824968,50.4814378194603],[-121.023462816792,50.481188955159],[-121.023054535588,50.4811896741603],[-121.023059889172,50.4813603470776],[-121.02328473969,50.4813263742694],[-121.023299673371,50.4813216108863]]]}},{"type":"Feature","id":"883050998","properties":{"name":"iSP_22KPH_%TR_4CR_Brake_Temp_Ctrl","oid":"883050998","speedLimit":6.111111},"geometry":{"type":"Polygon","coordinates":[[[-121.031800882622,50.4745591346774],[-121.032190144515,50.474312517255],[-121.032491776695,50.4745748628294],[-121.032793408875,50.4748022469689],[-121.032971204209,50.474884662485],[-121.033179993976,50.4749348128209],[-121.033463874799,50.4749596183634],[-121.033667733634,50.4749220505491],[-121.033828904682,50.4748626430723],[-121.033920056489,50.4748106053582],[-121.034009376808,50.474747423125],[-121.034059813202,50.4746582669722],[-121.034054036967,50.4745480800335],[-121.03405784083,50.4744837294233],[-121.033995711081,50.4743797438701],[-121.033877368703,50.4742596706644],[-121.033510507332,50.473937737863],[-121.033062215133,50.4735600824661],[-121.032948944571,50.4734255393606],[-121.032823980656,50.4732209835102],[-121.032607160513,50.4728150174398],[-121.032253683101,50.4722090791519],[-121.032488677251,50.4721562325613],[-121.032431619319,50.4722057537712],[-121.032904143528,50.4730489624656],[-121.033043336706,50.4733096902872],[-121.033251140286,50.4735470505688],[-121.033744092644,50.4739617345291],[-121.034099119778,50.4742712645593],[-121.034204500848,50.4743945732705],[-121.034257191383,50.4744617998857],[-121.034264235572,50.4745929277353],[-121.034239299142,50.4746789382576],[-121.034184777118,50.4747917315758],[-121.03408728554,50.4748759445951],[-121.03397443763,50.474937778701],[-121.033791852247,50.4750162397104],[-121.033532344318,50.4750645026681],[-121.033264383362,50.4750681875494],[-121.033072781417,50.4750263956028],[-121.032809046975,50.4749166580398],[-121.032658301326,50.4748352311504],[-121.032496707627,50.4747054514281],[-121.032146188774,50.4744131774274],[-121.031800882622,50.4745591346774]]]}},{"type":"Feature","id":"883053336","properties":{"name":"iSP_22KPH_%TR_Brake_Temp_Ctrl","oid":"883053336","speedLimit":6.111111},"geometry":{"type":"Polygon","coordinates":[[[-121.0324674038,50.4721453576677],[-121.032252556031,50.4722256161802],[-121.031489952112,50.4710084369702],[-121.030818077349,50.4699234641117],[-121.03066282342,50.4696603096609],[-121.03059801688,50.4694578209391],[-121.030551666115,50.4692568600948],[-121.03059801688,50.4689730343587],[-121.03072424875,50.4686244086365],[-121.030885983333,50.4683756342103],[-121.031090405702,50.4680979199846],[-121.031689725316,50.4675366496482],[-121.032433591692,50.466893772672],[-121.03278988678,50.4665562914689],[-121.033148999544,50.4662224951471],[-121.033485852669,50.4658708136697],[-121.033780863312,50.4660342066996],[-121.033588838715,50.4659934033797],[-121.032920767815,50.4666521882581],[-121.0325560197,50.4669913770892],[-121.032180000882,50.4673078275062],[-121.031775805308,50.467668496499],[-121.031383443972,50.4680345580011],[-121.031148590705,50.4682864780576],[-121.03101024283,50.468470003122],[-121.030906552365,50.4686546066882],[-121.030830052471,50.4688531409033],[-121.030769190677,50.4691914309828],[-121.030777925471,50.4694007502163],[-121.030875135282,50.4696304711098],[-121.031029121257,50.4699352377569],[-121.031332021391,50.4704039366847],[-121.031532076363,50.4707111299609],[-121.031751714181,50.471083033348],[-121.032147456728,50.4717289660795],[-121.032382732646,50.4721452677926],[-121.0324674038,50.4721453576677]]]}},{"type":"Feature","id":"883059532","properties":{"name":"iSP_22KPH_%TR_Brake_Ctrl","oid":"883059532","speedLimit":6.111111},"geometry":{"type":"Polygon","coordinates":[[[-121.027263861265,50.4773221665354],[-121.02703168479,50.4772100023432],[-121.027336134646,50.476944241513],[-121.027718070582,50.4766326443543],[-121.028034777327,50.4763229345737],[-121.028192003629,50.476168978435],[-121.028622826238,50.4756925502439],[-121.028908820318,50.4753259494909],[-121.029265397174,50.4748878081154],[-121.029474186941,50.4746569188449],[-121.029692979456,50.4745406203957],[-121.029803009691,50.4744884029313],[-121.029953755339,50.4745928378602],[-121.029790189267,50.4745422381485],[-121.02955759014,50.4747917315758],[-121.029253422052,50.4751732516044],[-121.029074499648,50.4754781980017],[-121.028854720946,50.4757749657601],[-121.028697635527,50.4759749379776],[-121.028410514377,50.4762708069844],[-121.028043230354,50.4765701811223],[-121.027245546373,50.4772196189847],[-121.027263861265,50.4773221665354]]]}},{"type":"Feature","id":"884401102","properties":{"name":"iSP_30KPH_%TR_Maint_Limit_Policy","oid":"884401102","speedLimit":8.333333},"geometry":{"type":"Polygon","coordinates":[[[-121.036993858873,50.4611014088749],[-121.03710994711,50.461107879886],[-121.038296188565,50.4609922105628],[-121.038279846047,50.4603980459201],[-121.03812135179,50.4605659327076],[-121.037034292519,50.460708564577],[-121.036746607833,50.4605378916596],[-121.036993858873,50.4611014088749]]]}},{"type":"Feature","id":"887797506","properties":{"name":"SP_20KPH_%TR_LNX WEST_FLATS_SEPT 18_NS","oid":"887797506","speedLimit":5.5555553},"geometry":{"type":"Polygon","coordinates":[[[-121.055041494161,50.4668457793398],[-121.054279735545,50.4668725621356],[-121.05400360333,50.4667283125135],[-121.053449930062,50.4663378049696],[-121.053424430097,50.4658515803867],[-121.053449930062,50.4654410306835],[-121.054110393238,50.4652519333596],[-121.05484707454,50.4651439034245],[-121.054780718278,50.4656838733495],[-121.054840171235,50.4659010117214],[-121.055014303591,50.4663529938706],[-121.055041494161,50.4668457793398]]]}},{"type":"Feature","id":"908328496","properties":{"name":"SP_25KPH_%TR_1445_SOFT_GROUND_SEPT_17_NS","oid":"908328496","speedLimit":6.9444447},"geometry":{"type":"Polygon","coordinates":[[[-121.039332952327,50.4644968921912],[-121.039941992922,50.4647091773048],[-121.039190237054,50.4666748367969],[-121.038828024847,50.4674279007119],[-121.038453273984,50.4678943527609],[-121.037916365886,50.4682380353496],[-121.037181375188,50.4680259299863],[-121.038314362573,50.4667053044741],[-121.038795058042,50.4655660470226],[-121.039332952327,50.4644968921912]]]}},{"type":"Feature","id":"910445950","properties":{"name":"SP_22KPH_%TR_1635_FLATS_SEP_17_NS","oid":"910445950","speedLimit":6.111111},"geometry":{"type":"Polygon","coordinates":[[[-121.017371706423,50.4554939182695],[-121.018004838145,50.4544142480451],[-121.018150089325,50.453998575458],[-121.018534702054,50.453751598535],[-121.018950731866,50.4536881466763],[-121.01886859662,50.4543417187958],[-121.018263782538,50.45607217501],[-121.018277870917,50.455700900749],[-121.017371706423,50.4554939182695]]]}},{"type":"Feature","id":"915576987","properties":{"name":"iSP_15KPH_%TR_Preventing Shifting","oid":"915576987","speedLimit":4.1666665},"geometry":{"type":"Polygon","coordinates":[[[-121.03699935334,50.4448633053097],[-121.037513438266,50.4453132203304],[-121.037982722148,50.4457956701568],[-121.038526674435,50.4462189821319],[-121.03945932508,50.446850085463],[-121.039916633841,50.4470998485158],[-121.040472561249,50.4471952060541],[-121.041225725955,50.4473229186479],[-121.041644150791,50.447509769093],[-121.042322647091,50.4480952158458],[-121.042705287447,50.4485279647121],[-121.042848707138,50.4487949837945],[-121.043010159954,50.4493917548167],[-121.043189364126,50.4501982944483],[-121.043326866698,50.4505014433426],[-121.04368851537,50.4511688562358],[-121.043858984748,50.4514891712845],[-121.04412793189,50.4522537392192],[-121.044385044795,50.4529383182668],[-121.04469879298,50.4537982437399],[-121.044737676904,50.4541948627943],[-121.044573265529,50.4550719544217],[-121.04421767486,50.4568394391993],[-121.044053263485,50.4572074779547],[-121.04300706051,50.458399132621],[-121.041907180814,50.459537491321],[-121.041345336287,50.4600007977396],[-121.040373942601,50.460597658637],[-121.039925509519,50.4607311232406],[-121.039136419449,50.4608073373712],[-121.038499061213,50.4608388835502],[-121.038646848302,50.4611436501972],[-121.038759696212,50.460949699615],[-121.039880708476,50.4608798666204],[-121.04070868247,50.4606319909458],[-121.041512706221,50.4600580482126],[-121.042875615941,50.458700394137],[-121.044244442779,50.4571425880936],[-121.044429845838,50.4562903020087],[-121.044815444753,50.4544217076828],[-121.044812345309,50.4537867397202],[-121.044262475903,50.4523014629259],[-121.043835034505,50.4511860223902],[-121.043347858382,50.4503375110618],[-121.043052002437,50.4493097886763],[-121.042929433546,50.4486919868681],[-121.042241920684,50.4478873346147],[-121.041548490702,50.4473915832655],[-121.041094140501,50.4472218989749],[-121.040460586128,50.4471304060681],[-121.0399195924,50.4470197697536],[-121.038822671264,50.4463333932029],[-121.038197992568,50.4458718842873],[-121.037154889037,50.4449070745097],[-121.037379035136,50.4446973957755],[-121.03699935334,50.4448633053097]]]}},{"type":"Feature","id":"917773475","properties":{"name":"SP_15KPH_%TR_1200_CORNER_Sept_17_NS","oid":"917773475","speedLimit":4.1666665},"geometry":{"type":"Polygon","coordinates":[[[-121.037100226129,50.4446825663751],[-121.036926093773,50.4448621369327],[-121.036630519596,50.4448206146116],[-121.036415953594,50.4448699560711],[-121.036324379135,50.4449676503634],[-121.036255768732,50.4450821513096],[-121.036243511843,50.4451449740422],[-121.036264644411,50.4452672941267],[-121.036317334946,50.445351507146],[-121.036185467724,50.4453952763459],[-121.036090371171,50.4451943155017],[-121.036164335157,50.4449317003018],[-121.036261122316,50.4447914051865],[-121.036517953453,50.4447151011808],[-121.036715049866,50.4447117758001],[-121.036924403168,50.444770104775],[-121.037095013429,50.4446836448769],[-121.037100226129,50.4446825663751]]]}},{"type":"Feature","id":"921770139","properties":{"name":"SP_20KPH_%TR_HIGHMONT_SEPT 17_NS","oid":"921770139","speedLimit":5.5555553},"geometry":{"type":"Polygon","coordinates":[[[-121.002081730308,50.4283003030629],[-121.001585960275,50.4284272966555],[-121.00100115169,50.4285433254792],[-121.001189654192,50.4289620538215],[-121.001583424367,50.4287564194692],[-121.001925631076,50.4286884738529],[-121.00254876005,50.4285670525199],[-121.002408158034,50.4282228306802],[-121.002081730308,50.4283003030629]]]}},{"type":"Feature","id":"926367691","properties":{"name":"SP_30KPH_%TR_24SH_EMPTY_LANE_SEP_20_DS","oid":"926367691","speedLimit":8.333333},"geometry":{"type":"Polygon","coordinates":[[[-121.038785477945,50.4508575287025],[-121.038614304148,50.4512056151738],[-121.038640226764,50.4520121548054],[-121.038867190539,50.4535985411478],[-121.039046394711,50.4535756229835],[-121.038783505572,50.4517187124277],[-121.038785477945,50.4508575287025]]]}},{"type":"Feature","id":"929009157","properties":{"name":"iSP_22KPH_%TR_Long_Single_Lane","oid":"929009157","speedLimit":6.111111},"geometry":{"type":"Polygon","coordinates":[[[-121.005683001576,50.438055981399],[-121.00475330949,50.4382240479369],[-121.005177792329,50.4381975347665],[-121.007937987411,50.443170506785],[-121.008526740741,50.4445349014971],[-121.008213837859,50.4465097282549],[-121.007835846668,50.446680221422],[-121.008937276086,50.446646967615],[-121.008826541432,50.4465929526475],[-121.009406559968,50.4448176487315],[-121.008767652011,50.4430684086101],[-121.008265964858,50.4415401714923],[-121.00726244967,50.4401561839966],[-121.006442787819,50.4389840322387],[-121.00586375547,50.4383130243393],[-121.005683001576,50.438055981399]]]}},{"type":"Feature","id":"929572873","properties":{"name":"SP_11KPH_%TR_1665_FLATS_WATERHOLE_SEPT 18_NS","oid":"929572873","speedLimit":3.0555556},"geometry":{"type":"Polygon","coordinates":[[[-121.053572076302,50.4666492223781],[-121.053363568302,50.4670037798604],[-121.053263259049,50.4671269088213],[-121.053008541169,50.4671859567975],[-121.052784676837,50.4671269088213],[-121.052275241077,50.4664177938566],[-121.052259884744,50.4654280886613],[-121.052738466956,50.4650982468463],[-121.053564327694,50.4651129863716],[-121.053626034791,50.4653296753677],[-121.053363568302,50.465423235403],[-121.053371316911,50.4663440063552],[-121.053556579086,50.4666344828528],[-121.053572076302,50.4666492223781]]]}},{"type":"Feature","id":"932281958","properties":{"name":"SP_15KPH_%TR_1185-1170_22shl_SEPT_17_NS","oid":"932281958","speedLimit":4.1666665},"geometry":{"type":"Polygon","coordinates":[[[-121.037376358344,50.4481142693784],[-121.037409888685,50.4479621107428],[-121.036983292589,50.4479088147765],[-121.035925396261,50.4473800792458],[-121.035634330364,50.4472468842677],[-121.035476681411,50.4475379898913],[-121.035551913351,50.4474434412294],[-121.036815922655,50.4479515054746],[-121.037217441437,50.4480555809029],[-121.037335783815,50.4481912025102],[-121.037376358344,50.4481142693784]]]}},{"type":"Feature","id":"934051091","properties":{"name":"iSP_17KPH_%TR_Ramp_Permission Blocker","oid":"934051091","speedLimit":4.7222223},"geometry":{"type":"Polygon","coordinates":[[[-121.039514269756,50.4610297783772],[-121.039466228386,50.4607717468102],[-121.03901878149,50.4607923282204],[-121.039077670911,50.4610450571534],[-121.039165159741,50.4608999986549],[-121.03938113458,50.4608868768824],[-121.039514269756,50.4610297783772]]]}},{"type":"Feature","id":"934181262","properties":{"name":"SP_25KPH_TR%_1590_1_SEPT 19_NS","oid":"934181262","speedLimit":6.9444447},"geometry":{"type":"Polygon","coordinates":[[[-121.007187781265,50.4383850143376],[-121.006791616067,50.4384791136238],[-121.008913325843,50.4404385717303],[-121.009586045908,50.4400915637609],[-121.009054632277,50.4401351532106],[-121.007132554822,50.4385143446842],[-121.007187781265,50.4383850143376]]]}},{"type":"Feature","id":"934181339","properties":{"name":"SP_30KPH_TR%_1590_2_SEPT 16_NS_ROUGH_SECTION.","oid":"934181339","speedLimit":8.333333},"geometry":{"type":"Polygon","coordinates":[[[-121.00962633867,50.4401266150709],[-121.008922483289,50.4404385717303],[-121.010384997843,50.4417985625599],[-121.011096601832,50.4414569470997],[-121.010562652293,50.4414849881478],[-121.009453051616,50.440407474927],[-121.00962633867,50.4401266150709]]]}},{"type":"Feature","id":"934182445","properties":{"name":"SP_25KPH_TR%_1590_16_SEPT 16_NS","oid":"934182445","speedLimit":6.9444447},"geometry":{"type":"Polygon","coordinates":[[[-121.010728331622,50.4432868951094],[-121.011317084953,50.4430413561888],[-121.010416837578,50.4420371810936],[-121.009451642778,50.4411427435615],[-121.008812171286,50.4414165032805],[-121.009275960701,50.4414389720689],[-121.010824555246,50.4430593312196],[-121.010728331622,50.4432868951094]]]}},{"type":"Feature","id":"934773555","properties":{"name":"SP_10KPH_NEW RAMP_SEPT 17_NS","oid":"934773555","speedLimit":2.7777777},"geometry":{"type":"Polygon","coordinates":[[[-121.033904559273,50.4443402319137],[-121.03441610829,50.4442041609306],[-121.035776622985,50.4443192011277],[-121.036278591905,50.4444736066422],[-121.03593356752,50.4447856531767],[-121.034624334522,50.4446108460022],[-121.034346652585,50.4446010496105],[-121.033904559273,50.4443402319137]]]}},{"type":"Feature","id":"936169885","properties":{"name":"SP_15KPH_%TR_24shl_loadplan_Sept_19_NS","oid":"936169885","speedLimit":4.1666665},"geometry":{"type":"Polygon","coordinates":[[[-121.039054143319,50.4535938676398],[-121.038509063962,50.4536748451535],[-121.038613599729,50.4545480721493],[-121.039165159741,50.4545295578676],[-121.039145858662,50.4542340483614],[-121.039101621154,50.4539211030753],[-121.039079079749,50.4537567214187],[-121.039054143319,50.4535938676398]]]}},{"type":"Feature","id":"936513295","properties":{"name":"SP_30KPH_%TR_1635_FLATS_SEP_17_NS","oid":"936513295","speedLimit":8.333333},"geometry":{"type":"Polygon","coordinates":[[[-121.017287880572,50.4555553029996],[-121.018052034212,50.4557852935186],[-121.017435949428,50.4574539156269],[-121.015229004963,50.458517048823],[-121.014500213152,50.4578797441063],[-121.016179266081,50.4566195146976],[-121.017287880572,50.4555553029996]]]}},{"type":"Feature","id":"937786749","properties":{"name":"SP_30KPH_%TR_24SH_Loaded_LANE_SEP_17_NS","oid":"937786749","speedLimit":8.333333},"geometry":{"type":"Polygon","coordinates":[[[-121.038411572384,50.4510853622178],[-121.038214475971,50.4510392562638],[-121.038255050501,50.4516608328286],[-121.038480746322,50.4536763730311],[-121.038647975372,50.4536486914837],[-121.03840509173,50.4516753027284],[-121.038411572384,50.4510853622178]]]}},{"type":"Feature","id":"938065675","properties":{"name":"SP_8KPH_CR01_YARD_RUTIING_SEP_17_NS","oid":"938065675","speedLimit":2.2222223},"geometry":{"type":"Polygon","coordinates":[[[-121.034290721723,50.4648012993376],[-121.034100528616,50.4648581004349],[-121.033942316127,50.4649070823938],[-121.033830877055,50.4650050463117],[-121.034045724824,50.4650689475461],[-121.033965702835,50.4650114274476],[-121.034244089191,50.4648882086115],[-121.034320729969,50.4649374601959],[-121.034290721723,50.4648012993376]]]}},{"type":"Feature","id":"938165680","properties":{"name":"SP_22SH_10kph_%TR_Sept17_NS","oid":"938165680","speedLimit":2.7777777},"geometry":{"type":"Polygon","coordinates":[[[-121.034632787549,50.4470558096904],[-121.035056706853,50.4472506590241],[-121.035498518397,50.4474473957361],[-121.035796628483,50.4469122790695],[-121.0348729944,50.4467191373636],[-121.034632787549,50.4470558096904]]]}},{"type":"Feature","id":"938217281","properties":{"name":"SP_25KPH_CRUSHER_YARD_WEATHER_SEPT_17_NS","oid":"938217281","speedLimit":6.9444447},"geometry":{"type":"Polygon","coordinates":[[[-121.036884955708,50.4639826265603],[-121.037243645821,50.4642846070776],[-121.034293539399,50.4654992697832],[-121.032880897704,50.4644544711186],[-121.036884955708,50.4639826265603]]]}},{"type":"Feature","id":"939481274","properties":{"name":"SP_10KPH_%TR_LRNX_PIT_BOTTOM_SEP_17_NS1","oid":"939481274","speedLimit":2.7777777},"geometry":{"type":"Polygon","coordinates":[[[-121.034056854643,50.4452363770737],[-121.034063898832,50.4449962306624],[-121.033304394357,50.4447664198937],[-121.033470637221,50.4448876614764],[-121.033359479916,50.4469937958341],[-121.033817070444,50.4469741131754],[-121.033665338609,50.4469200083327],[-121.034056854643,50.4452363770737]]]}},{"type":"Feature","id":"939584863","properties":{"name":"SP_40KPH_%TR_HMT EMPTY2_ROUGH_SECTION_SEPT 17_NS","oid":"939584863","speedLimit":11.111111},"geometry":{"type":"Polygon","coordinates":[[[-121.005962092351,50.4301700657658],[-121.005670603803,50.4303973600301],[-121.005923208426,50.4302830388343],[-121.006322613952,50.4305570681787],[-121.00671539794,50.4308737882212],[-121.007138612825,50.4312429054785],[-121.007265971765,50.4315321237239],[-121.007412772667,50.4321903693515],[-121.007319930254,50.4325924707902],[-121.007054364322,50.432614490203],[-121.007548725518,50.4326902549578],[-121.007645935328,50.4323019044175],[-121.007587609442,50.4319287427783],[-121.007419253321,50.4313516544148],[-121.007306968946,50.4311740611106],[-121.007119170863,50.43098397516],[-121.00668524881,50.430646583832],[-121.005962092351,50.4301700657658]]]}},{"type":"Feature","id":"939585115","properties":{"name":"SP_40KPH_%TR_HMT EMPTY22_ROUGH_SECTION_SEPT 17_NS","oid":"939585115","speedLimit":11.111111},"geometry":{"type":"Polygon","coordinates":[[[-121.007520689645,50.4327112857438],[-121.007047179249,50.4338270857801],[-121.006950532974,50.4340181603574],[-121.00675414098,50.4342996493396],[-121.005791059438,50.4352900735361],[-121.00529176731,50.4350887531913],[-121.005662150776,50.4351667648249],[-121.006612411894,50.4341291561725],[-121.006757240423,50.4339277459525],[-121.006963494282,50.433411952444],[-121.007227510492,50.4327831858669],[-121.007031118498,50.4326537656452],[-121.007520689645,50.4327112857438]]]}},{"type":"Feature","id":"940771585","properties":{"name":"SP_15KPH_%TR_1660_HMT_SEPT17_NS","oid":"940771585","speedLimit":4.1666665},"geometry":{"type":"Polygon","coordinates":[[[-121.002711199052,50.4281184856265],[-121.002605958866,50.4277113511791],[-121.002234307445,50.4276979597812],[-121.002507762869,50.4277963730747],[-121.002535798741,50.4281139918688],[-121.00267611899,50.4280826254401],[-121.002711199052,50.4281184856265]]]}},{"type":"Feature","id":"940772885","properties":{"name":"SP_11KPH_%TR_1654_HMT_SEPT17_NS","oid":"940772885","speedLimit":3.0555556},"geometry":{"type":"Polygon","coordinates":[[[-121.004064669558,50.426490037712],[-121.004415329294,50.4266376127148],[-121.004611580404,50.4261544438872],[-121.004380249232,50.4258055485395],[-121.00397351775,50.4255504828526],[-121.003538609511,50.425917353231],[-121.003840241691,50.4258323313354],[-121.004183857238,50.4261097759357],[-121.004148777176,50.426490037712],[-121.004064669558,50.426490037712]]]}},{"type":"Feature","id":"940778315","properties":{"name":"SP_25KPH_%TR_HMT_SPILLING_ROCK_IN_CORNER_SEPT17_NS","oid":"940778315","speedLimit":6.9444447},"geometry":{"type":"Polygon","coordinates":[[[-121.004786980714,50.43670803384],[-121.004772892336,50.4370436276649],[-121.004990276014,50.4372762245633],[-121.005123552073,50.4371688237544],[-121.0048922209,50.4369362268559],[-121.004885176711,50.4367572854244],[-121.005200756386,50.4367975494934],[-121.004800928209,50.4366991361998],[-121.004786980714,50.43670803384]]]}},{"type":"Feature","id":"941544052","properties":{"name":"SP_11KPH_%TR_TEMP_LOADED_SPILL_SEPT19_NS","oid":"941544052","speedLimit":3.0555556},"geometry":{"type":"Polygon","coordinates":[[[-121.012795237607,50.4562997388998],[-121.012428094468,50.4565454575707],[-121.012325249306,50.4564643901819],[-121.012557284897,50.4564001294468],[-121.012779035972,50.4563099846674],[-121.012795237607,50.4562997388998]]]}},{"type":"Feature","id":"942629325","properties":{"name":"SPD_12KPH_RUTS_23SH_SEPT 20_NS","oid":"942629325","speedLimit":3.3333333},"geometry":{"type":"Polygon","coordinates":[[[-121.043748250094,50.4705980670173],[-121.044369265811,50.4707063665778],[-121.044206826809,50.4712223398366],[-121.043665269546,50.4713006210957],[-121.043733879948,50.470994326571],[-121.043748250094,50.4705980670173]]]}}]}