{"type":"FeatureCollection","features":[{"type":"Feature","id":"702602533","properties":{"name":"iSP_4KPH_%TR_CR01_SLOW BUMP","oid":"702602533","speedLimit":1.1111112},"geometry":{"type":"Polygon","coordinates":[[[-121.033360057409,50.4648075380504],[-121.033654791155,50.4646905210062],[-121.033698184077,50.4647312343096],[-121.033370342095,50.4648693719417],[-121.033360057409,50.4648075380504]]]}},{"type":"Feature","id":"707947583","properties":{"name":"iSP_25KPH_%TR_Permission Gate 1 from west dump_Jun","oid":"707947583","speedLimit":6.9444447},"geometry":{"type":"Polygon","coordinates":[[[-121.038629479761,50.4619776489012],[-121.038856165515,50.461799157465],[-121.038141168498,50.4614079322779],[-121.037993519853,50.461670636441],[-121.038193014587,50.461566561374],[-121.03866794167,50.4618457126332],[-121.038629479761,50.4619776489012]]]}},{"type":"Feature","id":"742345972","properties":{"name":"iSP_4KPH_%TR_CR01_PITSIDE_SLOW BUMP","oid":"742345972","speedLimit":1.1111112},"geometry":{"type":"Polygon","coordinates":[[[-121.033399928179,50.4648824936687],[-121.033707200788,50.4647439965372],[-121.033757356244,50.4647760818558],[-121.033475865793,50.4649179942312],[-121.033399928179,50.4648824936687]]]}},{"type":"Feature","id":"776427243","properties":{"name":"iSP_7KPH_%TR_CR1_PermissionBlocker_DO_NOT_DELETE","oid":"776427243","speedLimit":1.9444444},"geometry":{"type":"Polygon","coordinates":[[[-121.034101118357,50.4652125140884],[-121.034052653534,50.4652328258027],[-121.034031520618,50.4652742581048],[-121.034117179374,50.4652251864411],[-121.034101118357,50.4652125140884]]]}},{"type":"Feature","id":"794004438","properties":{"name":"iSP_11KPH_%TR_LOWER_FUEL_BAY","oid":"794004438","speedLimit":3.0555556},"geometry":{"type":"Polygon","coordinates":[[[-121.036777813594,50.4606951349062],[-121.036779926886,50.4607249733537],[-121.036750199916,50.4606705091995],[-121.037126365835,50.4605987890756],[-121.03753634442,50.4605557390263],[-121.037544093156,50.4605810837317],[-121.036945608953,50.4606499278607],[-121.036777813594,50.4606951349062]]]}},{"type":"Feature","id":"801543391","properties":{"name":"iSP_4KPH_%TR_CR1_PermissionBlocker_DO_NOT_DELETE_","oid":"801543391","speedLimit":1.1111112},"geometry":{"type":"Polygon","coordinates":[[[-121.033156617864,50.4645229943008],[-121.033155772547,50.4644735631377],[-121.033177328122,50.4644315017116],[-121.03310928013,50.4644590932881],[-121.033156617864,50.4645229943008]]]}},{"type":"Feature","id":"806473874","properties":{"name":"iSP_4KPH_%TR_Permission Blocker - DO NOT DELETE","oid":"806473874","speedLimit":1.1111112},"geometry":{"type":"Polygon","coordinates":[[[-121.022720901793,50.4815448399967],[-121.022687793557,50.4815425032508],[-121.022680185707,50.4815711733254],[-121.022702304826,50.4815722518235],[-121.022706390523,50.4815481653659],[-121.022720901793,50.4815448399967]]]}},{"type":"Feature","id":"824566967","properties":{"name":"iSP_4Cr_3KPH","oid":"824566967","speedLimit":0.8333333},"geometry":{"type":"Polygon","coordinates":[[[-121.023303747637,50.4810679640852],[-121.023283600923,50.4810679640852],[-121.023280924087,50.4811860596275],[-121.023306001815,50.4811853406288],[-121.023303747637,50.4810679640852]]]}},{"type":"Feature","id":"826307302","properties":{"name":"iSP_4KPH_TR%_CRUSHER POCKETS","oid":"826307302","speedLimit":1.1111112},"geometry":{"type":"Polygon","coordinates":[[[-121.02329895751,50.481321141515],[-121.023338405621,50.4814768047413],[-121.023543113141,50.4814373496857],[-121.023462103627,50.4811884862483],[-121.023053815675,50.481189205247],[-121.023059169347,50.4813598775719],[-121.023284023582,50.4813259048817],[-121.02329895751,50.481321141515]]]}},{"type":"Feature","id":"835348611","properties":{"name":"SP_35KPH_%TR_switchback to 1 gate_SEP_6_NS","oid":"835348611","speedLimit":9.722222},"geometry":{"type":"Polygon","coordinates":[[[-121.03992126452,50.4634030638949],[-121.039549043413,50.4634575280491],[-121.039802215755,50.4633738545713],[-121.039545943918,50.46292241324],[-121.039366032353,50.4625819673386],[-121.0391799218,50.4622608445282],[-121.038987753143,50.4620176432058],[-121.038746837892,50.4618366352741],[-121.038563826833,50.4617296842122],[-121.038077628861,50.4614744396609],[-121.038040294042,50.4615165909618],[-121.037959707186,50.4615570346407],[-121.038034517711,50.4613735102134],[-121.038145958626,50.4613852838177],[-121.038484507952,50.4615700664928],[-121.038868281721,50.4617904396053],[-121.039055801135,50.4619258809922],[-121.039240361942,50.462130166508],[-121.039454508832,50.4625352324208],[-121.039582574307,50.4627531789126],[-121.039759527264,50.463060640747],[-121.039863219442,50.4632590843981],[-121.039945215159,50.4633235246598],[-121.03992126452,50.4634030638949]]]}},{"type":"Feature","id":"859384545","properties":{"name":"SP_30KPH_MAINT_CREW_L1590_ROUGH_SEP_6_NS","oid":"859384545","speedLimit":8.333333},"geometry":{"type":"Polygon","coordinates":[[[-121.01397412843,50.4518289817453],[-121.013918196644,50.4511526735594],[-121.013838736877,50.4497613211308],[-121.012657125057,50.449895414395],[-121.013142900371,50.4500384052686],[-121.013402271703,50.4517964470525],[-121.013225741405,50.4523051386581],[-121.012545965915,50.4524635880045],[-121.01376181306,50.4524427370411],[-121.01397412843,50.4518289817453]]]}},{"type":"Feature","id":"875953603","properties":{"name":"SP_35_KPH_%TR_CR01_YARD_LOADED_Sept_06_NS","oid":"875953603","speedLimit":9.722222},"geometry":{"type":"Polygon","coordinates":[[[-121.038111864186,50.4622573394094],[-121.03836574096,50.4628956305371],[-121.038316712593,50.4633429376256],[-121.038102565703,50.4637136713488],[-121.037626511531,50.4639746678899],[-121.037929275786,50.4642046576105],[-121.037829951077,50.4640209534335],[-121.038275996507,50.463726613326],[-121.038557346072,50.4631640866901],[-121.038356865135,50.4621657569454],[-121.038111864186,50.4622573394094]]]}},{"type":"Feature","id":"878230085","properties":{"name":"SP_35KPH_TR%_PUNCH_OUT_L1590_DMP_Sep 6_NS","oid":"878230085","speedLimit":9.722222},"geometry":{"type":"Polygon","coordinates":[[[-121.013763785465,50.4533972078629],[-121.01362628062,50.4529073899742],[-121.013786609015,50.4525125697934],[-121.013099225676,50.4524614310083],[-121.01306682187,50.4528626323029],[-121.013206299121,50.4533670997909],[-121.013611628465,50.4545816684053],[-121.013330278899,50.4549542895002],[-121.013045548068,50.4549497058832],[-121.01378463661,50.4551885932132],[-121.014084724028,50.4546986854496],[-121.013993007169,50.4541357094394],[-121.013763785465,50.4533972078629]]]}},{"type":"Feature","id":"883050998","properties":{"name":"iSP_22kph_%TR_4CR_Brake_Temp_CTRL_NOREMOVE","oid":"883050998","speedLimit":6.111111},"geometry":{"type":"Polygon","coordinates":[[[-121.031800307266,50.4745586887803],[-121.032189575592,50.4743120722139],[-121.032491212758,50.4745744168776],[-121.032792849923,50.4748018002278],[-121.032970648196,50.4748842154579],[-121.033179441414,50.4749343656197],[-121.033463326929,50.4749591710761],[-121.033667189133,50.4749216033922],[-121.033828362844,50.4748621961216],[-121.033919516159,50.4748101585881],[-121.034008837954,50.4747469765742],[-121.034059275182,50.474657820731],[-121.034053498851,50.4745476341747],[-121.034057302776,50.4744832837878],[-121.033995172001,50.4743792985957],[-121.033876827667,50.4742592258068],[-121.033509960232,50.4739372941228],[-121.033061660624,50.4735596400369],[-121.03294838819,50.4734250973984],[-121.032823422209,50.4732205422581],[-121.032606598483,50.4728145775969],[-121.032253115229,50.4722086414123],[-121.032488113263,50.4721557950052],[-121.032431054388,50.4722053160431],[-121.032903586407,50.4730485218106],[-121.033042781885,50.4733092487271],[-121.0332505889,50.4735466081848],[-121.033743549405,50.4739612907057],[-121.034098582407,50.4742708196614],[-121.034203965218,50.4743941279446],[-121.034256656624,50.4744613543264],[-121.03426370093,50.4745924817208],[-121.034238764088,50.4746784919446],[-121.034184241163,50.4747912848713],[-121.034086747973,50.4748754975982],[-121.033973898198,50.4749373314895],[-121.033791309797,50.4750157922266],[-121.033531797579,50.4750640550167],[-121.033263832195,50.4750677398852],[-121.033072227083,50.4750259480837],[-121.032808488281,50.4749162109016],[-121.032657740142,50.4748347842948],[-121.032496143772,50.474705005023],[-121.032145619126,50.4744127320369],[-121.031800307266,50.4745586887803]]]}},{"type":"Feature","id":"883053336","properties":{"name":"iSP_22kph_%TR_Brake_Temp_CTRL_NOREMOVE","oid":"883053336","speedLimit":6.111111},"geometry":{"type":"Polygon","coordinates":[[[-121.03246683946,50.4721449201493],[-121.03225198814,50.4722251783832],[-121.031489371617,50.4710080033983],[-121.03081748575,50.469923034306],[-121.030662229255,50.4696598807687],[-121.030597421643,50.4694573927497],[-121.030551070113,50.4692564326031],[-121.030597421643,50.4689726078521],[-121.030723655599,50.4686239833401],[-121.030885392856,50.4683752097775],[-121.031089818604,50.4680974965158],[-121.031689148123,50.4675362281277],[-121.032433026794,50.466893353383],[-121.03278932777,50.4665558733514],[-121.033148446469,50.4662220781883],[-121.033485305162,50.4658703979316],[-121.03378032068,50.4660337903944],[-121.03358829291,50.4659929872161],[-121.032920210968,50.4666517698078],[-121.032555456825,50.4669909574614],[-121.032179431792,50.46730740678],[-121.031775229538,50.4676680745208],[-121.031382861716,50.4680341347522],[-121.031148004568,50.4682860539343],[-121.031009654406,50.4684695783616],[-121.030905962228,50.468654181287],[-121.030829461069,50.4688527148129],[-121.030768598269,50.4691910037181],[-121.030777333208,50.4694003222251],[-121.030874544625,50.4696300423212],[-121.031028533145,50.4699348079103],[-121.031331438286,50.4704035052112],[-121.031531496564,50.4707106974211],[-121.031751138013,50.4710825995172],[-121.032146887101,50.4717285300065],[-121.032382166907,50.4721448302745],[-121.03246683946,50.4721449201493]]]}},{"type":"Feature","id":"883059532","properties":{"name":"iSP_22kph_%TR_Brake_CTRL_NOREMOVE","oid":"883059532","speedLimit":6.111111},"geometry":{"type":"Polygon","coordinates":[[[-121.027263210922,50.4773217110471],[-121.02703103061,50.4772095472443],[-121.027335485498,50.4769437873366],[-121.027717427747,50.4766321912595],[-121.028034139726,50.476322482554],[-121.028191368627,50.4761685269497],[-121.028622198356,50.4756921004124],[-121.028908197163,50.475325500932],[-121.029264779912,50.4748873610774],[-121.02947357313,50.4746564726083],[-121.029692369261,50.4745401745628],[-121.029802401315,50.4744879572796],[-121.029953149454,50.474592391846],[-121.029789580678,50.47454179231],[-121.029556977708,50.4747912848713],[-121.029252804593,50.4751728035755],[-121.029073879231,50.4754777489143],[-121.028854096896,50.4757745156425],[-121.028697008882,50.4759744871659],[-121.028409882986,50.4762703551457],[-121.028042592893,50.4765697282443],[-121.027244895728,50.4772191638524],[-121.027263210922,50.4773217110471]]]}},{"type":"Feature","id":"884401102","properties":{"name":"SP_30KPH_MAIN INT_LIMIT_POLICY_SEPT_6_NS","oid":"884401102","speedLimit":8.333333},"geometry":{"type":"Polygon","coordinates":[[[-121.036993369345,50.4611010096925],[-121.037109459501,50.4611074806812],[-121.038295720562,50.4609918117595],[-121.038279377773,50.4603976491792],[-121.038120880898,50.460565535384],[-121.037033803659,50.4607081667583],[-121.036746114219,50.4605374944334],[-121.036993369345,50.4611010096925]]]}},{"type":"Feature","id":"891249991","properties":{"name":"SP_25KPH_TR%_1590_rough section_ #1_SEPT 6_NS","oid":"891249991","speedLimit":6.9444447},"geometry":{"type":"Polygon","coordinates":[[[-121.012958339564,50.4498603632067],[-121.013848880677,50.4497484690284],[-121.013380293469,50.4450037963708],[-121.011853933334,50.442143529525],[-121.00778429711,50.4388897007461],[-121.00673314583,50.4393237962328],[-121.010931551961,50.4427666318044],[-121.01109427542,50.4430954838512],[-121.011457761588,50.4435196032304],[-121.011775741542,50.4445102936135],[-121.012958339564,50.4498603632067]]]}},{"type":"Feature","id":"901482363","properties":{"name":"SP_25KPH_1200-1185_%TRAC_RAMP_SEPT_6_NS","oid":"901482363","speedLimit":6.9444447},"geometry":{"type":"Polygon","coordinates":[[[-121.036667499769,50.4451087701862],[-121.036262311311,50.4451191956679],[-121.039069467088,50.4482662531345],[-121.039088345827,50.4482635568893],[-121.038804742084,50.4476149301547],[-121.03821682434,50.4469309826073],[-121.036577614429,50.4451793219372],[-121.036695254333,50.4451087701862],[-121.036667499769,50.4451087701862]]]}},{"type":"Feature","id":"903864124","properties":{"name":"SP_15KPH_%TR_OLD_GARBAGEDUMP_SEP_6_NS","oid":"903864124","speedLimit":4.1666665},"geometry":{"type":"Polygon","coordinates":[[[-121.042485955298,50.4669867333438],[-121.042132753816,50.467328437493],[-121.04202427151,50.4669788243577],[-121.041687131045,50.4668095001555],[-121.041835625007,50.4667100087054],[-121.042485955298,50.4669867333438]]]}},{"type":"Feature","id":"908328496","properties":{"name":"SP_15KPH_%TR_1445_SOFT_GROUND_SEPT_6_NS","oid":"908328496","speedLimit":4.1666665},"geometry":{"type":"Polygon","coordinates":[[[-121.039332501459,50.4644964812224],[-121.03994155212,50.4647087655991],[-121.039189783828,50.466674418268],[-121.038827565634,50.4674274795689],[-121.038452808577,50.4678939299987],[-121.037915891605,50.4682376113944],[-121.03718088876,50.4680255067674],[-121.038313894871,50.4667048858394],[-121.038794598284,50.4655656323425],[-121.039332501459,50.4644964812224]]]}},{"type":"Feature","id":"910445950","properties":{"name":"SP_22KPH_%TR_1635_FLATS_SEP_6_NS","oid":"910445950","speedLimit":6.111111},"geometry":{"type":"Polygon","coordinates":[[[-121.018917962978,50.4576031707177],[-121.015249993058,50.4587001830388],[-121.014499351855,50.4578793561071],[-121.017482192613,50.456415474681],[-121.017774531295,50.4542395148819],[-121.018442331465,50.4540097947858],[-121.019221149891,50.4539287276784],[-121.019246509391,50.4568504689161],[-121.019159160001,50.4570728192752],[-121.019197199252,50.4574048169415],[-121.018917962978,50.4576031707177]]]}},{"type":"Feature","id":"917773475","properties":{"name":"SP_15KPH_%TR_1200_CORNER_Sept_6_NS","oid":"917773475","speedLimit":4.1666665},"geometry":{"type":"Polygon","coordinates":[[[-121.03709973836,50.4446822241862],[-121.036925603125,50.4448617941205],[-121.036630024063,50.4448202719435],[-121.036415454515,50.4448696132318],[-121.036323878542,50.444967307185],[-121.036255267006,50.4450818077337],[-121.036243009914,50.4451446302482],[-121.036264142831,50.4452669499081],[-121.036316834236,50.4453511626351],[-121.036184964836,50.4453949316831],[-121.03608986671,50.4451939715364],[-121.036163831919,50.4449313572482],[-121.036260620678,50.4447910626199],[-121.03651745606,50.444714758879],[-121.03671455573,50.4447114335099],[-121.036923912492,50.4447697622823],[-121.037094525573,50.4446833026843],[-121.03709973836,50.4446822241862]]]}},{"type":"Feature","id":"921770139","properties":{"name":"SP_30KPH_%TR_HIGHMONT_SEPT 6_NS","oid":"921770139","speedLimit":8.333333},"geometry":{"type":"Polygon","coordinates":[[[-121.002514733872,50.4281366252779],[-121.00213758175,50.4281567572425],[-121.001469922467,50.428238363599],[-121.001505425767,50.4285895944815],[-121.002056149578,50.4286072099505],[-121.002474722216,50.4285799778734],[-121.002751422539,50.4285619130301],[-121.002514733872,50.4281366252779]]]}},{"type":"Feature","id":"922262468","properties":{"name":"SP_20kph_HMT_DUMP_SEP_6_NS","oid":"922262468","speedLimit":5.5555553},"geometry":{"type":"Polygon","coordinates":[[[-121.012502995651,50.4364261414527],[-121.012483130709,50.4374168318358],[-121.014763654201,50.4387146245539],[-121.017333416879,50.4379495200242],[-121.016524730598,50.4359054066183],[-121.014772670912,50.4353084579179],[-121.013004550209,50.4354270927093],[-121.012502995651,50.4364261414527]]]}},{"type":"Feature","id":"925542039","properties":{"name":"SP_12KPH_DRAINAGE DITCHSEPT_6_NS","oid":"925542039","speedLimit":3.3333333},"geometry":{"type":"Polygon","coordinates":[[[-121.018172816333,50.4555311062359],[-121.018489528312,50.4557203826532],[-121.018469522484,50.455835332576],[-121.018125478599,50.4556367990501],[-121.018172816333,50.4555311062359]]]}},{"type":"Feature","id":"926367691","properties":{"name":"SP_20KPH_%TR_24SH_SEP_6_NS","oid":"926367691","speedLimit":5.5555553},"geometry":{"type":"Polygon","coordinates":[[[-121.038555091894,50.450403297127],[-121.038074952025,50.4496784565265],[-121.037543529612,50.4498592847086],[-121.038246128651,50.45201115805],[-121.038397722107,50.4531300099577],[-121.038778114609,50.4530965765165],[-121.038843626651,50.4508306520006],[-121.038555091894,50.450403297127]]]}},{"type":"Feature","id":"927549571","properties":{"name":"SP_40_KPH_TR%_CRUSHER YARD EMPTY_SEPT_6_NS","oid":"927549571","speedLimit":11.111111},"geometry":{"type":"Polygon","coordinates":[[[-121.037755844982,50.4619279481136],[-121.037449417689,50.4612604476622],[-121.036779504228,50.4614642838038],[-121.037247950549,50.4615089516003],[-121.037920963505,50.4626180970251],[-121.037948013638,50.4632580059],[-121.037502109095,50.4637410831756],[-121.037078464557,50.4639810490036],[-121.036452789334,50.4642042082363],[-121.036237233583,50.4641027395397],[-121.036399816156,50.4643259886472],[-121.036721459149,50.4642312605637],[-121.037431806925,50.4639638829088],[-121.037847843613,50.4637348818115],[-121.037980840103,50.4635586372464],[-121.038211188895,50.4632684313816],[-121.038184843192,50.4627769058709],[-121.038027332519,50.4623105453158],[-121.037755844982,50.4619279481136]]]}},{"type":"Feature","id":"929009157","properties":{"name":"iSP_22kph_Long_Single_Lane_Aug30","oid":"929009157","speedLimit":6.111111},"geometry":{"type":"Polygon","coordinates":[[[-121.005870641054,50.4378878658826],[-121.004811318379,50.4381068009976],[-121.005176776953,50.4381972150887],[-121.007937017655,50.4431701698448],[-121.008525780716,50.4445345598209],[-121.008212872662,50.4465093797236],[-121.007834875224,50.4466798722988],[-121.008936322846,50.4466466186073],[-121.008825586362,50.4465926038273],[-121.009405614484,50.4448173060737],[-121.008766695967,50.4430680720244],[-121.008265000523,50.4415398402114],[-121.007261468749,50.4401558575198],[-121.006441793351,50.4389837098308],[-121.005691574806,50.4380211502732],[-121.005870641054,50.4378878658826]]]}},{"type":"Feature","id":"930116666","properties":{"name":"SP_15KPH_9023 Rough_SEP_6_NS","oid":"930116666","speedLimit":4.1666665},"geometry":{"type":"Polygon","coordinates":[[[-121.043598532923,50.4685539708382],[-121.043298304619,50.4689176044488],[-121.042549776707,50.4684622984994],[-121.042345210073,50.4680403361163],[-121.043037101768,50.4679070517257],[-121.043598532923,50.4685539708382]]]}},{"type":"Feature","id":"930976872","properties":{"name":"SP_13KPH_%TR_21SH_SEP_6_NS","oid":"930976872","speedLimit":3.6111112},"geometry":{"type":"Polygon","coordinates":[[[-121.036323455884,50.4472473420511],[-121.036213142058,50.4473471031257],[-121.036121706972,50.4473522259916],[-121.036019141882,50.447317893802],[-121.035311611829,50.4469664831699],[-121.035516178463,50.446773611759],[-121.036323455884,50.4472473420511]]]}},{"type":"Feature","id":"932114358","properties":{"name":"SP_35KPH_%TR_23SH_LOADED_LANES_SEP_6_NS","oid":"932114358","speedLimit":9.722222},"geometry":{"type":"Polygon","coordinates":[[[-121.042099363808,50.4671394307004],[-121.041266586001,50.4667313989178],[-121.04073544536,50.4664965559557],[-121.040512281759,50.4663964353817],[-121.04035533463,50.4663117732806],[-121.040361392733,50.4660654263387],[-121.040451841617,50.4657766584715],[-121.040518198975,50.4655110783134],[-121.040445783514,50.4651299191086],[-121.040234595232,50.4644138862426],[-121.039984381498,50.4634784688873],[-121.039865332734,50.4631624689429],[-121.039698523577,50.4628767568203],[-121.038921959329,50.4631290355017],[-121.039550874932,50.4630530013854],[-121.039765162708,50.4635149580732],[-121.039914783759,50.4642252389493],[-121.040083706207,50.464721887326],[-121.040276861066,50.4653839952869],[-121.040246711438,50.4657150942047],[-121.040101880515,50.4659575765284],[-121.039981141117,50.466219381943],[-121.040162179771,50.4664850519759],[-121.041767436128,50.4671894909873],[-121.04183985159,50.4675474624829],[-121.042099363808,50.4671394307004]]]}},{"type":"Feature","id":"932118723","properties":{"name":"SP_35KPH_%TR_1635_TO_1620_SEP_6_NS","oid":"932118723","speedLimit":9.722222},"geometry":{"type":"Polygon","coordinates":[[[-121.018238328375,50.4539381645368],[-121.018530948829,50.4537440348781],[-121.018242273186,50.4536420269325],[-121.017621951636,50.4534678494887],[-121.017126596067,50.4534429541575],[-121.016412585253,50.4534404376619],[-121.016061497062,50.4534802522169],[-121.01577676623,50.45351260716],[-121.015503728946,50.453604728873],[-121.015897646514,50.4538312134748],[-121.015823540419,50.4536669222637],[-121.016252679516,50.453604728873],[-121.016615461254,50.4536072453686],[-121.017325527257,50.4535947527656],[-121.017742972806,50.4536545195355],[-121.018121392902,50.4537141964306],[-121.018265660281,50.4537689302093],[-121.018238328375,50.4539381645368]]]}},{"type":"Feature","id":"932281958","properties":{"name":"SP_15KPH_%TR_1185-1170_22shl_SEPT_6_NS","oid":"932281958","speedLimit":4.1666665},"geometry":{"type":"Polygon","coordinates":[[[-121.037375875139,50.4481139152774],[-121.037409406033,50.4479617571699],[-121.036982802887,50.4479084613886],[-121.035924889074,50.4473797276933],[-121.03545432946,50.4469916481256],[-121.035098732914,50.4474257436124],[-121.035349369307,50.4473473727502],[-121.036815430186,50.4479511519386],[-121.037216955605,50.4480552270056],[-121.037335299938,50.4481908481421],[-121.037375875139,50.4481139152774]]]}},{"type":"Feature","id":"932364856","properties":{"name":"SP_35km_%_1170rOUGH_SEPT_6_NS","oid":"932364856","speedLimit":9.722222},"geometry":{"type":"Polygon","coordinates":[[[-121.038074670253,50.4473198710485],[-121.037832627913,50.4473888050523],[-121.037707098387,50.4473848505593],[-121.037728231304,50.448040757156],[-121.038325729304,50.4498585657098],[-121.038777269292,50.4502066509728],[-121.038722887253,50.4496637170524],[-121.038331928293,50.448382011931],[-121.038104960767,50.4473253534139],[-121.038074670253,50.4473198710485]]]}},{"type":"Feature","id":"933252285","properties":{"name":"SP_17KPH_%TR1645_PATCH_SEP_6_NS","oid":"933252285","speedLimit":4.7222223},"geometry":{"type":"Polygon","coordinates":[[[-121.004301028883,50.428792352125],[-121.004057859454,50.4290155113576],[-121.005062659203,50.4295094634891],[-121.00532076256,50.4293120983361],[-121.005135074664,50.4293869640795],[-121.004309622935,50.4289747081793],[-121.004301028883,50.428792352125]]]}},{"type":"Feature","id":"933252378","properties":{"name":"SP_20KPH_%TR_1615_ROUGH_SECTION_SEP_6_NS","oid":"933252378","speedLimit":5.5555553},"geometry":{"type":"Polygon","coordinates":[[[-121.00736361118,50.4314115746447],[-121.007546058695,50.4321454027294],[-121.007054788823,50.4322074163704],[-121.007400100683,50.4321236530176],[-121.007259073685,50.4314844631415],[-121.006911225875,50.4314549841933],[-121.00736361118,50.4314115746447]]]}},{"type":"Feature","id":"933252478","properties":{"name":"SP_20KPH_%TR_1605_PATCH_SEP_6_NS","oid":"933252478","speedLimit":5.5555553},"geometry":{"type":"Polygon","coordinates":[[[-121.006594936554,50.4333406482528],[-121.007213003927,50.4334381624564],[-121.006982091589,50.4339624922844],[-121.00667989088,50.434378522928],[-121.006275688625,50.4347750507308],[-121.005742434692,50.4345236707977],[-121.006214544053,50.4346038391568],[-121.006703559747,50.4339776811327],[-121.006897137264,50.4335508655082],[-121.006594936554,50.4333406482528]]]}},{"type":"Feature","id":"933252549","properties":{"name":"SP_35KPH_%TR_1590_ROUGH_SEP_6_NS","oid":"933252549","speedLimit":9.722222},"geometry":{"type":"Polygon","coordinates":[[[-121.004364286747,50.4363926181366],[-121.004780886979,50.4364497785361],[-121.004885142702,50.436210981081],[-121.005083087689,50.435956725153],[-121.004585618828,50.4358321586221],[-121.004799624832,50.435980631861],[-121.004628448206,50.4363679025551],[-121.004364286747,50.4363926181366]]]}},{"type":"Feature","id":"933371104","properties":{"name":"SP_12KPH_1590_HMT_INTERSECT_SEPT_6_NS","oid":"933371104","speedLimit":3.3333333},"geometry":{"type":"Polygon","coordinates":[[[-121.006262727103,50.4373385508484],[-121.006006173493,50.4376212971013],[-121.006184817083,50.4377485598775],[-121.006389524603,50.4379881662062],[-121.006555347557,50.4382640819711],[-121.007088883262,50.4381534460406],[-121.006746952669,50.438070761186],[-121.00630921952,50.4375948738977],[-121.006262727103,50.4373385508484]]]}},{"type":"Feature","id":"934006205","properties":{"name":"SP_15KPH_SINGLE_6132AMT","oid":"934006205","speedLimit":4.1666665},"geometry":{"type":"Polygon","coordinates":[[[-121.04181519652,50.456729407504],[-121.041515531761,50.4567854894054],[-121.041639370653,50.4571553243801],[-121.042623037485,50.456951757863],[-121.041851122479,50.4570223994888],[-121.04179237297,50.4567356088681],[-121.04181519652,50.456729407504]]]}}]}