{"type":"FeatureCollection","features":[{"type":"Feature","id":"702602533","properties":{"name":"iSP_4KPH_%TR_CR01_SLOW BUMP","oid":"702602533","speedLimit":1.1111112},"geometry":{"type":"Polygon","coordinates":[[[-121.033359296131,50.4648080857782],[-121.033654039927,50.4646910684433],[-121.033697434329,50.4647317818478],[-121.033369581167,50.464869919823],[-121.033359296131,50.4648080857782]]]}},{"type":"Feature","id":"707947583","properties":{"name":"iSP_22KPH_%TR_Permission Gate 1 from west dump_Jun","oid":"707947583","speedLimit":6.111111},"geometry":{"type":"Polygon","coordinates":[[[-121.038628898177,50.4619781896009],[-121.038855591661,50.4617996977214],[-121.037981363526,50.4613512211462],[-121.037744244115,50.4615424752849],[-121.03796037078,50.4614967288767],[-121.038667361397,50.4618462530052],[-121.038628898177,50.4619781896009]]]}},{"type":"Feature","id":"742345972","properties":{"name":"iSP_4KPH_%TR_CR01_PITSIDE_SLOW BUMP","oid":"742345972","speedLimit":1.1111112},"geometry":{"type":"Polygon","coordinates":[[[-121.03339916826,50.4648830415825],[-121.033706451348,50.4647445441071],[-121.033756608514,50.4647766295054],[-121.033475108464,50.4649185422333],[-121.03339916826,50.4648830415825]]]}},{"type":"Feature","id":"776427243","properties":{"name":"iSP_7KPH_%TR_CR1_PermissionBlocker_DO_NOT_DELETE","oid":"776427243","speedLimit":1.9444444},"geometry":{"type":"Polygon","coordinates":[[[-121.03410038235,50.4652130628219],[-121.034051915874,50.4652333745866],[-121.034030782237,50.4652748069916],[-121.034116443914,50.4652257352061],[-121.03410038235,50.4652130628219]]]}},{"type":"Feature","id":"794004438","properties":{"name":"iSP_11KPH_%TR_LOWER_FUEL_BAY","oid":"794004438","speedLimit":3.0555556},"geometry":{"type":"Polygon","coordinates":[[[-121.036777168866,50.4606956724208],[-121.03677928223,50.4607255109424],[-121.036749554246,50.4606710466529],[-121.037125732993,50.4605993263509],[-121.037535725559,50.4605562761947],[-121.037543474559,50.4605816209631],[-121.036944969947,50.460650465263],[-121.036777168866,50.4606956724208]]]}},{"type":"Feature","id":"801543391","properties":{"name":"iSP_4KPH_%TR_CR1_PermissionBlocker_DO_NOT_DELETE_","oid":"801543391","speedLimit":1.1111112},"geometry":{"type":"Polygon","coordinates":[[[-121.033155849648,50.4645235413218],[-121.033155004302,50.464474110036],[-121.033176560612,50.4644320485055],[-121.0331085103,50.4644596401505],[-121.033155849648,50.4645235413218]]]}},{"type":"Feature","id":"806473874","properties":{"name":"iSP_4KPH_%TR_Permission Blocker - DO NOT DELETE","oid":"806473874","speedLimit":1.1111112},"geometry":{"type":"Polygon","coordinates":[[[-121.022719777705,50.4815454292913],[-121.02268666834,50.4815430925396],[-121.02267906023,50.4815717626854],[-121.022701180104,50.4815728411862],[-121.022705265941,50.4815487546687],[-121.022719777705,50.4815454292913]]]}},{"type":"Feature","id":"824566967","properties":{"name":"iSP_4Cr_3KPH","oid":"824566967","speedLimit":0.8333333},"geometry":{"type":"Polygon","coordinates":[[[-121.023302643425,50.4810685521955],[-121.023282496024,50.4810685521955],[-121.023279819097,50.4811866480311],[-121.02330489768,50.4811859290306],[-121.023302643425,50.4810685521955]]]}},{"type":"Feature","id":"826307302","properties":{"name":"iSP_4KPH_TR%_CRUSHER POCKETS","oid":"826307302","speedLimit":1.1111112},"geometry":{"type":"Polygon","coordinates":[[[-121.023297853134,50.4813217302541],[-121.023337302591,50.481477393867],[-121.023542017092,50.4814379387134],[-121.023461004815,50.4811890746579],[-121.02305270294,50.4811897936584],[-121.023058056795,50.4813604664072],[-121.023282918697,50.4813264936325],[-121.023297853134,50.4813217302541]]]}},{"type":"Feature","id":"835348611","properties":{"name":"SP_20KPH_%TR_switchback to 1 gate_","oid":"835348611","speedLimit":5.5555553},"geometry":{"type":"Polygon","coordinates":[[[-121.039920726988,50.4634036081346],[-121.039548493187,50.4634580724241],[-121.039801674163,50.4633743987384],[-121.039545393587,50.462922956286],[-121.039365475887,50.4625825095392],[-121.039179358987,50.4622613859313],[-121.038987183777,50.4620181840049],[-121.03874626031,50.4618371756236],[-121.03856324301,50.4617302242961],[-121.03802644862,50.4614324682051],[-121.037959243653,50.4614149425674],[-121.037840331719,50.4614578129735],[-121.037954876034,50.4613479856439],[-121.038145360553,50.4613858230463],[-121.038483921424,50.4615706061803],[-121.03886770828,50.4617909798401],[-121.03905523409,50.4619264215634],[-121.03923980119,50.4621307075865],[-121.039453955382,50.4625357745053],[-121.039582025225,50.4627537215383],[-121.039758984216,50.4630611841363],[-121.03986267993,50.4632596282802],[-121.039944678443,50.4633240687019],[-121.039920726988,50.4634036081346]]]}},{"type":"Feature","id":"849417440","properties":{"name":"iSP_Permissions_35_KPH_June_19_NS","oid":"849417440","speedLimit":9.722222},"geometry":{"type":"Polygon","coordinates":[[[-121.032695840806,50.4660343411675],[-121.033010450222,50.4660150180284],[-121.033217418978,50.4658141472578],[-121.033806202117,50.4653796911927],[-121.033727021422,50.4652509002243],[-121.033963154597,50.4654003624577],[-121.03342692377,50.4658086648788],[-121.033024539314,50.4661882072791],[-121.032695840806,50.4660343411675]]]}},{"type":"Feature","id":"853029148","properties":{"name":"SP_15KPH_%TR_1635 Flats_AUG_24_NS","oid":"853029148","speedLimit":4.1666665},"geometry":{"type":"Polygon","coordinates":[[[-121.018590264952,50.4569710699697],[-121.017426505984,50.4572810490695],[-121.015788930866,50.4579431586746],[-121.014824814326,50.4590966152611],[-121.018349341485,50.4588932279886],[-121.020692498312,50.4589873271819],[-121.020240802035,50.4572318874088],[-121.019423071157,50.4570967153108],[-121.018968838844,50.4570000996157],[-121.018590264952,50.4569710699697]]]}},{"type":"Feature","id":"855316169","properties":{"name":"SP_20KPH_TR%_CRUSHER YARD EMPTY_AUG_24_NS","oid":"855316169","speedLimit":5.5555553},"geometry":{"type":"Polygon","coordinates":[[[-121.037912608759,50.4622350525372],[-121.03777115428,50.4621196529535],[-121.037596590434,50.4622035063893],[-121.037546151486,50.4622377487891],[-121.037609270617,50.4622266941561],[-121.037905705104,50.4624614478264],[-121.037947408816,50.4632585497794],[-121.037501489066,50.4637416282548],[-121.037077830081,50.4639815946788],[-121.036452133522,50.4642047544656],[-121.036236570421,50.464103285517],[-121.036399158538,50.4643265351789],[-121.036720812499,50.4642318068602],[-121.037063036535,50.4640567302333],[-121.037842304192,50.4636955223463],[-121.037980236399,50.4635591818724],[-121.038131835025,50.4633174179471],[-121.038185937137,50.4629462339279],[-121.038121549988,50.4624943421002],[-121.037912608759,50.4622350525372]]]}},{"type":"Feature","id":"859384545","properties":{"name":"SP_20KPH_TR%_MAINT_CREW_L1590_DUST_AUG_20_NS","oid":"859384545","speedLimit":5.5555553},"geometry":{"type":"Polygon","coordinates":[[[-121.013533830862,50.4515905194426],[-121.013429571584,50.4510356307902],[-121.012756394786,50.4483269760759],[-121.012536041393,50.4488174243065],[-121.013394067073,50.4517794368296],[-121.013277268503,50.4521786618692],[-121.013116652859,50.4521879190009],[-121.01344281533,50.4522151511456],[-121.013533830862,50.4515905194426]]]}},{"type":"Feature","id":"863534413","properties":{"name":"SP_20KPH_%TRAC_1590_AUG_24_NS","oid":"863534413","speedLimit":5.5555553},"geometry":{"type":"Polygon","coordinates":[[[-121.012339357674,50.4562544061999],[-121.013045362055,50.455569198703],[-121.01334602327,50.4553103585153],[-121.013523545825,50.4551324058862],[-121.013057619565,50.4549761131479],[-121.013287130867,50.4550943887337],[-121.011899355343,50.4565735525564],[-121.011627435875,50.4565414671581],[-121.012024607367,50.4566651352478],[-121.012339357674,50.4562544061999]]]}},{"type":"Feature","id":"878230085","properties":{"name":"SP_20KPH_TR%_PUNCH_OUT_L1590_DMP_AUG_24_NS1","oid":"878230085","speedLimit":5.5555553},"geometry":{"type":"Polygon","coordinates":[[[-121.013652742795,50.4533277145775],[-121.013645134685,50.4527798361801],[-121.013740940508,50.4524496351907],[-121.013097773476,50.4524619480746],[-121.013065368565,50.4528631503656],[-121.013204850572,50.4533676191064],[-121.013610193738,50.4545821907372],[-121.013328834578,50.4549548127574],[-121.013044094037,50.4549502291291],[-121.013783207783,50.4551891170524],[-121.014112892527,50.4546827609352],[-121.014059213088,50.4542962981549],[-121.013652742795,50.4533277145775]]]}},{"type":"Feature","id":"883050998","properties":{"name":"iSP_22kph_%TR_4CR_Brake_Temp_CTRL_NOREMOVE","oid":"883050998","speedLimit":6.111111},"geometry":{"type":"Polygon","coordinates":[[[-121.031799492798,50.4745592607248],[-121.032188774399,50.474312643546],[-121.032490421851,50.4745749888612],[-121.032792069302,50.4748023727762],[-121.032969873638,50.4748847882109],[-121.033178673976,50.4749349384973],[-121.033462569172,50.4749597440153],[-121.033666438328,50.474922176238],[-121.033827617536,50.47486276882],[-121.033918773959,50.4748107311572],[-121.0340080988,50.4747475489864],[-121.034058537748,50.4746583929217],[-121.03405276122,50.4745482060918],[-121.034056565275,50.4744838555452],[-121.033994432381,50.4743798700948],[-121.033876084011,50.4742597970077],[-121.033509204065,50.4739378645242],[-121.03306088917,50.4735602095003],[-121.032947612873,50.4734256665278],[-121.032822642631,50.4732211108794],[-121.032605811511,50.47281514521],[-121.032252316202,50.4722092075206],[-121.03248732225,50.4721563609822],[-121.032430261429,50.4722058821431],[-121.032902809562,50.4730490900046],[-121.033042009787,50.4733098175687],[-121.033249823889,50.4735471776159],[-121.033742801204,50.4739618611666],[-121.034097846313,50.4742713908911],[-121.034203232718,50.4743946994805],[-121.034255925921,50.4744619260293],[-121.034262970467,50.4745930537494],[-121.034238032775,50.4746790641867],[-121.03418350799,50.4747918573935],[-121.034086011476,50.4748760703296],[-121.033973157852,50.4749379043744],[-121.033790563225,50.4750163653063],[-121.033531042157,50.4750646282163],[-121.033263067635,50.475068313094],[-121.033071455989,50.4750265211887],[-121.032807708194,50.4749167837341],[-121.032656954913,50.4748353569251],[-121.032495353033,50.474705577331],[-121.032144816433,50.474413303619],[-121.031799492798,50.4745592607248]]]}},{"type":"Feature","id":"883053336","properties":{"name":"iSP_22kph_%TR_Brake_Temp_CTRL_NOREMOVE","oid":"883053336","speedLimit":6.111111},"geometry":{"type":"Polygon","coordinates":[[[-121.032466047722,50.4721454860993],[-121.032251189075,50.4722257445326],[-121.031488546546,50.4710085665248],[-121.030816637766,50.469923594738],[-121.030661375977,50.4696604405472],[-121.030596566155,50.4694579520253],[-121.030550213044,50.4692569913796],[-121.030596566155,50.4689731659237],[-121.030722804416,50.4686245405459],[-121.030884547188,50.4683757663655],[-121.031088979907,50.4680980524141],[-121.031688329865,50.467536782632],[-121.032432233902,50.4668939062908],[-121.032788547029,50.4665564254211],[-121.033147677974,50.466222629429],[-121.033484548155,50.465870948299],[-121.033779573733,50.4660343411675],[-121.033587539415,50.4659935378879],[-121.03291943469,50.4666523221156],[-121.032554668108,50.4669915106116],[-121.032178630253,50.4673079607161],[-121.031774414215,50.4676686293527],[-121.031382033013,50.4680346904932],[-121.031147167856,50.4682866103008],[-121.031008812976,50.4684701351839],[-121.030905117262,50.4686547385678],[-121.030828613494,50.4688532725868],[-121.030767748618,50.4691915623321],[-121.030776483855,50.4694008813589],[-121.030873698587,50.4696306020255],[-121.031027692359,50.4699353683715],[-121.031330607829,50.4704040668364],[-121.03153067293,50.4707112598092],[-121.031750321868,50.4710831628289],[-121.032146084451,50.4717290949224],[-121.032381372281,50.4721453962243],[-121.032466047722,50.4721454860993]]]}},{"type":"Feature","id":"883059532","properties":{"name":"iSP_22kph_%TR_Brake_CTRL_NOREMOVE","oid":"883059532","speedLimit":6.111111},"geometry":{"type":"Polygon","coordinates":[[[-121.027262241733,50.4773222898536],[-121.027030053503,50.4772101257723],[-121.027334518773,50.4769443652046],[-121.027716474047,50.4766327683536],[-121.028033196827,50.476323058879],[-121.028190431089,50.4761691028923],[-121.028621275511,50.4756926751718],[-121.02890728407,50.475326074781],[-121.029263878979,50.4748879338382],[-121.029472679317,50.4746570447958],[-121.02969148291,50.4745407464614],[-121.029801518715,50.4744885290486],[-121.029952271996,50.4745929638743],[-121.029788697642,50.4745423642126],[-121.029556086739,50.4747918573935],[-121.029251903251,50.4751733770452],[-121.029072971788,50.4754783231414],[-121.028853181959,50.4757750906066],[-121.028696088587,50.4759750626266],[-121.0284089529,50.4762709313412],[-121.028041650282,50.4765703051833],[-121.027243925914,50.4772197424043],[-121.027262241733,50.4773222898536]]]}},{"type":"Feature","id":"891249991","properties":{"name":"SP_30KPH_TR%_1590 #1_AUG_24_NS","oid":"891249991","speedLimit":8.333333},"geometry":{"type":"Polygon","coordinates":[[[-121.01295688256,50.4498608738133],[-121.013847454041,50.4497489793571],[-121.013378850854,50.4450042949162],[-121.01213872901,50.4430839343985],[-121.011299441822,50.4419104356725],[-121.010529613856,50.4421498628461],[-121.011008642971,50.4427017856214],[-121.01124069031,50.4430300093594],[-121.011456253412,50.4435200980898],[-121.011774244209,50.4445107909333],[-121.01295688256,50.4498608738133]]]}},{"type":"Feature","id":"893804793","properties":{"name":"SP_20KPH_%TR_1590Dynamic_AUG_24_NS","oid":"893804793","speedLimit":5.5555553},"geometry":{"type":"Polygon","coordinates":[[[-121.011186447307,50.4418409622471],[-121.01048410609,50.4421102279424],[-121.005981795973,50.4380483243716],[-121.006514363636,50.4376818138559],[-121.010067209869,50.440733521694],[-121.011186447307,50.4418409622471]]]}},{"type":"Feature","id":"903864124","properties":{"name":"SP_15KPH_%TR_OLD_GARBAGEDUMP_AUG_24_NS","oid":"903864124","speedLimit":4.1666665},"geometry":{"type":"Polygon","coordinates":[[[-121.042585115103,50.4670023854945],[-121.042132291699,50.4673289914814],[-121.040894001436,50.4666616691224],[-121.040723664319,50.4661232276069],[-121.042264306487,50.466826499992],[-121.042585115103,50.4670023854945]]]}},{"type":"Feature","id":"903865068","properties":{"name":"SP_15KPH_%TR_OLD_GARBAGE_DUMP_AUG_24_NS","oid":"903865068","speedLimit":4.1666665},"geometry":{"type":"Polygon","coordinates":[[[-121.042926634684,50.467201638514],[-121.042599485977,50.4670069691228],[-121.042142717626,50.4673432816167],[-121.042537212192,50.4674836664685],[-121.043338599723,50.4678204283378],[-121.043755777726,50.468475707438],[-121.043667157339,50.468588860145],[-121.044339347901,50.4682704327891],[-121.044047844595,50.468266208661],[-121.043766203654,50.4678703089989],[-121.043313662031,50.4674095195398],[-121.042926634684,50.467201638514]]]}},{"type":"Feature","id":"908328496","properties":{"name":"SP_15KPH_%TR_9019_SOFT_GROUND_AUG_24_NS","oid":"908328496","speedLimit":4.1666665},"geometry":{"type":"Polygon","coordinates":[[[-121.03968896143,50.4639767414253],[-121.039698260231,50.464209427969],[-121.039282068465,50.4648805250807],[-121.039728269996,50.4650717792194],[-121.039264738882,50.4662042949157],[-121.038928573156,50.4669793774778],[-121.03750515223,50.469461726778],[-121.035259491917,50.4690835325038],[-121.035228777697,50.4668161643595],[-121.037881612758,50.465140174144],[-121.038520693954,50.4648146466579],[-121.03968896143,50.4639767414253]]]}},{"type":"Feature","id":"910445950","properties":{"name":"SP_20KPH_%TR_1635_FLATS_AUG_24_NS","oid":"910445950","speedLimit":5.5555553},"geometry":{"type":"Polygon","coordinates":[[[-121.020225585816,50.4571643013598],[-121.019044497266,50.4569614533377],[-121.018650848046,50.4569228070597],[-121.017842838642,50.4571471352224],[-121.018448810472,50.4564126761897],[-121.018503335257,50.4555081735338],[-121.019218356656,50.4555081735338],[-121.019236531584,50.4564590517233],[-121.019424339176,50.4568920697874],[-121.019757687083,50.4570621134107],[-121.020225585816,50.4571643013598]]]}},{"type":"Feature","id":"917291012","properties":{"name":"SP_15KPH_%TR_CORNER_RUTS_AUG_24_NS","oid":"917291012","speedLimit":4.1666665},"geometry":{"type":"Polygon","coordinates":[[[-121.040610528913,50.4662216408033],[-121.040684778426,50.4661074994705],[-121.040422862213,50.4659264910892],[-121.040456112469,50.465319474899],[-121.040026254284,50.4656481480124],[-121.040219697512,50.4657710971016],[-121.040016955483,50.466310796868],[-121.039933970734,50.4664861431201],[-121.039995117391,50.4668202986125],[-121.040667307952,50.4667395009289],[-121.040549382256,50.4666225734691],[-121.040531911782,50.4663775740414],[-121.040610528913,50.4662216408033]]]}},{"type":"Feature","id":"917773475","properties":{"name":"SP_11KPH_%TR_1200_CORNER_AUG_24_NS","oid":"917773475","speedLimit":3.0555556},"geometry":{"type":"Polygon","coordinates":[[[-121.037099104609,50.444682721933],[-121.036924963437,50.4448622923132],[-121.036629374295,50.4448207700331],[-121.03641479743,50.4448701114439],[-121.036323218334,50.4449678056398],[-121.036254604458,50.4450823064728],[-121.036242346948,50.4451451291433],[-121.036263480586,50.445267449107],[-121.036316173788,50.4453516620431],[-121.036184299891,50.4453954311999],[-121.036089198522,50.4451944705541],[-121.036163166253,50.4449318556137],[-121.036259958313,50.4447915606369],[-121.036516802453,50.4447152567066],[-121.036713908845,50.4447119313292],[-121.036923272746,50.4447702602465],[-121.037093891646,50.4446838004338],[-121.037099104609,50.444682721933]]]}},{"type":"Feature","id":"920440343","properties":{"name":"iSP_17KPH_CAL_PAD_ROAD_LIMIT_AUG_23_NS","oid":"920440343","speedLimit":4.7222223},"geometry":{"type":"Polygon","coordinates":[[[-121.005955308481,50.437830916589],[-121.0059689749,50.4376132391811],[-121.005586737844,50.4375784575309],[-121.005286499302,50.4376828923566],[-121.00519097526,50.4378352305921],[-121.005286499302,50.4381617467039],[-121.005989404082,50.4392588516245],[-121.007470308502,50.4413701966557],[-121.007675023003,50.4416488093578],[-121.007784213463,50.442153817349],[-121.00793440318,50.4426631393434],[-121.008118688498,50.4432333966319],[-121.008323403,50.443651315685],[-121.008685069981,50.4445612108449],[-121.00876016484,50.4449225086069],[-121.00876016484,50.4451793715432],[-121.008691973636,50.445619040362],[-121.008494021899,50.446228483179],[-121.008944450158,50.4462154512946],[-121.00913549824,50.4457322829442],[-121.009319783559,50.4449181946038],[-121.009217355863,50.4444523721409],[-121.008998974943,50.4437993399174],[-121.008773831259,50.4433771068612],[-121.008459926297,50.442737106522],[-121.008296070162,50.4420754462922],[-121.008241545377,50.4417446161772],[-121.007920736761,50.4411960187794],[-121.006815165742,50.4398334229162],[-121.006603688477,50.43949387492],[-121.006228355076,50.4387799074022],[-121.005989404082,50.4383881419931],[-121.005934879298,50.4380573118782],[-121.005955308481,50.437830916589]]]}},{"type":"Feature","id":"921284584","properties":{"name":"SP_22kph_rough ground_23SH_AUG 24_NS","oid":"921284584","speedLimit":6.111111},"geometry":{"type":"Polygon","coordinates":[[[-121.039975251772,50.4679547915602],[-121.040298596425,50.4674448404404],[-121.040047106139,50.4668717970248],[-121.040675761407,50.4668030425999],[-121.040882448381,50.4674219222988],[-121.040343822409,50.4682545249026],[-121.039116521638,50.4697887821402],[-121.039354204614,50.4704372307355],[-121.039939465479,50.4707937651191],[-121.039580616316,50.4711138102262],[-121.038663275561,50.470557932948],[-121.038403613602,50.4695221228218],[-121.039975251772,50.4679547915602]]]}},{"type":"Feature","id":"921727643","properties":{"name":"SP_35KPH_%TR_ HIGHMONT TRIAL_Aug 24_NS","oid":"921727643","speedLimit":9.722222},"geometry":{"type":"Polygon","coordinates":[[[-121.01270933722,50.4365927976911],[-121.01015653471,50.4366191310852],[-121.007266862019,50.4370212321268],[-121.006148469927,50.4371702449849],[-121.005263674973,50.4370779432929],[-121.004924268756,50.4368543341308],[-121.005302701757,50.4361090002152],[-121.005970383809,50.4354593832441],[-121.006755005321,50.4347246545863],[-121.007317019185,50.4339047243667],[-121.007674600331,50.4330514504978],[-121.007912424197,50.432392576395],[-121.007906788561,50.4319204626776],[-121.007795484737,50.431384537664],[-121.007511730432,50.4310047256385],[-121.006988743351,50.4305646074444],[-121.005753411798,50.429783683003],[-121.004890877609,50.4292689685048],[-121.00411752737,50.4288927514819],[-121.003316562512,50.4284988290712],[-121.003470556283,50.428323392944],[-121.003115652065,50.4285319030952],[-121.00438972862,50.4291671400559],[-121.00535088645,50.4296955155641],[-121.006574383166,50.4304921681418],[-121.007130761394,50.4309177265754],[-121.00750074094,50.4313875934162],[-121.007671500731,50.4318535057541],[-121.007636700674,50.4325371853749],[-121.007399581262,50.4332027102326],[-121.007173028669,50.4338689540907],[-121.006590585622,50.4345641377199],[-121.006158473182,50.4350395768147],[-121.005745099234,50.4354070759562],[-121.00511249902,50.4360623550564],[-121.004793099313,50.4366456442294],[-121.004711664364,50.436933244438],[-121.004893272755,50.4370850434231],[-121.00545077811,50.4372768368122],[-121.006283725206,50.4372648834285],[-121.007586402617,50.4371449900915],[-121.00882018437,50.4369812377228],[-121.009458983784,50.4368812966503],[-121.011037243827,50.4367894443337],[-121.01288770512,50.4367964545888],[-121.012878406319,50.4364190691901],[-121.01270933722,50.4365927976911]]]}},{"type":"Feature","id":"922262468","properties":{"name":"SP_20kph_HMT_DUMP_AUG_24_NS","oid":"922262468","speedLimit":5.5555553},"geometry":{"type":"Polygon","coordinates":[[[-121.012501523119,50.4364266186956],[-121.0124816575,50.437417311539],[-121.016364047586,50.4384079145074],[-121.017180369554,50.4369600272074],[-121.016523395212,50.4359058825679],[-121.014771275778,50.435308932385],[-121.012899821739,50.4352073735614],[-121.012501523119,50.4364266186956]]]}},{"type":"Feature","id":"922385545","properties":{"name":"SP_20KPH_RUTS_AUG 24_NS","oid":"922385545","speedLimit":5.5555553},"geometry":{"type":"Polygon","coordinates":[[[-121.007511730432,50.4337193121072],[-121.00687025409,50.4335259009669],[-121.006518872145,50.4340724312383],[-121.007226144545,50.4343190484171],[-121.007511730432,50.4337193121072]]]}},{"type":"Feature","id":"923351007","properties":{"name":"iSP_17KPH_PERMISSIONS_AUG 18_NS","oid":"923351007","speedLimit":4.7222223},"geometry":{"type":"Polygon","coordinates":[[[-121.03885390097,50.4608774896776],[-121.038873343917,50.4611350716144],[-121.038784019076,50.4608898025616],[-121.038539291554,50.4608898025616],[-121.0385354875,50.4608303951435],[-121.038881092917,50.4608229355131],[-121.03885390097,50.4608774896776]]]}},{"type":"Feature","id":"923607825","properties":{"name":"MRK_CROSS DITCH ","oid":"923607825","speedLimit":2.7777777},"geometry":{"type":"Polygon","coordinates":[[[-121.035185946859,50.4458455255263],[-121.035617354844,50.4454862050157],[-121.035586922406,50.4454715553801],[-121.035137621274,50.4458267416377],[-121.035185946859,50.4458455255263]]]}},{"type":"Feature","id":"924222108","properties":{"name":"sp_11kph_rough ground_23SH _AUG 24_NS","oid":"924222108","speedLimit":3.0555556},"geometry":{"type":"Polygon","coordinates":[[[-121.039474243674,50.4712559925793],[-121.039829570565,50.4714071624389],[-121.040767904066,50.4719020145478],[-121.041130275503,50.4715872720695],[-121.039780963199,50.4709828622562],[-121.03964429901,50.4710719284458],[-121.039474243674,50.4712559925793]]]}},{"type":"Feature","id":"924266047","properties":{"name":"SP_12KPH_%TR_CROSS DITCH_AUG_24 NS ","oid":"924266047","speedLimit":3.3333333},"geometry":{"type":"Polygon","coordinates":[[[-121.037616033381,50.4473124663401],[-121.037894011158,50.4474716350806],[-121.037657596201,50.4477508769081],[-121.037462884955,50.4476921884905],[-121.037268032818,50.4475135168609],[-121.037616033381,50.4473124663401]]]}},{"type":"Feature","id":"925208014","properties":{"name":"SP_18KPH_BAD RAMPS_AUG 24_NS","oid":"925208014","speedLimit":5},"geometry":{"type":"Polygon","coordinates":[[[-121.036765052247,50.4451607674047],[-121.03603354661,50.445237071335],[-121.036305043406,50.4456361166244],[-121.037266483018,50.4467982012172],[-121.037919653305,50.447434966054],[-121.03824637934,50.4478047120721],[-121.038871935008,50.4475376932535],[-121.036870861325,50.4452751783627],[-121.036765052247,50.4451607674047]]]}},{"type":"Feature","id":"925558402","properties":{"name":"SP_15KPH_LAKE2_AUG 24_NS","oid":"925558402","speedLimit":4.1666665},"geometry":{"type":"Polygon","coordinates":[[[-121.02527793407,50.4783483934728],[-121.025271593979,50.4783786813697],[-121.025225804431,50.478425955654],[-121.025197485357,50.4784832959456],[-121.025186354974,50.4785366817343],[-121.025153245609,50.4786282644257],[-121.025082236587,50.4787309916252],[-121.025000097183,50.4788125083094],[-121.024911758579,50.4788688599752],[-121.024853429739,50.4789111911309],[-121.024719301587,50.4789514551601],[-121.024604052818,50.4789836304335],[-121.02449824374,50.4789886634371],[-121.024400465444,50.4789907305636],[-121.025243134014,50.4783504605993],[-121.02527793407,50.4783483934728]]]}},{"type":"Feature","id":"925558964","properties":{"name":"SP_15KPH_LAKE_AUG 24_NS","oid":"925558964","speedLimit":4.1666665},"geometry":{"type":"Polygon","coordinates":[[[-121.039607244699,50.4634625661774],[-121.039998216991,50.4634253579004],[-121.040195041601,50.4642141014724],[-121.039996103628,50.4642497818733],[-121.039846618366,50.4635404878589],[-121.039607244699,50.4634625661774]]]}},{"type":"Feature","id":"925953053","properties":{"name":"SP_10KPH_TR%_CR4_AUG24_NS","oid":"925953053","speedLimit":2.7777777},"geometry":{"type":"Polygon","coordinates":[[[-121.023426063868,50.4818269179954],[-121.023320536572,50.4815910858244],[-121.022660462629,50.4817321896768],[-121.022802339782,50.4819995679956],[-121.023234734004,50.4818858760382],[-121.023620916005,50.4820626602914],[-121.023426063868,50.4818289851219],[-121.023426063868,50.4818269179954]]]}},{"type":"Feature","id":"926023128","properties":{"name":"SP_10KPH_TR%_4CR_1_AUG24_NS","oid":"926023128","speedLimit":2.7777777},"geometry":{"type":"Polygon","coordinates":[[[-121.022862218421,50.4811970735387],[-121.022835730929,50.4815106476411],[-121.022151423749,50.4816166103429],[-121.021885703481,50.481273377469],[-121.021985313359,50.4808326301494],[-121.022417144017,50.4808791854331],[-121.022510132022,50.4812225081821],[-121.022822346292,50.4810190310346],[-121.022981834809,50.4812606152098],[-121.022862218421,50.4811970735387]]]}}]}