{"type":"FeatureCollection","features":[{"type":"Feature","id":"702602533","properties":{"name":"iSP_4KPH_%TR_CR01_SLOW BUMP","oid":"702602533","speedLimit":1.1111112},"geometry":{"type":"Polygon","coordinates":[[[-121.033347152468,50.4648095105439],[-121.033641986849,50.4646924972208],[-121.033685394587,50.4647332092296],[-121.033357440666,50.4648713424689],[-121.033347152468,50.4648095105439]]]}},{"type":"Feature","id":"707947583","properties":{"name":"iSP_22KPH_%TR_Permission Gate 1 from west dump_Jun","oid":"707947583","speedLimit":6.111111},"geometry":{"type":"Polygon","coordinates":[[[-121.038618374022,50.461979711386],[-121.038845137176,50.4618012256259],[-121.037970640364,50.4613527644261],[-121.037733448079,50.4615440120079],[-121.037949641166,50.4614982671681],[-121.038656849063,50.4618477793136],[-121.038618374022,50.461979711386]]]}},{"type":"Feature","id":"742345972","properties":{"name":"iSP_4KPH_%TR_CR01_PITSIDE_SLOW BUMP","oid":"742345972","speedLimit":1.1111112},"geometry":{"type":"Polygon","coordinates":[[[-121.033387036852,50.4648844637785],[-121.033694414377,50.4647459710513],[-121.033744586958,50.4647780553495],[-121.033463000394,50.4649199632122],[-121.033387036852,50.4648844637785]]]}},{"type":"Feature","id":"776427243","properties":{"name":"iSP_7KPH_%TR_CR1_PermissionBlocker_DO_NOT_DELETE","oid":"776427243","speedLimit":1.9444444},"geometry":{"type":"Polygon","coordinates":[[[-121.034088466446,50.4652144737035],[-121.034039985075,50.4652347847719],[-121.034018844943,50.4652762157565],[-121.034104532946,50.4652271456532],[-121.034088466446,50.4652144737035]]]}},{"type":"Feature","id":"794004438","properties":{"name":"iSP_11KPH_%TR_LOWER_FUEL_BAY","oid":"794004438","speedLimit":3.0555556},"geometry":{"type":"Polygon","coordinates":[[[-121.036766075619,50.4606972381753],[-121.036768189632,50.460727075674],[-121.036738452512,50.4606726132517],[-121.037114746869,50.4606008954085],[-121.037524865439,50.4605578467282],[-121.03753261682,50.4605831906277],[-121.03693392827,50.4606520325674],[-121.036766075619,50.4606972381753]]]}},{"type":"Feature","id":"801543391","properties":{"name":"iSP_4KPH_%TR_CR1_PermissionBlocker_DO_NOT_DELETE_","oid":"801543391","speedLimit":1.1111112},"geometry":{"type":"Polygon","coordinates":[[[-121.03314364346,50.4645249758428],[-121.033142797855,50.4644755462516],[-121.03316436079,50.4644334861632],[-121.033096289564,50.4644610768622],[-121.03314364346,50.4645249758428]]]}},{"type":"Feature","id":"806473874","properties":{"name":"iSP_4KPH_%TR_Permission Blocker - DO NOT DELETE","oid":"806473874","speedLimit":1.1111112},"geometry":{"type":"Polygon","coordinates":[[[-121.0227043642,50.481546280239],[-121.022671244659,50.4815439435674],[-121.022663634211,50.4815726127303],[-121.022685760883,50.4815736911941],[-121.022689847975,50.4815496055024],[-121.0227043642,50.481546280239]]]}},{"type":"Feature","id":"824566967","properties":{"name":"iSP_4Cr_3KPH","oid":"824566967","speedLimit":0.8333333},"geometry":{"type":"Polygon","coordinates":[[[-121.023287409052,50.4810694194922],[-121.023267255459,50.4810694194922],[-121.023264577709,50.4811875112791],[-121.023289663999,50.4811867923033],[-121.023287409052,50.4810694194922]]]}},{"type":"Feature","id":"826307302","properties":{"name":"iSP_4KPH_TR%_CRUSHER POCKETS","oid":"826307302","speedLimit":1.1111112},"geometry":{"type":"Polygon","coordinates":[[[-121.023282617288,50.481322588871],[-121.023322078869,50.4814782471471],[-121.023526856285,50.4814387933462],[-121.023445819111,50.4811899378227],[-121.023037391752,50.4811906567986],[-121.023042747253,50.481361323696],[-121.023267678262,50.4813273520861],[-121.023282617288,50.481322588871]]]}},{"type":"Feature","id":"849417440","properties":{"name":"iSP_Permissions_35_KPH_June_19_NS","oid":"849417440","speedLimit":9.722222},"geometry":{"type":"Polygon","coordinates":[[[-121.032683493244,50.4660357238926],[-121.032998199349,50.4660164014161],[-121.033205231713,50.465815537532],[-121.033794195802,50.4653810963617],[-121.033714990773,50.4652523098087],[-121.033951196519,50.465401766918],[-121.033414800892,50.465810055341],[-121.033012292771,50.4661895847291],[-121.032683493244,50.4660357238926]]]}},{"type":"Feature","id":"853029148","properties":{"name":"SP_30KPH_%TR_1635 Flats_July_30_NS","oid":"853029148","speedLimit":8.333333},"geometry":{"type":"Polygon","coordinates":[[[-121.018573582323,50.4569727634173],[-121.017391989855,50.4572915393443],[-121.016413201724,50.4584593359035],[-121.018332584814,50.4588948555376],[-121.020676461763,50.4589889515048],[-121.020224626666,50.4572335719147],[-121.019406644475,50.4570984044509],[-121.018952272562,50.4570017920681],[-121.018573582323,50.4569727634173]]]}},{"type":"Feature","id":"883050998","properties":{"name":"iSP_22kph_%TR_4CR_Brake_Temp_CTRL_NOREMOVE","oid":"883050998","speedLimit":6.111111},"geometry":{"type":"Polygon","coordinates":[[[-121.031786869761,50.4745603511842],[-121.032176271,50.4743137424603],[-121.032478011157,50.4745760787814],[-121.032779751314,50.4748034549008],[-121.032957610295,50.47488586751],[-121.033166474803,50.474936016077],[-121.033450457249,50.4749608207446],[-121.03365438906,50.4749232542553],[-121.033815617803,50.474863848874],[-121.033906802241,50.4748118129953],[-121.033996154534,50.4747486329906],[-121.034046608983,50.4746594799825],[-121.03404083068,50.4745492969302],[-121.034044635904,50.4744849485897],[-121.033982483915,50.4743809667043],[-121.033864099173,50.4742608977338],[-121.033497106474,50.4739389762873],[-121.033048653799,50.4735613342109],[-121.032935342689,50.4734267958509],[-121.032810334039,50.4732222472155],[-121.03259343628,50.4728162954641],[-121.032239832332,50.4722103785485],[-121.032474910604,50.4721575338219],[-121.032417832247,50.4722070532851],[-121.032890525608,50.4730502322383],[-121.033029768614,50.4733109508636],[-121.033237646582,50.4735483027732],[-121.033730775405,50.473962972107],[-121.03408592963,50.4742724912197],[-121.034191348423,50.4743957955816],[-121.03424405782,50.4744630198256],[-121.034251104531,50.4745941430502],[-121.034226159175,50.4746801505388],[-121.034171617633,50.4747929398786],[-121.034074091155,50.4748771499276],[-121.033961202848,50.4749389818525],[-121.033778552104,50.4750174400945],[-121.033518951278,50.4750657013499],[-121.033250894399,50.4750693861012],[-121.033059223865,50.4750275956287],[-121.032795395012,50.4749178619363],[-121.032644595401,50.4748364379188],[-121.032482943855,50.4747066627741],[-121.032132299525,50.4744143990823],[-121.031786869761,50.4745603511842]]]}},{"type":"Feature","id":"883053336","properties":{"name":"iSP_22kph_%TR_Brake_Temp_CTRL_NOREMOVE","oid":"883053336","speedLimit":6.111111},"geometry":{"type":"Polygon","coordinates":[[[-121.032453629538,50.4721466593119],[-121.032238704858,50.4722269149935],[-121.031475827946,50.4710097787152],[-121.030803712669,50.4699248441252],[-121.030648403163,50.4696616989562],[-121.030583573423,50.4694592173764],[-121.030537206066,50.4692582636204],[-121.030583573423,50.4689744478951],[-121.030709850481,50.4686258344695],[-121.030871642961,50.468377068818],[-121.031076138509,50.4680993643876],[-121.031675672665,50.467538113848],[-121.032419805326,50.4668952595469],[-121.032776227959,50.4665577902473],[-121.033135469276,50.466224005699],[-121.033472442987,50.4658723366259],[-121.033767559235,50.4660357238926],[-121.033575465899,50.4659949220119],[-121.032907155846,50.4666536836541],[-121.03254227716,50.4669928605215],[-121.032166123737,50.4673092997769],[-121.031761783471,50.4676699560484],[-121.031369281679,50.4680360046389],[-121.03113434434,50.4682879158099],[-121.03099594694,50.4684714344011],[-121.030892219357,50.4686560314561],[-121.030815692077,50.4688545586686],[-121.030754808496,50.4691928368161],[-121.030763546417,50.4694021486666],[-121.030860791027,50.4696318614576],[-121.031014832125,50.4699366173551],[-121.03131784069,50.4704052997512],[-121.031517967277,50.4707124821923],[-121.03173768372,50.4710843724618],[-121.032133567933,50.4717302824103],[-121.032368928074,50.4721465694399],[-121.032453629538,50.4721466593119]]]}},{"type":"Feature","id":"883059532","properties":{"name":"iSP_22kph_%TR_Brake_CTRL_NOREMOVE","oid":"883059532","speedLimit":6.111111},"geometry":{"type":"Polygon","coordinates":[[[-121.027248224263,50.4773232855861],[-121.027015964675,50.4772111253502],[-121.027320523516,50.4769453738937],[-121.027702596176,50.4766337877254],[-121.028019416294,50.4763240888688],[-121.028176698879,50.4761701381604],[-121.028607675713,50.4756937267736],[-121.028893772171,50.4753271389511],[-121.029250476673,50.4748890130295],[-121.029459341181,50.4746581319027],[-121.029678212019,50.4745418375555],[-121.029788281641,50.4744896219329],[-121.029939081253,50.4745940531782],[-121.029775456628,50.4745434552512],[-121.029542774237,50.4747929398786],[-121.029238497264,50.4751744464504],[-121.02905951081,50.4754793820919],[-121.028839653432,50.4757761393828],[-121.028682511781,50.475976104547],[-121.028395287849,50.4762719631181],[-121.028027872347,50.4765713266966],[-121.027229902815,50.4772207416525],[-121.027248224263,50.4773232855861]]]}},{"type":"Feature","id":"886231481","properties":{"name":"SP_15KPH_%TR_1200_SWITCHBACK_July_30_NS","oid":"886231481","speedLimit":4.1666665},"geometry":{"type":"Polygon","coordinates":[[[-121.036898412848,50.4452298203812],[-121.036957464284,50.4446828594871],[-121.036272805862,50.4447481065474],[-121.036028848734,50.4452775424047],[-121.036512816832,50.4453477324242],[-121.036607242757,50.4451043590917],[-121.036761283855,50.4451335674865],[-121.036898412848,50.4452298203812]]]}},{"type":"Feature","id":"908328496","properties":{"name":"SP_12KPH_%TR_9019_SOFT_GROUND_July 30_NS","oid":"908328496","speedLimit":3.3333333},"geometry":{"type":"Polygon","coordinates":[[[-121.038989735682,50.4644906447449],[-121.039314448116,50.4647042704507],[-121.039493575504,50.4648799701793],[-121.039381532802,50.465217169863],[-121.039341789354,50.4661499511842],[-121.038094662475,50.4665996705918],[-121.038018276129,50.4662280499382],[-121.037870858939,50.4651415875245],[-121.038510136544,50.4648160711988],[-121.038989735682,50.4644906447449]]]}},{"type":"Feature","id":"908575258","properties":{"name":"iSP_15km_permissions ","oid":"908575258","speedLimit":4.1666665},"geometry":{"type":"Polygon","coordinates":[[[-121.041860424731,50.4595522691],[-121.041450165228,50.4599148126832],[-121.041074434607,50.4602078852228],[-121.040678973197,50.4604254652959],[-121.040337771459,50.4605862462751],[-121.039947242746,50.460715482188],[-121.039507246123,50.4607816279682],[-121.03916618532,50.4607974454374],[-121.039111784713,50.461213552723],[-121.039245249415,50.460939263428],[-121.039794047253,50.4608478636204],[-121.040263640062,50.4607060456297],[-121.040931104509,50.4603939202295],[-121.04153416202,50.4599873393742],[-121.041934697063,50.459653105466],[-121.042082959858,50.459530160592],[-121.041934697063,50.4594923244868],[-121.041860424731,50.4595522691]]]}},{"type":"Feature","id":"910445950","properties":{"name":"SP_30KPH_%TR_1635_FLATS_JULY30_NS","oid":"910445950","speedLimit":8.333333},"geometry":{"type":"Polygon","coordinates":[[[-121.02020940577,50.4571659881828],[-121.019027954236,50.456963147115],[-121.018634184036,50.456924502162],[-121.017437511607,50.4572335719147],[-121.018073688659,50.4544709970007],[-121.018755246528,50.4539011187506],[-121.018921971706,50.4535147590917],[-121.019542927862,50.454519348128],[-121.02020940577,50.4571466657062],[-121.020194325809,50.4571466657062],[-121.02020940577,50.4571659881828]]]}},{"type":"Feature","id":"914870727","properties":{"name":"SP_25KPH_%TR_July31_NS","oid":"914870727","speedLimit":6.9444447},"geometry":{"type":"Polygon","coordinates":[[[-121.043137570598,50.4510936078447],[-121.04344015636,50.4510644893219],[-121.043759936096,50.4516580937757],[-121.043343052685,50.4517454493441],[-121.043120376623,50.4511482500109],[-121.043137570598,50.4510936078447]]]}}]}