{"type":"FeatureCollection","features":[{"type":"Feature","id":"702602533","properties":{"name":"iSP_4KPH_%TR_CR01_Slow Bump","oid":"702602533","speedLimit":1.1111112},"geometry":{"type":"Polygon","coordinates":[[[-121.03335885748,50.4648079630875],[-121.033653592411,50.4646909457864],[-121.033696985508,50.4647316591792],[-121.033369142207,50.4648697971145],[-121.03335885748,50.4648079630875]]]}},{"type":"Feature","id":"707947583","properties":{"name":"iSP_25KPH_%TR_Permission Gate 1 From West Dump","oid":"707947583","speedLimit":6.9444447},"geometry":{"type":"Polygon","coordinates":[[[-121.038628301033,50.461978067728],[-121.038854987699,50.4617995759002],[-121.038139987805,50.4614083498545],[-121.037992338566,50.4616710545941],[-121.038191834103,50.4615669792987],[-121.038666763096,50.4618461311705],[-121.038628301033,50.461978067728]]]}},{"type":"Feature","id":"742345972","properties":{"name":"iSP_4KPH_%TR_CR01_Pit Side_Slow Bump","oid":"742345972","speedLimit":1.1111112},"geometry":{"type":"Polygon","coordinates":[[[-121.03339872841,50.4648829188702],[-121.033706002256,50.4647444214348],[-121.033756157913,50.4647765068238],[-121.033474666329,50.4649184195107],[-121.03339872841,50.4648829188702]]]}},{"type":"Feature","id":"776427243","properties":{"name":"iSP_7KPH_%TR_CR1_PermissionBlocker","oid":"776427243","speedLimit":1.9444444},"geometry":{"type":"Polygon","coordinates":[[[-121.034099921409,50.4652129400141],[-121.034051456392,50.465233251773],[-121.03403032339,50.4652746841661],[-121.03411598249,50.4652256123947],[-121.034099921409,50.4652129400141]]]}},{"type":"Feature","id":"794004438","properties":{"name":"iSP_11KPH_%TR_Lower_Fuel_Bay","oid":"794004438","speedLimit":3.0555556},"geometry":{"type":"Polygon","coordinates":[[[-121.036776627416,50.4606955509186],[-121.036778740716,50.4607253894316],[-121.036749013627,50.4606709251578],[-121.037125181059,50.4605992048766],[-121.037535161294,50.4605561547328],[-121.037542910061,50.4605814994938],[-121.03694442345,50.4606503437739],[-121.036776627416,50.4606955509186]]]}},{"type":"Feature","id":"801543391","properties":{"name":"iSP_4KPH_%TR_CR01_PermissionBlocker_2","oid":"801543391","speedLimit":1.1111112},"geometry":{"type":"Polygon","coordinates":[[[-121.033155417116,50.4645234187134],[-121.033154571796,50.4644739874418],[-121.033176127458,50.4644319259234],[-121.033108079192,50.4644595175605],[-121.033155417116,50.4645234187134]]]}},{"type":"Feature","id":"806473874","properties":{"name":"iSP_4KPH_%TR_CR04_PermissionBlocker","oid":"806473874","speedLimit":1.1111112},"geometry":{"type":"Polygon","coordinates":[[[-121.022719659058,50.4815453017636],[-121.022686550688,50.4815429650126],[-121.022678942808,50.4815716351501],[-121.022701062016,50.4815727136505],[-121.02270514773,50.48154862714],[-121.022719659058,50.4815453017636]]]}},{"type":"Feature","id":"824566967","properties":{"name":"iSP_3KPH_%TR_CR04","oid":"824566967","speedLimit":0.8333333},"geometry":{"type":"Polygon","coordinates":[[[-121.023302507247,50.4810684248056],[-121.023282360452,50.4810684248056],[-121.023279683605,50.4811865206071],[-121.023304761434,50.4811858016068],[-121.023302507247,50.4810684248056]]]}},{"type":"Feature","id":"826307302","properties":{"name":"iSP_4KPH_%TR_CR04_Pockets","oid":"826307302","speedLimit":1.1111112},"geometry":{"type":"Polygon","coordinates":[[[-121.0232977171,50.481321602791],[-121.02333716537,50.4814772663589],[-121.023541873714,50.4814378112167],[-121.023460863874,50.4811889472331],[-121.023052574279,50.4811896662335],[-121.023057927973,50.4813603389329],[-121.023282783112,50.4813263661681],[-121.0232977171,50.481321602791]]]}},{"type":"Feature","id":"883050998","properties":{"name":"iSP_22KPH_%TR_4CR_Brake_Temp_Ctrl","oid":"883050998","speedLimit":6.111111},"geometry":{"type":"Polygon","coordinates":[[[-121.031799101061,50.4745591352161],[-121.032188370954,50.4743125181085],[-121.032490009333,50.474574863348],[-121.032791647712,50.4748022471972],[-121.0329694467,50.4748846626081],[-121.033178240758,50.47493481288],[-121.033462127415,50.4749596183908],[-121.033665990439,50.4749220506244],[-121.033827164799,50.4748626432235],[-121.03391831848,50.4748106055758],[-121.034007640635,50.4747474234232],[-121.034058078066,50.4746582673844],[-121.034052301712,50.4745480805863],[-121.034056105652,50.4744837300582],[-121.033993974627,50.4743797446378],[-121.033875629817,50.4742596715855],[-121.033508760906,50.473937739195],[-121.033060459494,50.4735600842803],[-121.032947186605,50.4734255413466],[-121.032822220121,50.4732209857574],[-121.032605395522,50.4728150202053],[-121.032251910846,50.472209082691],[-121.032486909826,50.4721562361679],[-121.032429850721,50.4722057573145],[-121.032902384641,50.4730489649323],[-121.033041580679,50.4733096924211],[-121.03324938853,50.4735470523996],[-121.033742351019,50.4739617358305],[-121.034097385449,50.4742712654655],[-121.034202768685,50.4743945740193],[-121.034255460302,50.4744618005486],[-121.034262504636,50.4745929282308],[-121.034237567694,50.4746789386434],[-121.03418304455,50.4747917318176],[-121.034085550968,50.4748759447293],[-121.033972700738,50.4749377787563],[-121.033790111603,50.4750162396655],[-121.033530598341,50.4750645025616],[-121.033262631878,50.4750681874382],[-121.033071025995,50.4750263955449],[-121.032807286133,50.4749166581221],[-121.032656537387,50.4748352313365],[-121.032494940366,50.4747054517799],[-121.03214441431,50.4744131781524],[-121.031799101061,50.4745591352161]]]}},{"type":"Feature","id":"883053336","properties":{"name":"iSP_22KPH_%TR_Brake_Temp_Ctrl","oid":"883053336","speedLimit":6.111111},"geometry":{"type":"Polygon","coordinates":[[[-121.032465635937,50.4721453612882],[-121.032250783752,50.4722256196982],[-121.031488164161,50.4710084420422],[-121.030816275591,50.469923470569],[-121.030661018471,50.4696603164542],[-121.030596210599,50.4694578279908],[-121.030549858882,50.4692568674032],[-121.030596210599,50.4689730420294],[-121.030722445063,50.4686244167523],[-121.03088418297,50.4683756426438],[-121.031088609541,50.4680979287726],[-121.031687941471,50.4675366591528],[-121.032431823134,50.4668937829974],[-121.032788125545,50.4665563022251],[-121.033147245688,50.4662225063295],[-121.033484105737,50.4658708253011],[-121.033779122442,50.4660342181224],[-121.033587093899,50.4659934148546],[-121.032919009269,50.466652198892],[-121.032554253658,50.4669913872899],[-121.032178227113,50.467307837303],[-121.031774023232,50.4676685058353],[-121.031381653832,50.46803456687],[-121.031146795739,50.4682864866049],[-121.03100844502,50.4684700114349],[-121.030904752425,50.4686546147655],[-121.030828250958,50.4688531487271],[-121.030767387913,50.4691914383746],[-121.030776122887,50.4694007573409],[-121.030873334696,50.4696304779411],[-121.031027323835,50.4699352441991],[-121.031330230194,50.4704039425285],[-121.031530289278,50.4707111354125],[-121.03174993161,50.4710830383248],[-121.03214568229,50.4717289702315],[-121.032380963043,50.4721452714131],[-121.032465635937,50.4721453612882]]]}},{"type":"Feature","id":"883059532","properties":{"name":"iSP_22KPH_%TR_Brake_Ctrl","oid":"883059532","speedLimit":6.111111},"geometry":{"type":"Polygon","coordinates":[[[-121.027261986463,50.4773221635464],[-121.027029805217,50.4772099994975],[-121.027334261329,50.4769442390065],[-121.027716205115,50.4766326422456],[-121.028032918368,50.4763229328605],[-121.028190147902,50.4761689769183],[-121.028620979365,50.4756925493355],[-121.028906979322,50.4753259490506],[-121.029263563506,50.4748878082345],[-121.029472357564,50.4746569192588],[-121.029691154575,50.474540620958],[-121.029801187071,50.4744884035602],[-121.029951935818,50.4745928383558],[-121.029788366384,50.4745422387087],[-121.029555762477,50.4747917318176],[-121.029251588138,50.475173251359],[-121.029072662056,50.475478197367],[-121.028852878838,50.4757749647465],[-121.028695790191,50.4759749367087],[-121.02840866314,50.4762708053378],[-121.028041371569,50.4765701790934],[-121.027243671195,50.4772196161267],[-121.027261986463,50.4773221635464]]]}},{"type":"Feature","id":"884401102","properties":{"name":"iSP_30KPH_%TR_Maint_Limit_Policy","oid":"884401102","speedLimit":8.333333},"geometry":{"type":"Polygon","coordinates":[[[-121.036992184034,50.4611014265956],[-121.037108274657,50.4611078975984],[-121.038294540491,50.460992228423],[-121.038278197637,50.4603980645388],[-121.038119700123,50.460565951112],[-121.037032618511,50.4607085827993],[-121.036744927913,50.4605379100998],[-121.036992184034,50.4611014265956]]]}},{"type":"Feature","id":"910445950","properties":{"name":"SP_22KPH_%TR_1635_FLATS_SEP_25_NS","oid":"910445950","speedLimit":6.111111},"geometry":{"type":"Polygon","coordinates":[[[-121.017369628324,50.4554939431496],[-121.018002773058,50.4544142743036],[-121.018148027224,50.4539986022473],[-121.018532647856,50.4537516256395],[-121.018948686218,50.4536881738618],[-121.018866549285,50.454341745147],[-121.018261722773,50.4560721991518],[-121.018275811441,50.4557009253648],[-121.017369628324,50.4554939431496]]]}},{"type":"Feature","id":"915576987","properties":{"name":"iSP_15KPH_%TR_Preventing Shifting","oid":"915576987","speedLimit":4.1666665},"geometry":{"type":"Polygon","coordinates":[[[-121.036997678615,50.4448633437623],[-121.037511774105,50.4453132582086],[-121.037981067631,50.445795707419],[-121.038525031098,50.4462190188537],[-121.03945770091,50.446850121379],[-121.039915019069,50.4470998841129],[-121.040470957902,50.4471952415295],[-121.041224138086,50.4473229539602],[-121.041642571522,50.4475098041667],[-121.042321081766,50.4480952501721],[-121.042703729985,50.4485279984859],[-121.042847152624,50.4487950172274],[-121.043008608758,50.4493917874877],[-121.043187816613,50.4501983260895],[-121.043325322011,50.4505014745968],[-121.043686978115,50.4511688866379],[-121.043857450996,50.4514892012776],[-121.044126403666,50.4522537682361],[-121.044383521854,50.4529383464098],[-121.044697276487,50.4537982707849],[-121.044736161211,50.4541948893329],[-121.044571746457,50.4550719798405],[-121.04421614848,50.4568394623615],[-121.044051733726,50.457207500647],[-121.043005509251,50.4583991537919],[-121.041905606951,50.4595375110384],[-121.041343750876,50.4600008168655],[-121.040372337227,50.4605976770009],[-121.039923894929,50.4607311414341],[-121.039134788643,50.4608073554674],[-121.038497417309,50.4608389016061],[-121.038645207434,50.4611436678641],[-121.038758057664,50.4609497175294],[-121.039879092966,50.460879884624],[-121.040707083976,50.4606320092659],[-121.041511124251,50.4600580672655],[-121.042874061979,50.4587004149233],[-121.044242916949,50.4571426108687],[-121.044428323818,50.456290325872],[-121.044813930657,50.4544217339318],[-121.04481083115,50.4537867667799],[-121.044260950444,50.452301491882],[-121.043833500261,50.4511860527704],[-121.043346314126,50.4503375425252],[-121.043050452101,50.4493098214519],[-121.042927880691,50.4486920204324],[-121.042240353699,50.4478873692064],[-121.041546909467,50.4473916184902],[-121.041092549928,50.4472219344162],[-121.040458982535,50.4471304416263],[-121.039917977689,50.447019805453],[-121.038821034009,50.4463334297786],[-121.038196342476,50.4458719214523],[-121.037153217508,50.4449071129064],[-121.037377368214,50.4446974344399],[-121.036997678615,50.4448633437623]]]}},{"type":"Feature","id":"917773475","properties":{"name":"SP_15KPH_%TR_1200_CORNER_Sept_25_NS","oid":"917773475","speedLimit":4.1666665},"geometry":{"type":"Polygon","coordinates":[[[-121.037098553477,50.4446826050585],[-121.036924417542,50.4448621753868],[-121.03662883729,50.4448206531187],[-121.036414266879,50.4448699945152],[-121.036322690538,50.4449676886828],[-121.036254078725,50.4450821894828],[-121.036241821584,50.4451450121352],[-121.036262954586,50.4452673320635],[-121.036315646204,50.4453515449753],[-121.036183776272,50.4453953141194],[-121.036088677764,50.4451943535317],[-121.036162643271,50.4449317386672],[-121.036259432419,50.444791443731],[-121.036516268834,50.4447151398227],[-121.036713369297,50.4447118144462],[-121.036922726902,50.4447701433467],[-121.03709334067,50.4446836835589],[-121.037098553477,50.4446826050585]]]}},{"type":"Feature","id":"926367691","properties":{"name":"SP_30KPH_%TR_24SH_EMPTY_LANE_SEP_25_NS","oid":"926367691","speedLimit":8.333333},"geometry":{"type":"Polygon","coordinates":[[[-121.038923176851,50.4549416610336],[-121.039203118682,50.4546235932699],[-121.039438681208,50.4538308055491],[-121.039920654536,50.4514270077505],[-121.0395022211,50.4515918385724],[-121.039432904854,50.4530471850822],[-121.039203964002,50.4540992622912],[-121.038923176851,50.4549416610336]]]}},{"type":"Feature","id":"929009157","properties":{"name":"iSP_22KPH_%TR_Long_Single_Lane","oid":"929009157","speedLimit":6.111111},"geometry":{"type":"Polygon","coordinates":[[[-121.00568068326,50.4380560285428],[-121.004750972068,50.4382240948662],[-121.005175463631,50.4381975817296],[-121.007935715438,50.4431705473989],[-121.008524480868,50.4445349403691],[-121.008211571555,50.4465097646055],[-121.007833572596,50.4466802575549],[-121.00893502465,50.4466470037904],[-121.00882428772,50.4465929888918],[-121.009404318176,50.4448176872424],[-121.008765397089,50.4430684493544],[-121.008263699626,50.4415402141877],[-121.007260163814,50.440156228459],[-121.006440485118,50.4389840781977],[-121.005861440869,50.438313071155],[-121.00568068326,50.4380560285428]]]}},{"type":"Feature","id":"932268643","properties":{"name":"SP_20KPH_%traction_1185_1170_SEP26_NS","oid":"932268643","speedLimit":5.5555553},"geometry":{"type":"Polygon","coordinates":[[[-121.038728753235,50.4481975279667],[-121.038466985786,50.4482557669922],[-121.038946845813,50.4498293890536],[-121.039506025041,50.449791461787],[-121.039105484213,50.4497307062605],[-121.038621679359,50.4483442939058],[-121.038851747305,50.4481596007002],[-121.038728753235,50.4481975279667]]]}},{"type":"Feature","id":"932654885","properties":{"name":"SP_11KPH_%TR_LOTS OF MUD_SEPT_15_NS","oid":"932654885","speedLimit":3.0555556},"geometry":{"type":"Polygon","coordinates":[[[-121.036365097428,50.4453591843536],[-121.036057541808,50.4454652368999],[-121.036262531926,50.4454607431479],[-121.038009244967,50.4473915286152],[-121.038175491248,50.4473147753317],[-121.036365097428,50.4453591843536]]]}},{"type":"Feature","id":"934051091","properties":{"name":"iSP_17KPH_%TR_Ramp_Permission Blocker","oid":"934051091","speedLimit":4.7222223},"geometry":{"type":"Polygon","coordinates":[[[-121.039512646715,50.4610297961894],[-121.039464604357,50.4607717649518],[-121.039017148266,50.4607923463358],[-121.039076038898,50.461045074946],[-121.039163529525,50.4609000166328],[-121.039379508803,50.460886894877],[-121.039512646715,50.4610297961894]]]}},{"type":"Feature","id":"936169885","properties":{"name":"SP_15KPH_%TR_24shl_loadplan_Sept_25_NS","oid":"936169885","speedLimit":4.1666665},"geometry":{"type":"Polygon","coordinates":[[[-121.039168601445,50.4546368049007],[-121.038618720739,50.4545683201208],[-121.038154217359,50.4553923843553],[-121.038669721716,50.4555194676607],[-121.038841744351,50.4552447196658],[-121.039001791618,50.4549475029112],[-121.039087168945,50.4547918393433],[-121.039168601445,50.4546368049007]]]}},{"type":"Feature","id":"936513295","properties":{"name":"SP_30KPH_%TR_1635_FLATS_SEP_25_NS","oid":"936513295","speedLimit":8.333333},"geometry":{"type":"Polygon","coordinates":[[[-121.017285800751,50.4555553278013],[-121.018049970095,50.4557853180267],[-121.01743387265,50.4574539380045],[-121.01522688283,50.4585170698433],[-121.014498076041,50.4578797659403],[-121.016177163477,50.4566195381406],[-121.017285800751,50.4555553278013]]]}},{"type":"Feature","id":"937786749","properties":{"name":"SP_32KPH_%TR_24SH_Loaded_LANE_SEP_25_NS","oid":"937786749","speedLimit":8.888889},"geometry":{"type":"Polygon","coordinates":[[[-121.038279888277,50.455428514121],[-121.038456137512,50.4555013129028],[-121.038969387682,50.4539576192294],[-121.039256796506,50.4521235393043],[-121.038991647777,50.4522689571178],[-121.038490372975,50.4548542126205],[-121.038279888277,50.455428514121]]]}},{"type":"Feature","id":"938065675","properties":{"name":"SP_8KPH_CR01_YARD_RUTIING_SEP_25_NS","oid":"938065675","speedLimit":2.2222223},"geometry":{"type":"Polygon","coordinates":[[[-121.034288991332,50.4648013123346],[-121.034098794316,50.4648581133594],[-121.033940578576,50.4649070952557],[-121.033829137213,50.4650050590485],[-121.034043989398,50.4650689602013],[-121.033963965764,50.4650114401762],[-121.034242357841,50.4648882214975],[-121.034319000194,50.464937473019],[-121.034288991332,50.4648013123346]]]}},{"type":"Feature","id":"938165680","properties":{"name":"SP_10KPH_%TR_22SH_Sept_25_NS","oid":"938165680","speedLimit":2.7777777},"geometry":{"type":"Polygon","coordinates":[[[-121.034080197274,50.4466115031499],[-121.035054992203,50.4472506944287],[-121.035496812828,50.4474474308895],[-121.035794929039,50.4469123149061],[-121.034854651346,50.4461954715934],[-121.034080197274,50.4466115031499]]]}},{"type":"Feature","id":"940771585","properties":{"name":"SP_20KPH_%TR_1660_HMT_SEPT25_DS","oid":"940771585","speedLimit":5.5555553},"geometry":{"type":"Polygon","coordinates":[[[-121.002708819662,50.428118545458],[-121.002603577313,50.4277114115304],[-121.002231918255,50.4276980201495],[-121.002505379298,50.4277964333174],[-121.002533415747,50.428114051706],[-121.002673738879,50.4280826853173],[-121.002708819662,50.428118545458]]]}},{"type":"Feature","id":"940778315","properties":{"name":"SP_20KPH_%TR_HMT_SPILLING_ROCK_IN_CORNER_SEPT25_NS","oid":"940778315","speedLimit":5.5555553},"geometry":{"type":"Polygon","coordinates":[[[-121.004784643984,50.4367080827049],[-121.004770555317,50.4370436761012],[-121.004987943462,50.4372762727027],[-121.00512122226,50.4371688720309],[-121.004889886333,50.4369362754294],[-121.004882841999,50.4367573342263],[-121.00519842816,50.4367975982439],[-121.004798591766,50.436699185076],[-121.004784643984,50.4367080827049]]]}},{"type":"Feature","id":"944724443","properties":{"name":"SP_12KPH_%TR_21SH_EMPTY_SEPT 26_DS","oid":"944724443","speedLimit":3.3333333},"geometry":{"type":"Polygon","coordinates":[[[-121.039134365982,50.4501832270829],[-121.038912469464,50.450167409076],[-121.038927544338,50.4505370651123],[-121.039265249707,50.4511710436388],[-121.039344568907,50.4515560683068],[-121.03973214816,50.4514984584067],[-121.039710592498,50.4511096589871],[-121.039406981706,50.4509587587962],[-121.039104216233,50.4503566859086],[-121.039084351212,50.4502970987576],[-121.039134365982,50.4501832270829]]]}},{"type":"Feature","id":"944724972","properties":{"name":"SP_20KPH_%TR_21SH_LOADED_SEPT 25_NS","oid":"944724972","speedLimit":5.5555553},"geometry":{"type":"Polygon","coordinates":[[[-121.038847802478,50.452216829595],[-121.039181422133,50.452168566699],[-121.039250597492,50.451969313737],[-121.039327380732,50.4516356975915],[-121.039213121636,50.4512647833047],[-121.038912751237,50.4506403315323],[-121.038818216276,50.4509654994242],[-121.038885700995,50.4509783515548],[-121.039057864516,50.4512927344419],[-121.039101680273,50.451574762315],[-121.039046593582,50.4519346219719],[-121.038996860584,50.4521383686858],[-121.038847802478,50.452216829595]]]}},{"type":"Feature","id":"945606742","properties":{"name":"SP_20KPH_19SH_SEPT 25_NS","oid":"945606742","speedLimit":5.5555553},"geometry":{"type":"Polygon","coordinates":[[[-121.002893803871,50.4271198540223],[-121.002444516253,50.4275247410739],[-121.001789956744,50.4273169499833],[-121.002101738964,50.4269693133316],[-121.002893803871,50.4271198540223]]]}}]}