{"type":"FeatureCollection","features":[{"type":"Feature","id":"702602533","properties":{"name":"iSP_4KPH_%TR_CR01_SLOW BUMP","oid":"702602533","speedLimit":1.1111112},"geometry":{"type":"Polygon","coordinates":[[[-121.033358088236,50.4648077998818],[-121.033652841076,50.4646907834298],[-121.033696236809,50.4647314965272],[-121.033368373589,50.4648696334601],[-121.033358088236,50.4648077998818]]]}},{"type":"Feature","id":"707947583","properties":{"name":"iSP_25KPH_%TR_Permission Gate 1 from west dump_Jun","oid":"707947583","speedLimit":6.9444447},"geometry":{"type":"Polygon","coordinates":[[[-121.038627851953,50.461977925056],[-121.038854552392,50.4617994345233],[-121.038139509056,50.4614082113163],[-121.037991850846,50.4616709141498],[-121.038191358504,50.4615668396095],[-121.038666316353,50.4618459894558],[-121.038627851953,50.461977925056]]]}},{"type":"Feature","id":"742345972","properties":{"name":"iSP_4KPH_%TR_CR01_PITSIDE_SLOW BUMP","oid":"742345972","speedLimit":1.1111112},"geometry":{"type":"Polygon","coordinates":[[[-121.033397961589,50.4648827551206],[-121.033705254105,50.4647442586901],[-121.033755412809,50.4647763438463],[-121.033473904123,50.4649182555035],[-121.033397961589,50.4648827551206]]]}},{"type":"Feature","id":"776427243","properties":{"name":"iSP_7KPH_%TR_CR1_PermissionBlocker_DO_NOT_DELETE","oid":"776427243","speedLimit":1.9444444},"geometry":{"type":"Polygon","coordinates":[[[-121.034099197192,50.46521277387],[-121.03405072923,50.4652330854814],[-121.034029594944,50.4652745175739],[-121.034115259249,50.4652254461585],[-121.034099197192,50.46521277387]]]}},{"type":"Feature","id":"794004438","properties":{"name":"iSP_11KPH_%TR_LOWER_FUEL_BAY","oid":"794004438","speedLimit":3.0555556},"geometry":{"type":"Polygon","coordinates":[[[-121.036776065831,50.4606954175524],[-121.03677817926,50.460725255849],[-121.036748450364,50.4606707919704],[-121.037124640652,50.4605990722095],[-121.037534645796,50.4605560223781],[-121.037542395034,50.4605813669552],[-121.03694387206,50.4606502107358],[-121.036776065831,50.4606954175524]]]}},{"type":"Feature","id":"801543391","properties":{"name":"iSP_4KPH_%TR_CR1_PermissionBlocker_DO_NOT_DELETE_","oid":"801543391","speedLimit":1.1111112},"geometry":{"type":"Polygon","coordinates":[[[-121.033154635512,50.4645232575723],[-121.03315379014,50.4644738266594],[-121.033175347112,50.4644317654463],[-121.033107294712,50.4644593568831],[-121.033154635512,50.4645232575723]]]}},{"type":"Feature","id":"806473874","properties":{"name":"iSP_4KPH_%TR_Permission Blocker - DO NOT DELETE","oid":"806473874","speedLimit":1.1111112},"geometry":{"type":"Polygon","coordinates":[[[-121.022718243394,50.4815450171122],[-121.022685133013,50.4815426803781],[-121.02267752467,50.4815713503076],[-121.022699645222,50.4815724288003],[-121.022703731184,50.4815483424645],[-121.022718243394,50.4815450171122]]]}},{"type":"Feature","id":"824566967","properties":{"name":"iSP_4Cr_3KPH","oid":"824566967","speedLimit":0.8333333},"geometry":{"type":"Polygon","coordinates":[[[-121.023301126996,50.4810681436144],[-121.023280978977,50.4810681436144],[-121.023278301967,50.481186238559],[-121.02330338132,50.4811855195639],[-121.023301126996,50.4810681436144]]]}},{"type":"Feature","id":"826307302","properties":{"name":"iSP_4KPH_TR%_CRUSHER POCKETS","oid":"826307302","speedLimit":1.1111112},"geometry":{"type":"Polygon","coordinates":[[[-121.023296336558,50.4813213197628],[-121.023335787225,50.4814769822012],[-121.023540508006,50.4814375273453],[-121.023459493244,50.4811886651675],[-121.023051178843,50.4811893841626],[-121.023056532862,50.4813600556236],[-121.023281401663,50.4813260831053],[-121.023296336558,50.4813213197628]]]}},{"type":"Feature","id":"883050998","properties":{"name":"iSP_22kph_%TR_4CR_Brake_Temp_CTRL_NOREMOVE","oid":"883050998","speedLimit":6.111111},"geometry":{"type":"Polygon","coordinates":[[[-121.031798237049,50.4745589012562],[-121.032187530594,50.474312285938],[-121.0324891873,50.4745746292739],[-121.032790844006,50.4748020114732],[-121.032968653797,50.4748844262861],[-121.03317746054,50.4749345761941],[-121.033461364446,50.474959381525],[-121.033665239857,50.4749218140312],[-121.03382642401,50.4748624070613],[-121.033917583229,50.4748103697912],[-121.03400691081,50.4747471880971],[-121.034057351306,50.4746580327051],[-121.034051574601,50.4745478467066],[-121.034055378773,50.4744834966454],[-121.033993243972,50.4743795119796],[-121.033874891972,50.4742594397984],[-121.03350800077,50.4739375097439],[-121.033059672121,50.4735598575694],[-121.032946392349,50.473425315612],[-121.032821418272,50.473220761507],[-121.0326045805,50.4728147989006],[-121.032251074346,50.472208865783],[-121.032486087604,50.4721560196434],[-121.032429025033,50.4722055404306],[-121.032901587663,50.4730487419302],[-121.033040792159,50.4733094675271],[-121.033248612636,50.4735468257833],[-121.033741605076,50.4739615062053],[-121.034096661078,50.4742710335944],[-121.034202050716,50.4743943412534],[-121.034254745535,50.474461567295],[-121.034261790297,50.4745926940257],[-121.03423685184,50.4746787038141],[-121.034182325383,50.4747914961699],[-121.034084825877,50.4748757084706],[-121.033971968791,50.4749375420489],[-121.033789368562,50.4750160023888],[-121.033529839532,50.4750642649347],[-121.033261856788,50.4750679497846],[-121.033070239264,50.4750261581946],[-121.032806483377,50.474916421568],[-121.032655725472,50.4748349953733],[-121.032494118633,50.4747052167583],[-121.032143571279,50.4744129452516],[-121.031798237049,50.4745589012562]]]}},{"type":"Feature","id":"883053336","properties":{"name":"iSP_22kph_%TR_Brake_Temp_CTRL_NOREMOVE","oid":"883053336","speedLimit":6.111111},"geometry":{"type":"Polygon","coordinates":[[[-121.032464812423,50.4721451448425],[-121.032249947184,50.4722254026702],[-121.031487281258,50.471008233846],[-121.030815351864,50.4699232702453],[-121.030660085311,50.4696601180399],[-121.030595273502,50.4694576310458],[-121.030548918968,50.4692566719164],[-121.030595273502,50.468972848602],[-121.030721515635,50.4686242258545],[-121.030883263369,50.4683754535511],[-121.031087702361,50.468097741695],[-121.031687070706,50.4675364761478],[-121.032430997566,50.466893604657],[-121.032787321625,50.4665561263335],[-121.033146463588,50.46622233286],[-121.033483344104,50.4658706543833],[-121.033778378733,50.466034046019],[-121.033586338523,50.4659932430473],[-121.032918213301,50.4666520223046],[-121.032553435528,50.4669912082414],[-121.032177386136,50.4673076559583],[-121.031773157697,50.4676683218736],[-121.031380764457,50.4680343802521],[-121.031145892094,50.4682862981591],[-121.03100753297,50.4684698216575],[-121.030903834074,50.4686544236486],[-121.03082732796,50.4688529561696],[-121.030766461216,50.4691912433626],[-121.030775196721,50.46940056081],[-121.030872414436,50.4696302797434],[-121.031026412932,50.46993504379],[-121.031329337695,50.4704037387186],[-121.031529408934,50.4707109293736],[-121.031749064611,50.4710828295873],[-121.032144839336,50.4717287568072],[-121.032380134385,50.4721450549681],[-121.032464812423,50.4721451448425]]]}},{"type":"Feature","id":"883059532","properties":{"name":"iSP_22kph_%TR_Brake_CTRL_NOREMOVE","oid":"883059532","speedLimit":6.111111},"geometry":{"type":"Polygon","coordinates":[[[-121.027260846783,50.477321909538],[-121.02702865143,50.4772097463029],[-121.027333126041,50.4769439877403],[-121.027715093033,50.4766323932404],[-121.028031825529,50.4763226861025],[-121.028189064616,50.4761687312774],[-121.028619922255,50.4756923071516],[-121.02890593959,50.4753257095267],[-121.029262545439,50.4748875718897],[-121.029471352183,50.4746566845893],[-121.029690162488,50.4745403871324],[-121.02980020167,50.4744881701135],[-121.029950959575,50.4745926041513],[-121.029787380203,50.4745420048714],[-121.029554762164,50.4747914961699],[-121.029250569344,50.475173012943],[-121.029071632391,50.4754779567384],[-121.028851835818,50.4757747219645],[-121.028694737627,50.4759746924757],[-121.028407593131,50.476270558958],[-121.028040279244,50.4765699305413],[-121.027242530402,50.4772193628623],[-121.027260846783,50.477321909538]]]}},{"type":"Feature","id":"884401102","properties":{"name":"iSP_30KPH_MAIN INT_LIMIT_POLICY_SEPT_8_NS","oid":"884401102","speedLimit":8.333333},"geometry":{"type":"Polygon","coordinates":[[[-121.036991635546,50.4611012902845],[-121.037107733223,50.4611077612403],[-121.038294071133,50.4609920929042],[-121.038277727285,50.4603979333312],[-121.038119220141,50.4605658186863],[-121.03703207248,50.4607084493386],[-121.036744364402,50.4605377778775],[-121.036991635546,50.4611012902845]]]}},{"type":"Feature","id":"910445950","properties":{"name":"SP_22KPH_%TR_1635_FLATS_SEP_11_DS","oid":"910445950","speedLimit":6.111111},"geometry":{"type":"Polygon","coordinates":[[[-121.018915058216,50.4576034690139],[-121.018252568804,50.4578016420374],[-121.017439321487,50.4564353716051],[-121.017479194839,50.4564157789888],[-121.017771552459,50.4542398302033],[-121.018178457909,50.4539931250108],[-121.018530977796,50.4537515426583],[-121.019040595874,50.4536551973154],[-121.01921826477,50.4539290445728],[-121.019243625913,50.4568507710222],[-121.019156270865,50.4570731202558],[-121.019194312579,50.4574051162417],[-121.018915058216,50.4576034690139]]]}},{"type":"Feature","id":"917773475","properties":{"name":"SP_15KPH_%TR_1200_CORNER_Sept_11_DS","oid":"917773475","speedLimit":4.1666665},"geometry":{"type":"Polygon","coordinates":[[[-121.037098011452,50.4446825878818],[-121.036923864937,50.4448621569072],[-121.036628266726,50.4448206349404],[-121.036413683277,50.4448699759789],[-121.036322101372,50.4449676694376],[-121.036253485391,50.4450821694068],[-121.036241227505,50.4451449916033],[-121.036262361791,50.4452673106442],[-121.03631505661,50.4453515229448],[-121.036183178667,50.4453952917714],[-121.036088074381,50.4451943326418],[-121.036162044381,50.4449317196828],[-121.03625883941,50.4447914257646],[-121.03651569143,50.44471512241],[-121.036712803869,50.4447117970576],[-121.036922174194,50.4447701255349],[-121.037092798328,50.4446836663745],[-121.037098011452,50.4446825878818]]]}},{"type":"Feature","id":"926367691","properties":{"name":"SP_25KPH_%TR_24SH_SEP_11_DS","oid":"926367691","speedLimit":6.9444447},"geometry":{"type":"Polygon","coordinates":[[[-121.038553459267,50.4504036318654],[-121.038073429189,50.451154442495],[-121.038244476008,50.4520114846502],[-121.038396079285,50.4531303308949],[-121.03877649643,50.4530968976229],[-121.038842012716,50.450830984576],[-121.038553459267,50.4504036318654]]]}},{"type":"Feature","id":"929009157","properties":{"name":"iSP_22kph_Long_Single_Lane_Aug30","oid":"929009157","speedLimit":6.111111},"geometry":{"type":"Polygon","coordinates":[[[-121.005678232335,50.4380560594485],[-121.004748464655,50.4382241245523],[-121.005172982009,50.4381976116081],[-121.007933401525,50.4431705411937],[-121.008522202727,50.4445349242639],[-121.008209274402,50.4465097341711],[-121.007831252477,50.4466802258833],[-121.008932771452,50.4466469723601],[-121.008822027795,50.4465929578535],[-121.009402093492,50.4448176690856],[-121.008763133585,50.44306844389],[-121.00826140564,50.4415402198122],[-121.007257808855,50.4401562441256],[-121.006438080357,50.4389841023694],[-121.005859000926,50.4383131001955],[-121.005678232335,50.4380560594485]]]}},{"type":"Feature","id":"930116666","properties":{"name":"SP_25KPH_9023 Rough_SEP_11_DS","oid":"930116666","speedLimit":6.9444447},"geometry":{"type":"Polygon","coordinates":[[[-121.043597227021,50.468554213707],[-121.043296979267,50.4689178454771],[-121.042548402864,50.4684625418322],[-121.042343822977,50.4680405815848],[-121.043035759494,50.4679072978688],[-121.043597227021,50.468554213707]]]}},{"type":"Feature","id":"933252378","properties":{"name":"SP_20KPH_%TR_1615_ROUGH_SECTION_SEP_11_DS","oid":"933252378","speedLimit":5.5555553},"geometry":{"type":"Polygon","coordinates":[[[-121.007359957903,50.4314120055097],[-121.007542417237,50.4321458298801],[-121.00705111554,50.4322078432072],[-121.00739644977,50.4321240802784],[-121.007255413636,50.4314848936376],[-121.006907543292,50.4314554148386],[-121.007359957903,50.4314120055097]]]}},{"type":"Feature","id":"933252478","properties":{"name":"SP_30KPH_%TR_1605_PATCH_SEP_11_DS","oid":"933252478","speedLimit":8.333333},"geometry":{"type":"Polygon","coordinates":[[[-121.006591233481,50.4333410693538],[-121.007209340893,50.4334385830638],[-121.006978413597,50.433962910238],[-121.00667619331,50.4343789387757],[-121.00627196487,50.4347754645715],[-121.005738676392,50.4345240859109],[-121.006210816337,50.4346042538641],[-121.00669986371,50.4339780990094],[-121.006893453768,50.4335512855452],[-121.006591233481,50.4333410693538]]]}},{"type":"Feature","id":"933252549","properties":{"name":"SP_35KPH_%TR_1590_ROUGH_SEP_11_DS","oid":"933252549","speedLimit":9.722222},"geometry":{"type":"Polygon","coordinates":[[[-121.004360439167,50.4363930237901],[-121.004777066388,50.4364501839003],[-121.004881328865,50.4362113876538],[-121.005079286675,50.4359571330128],[-121.004581785587,50.4358325671123],[-121.004795805455,50.4359810395997],[-121.00462461774,50.4363683083336],[-121.004360439167,50.4363930237901]]]}},{"type":"Feature","id":"933371104","properties":{"name":"SP_25KPH_1590_HMT_INTERSECT_SEPT_11_DS","oid":"933371104","speedLimit":6.9444447},"geometry":{"type":"Polygon","coordinates":[[[-121.006358051861,50.4374889520661],[-121.005860268983,50.4376813731288],[-121.006066257822,50.4377780779693],[-121.006385808223,50.4379885637838],[-121.006551641919,50.4382644781521],[-121.007085212188,50.4381538427816],[-121.006743259444,50.4380711583455],[-121.006114866679,50.4376598032759],[-121.006358051861,50.4374889520661]]]}},{"type":"Feature","id":"934051091","properties":{"name":"iSP_17KPH_PERMISSIONS BLOCKER_SEPT 7_NS","oid":"934051091","speedLimit":4.7222223},"geometry":{"type":"Polygon","coordinates":[[[-121.039512251366,50.461029660398],[-121.03946420609,50.4607716310327],[-121.039016722812,50.4607922122673],[-121.039075617021,50.4610449390438],[-121.039163112965,50.460899881783],[-121.039379105365,50.4608867601225],[-121.039512251366,50.461029660398]]]}},{"type":"Feature","id":"934773555","properties":{"name":"SP_10KPH_NEW RAMP_SEPT 11_DS","oid":"934773555","speedLimit":2.7777777},"geometry":{"type":"Polygon","coordinates":[[[-121.035774300684,50.4443192257349],[-121.03627631042,50.4444736299319],[-121.03593125798,50.4447856738038],[-121.034507511593,50.4446691067238],[-121.034739284261,50.4441517897518],[-121.035774300684,50.4443192257349]]]}},{"type":"Feature","id":"934888580","properties":{"name":"SP_12KPH_RUTS_SEPT 11_DS","oid":"934888580","speedLimit":3.3333333},"geometry":{"type":"Polygon","coordinates":[[[-121.038715911477,50.4531205345867],[-121.038176987189,50.4531794023102],[-121.038461313781,50.4532006126656],[-121.038507386524,50.453617719696],[-121.038298861571,50.4537115485561],[-121.038741836201,50.4536385705538],[-121.038715911477,50.4531205345867]]]}},{"type":"Feature","id":"935505135","properties":{"name":"SP_15KPH_%TR_1590_WATERHOLES_AUG_11_DS","oid":"935505135","speedLimit":4.1666665},"geometry":{"type":"Polygon","coordinates":[[[-121.013401263947,50.4441737191022],[-121.012717358458,50.4442020295342],[-121.012966038554,50.445261468809],[-121.01310820185,50.4462075764817],[-121.013276853451,50.4469893937749],[-121.013703202443,50.4470970632906],[-121.013792107339,50.4467741446178],[-121.013436769547,50.4437487930001],[-121.013383511147,50.4441623949295],[-121.013401263947,50.4441737191022]]]}},{"type":"Feature","id":"936169885","properties":{"name":"SP_12KPH_%TR_Sept_11_DS","oid":"936169885","speedLimit":3.3333333},"geometry":{"type":"Polygon","coordinates":[[[-121.039479986356,50.4535462695582],[-121.03861136721,50.45361493359],[-121.039071671955,50.4545171825618],[-121.03959143449,50.4544390817194],[-121.039669349557,50.454207026052],[-121.039446594185,50.4538991164019],[-121.039446594185,50.4538967796678],[-121.039479986356,50.4535462695582]]]}},{"type":"Feature","id":"936513295","properties":{"name":"SP_27KPH_%TR_1635_FLATS_SEP_11_DS1","oid":"936513295","speedLimit":7.5},"geometry":{"type":"Polygon","coordinates":[[[-121.018252568804,50.4578016420374],[-121.015246850678,50.4587004757826],[-121.014496160846,50.4578796530054],[-121.017439321487,50.4564353716051],[-121.018252568804,50.4578016420374]]]}}]}