{"type":"FeatureCollection","features":[{"type":"Feature","id":"702602533","properties":{"name":"iSP_4KPH_%TR_CR01_SLOW BUMP","oid":"702602533","speedLimit":1.1111112},"geometry":{"type":"Polygon","coordinates":[[[-121.033360441944,50.4648075085834],[-121.033655173147,50.4646904916211],[-121.033698565694,50.464731204896],[-121.033370726542,50.4648693424314],[-121.033360441944,50.4648075085834]]]}},{"type":"Feature","id":"707947583","properties":{"name":"iSP_25KPH_%TR_Permission Gate 1 from west dump_Jun","oid":"707947583","speedLimit":6.9444447},"geometry":{"type":"Polygon","coordinates":[[[-121.038629818818,50.4619776214147],[-121.038856502616,50.4617991301035],[-121.038141511769,50.4614079051902],[-121.037993864399,50.4616706091694],[-121.038193357411,50.4615665341753],[-121.038668280395,50.4618456852391],[-121.038629818818,50.4619776214147]]]}},{"type":"Feature","id":"742345972","properties":{"name":"iSP_4KPH_%TR_CR01_PITSIDE_SLOW BUMP","oid":"742345972","speedLimit":1.1111112},"geometry":{"type":"Polygon","coordinates":[[[-121.03340031237,50.4648824641492],[-121.033707582328,50.4647439671146],[-121.033757737351,50.4647760524108],[-121.033476249329,50.4649179646869],[-121.03340031237,50.4648824641492]]]}},{"type":"Feature","id":"776427243","properties":{"name":"iSP_7KPH_%TR_CR1_PermissionBlocker_DO_NOT_DELETE","oid":"776427243","speedLimit":1.9444444},"geometry":{"type":"Polygon","coordinates":[[[-121.034101496497,50.4652124843379],[-121.034053032092,50.465232796038],[-121.034031899358,50.4652742283112],[-121.034117557375,50.4652251566818],[-121.034101496497,50.4652124843379]]]}},{"type":"Feature","id":"794004438","properties":{"name":"iSP_11KPH_%TR_LOWER_FUEL_BAY","oid":"794004438","speedLimit":3.0555556},"geometry":{"type":"Polygon","coordinates":[[[-121.036778168632,50.4606951083174],[-121.036780281906,50.460724946744],[-121.036750555193,50.4606704826279],[-121.037126717865,50.4605987625542],[-121.037536692912,50.460555712535],[-121.037544441581,50.4605810572227],[-121.036945962543,50.4606499013035],[-121.036778168632,50.4606951083174]]]}},{"type":"Feature","id":"801543391","properties":{"name":"iSP_4KPH_%TR_CR1_PermissionBlocker_DO_NOT_DELETE_","oid":"801543391","speedLimit":1.1111112},"geometry":{"type":"Polygon","coordinates":[[[-121.033157004155,50.4645229650329],[-121.033156158845,50.4644735339044],[-121.033177714235,50.4644314725078],[-121.03310966683,50.464459064065],[-121.033157004155,50.4645229650329]]]}},{"type":"Feature","id":"806473874","properties":{"name":"iSP_4KPH_%TR_Permission Blocker - DO NOT DELETE","oid":"806473874","speedLimit":1.1111112},"geometry":{"type":"Polygon","coordinates":[[[-121.022721378151,50.4815447988155],[-121.0226882702,50.4815424620713],[-121.022680662416,50.4815711321258],[-121.022702781344,50.4815722106231],[-121.022706867006,50.4815481241823],[-121.022721378151,50.4815447988155]]]}},{"type":"Feature","id":"824566967","properties":{"name":"iSP_4Cr_3KPH","oid":"824566967","speedLimit":0.8333333},"geometry":{"type":"Polygon","coordinates":[[[-121.023304218965,50.4810679232378],[-121.023284072425,50.4810679232378],[-121.023281395612,50.4811860186974],[-121.023306473123,50.4811852996992],[-121.023304218965,50.4810679232378]]]}},{"type":"Feature","id":"826307302","properties":{"name":"iSP_4KPH_TR%_CRUSHER POCKETS","oid":"826307302","speedLimit":1.1111112},"geometry":{"type":"Polygon","coordinates":[[[-121.023299428878,50.4813211004904],[-121.023338876649,50.4814767636078],[-121.023543582403,50.4814373085797],[-121.023462573588,50.4811884453165],[-121.02305428916,50.4811891643147],[-121.023059642786,50.4813598365202],[-121.023284495079,50.4813258638537],[-121.023299428878,50.4813211004904]]]}},{"type":"Feature","id":"883050998","properties":{"name":"iSP_22kph_%TR_4CR_Brake_Temp_CTRL_NOREMOVE","oid":"883050998","speedLimit":6.111111},"geometry":{"type":"Polygon","coordinates":[[[-121.031800705263,50.4745586524886],[-121.03218997023,50.4743120360948],[-121.032491604792,50.4745743805749],[-121.032793239354,50.474801763766],[-121.032971036092,50.4748841789384],[-121.033179827508,50.4749343290651],[-121.033463710573,50.4749591345041],[-121.033667571017,50.4749215668465],[-121.033828743338,50.4748621596175],[-121.033919895866,50.4748101221204],[-121.03400921689,50.4747469401507],[-121.034059653682,50.4746577843699],[-121.034053877402,50.4745475978908],[-121.034057681294,50.4744832475489],[-121.033995551055,50.4743792624295],[-121.033877207742,50.4742591897247],[-121.033510343474,50.4739372582661],[-121.033062047735,50.4735596044444],[-121.032948776279,50.4734250619001],[-121.032823811376,50.473220506903],[-121.032606989522,50.4728145425259],[-121.032253509318,50.4722086067654],[-121.032488505324,50.4721557603953],[-121.032431446941,50.4722052813985],[-121.032903974882,50.4730484865758],[-121.033043169159,50.4733092133099],[-121.03325097438,50.4735465726014],[-121.033743930631,50.4739612548321],[-121.034098960568,50.4742707835712],[-121.03420434247,50.4743940917681],[-121.034257033422,50.4744613181028],[-121.034264077666,50.4745924454055],[-121.03423914104,50.4746784555691],[-121.034184618585,50.4747912484168],[-121.034087126237,50.4748754610848],[-121.033974277436,50.4749372949328],[-121.033791690611,50.4750157556149],[-121.033532180632,50.4750640183713],[-121.033264217561,50.4750677032372],[-121.033072614102,50.475025911465],[-121.032808877577,50.4749161743597],[-121.032658130739,50.4748347478099],[-121.032496535763,50.4747049686289],[-121.032146014142,50.4744126958474],[-121.031800705263,50.4745586524886]]]}},{"type":"Feature","id":"883053336","properties":{"name":"iSP_22kph_%TR_Brake_Temp_CTRL_NOREMOVE","oid":"883053336","speedLimit":6.111111},"geometry":{"type":"Polygon","coordinates":[[[-121.032467231705,50.472144885547],[-121.032252382239,50.4722251437247],[-121.031489772298,50.4710079695917],[-121.030817892229,50.4699230012587],[-121.030662637074,50.4696598479056],[-121.030597830022,50.4694573600284],[-121.030551478891,50.4692564000224],[-121.030597830022,50.46897257547],[-121.030724062889,50.468623951202],[-121.030885798749,50.4683751778135],[-121.031090222733,50.4680974647462],[-121.03168954708,50.4675361967509],[-121.03243341933,50.4668933224562],[-121.032789717231,50.4665558426607],[-121.033148832831,50.4662220477313],[-121.033485688617,50.4658703677208],[-121.033780701589,50.4660337600691],[-121.033588675476,50.4659929569194],[-121.0329205993,50.46665173905],[-121.032555848304,50.4669909264662],[-121.032179826517,50.4673073755634],[-121.031775627751,50.4676680430518],[-121.031383263316,50.468034103027],[-121.031148408195,50.4682860220327],[-121.031010059227,50.4684695463316],[-121.030906367944,50.4686541491278],[-121.030829867445,50.4688526825148],[-121.03076900517,50.4691909711832],[-121.030777740034,50.4694002895436],[-121.030874950612,50.469630009479],[-121.031028937803,50.4699347748548],[-121.031331840329,50.4704034718277],[-121.031531896881,50.4707106638225],[-121.031751536434,50.4710825656583],[-121.032147282106,50.4717284956955],[-121.032382559882,50.4721447956722],[-121.032467231705,50.472144885547]]]}},{"type":"Feature","id":"883059532","properties":{"name":"iSP_22kph_%TR_Brake_CTRL_NOREMOVE","oid":"883059532","speedLimit":6.111111},"geometry":{"type":"Polygon","coordinates":[[[-121.027263648077,50.4773216728216],[-121.027031469769,50.4772095090973],[-121.027335922029,50.4769437493756],[-121.027717860981,50.4766321535166],[-121.028034570227,50.4763224450279],[-121.028191797771,50.4761684895313],[-121.028622623782,50.4756920633275],[-121.028908620121,50.4753254641036],[-121.029265199792,50.4748873245556],[-121.029473991208,50.4746564362482],[-121.029692785451,50.4745401382841],[-121.029802816555,50.4744879210374],[-121.029953563393,50.4745923555307],[-121.029789996029,50.4745417560301],[-121.029557395066,50.4747912484168],[-121.029253224576,50.475172766854],[-121.029074300759,50.4754777119794],[-121.028854520321,50.4757744784999],[-121.028697433662,50.4759744498833],[-121.028410310244,50.476270317656],[-121.028043023321,50.4765696905451],[-121.027245333041,50.4772191256987],[-121.027263648077,50.4773216728216]]]}},{"type":"Feature","id":"884401102","properties":{"name":"iSP_30KPH_MAIN INT_LIMIT_POLICY_SEPT_8_NS","oid":"884401102","speedLimit":8.333333},"geometry":{"type":"Polygon","coordinates":[[[-121.036993722523,50.4611009828197],[-121.037109811677,50.4611074538038],[-121.0382960625,50.4609917849631],[-121.038279719852,50.4603976227986],[-121.038121224344,50.4605655088859],[-121.037034156488,50.4607081401603],[-121.036746469531,50.4605374679549],[-121.036993722523,50.4611009828197]]]}},{"type":"Feature","id":"903864124","properties":{"name":"SP_15KPH_%TR_OLD_GARBAGEDUMP_SEP_8_NS","oid":"903864124","speedLimit":4.1666665},"geometry":{"type":"Polygon","coordinates":[[[-121.042486261072,50.4669867023516],[-121.042133062638,50.4673284062617],[-121.042024581268,50.4669787933711],[-121.041687443713,50.4668094692873],[-121.041835936393,50.4667099779069],[-121.042486261072,50.4669867023516]]]}},{"type":"Feature","id":"910445950","properties":{"name":"SP_22KPH_%TR_1635_FLATS_SEP_7_NS","oid":"910445950","speedLimit":6.111111},"geometry":{"type":"Polygon","coordinates":[[[-121.018918472157,50.4576031462929],[-121.015250533894,50.4587001578463],[-121.014499899169,50.457879331489],[-121.017482714184,50.4564154510874],[-121.017775050343,50.4542394928113],[-121.018442844749,50.454009772876],[-121.019221656453,50.4539287058253],[-121.019247015735,50.4568504450182],[-121.019159667099,50.4570727952216],[-121.019197706021,50.4574047926555],[-121.018918472157,50.4576031462929]]]}},{"type":"Feature","id":"917773475","properties":{"name":"SP_15KPH_%TR_1200_CORNER_Sept_8_NS","oid":"917773475","speedLimit":4.1666665},"geometry":{"type":"Polygon","coordinates":[[[-121.037100090619,50.4446822088046],[-121.036925956888,50.4448617786132],[-121.036630380377,50.4448202564653],[-121.03641581268,50.444869597719],[-121.036324237498,50.4449672916038],[-121.036255626554,50.4450817920724],[-121.036243369568,50.445144614543],[-121.036264502302,50.4452669341173],[-121.036317193253,50.4453511467853],[-121.036185324991,50.4453949158027],[-121.036090227686,50.4451939557967],[-121.036164192256,50.4449313416922],[-121.03626098018,50.4447910471621],[-121.036517813345,50.4447147434746],[-121.036714911314,50.4447114181078],[-121.036924266269,50.4447697468394],[-121.037094877878,50.444683287302],[-121.037100090619,50.4446822088046]]]}},{"type":"Feature","id":"922262468","properties":{"name":"SP_20KPH_HMT_DUMP_SEP_8_NS","oid":"922262468","speedLimit":5.5555553},"geometry":{"type":"Polygon","coordinates":[[[-121.012503560195,50.4364261318494],[-121.012483695425,50.4374168215391],[-121.014764199234,50.4387146133489],[-121.017333939734,50.4379495093547],[-121.016525260432,50.4359053973794],[-121.014773215867,50.4353084490968],[-121.013005110425,50.4354270838052],[-121.012503560195,50.4364261318494]]]}},{"type":"Feature","id":"925542039","properties":{"name":"SP_12KPH_DRAINAGE DITCHSEPT_7_NS","oid":"925542039","speedLimit":3.3333333},"geometry":{"type":"Polygon","coordinates":[[[-121.018173331943,50.4555310832614],[-121.018490041189,50.4557203595461],[-121.018470035534,50.4558353093885],[-121.018125994618,50.4556367760016],[-121.018173331943,50.4555310832614]]]}},{"type":"Feature","id":"929009157","properties":{"name":"iSP_22kph_Long_Single_Lane_Aug30","oid":"929009157","speedLimit":6.111111},"geometry":{"type":"Polygon","coordinates":[[[-121.005871262839,50.4378878552562],[-121.004811949307,50.438106790218],[-121.005177404727,50.4381972042458],[-121.007937621606,50.4431701555215],[-121.008526379586,50.4445345445426],[-121.008213474232,50.4465093630632],[-121.007835480057,50.4466798555191],[-121.008936918173,50.4466466018508],[-121.008826182644,50.4465925871086],[-121.009406205761,50.4448172905976],[-121.008767292758,50.4430680577724],[-121.008265601644,50.4415398270291],[-121.007262078531,50.4401558453061],[-121.006442410207,50.4389836984375],[-121.005692198137,50.4380211395536],[-121.005871262839,50.4378878552562]]]}},{"type":"Feature","id":"930116666","properties":{"name":"SP_15KPH_9023 Rough_SEP_8_NS","oid":"930116666","speedLimit":4.1666665},"geometry":{"type":"Polygon","coordinates":[[[-121.043598829094,50.4685539387491],[-121.043298603381,50.4689175721052],[-121.04255008193,50.4684622664745],[-121.042345517061,50.4680403043867],[-121.043037402785,50.4679070200893],[-121.043598829094,50.4685539387491]]]}},{"type":"Feature","id":"933252378","properties":{"name":"SP_20KPH_%TR_1615_ROUGH_SECTION_SEP_8_DS","oid":"933252378","speedLimit":5.5555553},"geometry":{"type":"Polygon","coordinates":[[[-121.00736422008,50.431411568551],[-121.00754666602,50.4321453961221],[-121.007055400389,50.4322074097196],[-121.007400709268,50.4321236464256],[-121.007259683488,50.4314844569968],[-121.00691183868,50.4314549780692],[-121.00736422008,50.431411568551]]]}},{"type":"Feature","id":"933252478","properties":{"name":"SP_30KPH_%TR_1605_PATCH_SEP_8_NS","oid":"933252478","speedLimit":8.333333},"geometry":{"type":"Polygon","coordinates":[[[-121.006595552089,50.433340640809],[-121.007213614127,50.4334381549443],[-121.006982703782,50.4339624844054],[-121.006680505681,50.4343785147577],[-121.006276306915,50.434775042283],[-121.005743057584,50.4345236625259],[-121.00621516287,50.4346038308289],[-121.006704174343,50.4339776732431],[-121.00689775019,50.4335508579172],[-121.006595552089,50.433340640809]]]}},{"type":"Feature","id":"933252549","properties":{"name":"SP_35KPH_%TR_1590_ROUGH_SEP_8_NS","oid":"933252549","speedLimit":9.722222},"geometry":{"type":"Polygon","coordinates":[[[-121.004364921533,50.4363926085568],[-121.00478151817,50.4364497689163],[-121.004885772993,50.4362109716283],[-121.005083716272,50.4359567158783],[-121.004586251704,50.4358321494345],[-121.004800255861,50.4359806225695],[-121.004629080713,50.4363678929925],[-121.004364921533,50.4363926085568]]]}},{"type":"Feature","id":"933371104","properties":{"name":"SP_12KPH_1590_HMT_INTERSECT_SEPT_8_NS","oid":"933371104","speedLimit":3.3333333},"geometry":{"type":"Polygon","coordinates":[[[-121.006263345504,50.4373385406065],[-121.006006794109,50.4376212866615],[-121.006185436157,50.4377485493486],[-121.006390141911,50.4379881555097],[-121.006555963433,50.4382640710814],[-121.007089494533,50.4381534352284],[-121.006747566891,50.4380707504316],[-121.00630983752,50.4375948634764],[-121.006263345504,50.4373385406065]]]}}]}