{"type":"FeatureCollection","features":[{"type":"Feature","id":"702602533","properties":{"name":"iSP_4KPH_%TR_CR01_Slow Bump","oid":"702602533","speedLimit":1.1111112},"geometry":{"type":"Polygon","coordinates":[[[-121.033357561329,50.4648082199168],[-121.033652288343,50.4646912026441],[-121.033695680274,50.464731916027],[-121.03336784578,50.4648700539287],[-121.033357561329,50.4648082199168]]]}},{"type":"Feature","id":"707947583","properties":{"name":"iSP_25KPH_%TR_Permission Gate 1 From West Dump","oid":"707947583","speedLimit":6.9444447},"geometry":{"type":"Polygon","coordinates":[[[-121.038626863315,50.4619783252445],[-121.038853543891,50.46179983346],[-121.038138563206,50.4614086075094],[-121.037990917934,50.4616713121852],[-121.038190408111,50.461567236915],[-121.038665324345,50.461846388719],[-121.038626863315,50.4619783252445]]]}},{"type":"Feature","id":"742345972","properties":{"name":"iSP_4KPH_%TR_CR01_Pit Side_Slow Bump","oid":"742345972","speedLimit":1.1111112},"geometry":{"type":"Polygon","coordinates":[[[-121.033397431188,50.4648831756812],[-121.033704696779,50.4647446782795],[-121.033754851089,50.4647767636607],[-121.033473367068,50.4649186763131],[-121.033397431188,50.4648831756812]]]}},{"type":"Feature","id":"776427243","properties":{"name":"iSP_7KPH_%TR_CR1_PermissionBlocker","oid":"776427243","speedLimit":1.9444444},"geometry":{"type":"Polygon","coordinates":[[[-121.034098605349,50.4652131967451],[-121.034050141634,50.465233508499],[-121.0340290092,50.465274940882],[-121.034114665999,50.4652258691225],[-121.034098605349,50.4652131967451]]]}},{"type":"Feature","id":"794004438","properties":{"name":"iSP_11KPH_%TR_Lower_Fuel_Bay","oid":"794004438","speedLimit":3.0555556},"geometry":{"type":"Polygon","coordinates":[[[-121.036775239445,50.4606958087465],[-121.036777352688,50.4607256472523],[-121.036747626398,50.4606711829918],[-121.037123783723,50.4605994627279],[-121.037533752944,50.4605564125946],[-121.037541501503,50.4605817573495],[-121.036943030971,50.4606506016128],[-121.036775239445,50.4606958087465]]]}},{"type":"Feature","id":"801543391","properties":{"name":"iSP_4KPH_%TR_CR01_PermissionBlocker_2","oid":"801543391","speedLimit":1.1111112},"geometry":{"type":"Polygon","coordinates":[[[-121.033154126431,50.4645236756117],[-121.033153281133,50.4644742443522],[-121.033174836216,50.464432182844],[-121.033106789779,50.4644597744744],[-121.033154126431,50.4645236756117]]]}},{"type":"Feature","id":"806473874","properties":{"name":"iSP_4KPH_%TR_CR04_PermissionBlocker","oid":"806473874","speedLimit":1.1111112},"geometry":{"type":"Polygon","coordinates":[[[-121.022718648737,50.4815455545283],[-121.022685541257,50.4815432177778],[-121.02267793358,50.4815718879084],[-121.022700052195,50.4815729664086],[-121.022704137799,50.4815488799039],[-121.022718648737,50.4815455545283]]]}},{"type":"Feature","id":"824566967","properties":{"name":"iSP_3KPH_%TR_CR04","oid":"824566967","speedLimit":0.8333333},"geometry":{"type":"Polygon","coordinates":[[[-121.023301481268,50.4810686776861],[-121.023281335014,50.4810686776861],[-121.023278658239,50.4811867734589],[-121.023303735394,50.4811860544587],[-121.023301481268,50.4810686776861]]]}},{"type":"Feature","id":"826307302","properties":{"name":"iSP_4KPH_%TR_CR04_Pockets","oid":"826307302","speedLimit":1.1111112},"geometry":{"type":"Polygon","coordinates":[[[-121.023296691249,50.48132185561],[-121.023336138459,50.4814775191401],[-121.023540841304,50.4814380640075],[-121.02345983364,50.4811892000844],[-121.023051555014,50.4811899190845],[-121.023056908564,50.4813605917425],[-121.023281757662,50.4813266189859],[-121.023296691249,50.48132185561]]]}},{"type":"Feature","id":"883050998","properties":{"name":"iSP_22KPH_%TR_4CR_Brake_Temp_Ctrl","oid":"883050998","speedLimit":6.111111},"geometry":{"type":"Polygon","coordinates":[[[-121.031797846814,50.4745593896773],[-121.032187106249,50.4743127726297],[-121.032488736524,50.4745751178054],[-121.0327903668,50.4748025015994],[-121.032968161011,50.4748849169903],[-121.03317694946,50.47493506725],[-121.03346082849,50.4749598727548],[-121.033664686037,50.4749223049975],[-121.033825856067,50.474862897611],[-121.0339170073,50.474810859976],[-121.034006327054,50.4747476778388],[-121.03405676313,50.4746585218215],[-121.034050986931,50.4745483350502],[-121.034054790769,50.4744839845378],[-121.033992661413,50.4743799991427],[-121.033874319783,50.4742599261194],[-121.033507460728,50.4739379938072],[-121.03305917136,50.4735603389842],[-121.032945901514,50.4734257960831],[-121.032820938387,50.4732212405436],[-121.032604119614,50.4728152750901],[-121.032250644434,50.4722093377229],[-121.032485637101,50.4721564912127],[-121.032428579529,50.4722060123473],[-121.032901100754,50.4730492197603],[-121.033040293053,50.4733099471857],[-121.033248095321,50.4735473071066],[-121.033741044565,50.4739619904368],[-121.034096069457,50.4742715199967],[-121.034201449862,50.4743948285205],[-121.034254140064,50.4744620550335],[-121.034261184209,50.4745931826839],[-121.034236247936,50.4746791930755],[-121.034181726257,50.4747919862223],[-121.034084235294,50.4748761991136],[-121.033971388096,50.4749380331256],[-121.033788803866,50.4750164940157],[-121.033529297576,50.4750647569001],[-121.033261338313,50.4750684417758],[-121.033069737578,50.4750266498927],[-121.032806004801,50.4749169124965],[-121.032655260105,50.4748354857307],[-121.032493667426,50.4747057062056],[-121.032143150786,50.4744134326491],[-121.031797846814,50.4745593896773]]]}},{"type":"Feature","id":"883053336","properties":{"name":"iSP_22KPH_%TR_Brake_Temp_Ctrl","oid":"883053336","speedLimit":6.111111},"geometry":{"type":"Polygon","coordinates":[[[-121.032464363784,50.4721456163356],[-121.032249517371,50.4722258747261],[-121.031486918268,50.4710086973657],[-121.030815047748,50.469923726156],[-121.0306597948,50.4696605721051],[-121.030594988669,50.4694580836909],[-121.030548638197,50.469257123152],[-121.030594988669,50.4689732978472],[-121.030721219741,50.4686246726548],[-121.030882953303,50.4683758986066],[-121.031087374382,50.4680981848029],[-121.031686690211,50.4675369153194],[-121.032430551889,50.4668940393201],[-121.032786844727,50.4665565586298],[-121.033145955223,50.4662227628153],[-121.033482806222,50.4658710818723],[-121.033777815001,50.4660344746539],[-121.033585791617,50.465993671396],[-121.032917724935,50.4666524552734],[-121.032552979124,50.466991643589],[-121.032176962681,50.4673080935252],[-121.031772769659,50.4676687619699],[-121.0313804108,50.4680348229157],[-121.031145559017,50.4682867425894],[-121.031007212015,50.4684702673749],[-121.030903522206,50.4686548706606],[-121.030827022794,50.468853404574],[-121.030766161384,50.4691916941394],[-121.030774896124,50.4694010130549],[-121.03087210532,50.4696307335993],[-121.031026090323,50.4699354997832],[-121.031328988544,50.4704041979989],[-121.031529042253,50.4707113908083],[-121.031748678684,50.4710832936302],[-121.032144418732,50.4717292253801],[-121.032379693165,50.4721455264606],[-121.032464363784,50.4721456163356]]]}},{"type":"Feature","id":"883059532","properties":{"name":"iSP_22KPH_%TR_Brake_Ctrl","oid":"883059532","speedLimit":6.111111},"geometry":{"type":"Polygon","coordinates":[[[-121.027260854109,50.4773224173366],[-121.0270286791,50.4772102533149],[-121.027333127033,50.4769444928886],[-121.027715060558,50.4766328962033],[-121.028031765303,50.4763231868934],[-121.028188990612,50.4761692309886],[-121.028619810501,50.4756928035215],[-121.028905802775,50.4753262033256],[-121.029262377378,50.4748880626159],[-121.029471165827,50.4746571736963],[-121.02968995696,50.4745408754238],[-121.0297999865,50.4744886580387],[-121.029950731196,50.4745930928089],[-121.029787166157,50.4745424931741],[-121.0295545685,50.4747919862223],[-121.029250402332,50.4751735056711],[-121.029071481057,50.4754784516051],[-121.028851703743,50.4757752189124],[-121.028694619317,50.4759751908261],[-121.02840749998,50.4762710593833],[-121.028040218276,50.4765704330662],[-121.027242539333,50.4772198699418],[-121.027260854109,50.4773224173366]]]}},{"type":"Feature","id":"884401102","properties":{"name":"iSP_30KPH_%TR_Maint_Limit_Policy","oid":"884401102","speedLimit":8.333333},"geometry":{"type":"Polygon","coordinates":[[[-121.036990790272,50.461101684325],[-121.037106877776,50.4611081553263],[-121.03829311174,50.4609924861789],[-121.038276769325,50.460398322439],[-121.038118276069,50.4605662089715],[-121.037031223662,50.4607088406241],[-121.036743540794,50.4605381679661],[-121.036990790272,50.461101684325]]]}},{"type":"Feature","id":"908328496","properties":{"name":"SP_25KPH_%TR_1445_SOFT_GROUND_SEPT_24_DS","oid":"908328496","speedLimit":6.9444447},"geometry":{"type":"Polygon","coordinates":[[[-121.039187154583,50.4666751037778],[-121.038824944664,50.4674281665484],[-121.038450196167,50.4678946178886],[-121.037913291459,50.468238299955],[-121.037178305403,50.468026194914],[-121.038487248368,50.4663927164732],[-121.039187154583,50.4666751037778]]]}},{"type":"Feature","id":"910445950","properties":{"name":"SP_22KPH_%TR_1635_FLATS_SEP_24_DS","oid":"910445950","speedLimit":6.111111},"geometry":{"type":"Polygon","coordinates":[[[-121.017368761736,50.4554942022407],[-121.018001889459,50.4544145336569],[-121.018147139723,50.4539988617015],[-121.018531750022,50.4537518851538],[-121.018947777207,50.4536884333915],[-121.01886564248,50.4543420045179],[-121.018260832218,50.4560724581025],[-121.018274920507,50.4557011844057],[-121.017368761736,50.4554942022407]]]}},{"type":"Feature","id":"915576987","properties":{"name":"iSP_15KPH_%TR_Preventing Shifting","oid":"915576987","speedLimit":4.1666665},"geometry":{"type":"Polygon","coordinates":[[[-121.036996284705,50.444863605435],[-121.037510366383,50.445313519772],[-121.037979647302,50.4457959688654],[-121.038523596154,50.4462192801972],[-121.03945624091,50.4468503825692],[-121.039913546782,50.4471001452425],[-121.04046947068,50.447195502636],[-121.04122263063,50.4473232150357],[-121.041641052824,50.4475100651968],[-121.042319544839,50.44809551106],[-121.042702182778,50.4485282592687],[-121.042845601564,50.4487952779453],[-121.04300705336,50.4493920480607],[-121.0431862564,50.4501985864667],[-121.043323758105,50.4505017349003],[-121.043685404492,50.4511691467794],[-121.043855872794,50.4514894613413],[-121.044124818238,50.4522540281141],[-121.044381929518,50.4529386061215],[-121.044695675722,50.4537985302878],[-121.044734559401,50.4541951487395],[-121.044570149064,50.4550722390341],[-121.044214560641,50.4568397211259],[-121.044050150304,50.457207759322],[-121.043003953936,50.4583994121775],[-121.041904081186,50.4595377691476],[-121.041342240206,50.4600010748622],[-121.040370852655,50.4605979348526],[-121.039922422405,50.4607313992534],[-121.039133337318,50.4608076132682],[-121.038495983107,50.4608391593993],[-121.038643769262,50.4611439255832],[-121.03875661646,50.4609499752957],[-121.039877621644,50.4608801424072],[-121.04070559041,50.4606322671092],[-121.041509609084,50.4600583252483],[-121.042872510196,50.4587006732357],[-121.044241328391,50.4571428695595],[-121.044426730279,50.4562905847697],[-121.044812326758,50.4544219932834],[-121.044809227335,50.4537870262856],[-121.044259361401,50.4523017517484],[-121.043831922702,50.4511863129077],[-121.043344749656,50.4503378028686],[-121.043048895579,50.4493100820449],[-121.042926327462,50.4486922811754],[-121.042238818941,50.4478876301448],[-121.041545393339,50.4473918795489],[-121.041091046007,50.4472221955161],[-121.040457495634,50.4471307027484],[-121.039916505323,50.447020066602],[-121.038819591114,50.4463336910943],[-121.038194916363,50.4458721828801],[-121.037151819419,50.4449073745685],[-121.037375964103,50.444697696153],[-121.036996284705,50.444863605435]]]}},{"type":"Feature","id":"917773475","properties":{"name":"SP_15KPH_%TR_1200_CORNER_Sept_24_DS","oid":"917773475","speedLimit":4.1666665},"geometry":{"type":"Polygon","coordinates":[[[-121.037097156857,50.4446828667751],[-121.0369230256,50.4448624370598],[-121.036627453289,50.4448209148018],[-121.036412888642,50.4448702561863],[-121.036321314762,50.4449679503302],[-121.036252704792,50.4450824511024],[-121.036240447981,50.4451452737395],[-121.036261580415,50.4452675936382],[-121.036314270617,50.4453518065295],[-121.036182404228,50.4453955756629],[-121.036087308275,50.4451946151241],[-121.036161271794,50.4449320003233],[-121.036258058342,50.4447917054211],[-121.036514887857,50.4447154015314],[-121.036711983026,50.4447120761558],[-121.036921335005,50.444770405042],[-121.03709194419,50.4446839452753],[-121.037097156857,50.4446828667751]]]}},{"type":"Feature","id":"926367691","properties":{"name":"SP_30KPH_%TR_24SH_EMPTY_LANE_SEP_24_DS","oid":"926367691","speedLimit":8.333333},"geometry":{"type":"Polygon","coordinates":[[[-121.03878239803,50.4508578197192],[-121.038611225314,50.4512059056615],[-121.038637147766,50.4520124440674],[-121.038943145411,50.4544280149095],[-121.039191521953,50.4545002744235],[-121.038780425669,50.4517190021357],[-121.03878239803,50.4508578197192]]]}},{"type":"Feature","id":"929009157","properties":{"name":"iSP_22KPH_%TR_Long_Single_Lane","oid":"929009157","speedLimit":6.111111},"geometry":{"type":"Polygon","coordinates":[[[-121.005680130703,50.4380562918687],[-121.004750444488,50.4382243581512],[-121.005174924647,50.4381978450211],[-121.007935102298,50.4431708094827],[-121.00852385191,50.4445352021216],[-121.008210951003,50.4465100258784],[-121.0078329622,50.4466805187864],[-121.008934384662,50.44664726503],[-121.008823650708,50.4465932501445],[-121.009403665581,50.4448179489262],[-121.008764761658,50.443068711463],[-121.008263077674,50.4415404766675],[-121.007259568823,50.4401564912748],[-121.006439912148,50.4389843412982],[-121.005860883455,50.4383133344184],[-121.005680130703,50.4380562918687]]]}},{"type":"Feature","id":"934051091","properties":{"name":"iSP_17KPH_%TR_Ramp_Permission Blocker","oid":"934051091","speedLimit":4.7222223},"geometry":{"type":"Polygon","coordinates":[[[-121.039511185238,50.4610300539362],[-121.039463144172,50.4607720227613],[-121.039015700102,50.4607926041402],[-121.039074589151,50.4610453326891],[-121.039162077428,50.4609002744111],[-121.039378050904,50.4608871526585],[-121.039511185238,50.4610300539362]]]}},{"type":"Feature","id":"936169885","properties":{"name":"SP_15KPH_%TR_24shl_loadplan_Sept_24_DS","oid":"936169885","speedLimit":4.1666665},"geometry":{"type":"Polygon","coordinates":[[[-121.039167149212,50.4546370642],[-121.038617283278,50.4545685794367],[-121.038152792378,50.4553926434711],[-121.038668282886,50.4555197267456],[-121.038840300899,50.4552449788175],[-121.039000343866,50.454947762135],[-121.0390857189,50.4547920986049],[-121.039167149212,50.4546370642]]]}},{"type":"Feature","id":"936513295","properties":{"name":"SP_30KPH_%TR_1635_FLATS_SEP_24_DS","oid":"936513295","speedLimit":8.333333},"geometry":{"type":"Polygon","coordinates":[[[-121.017284936414,50.4555555868776],[-121.018049085229,50.455785577047],[-121.017433004335,50.4574541966197],[-121.015226073807,50.4585173282003],[-121.014497286598,50.457880024452],[-121.016176328924,50.4566197969584],[-121.017284936414,50.4555555868776]]]}},{"type":"Feature","id":"937786749","properties":{"name":"SP_32KPH_%TR_24SH_Loaded_LANE_SEP_24_DS","oid":"937786749","speedLimit":8.888889},"geometry":{"type":"Polygon","coordinates":[[[-121.03840849483,50.4510856528882],[-121.038211399662,50.4510395470043],[-121.038251973935,50.4516611226245],[-121.038599672917,50.4544467089131],[-121.038807897833,50.4542673183785],[-121.038402014217,50.4516755925023],[-121.03840849483,50.4510856528882]]]}},{"type":"Feature","id":"938065675","properties":{"name":"SP_8KPH_CR01_YARD_RUTIING_SEP_24_DS","oid":"938065675","speedLimit":2.2222223},"geometry":{"type":"Polygon","coordinates":[[[-121.034287670193,50.4648015691655],[-121.034097478286,50.4648583701764],[-121.033939266797,50.4649073520609],[-121.033827828428,50.4650053158299],[-121.034042674841,50.4650692169672],[-121.033962653357,50.4650116969561],[-121.034241037955,50.4648884783073],[-121.034317678249,50.4649377298168],[-121.034287670193,50.4648015691655]]]}},{"type":"Feature","id":"938165680","properties":{"name":"SP_10KPH_%TR_22SH_Sept_24_DS","oid":"938165680","speedLimit":2.7777777},"geometry":{"type":"Polygon","coordinates":[[[-121.034078881744,50.4466117643981],[-121.035053650485,50.4472509555217],[-121.035495459239,50.4474476919347],[-121.035793567442,50.4469125760813],[-121.03485331501,50.4461957329426],[-121.034078881744,50.4466117643981]]]}},{"type":"Feature","id":"940771585","properties":{"name":"SP_20KPH_%TR_1660_HMT_SEPT24_DS","oid":"940771585","speedLimit":5.5555553},"geometry":{"type":"Polygon","coordinates":[[[-121.002708346946,50.4281188111971],[-121.002603107424,50.4277116773684],[-121.002231458351,50.4276982859908],[-121.002504912047,50.4277966991348],[-121.002532947743,50.4281143174462],[-121.002673267105,50.4280829510652],[-121.002708346946,50.4281188111971]]]}},{"type":"Feature","id":"940778315","properties":{"name":"SP_25KPH_%TR_HMT_SPILLING_ROCK_IN_CORNER_SEPT24_DS","oid":"940778315","speedLimit":6.9444447},"geometry":{"type":"Polygon","coordinates":[[[-121.0047841155,50.4367083463581],[-121.00477002721,50.437043939673],[-121.004987409515,50.4372765362179],[-121.005120684733,50.4371691355722],[-121.004889355021,50.4369365390272],[-121.004882310877,50.4367575978676],[-121.005197888558,50.4367978618754],[-121.004798062906,50.4366994487313],[-121.0047841155,50.4367083463581]]]}},{"type":"Feature","id":"944340040","properties":{"name":"SP_11KPH_%TR_1590-1635_LOADED_CORNER_SEPT24_DS","oid":"944340040","speedLimit":3.0555556},"geometry":{"type":"Polygon","coordinates":[[[-121.012391650871,50.4565115874374],[-121.012740054267,50.4562913037698],[-121.012333043587,50.4564637739282],[-121.012388410564,50.4565115874374],[-121.012391650871,50.4565115874374]]]}},{"type":"Feature","id":"944724972","properties":{"name":"SP_20KPH_%TR_21SH_LOADED_SEPT 24_DS","oid":"944724972","speedLimit":5.5555553},"geometry":{"type":"Polygon","coordinates":[[[-121.039039509311,50.4521929131023],[-121.03937593766,50.4521829369754],[-121.039282532302,50.4516331714941],[-121.039211668206,50.4512650434229],[-121.038911305877,50.4506405918022],[-121.038816773456,50.450965759615],[-121.038884256362,50.4509786117425],[-121.039056415258,50.4512929945533],[-121.039100229838,50.4515750223578],[-121.039164472437,50.4519367693028],[-121.039198143449,50.4521455489682],[-121.039039509311,50.4521929131023]]]}},{"type":"Feature","id":"945133230","properties":{"name":"SP_10KPH_%TR_21SH_SEPT_24_DS","oid":"945133230","speedLimit":2.7777777},"geometry":{"type":"Polygon","coordinates":[[[-121.040085423913,50.4526999879504],[-121.039649814006,50.4531691355411],[-121.039248156876,50.4528985218638],[-121.039140663228,50.4522560952395],[-121.039712084245,50.4522163704819],[-121.039762942969,50.4525628386739],[-121.040091059228,50.4526999879504],[-121.040085423913,50.4526999879504]]]}}]}