{"type":"FeatureCollection","features":[{"type":"Feature","id":"702602533","properties":{"name":"iSP_4KPH_%TR_CR01_SLOW BUMP","oid":"702602533","speedLimit":1.1111112},"geometry":{"type":"Polygon","coordinates":[[[-121.033359844883,50.4648090211811],[-121.033654601902,50.4646920013217],[-121.033697998251,50.4647327156046],[-121.033370130381,50.46487085656],[-121.033359844883,50.4648090211811]]]}},{"type":"Feature","id":"707947583","properties":{"name":"iSP_22KPH_%TR_Permission Gate 1 from west dump_Jun","oid":"707947583","speedLimit":6.111111},"geometry":{"type":"Polygon","coordinates":[[[-121.038629683327,50.4619790639498],[-121.038856386981,50.4618005682195],[-121.037982119628,50.4613520819685],[-121.037744989578,50.4615433402334],[-121.037961125939,50.4614975928383],[-121.038668148273,50.4618471245077],[-121.038629683327,50.4619790639498]]]}},{"type":"Feature","id":"742345972","properties":{"name":"iSP_4KPH_%TR_CR01_PITSIDE_SLOW BUMP","oid":"742345972","speedLimit":1.1111112},"geometry":{"type":"Polygon","coordinates":[[[-121.033399718801,50.4648839786027],[-121.033707015674,50.4647454781392],[-121.03375717509,50.4647775642297],[-121.033475662411,50.4649194800193],[-121.033399718801,50.4648839786027]]]}},{"type":"Feature","id":"776427243","properties":{"name":"iSP_7KPH_%TR_CR1_PermissionBlocker_DO_NOT_DELETE","oid":"776427243","speedLimit":1.9444444},"geometry":{"type":"Polygon","coordinates":[[[-121.034100964348,50.4652140069621],[-121.034052495698,50.465234319165],[-121.034031361113,50.465275752464],[-121.034117026633,50.4652266796197],[-121.034100964348,50.4652140069621]]]}},{"type":"Feature","id":"794004438","properties":{"name":"iSP_11KPH_%TR_LOWER_FUEL_BAY","oid":"794004438","speedLimit":3.0555556},"geometry":{"type":"Polygon","coordinates":[[[-121.036777870946,50.4606965190999],[-121.036779984405,50.4607263582652],[-121.036750255088,50.4606718928007],[-121.03712645071,50.4606001709513],[-121.037536461668,50.4605571198663],[-121.037544211016,50.4605824651815],[-121.036945679555,50.4606513109667],[-121.036777870946,50.4606965190999]]]}},{"type":"Feature","id":"801543391","properties":{"name":"iSP_4KPH_%TR_CR1_PermissionBlocker_DO_NOT_DELETE_","oid":"801543391","speedLimit":1.1111112},"geometry":{"type":"Polygon","coordinates":[[[-121.033156389273,50.4645244705858],[-121.03315554389,50.4644750382335],[-121.033177101167,50.4644329757956],[-121.033109047802,50.4644605680359],[-121.033156389273,50.4645244705858]]]}},{"type":"Feature","id":"806473874","properties":{"name":"iSP_4KPH_%TR_Permission Blocker - DO NOT DELETE","oid":"806473874","speedLimit":1.1111112},"geometry":{"type":"Polygon","coordinates":[[[-121.022719849162,50.4815467257968],[-121.022686738311,50.4815443889947],[-121.02267912986,50.481573059759],[-121.022701250726,50.4815741382831],[-121.022705336746,50.4815500512459],[-121.022719849162,50.4815467257968]]]}},{"type":"Feature","id":"824566967","properties":{"name":"iSP_4Cr_3KPH","oid":"824566967","speedLimit":0.8333333},"geometry":{"type":"Polygon","coordinates":[[[-121.02330274103,50.4810698384125],[-121.023282592725,50.4810698384125],[-121.023279915677,50.481187936796],[-121.023304995385,50.48118721778],[-121.02330274103,50.4810698384125]]]}},{"type":"Feature","id":"826307302","properties":{"name":"iSP_4KPH_TR%_CRUSHER POCKETS","oid":"826307302","speedLimit":1.1111112},"geometry":{"type":"Polygon","coordinates":[[[-121.023297950524,50.4813230219333],[-121.02333740175,50.4814786889046],[-121.023542125435,50.4814392328998],[-121.023461109524,50.4811903634751],[-121.023052789332,50.4811910824912],[-121.023058143427,50.4813617589221],[-121.023283015417,50.4813277854146],[-121.023297950524,50.4813230219333]]]}},{"type":"Feature","id":"849417440","properties":{"name":"iSP_Permissions_35_KPH_June_19_NS","oid":"849417440","speedLimit":9.722222},"geometry":{"type":"Polygon","coordinates":[[[-121.032696359796,50.4660353030265],[-121.033010983325,50.4660159794706],[-121.033217961366,50.4658151043662],[-121.033806770917,50.4653806389279],[-121.03372758667,50.4652518451809],[-121.033963730439,50.4654013106388],[-121.033427475556,50.4658096218689],[-121.033025073049,50.4661891724577],[-121.032696359796,50.4660353030265]]]}},{"type":"Feature","id":"853029148","properties":{"name":"SP_15KPH_%TR_1635 Flats_AUG_17_DS","oid":"853029148","speedLimit":4.1666665},"geometry":{"type":"Polygon","coordinates":[[[-121.018590151156,50.4569718362917],[-121.017426339982,50.4572818220792],[-121.0157886914,50.4579439459691],[-121.01482453161,50.4590974274411],[-121.018349216882,50.4588940357806],[-121.020692478824,50.458988137004],[-121.020240762283,50.4572326593579],[-121.019422994722,50.4570974843436],[-121.018968742031,50.457000866564],[-121.018590151156,50.4569718362917]]]}},{"type":"Feature","id":"883050998","properties":{"name":"iSP_22kph_%TR_4CR_Brake_Temp_CTRL_NOREMOVE","oid":"883050998","speedLimit":6.111111},"geometry":{"type":"Polygon","coordinates":[[[-121.031799971576,50.4745604065061],[-121.032189270641,50.4743137840066],[-121.032490931625,50.4745761349818],[-121.032792592608,50.4748035238025],[-121.032970404921,50.4748859410153],[-121.033179214626,50.4749360923837],[-121.033463122557,50.4749608984368],[-121.033667000859,50.4749233298491],[-121.033828187297,50.4748639211493],[-121.03391934781,50.4748118823639],[-121.034008676658,50.4747486988299],[-121.034059117868,50.4746595408418],[-121.034053341082,50.4745493516346],[-121.034057145307,50.4744849996996],[-121.033995009626,50.4743810120057],[-121.033876655947,50.4742609363281],[-121.033509759543,50.4739389968991],[-121.033061424536,50.4735613337274],[-121.032948143157,50.4734267878521],[-121.032823167309,50.4732222277905],[-121.032606326461,50.4728162533626],[-121.032252815295,50.4722103026002],[-121.032487831885,50.4721574549218],[-121.032430768505,50.4722069771511],[-121.032903337836,50.4730502032045],[-121.033042544306,50.4733109363937],[-121.03325036773,50.4735483015618],[-121.033743367161,50.4739629940592],[-121.034098428197,50.4742725304617],[-121.03420381933,50.4743958417114],[-121.034256514897,50.4744630697106],[-121.034263559759,50.4745942002597],[-121.034238620948,50.4746802125527],[-121.034184093717,50.474793008193],[-121.034086592829,50.4748772229459],[-121.033973734143,50.4749390583248],[-121.033791131324,50.4750175209495],[-121.033531598614,50.4750657849008],[-121.03326361207,50.4750694698579],[-121.033071991828,50.475027677051],[-121.032808232201,50.4749179372288],[-121.032657472158,50.474836508663],[-121.032495863028,50.474706726269],[-121.032145310703,50.4744144462513],[-121.031799971576,50.4745604065061]]]}},{"type":"Feature","id":"883053336","properties":{"name":"iSP_22kph_%TR_Brake_Temp_CTRL_NOREMOVE","oid":"883053336","speedLimit":6.111111},"geometry":{"type":"Polygon","coordinates":[[[-121.032466556403,50.4721465798042],[-121.032251688117,50.472226839969],[-121.031489011375,50.4710096357011],[-121.030817072453,50.4699246405064],[-121.030661803699,50.469661480638],[-121.03059699097,50.4694589877476],[-121.030550635779,50.4692580227662],[-121.03059699097,50.4689741911869],[-121.030723234894,50.4686255582876],[-121.030884984922,50.46837677874],[-121.031089426812,50.468099058797],[-121.031688803656,50.4675377769057],[-121.032432741066,50.4668948866947],[-121.032789070177,50.4665573985439],[-121.033148217233,50.4662235953503],[-121.033485102526,50.4658719066328],[-121.03378014134,50.4660353030265],[-121.033588098406,50.4659944988666],[-121.03291996371,50.4666532973074],[-121.032555180764,50.4669924931212],[-121.03217912604,50.467308950053],[-121.031774891868,50.4676696264709],[-121.031382493064,50.468035695509],[-121.031147617371,50.4682876207518],[-121.031009256284,50.4684711495944],[-121.030905555918,50.468655756961],[-121.030829048719,50.4688542952633],[-121.030768181112,50.4691925923071],[-121.030776916741,50.4694019158499],[-121.030874135834,50.4696316414726],[-121.031028136514,50.4699364143939],[-121.031331065573,50.4704051229708],[-121.031531139649,50.4707123225712],[-121.031750798441,50.4710842336146],[-121.032146578778,50.4717301796438],[-121.032381877163,50.4721464899272],[-121.032466556403,50.4721465798042]]]}},{"type":"Feature","id":"883059532","properties":{"name":"iSP_22kph_%TR_Brake_CTRL_NOREMOVE","oid":"883059532","speedLimit":6.111111},"geometry":{"type":"Polygon","coordinates":[[[-121.027262516968,50.4773234952463],[-121.027030318322,50.4772113287451],[-121.02733479725,50.4769455624436],[-121.027716769659,50.4766339588701],[-121.028033506647,50.4763242427136],[-121.028190747963,50.4761702834054],[-121.028621611712,50.4756938454061],[-121.028907633103,50.475327237106],[-121.029264244009,50.4748890867105],[-121.029473053713,50.4746581926867],[-121.029691867122,50.4745418918432],[-121.029801907864,50.4744896733038],[-121.029952667907,50.4745941103827],[-121.029789086215,50.4745435096293],[-121.029556464877,50.474793008193],[-121.029252267743,50.4751745360758],[-121.029073328253,50.4754794887511],[-121.028853528564,50.475776262619],[-121.028696428145,50.4759762389533],[-121.028409279577,50.4762721140512],[-121.028041960481,50.4765714943522],[-121.027244200327,50.4772209455845],[-121.027262516968,50.4773234952463]]]}},{"type":"Feature","id":"908328496","properties":{"name":"SP_15KPH_%TR_9019_SOFT_GROUND_AUG_17_DS","oid":"908328496","speedLimit":4.1666665},"geometry":{"type":"Polygon","coordinates":[[[-121.039689794136,50.4639776588923],[-121.039875355796,50.4641981271836],[-121.039739671757,50.4650147496438],[-121.039441110513,50.4657765471314],[-121.039206516614,50.4663546360224],[-121.03892937175,50.4669803597257],[-121.037873769653,50.4685923936731],[-121.036178353204,50.4681979235016],[-121.035229410316,50.466817143086],[-121.037882364384,50.4651411167117],[-121.03852147425,50.4648155822025],[-121.039689794136,50.4639776588923]]]}},{"type":"Feature","id":"910445950","properties":{"name":"SP_20KPH_%TR_1635_FLATS_AUG_17_DS","oid":"910445950","speedLimit":5.5555553},"geometry":{"type":"Polygon","coordinates":[[[-121.020225545382,50.4571650718507],[-121.019044403847,50.4569622194522],[-121.018650736968,50.4569235723404],[-121.017842691316,50.4571479053429],[-121.018448690331,50.4564134304646],[-121.018503217561,50.4555089082943],[-121.019218271037,50.4555089082943],[-121.019236446781,50.4564598069988],[-121.019424262797,50.456892834405],[-121.019757625659,50.457062881697],[-121.020225545382,50.4571650718507]]]}},{"type":"Feature","id":"913788494","properties":{"name":"SP_20KPH_%TR_DUST_21SH_AUG_18_DS","oid":"913788494","speedLimit":5.5555553},"geometry":{"type":"Polygon","coordinates":[[[-121.040491217618,50.4520538564987],[-121.041021413919,50.4519651478956],[-121.04119218137,50.4542745375186],[-121.040910809588,50.4551338515558],[-121.040262259608,50.4560699205545],[-121.039700925017,50.4564183736998],[-121.039059983488,50.4561279810992],[-121.039632730755,50.4559005922786],[-121.040320731961,50.4550792063372],[-121.040547012923,50.4542447882302],[-121.040578714801,50.4525628299735],[-121.040491217618,50.4520538564987]]]}},{"type":"Feature","id":"917291012","properties":{"name":"SP_15KPH_%TR_CORNER_RUTS_AUG_17_DS","oid":"917291012","speedLimit":4.1666665},"geometry":{"type":"Polygon","coordinates":[[[-121.04061140296,50.4662226067032],[-121.040685655804,50.4661084629079],[-121.040423727841,50.4659274506214],[-121.040530387049,50.4656666275552],[-121.04002710212,50.4656491015394],[-121.040220554026,50.4657720532812],[-121.040017802902,50.4663117646914],[-121.03993481443,50.4664871147266],[-121.039995963831,50.4668212774282],[-121.040668184547,50.4667404780015],[-121.04055025356,50.466623548019],[-121.040532782302,50.4663785433055],[-121.04061140296,50.4662226067032]]]}},{"type":"Feature","id":"917665392","properties":{"name":"SP_15KPH_%TR_22SH RUTS_AUG 17_NS","oid":"917665392","speedLimit":4.1666665},"geometry":{"type":"Polygon","coordinates":[[[-121.035648438697,50.4455203375552],[-121.035216165975,50.4452084643506],[-121.033734631532,50.4447566526505],[-121.033078613999,50.4452870168523],[-121.035587007502,50.4459574094267],[-121.036007303959,50.4464652145004],[-121.036509884402,50.4462087954074],[-121.035648438697,50.4455203375552]]]}},{"type":"Feature","id":"920440343","properties":{"name":"iSP_17KPH_CAL_PAD_ROAD_LIMIT_AUG_12_DS","oid":"920440343","speedLimit":4.7222223},"geometry":{"type":"Polygon","coordinates":[[[-121.005954627873,50.4378312699687],[-121.005968294905,50.4376135878645],[-121.005586040702,50.4375788054639],[-121.00528578869,50.4376832425428],[-121.005190260364,50.4378355840649],[-121.00528578869,50.4381621072212],[-121.005988725004,50.4392592358115],[-121.007469695858,50.4413706263942],[-121.007674419543,50.4416492451072],[-121.007783614901,50.4421542639938],[-121.007933811356,50.4426635969766],[-121.008118104941,50.4432338665683],[-121.008322828626,50.4436517946379],[-121.008684511832,50.4445617094284],[-121.008759610059,50.4449230149853],[-121.008759610059,50.4451798834633],[-121.008691415797,50.4456195617679],[-121.008493455179,50.4462290177334],[-121.008943903645,50.4462159855678],[-121.009134960298,50.4457328067932],[-121.009319253883,50.4449187008891],[-121.009216821592,50.4444528683763],[-121.008998430876,50.4437998220638],[-121.008773277091,50.443377579898],[-121.008459358048,50.4427375657511],[-121.008295494562,50.4420758912462],[-121.008240967331,50.4417450539937],[-121.007920144324,50.44119644476],[-121.006814523708,50.4398338194993],[-121.006603036956,50.4394942641775],[-121.006227686717,50.4387802812561],[-121.005988725004,50.4383885073948],[-121.005934197773,50.4380576701423],[-121.005954627873,50.4378312699687]]]}},{"type":"Feature","id":"921284584","properties":{"name":"SP_22kph_rough ground_AUG 17_DS","oid":"921284584","speedLimit":6.111111},"geometry":{"type":"Polygon","coordinates":[[[-121.039985960127,50.4678270909823],[-121.040545463054,50.467971343574],[-121.040344684491,50.4682555346613],[-121.039852812238,50.4686657333085],[-121.039241459129,50.4705092904187],[-121.037953235694,50.469809597941],[-121.039985960127,50.4678270909823]]]}},{"type":"Feature","id":"921727643","properties":{"name":"SP_35KPH_%TR_ HIGHMONT TRIAL_Aug17_DS","oid":"921727643","speedLimit":9.722222},"geometry":{"type":"Polygon","coordinates":[[[-121.012708959602,50.4365931243588],[-121.010156042572,50.436619458321],[-121.007266240248,50.4370215680378],[-121.006147797984,50.4371705841108],[-121.005262963338,50.4370782804275],[-121.004923541895,50.436854666441],[-121.005301991873,50.4361093164452],[-121.005969703877,50.4354596854588],[-121.006754360588,50.4347249409494],[-121.007316399665,50.4339049930401],[-121.007673996851,50.4330517007622],[-121.007911831387,50.4323928124444],[-121.007906195497,50.4319206885413],[-121.00779488668,50.4313847519653],[-121.007511119646,50.4310049317455],[-121.006988109103,50.4305648040559],[-121.005752722133,50.4297838627664],[-121.00489014925,50.4292691371633],[-121.004116764318,50.4288929120237],[-121.003315763528,50.4284989811143],[-121.003469764208,50.4283235412021],[-121.003114844068,50.4285320558519],[-121.004388977779,50.4291673065176],[-121.005350178728,50.4296956934253],[-121.00657373033,50.4304923631905],[-121.007130133518,50.4309179308054],[-121.007500129661,50.4313878077834],[-121.007670897112,50.4318537301732],[-121.007636095495,50.4325374245442],[-121.007398965445,50.4332029637603],[-121.007172402689,50.4338692219924],[-121.006589933513,50.4345644206199],[-121.006157801688,50.4350398699722],[-121.005744409196,50.4354073770424],[-121.005111780603,50.43606267028],[-121.004792366568,50.4366459720373],[-121.004710927965,50.4369335784507],[-121.004892544503,50.4370853807108],[-121.005450074868,50.4372771782378],[-121.006283059331,50.4372652245962],[-121.007585795181,50.4371453286726],[-121.008819632282,50.436981572771],[-121.009458460353,50.4368816295423],[-121.011036791198,50.436789775244],[-121.012887335504,50.4367967856503],[-121.012878036286,50.4364193921097],[-121.012708959602,50.4365931243588]]]}},{"type":"Feature","id":"921770139","properties":{"name":"15_ KPH HIGHMONT TRIAL1","oid":"921770139","speedLimit":4.1666665},"geometry":{"type":"Polygon","coordinates":[[[-121.003358173596,50.4283912185863],[-121.003136824037,50.4282222498184],[-121.00307905617,50.4277715166423],[-121.003184024612,50.427635712489],[-121.002536320015,50.4274536216784],[-121.002300317144,50.4277209158889],[-121.002401199565,50.4281486405519],[-121.002603105305,50.4286546480856],[-121.002695956584,50.4286976092936],[-121.003358173596,50.4283912185863]]]}},{"type":"Feature","id":"921772515","properties":{"name":"12_ KPH HIGHMONT TRIAL11","oid":"921772515","speedLimit":3.3333333},"geometry":{"type":"Polygon","coordinates":[[[-121.003184024612,50.427635712489],[-121.003345915537,50.4274264788232],[-121.004969897086,50.4266705233408],[-121.002653687413,50.4273206935892],[-121.002536320015,50.4274536216784],[-121.003184024612,50.427635712489]]]}},{"type":"Feature","id":"922262468","properties":{"name":"SPD_25kph_HMT_DUMP_AUG_18_DS","oid":"922262468","speedLimit":6.9444447},"geometry":{"type":"Polygon","coordinates":[[[-121.012501136178,50.436426941778],[-121.012481269668,50.4374176559954],[-121.01636383392,50.4384082803357],[-121.017180192509,50.436960361798],[-121.016523188695,50.4359061944157],[-121.01477099066,50.4353092313538],[-121.012899452666,50.435207670339],[-121.012501136178,50.436426941778]]]}},{"type":"Feature","id":"922385545","properties":{"name":"SP_20KPH_RUTS_AUG 17_DS","oid":"922385545","speedLimit":5.5555553},"geometry":{"type":"Polygon","coordinates":[[[-121.007511119646,50.4337195767804],[-121.006869614527,50.4335261614674],[-121.006518216819,50.43407270353],[-121.007225520947,50.4343193260295],[-121.007511119646,50.4337195767804]]]}}]}