{"type":"FeatureCollection","features":[{"type":"Feature","id":"702602533","properties":{"name":"iSP_4KPH_%TR_CR01_SLOW BUMP","oid":"702602533","speedLimit":1.1111112},"geometry":{"type":"Polygon","coordinates":[[[-121.033359351547,50.4648090107744],[-121.033654111672,50.4646919909462],[-121.033697508478,50.4647327052182],[-121.033369637153,50.4648708461368],[-121.033359351547,50.4648090107744]]]}},{"type":"Feature","id":"707947583","properties":{"name":"iSP_22KPH_%TR_Permission Gate 1 from west dump_Jun","oid":"707947583","speedLimit":6.111111},"geometry":{"type":"Polygon","coordinates":[[[-121.038629245519,50.4619790542984],[-121.038855951562,50.4618005586157],[-121.037981674996,50.4613520724845],[-121.037744542448,50.4615433306984],[-121.037960681087,50.4614975833154],[-121.03866771087,50.4618471148915],[-121.038629245519,50.4619790542984]]]}},{"type":"Feature","id":"742345972","properties":{"name":"iSP_4KPH_%TR_CR01_PITSIDE_SLOW BUMP","oid":"742345972","speedLimit":1.1111112},"geometry":{"type":"Polygon","coordinates":[[[-121.033399225885,50.4648839681759],[-121.033706525996,50.4647454677494],[-121.033756685941,50.4647775538314],[-121.033475170296,50.4649194695831],[-121.033399225885,50.4648839681759]]]}},{"type":"Feature","id":"776427243","properties":{"name":"iSP_7KPH_%TR_CR1_PermissionBlocker_DO_NOT_DELETE","oid":"776427243","speedLimit":1.9444444},"geometry":{"type":"Polygon","coordinates":[[[-121.03410047882,50.4652139964473],[-121.03405200966,50.4652343086448],[-121.034030874852,50.4652757419327],[-121.034116541275,50.4652266691015],[-121.03410047882,50.4652139964473]]]}},{"type":"Feature","id":"794004438","properties":{"name":"iSP_11KPH_%TR_LOWER_FUEL_BAY","oid":"794004438","speedLimit":3.0555556},"geometry":{"type":"Polygon","coordinates":[[[-121.036777413626,50.4606965097908],[-121.036779527107,50.4607263489482],[-121.036749797476,50.4606718834982],[-121.037125997062,50.460600161668],[-121.037536012341,50.4605571105945],[-121.037543761771,50.4605824559029],[-121.036945224003,50.4606513016697],[-121.036777413626,50.4606965097908]]]}},{"type":"Feature","id":"801543391","properties":{"name":"iSP_4KPH_%TR_CR1_PermissionBlocker_DO_NOT_DELETE_","oid":"801543391","speedLimit":1.1111112},"geometry":{"type":"Polygon","coordinates":[[[-121.033155893793,50.4645244602551],[-121.033155048401,50.464475027916],[-121.033176605905,50.4644329654892],[-121.033108551823,50.4644605577222],[-121.033155893793,50.4645244602551]]]}},{"type":"Feature","id":"806473874","properties":{"name":"iSP_4KPH_%TR_Permission Blocker - DO NOT DELETE","oid":"806473874","speedLimit":1.1111112},"geometry":{"type":"Polygon","coordinates":[[[-121.022719243712,50.4815467109227],[-121.022686132512,50.4815443741212],[-121.022678523982,50.4815730448779],[-121.022700645081,50.4815741234017],[-121.022704731144,50.481550036371],[-121.022719243712,50.4815467109227]]]}},{"type":"Feature","id":"824566967","properties":{"name":"iSP_4Cr_3KPH","oid":"824566967","speedLimit":0.8333333},"geometry":{"type":"Polygon","coordinates":[[[-121.023302141722,50.4810698236657],[-121.023281993205,50.4810698236657],[-121.023279316129,50.4811879220177],[-121.023304396101,50.4811872030018],[-121.023302141722,50.4810698236657]]]}},{"type":"Feature","id":"826307302","properties":{"name":"iSP_4KPH_TR%_CRUSHER POCKETS","oid":"826307302","speedLimit":1.1111112},"geometry":{"type":"Polygon","coordinates":[[[-121.023297351165,50.4813230071189],[-121.023336802807,50.4814786740487],[-121.023541528649,50.4814392180544],[-121.023460511884,50.4811903486961],[-121.02305218739,50.481191067712],[-121.023057541542,50.4813617440974],[-121.023282415901,50.4813277705989],[-121.023297351165,50.4813230071189]]]}},{"type":"Feature","id":"849417440","properties":{"name":"iSP_Permissions_35_KPH_June_19_NS","oid":"849417440","speedLimit":9.722222},"geometry":{"type":"Polygon","coordinates":[[[-121.032695859468,50.4660352922925],[-121.033010486313,50.4660159687417],[-121.033217466534,50.465815093691],[-121.033806282291,50.4653806283686],[-121.033727097209,50.465251834656],[-121.033963243466,50.465401300074],[-121.033426982933,50.4658096111952],[-121.033024576185,50.4661891616826],[-121.032695859468,50.4660352922925]]]}},{"type":"Feature","id":"853029148","properties":{"name":"SP_15KPH_%TR_1635 Flats_AUG_17_DS","oid":"853029148","speedLimit":4.1666665},"geometry":{"type":"Polygon","coordinates":[[[-121.018589502192,50.4569718279768],[-121.017425678754,50.4572818136815],[-121.015788012917,50.4579439373948],[-121.014823842967,50.4590974185588],[-121.018348565378,50.4588940269526],[-121.020691852012,50.4589881281509],[-121.020240130711,50.4572326509733],[-121.019422354533,50.4570974759951],[-121.018968097056,50.4570008582414],[-121.018589502192,50.4569718279768]]]}},{"type":"Feature","id":"883050998","properties":{"name":"iSP_22kph_%TR_4CR_Brake_Temp_CTRL_NOREMOVE","oid":"883050998","speedLimit":6.111111},"geometry":{"type":"Polygon","coordinates":[[[-121.031799461804,50.4745603934967],[-121.03218876497,50.474313771063],[-121.032490429133,50.4745761219682],[-121.032792093295,50.4748035107282],[-121.032969907481,50.474885927919],[-121.033178719386,50.474936079274],[-121.033462630309,50.4749608853205],[-121.033666510759,50.4749233167428],[-121.033827698896,50.4748639080589],[-121.033918860369,50.4748118692873],[-121.034008190158,50.4747486857702],[-121.0340586319,50.4746595278059],[-121.034052855053,50.4745493386281],[-121.034056659318,50.4744849867103],[-121.033994522982,50.4743809990442],[-121.033876168056,50.4742609233986],[-121.033509267786,50.4739389840555],[-121.033060928055,50.4735613209846],[-121.032947645483,50.4734267751453],[-121.032822668317,50.4732222151383],[-121.032605825185,50.4728162408187],[-121.032252310294,50.4722102902181],[-121.032487329361,50.4721574425537],[-121.032430265379,50.4722069647698],[-121.03290283969,50.4730501905982],[-121.033042047626,50.4733109237178],[-121.03324987324,50.4735482888225],[-121.033742877866,50.4739629812092],[-121.034097942644,50.4742725175291],[-121.034203334887,50.4743958287459],[-121.034256031009,50.4744630567271],[-121.034263075945,50.4745941872413],[-121.034238136871,50.4746801995113],[-121.034183609066,50.4747929951215],[-121.034086107151,50.474877209852],[-121.033973247275,50.4749390452144],[-121.033790642532,50.4750175078181],[-121.033531107088,50.4750657717564],[-121.03326311772,50.4750694567126],[-121.033071495459,50.4750276639168],[-121.032807733053,50.474917924124],[-121.032656971421,50.4748364955799],[-121.032495360588,50.4747067132205],[-121.032144804569,50.4744144332808],[-121.031799461804,50.4745603934967]]]}},{"type":"Feature","id":"883053336","properties":{"name":"iSP_22kph_%TR_Brake_Temp_CTRL_NOREMOVE","oid":"883053336","speedLimit":6.111111},"geometry":{"type":"Polygon","coordinates":[[[-121.032466053654,50.4721465674391],[-121.032251183104,50.4722268275824],[-121.031488498326,50.4710096236394],[-121.030816552324,50.4699246287343],[-121.030661281933,50.4696614689362],[-121.030596468521,50.4694589760998],[-121.030550112842,50.469258011172],[-121.030596468521,50.4689741796685],[-121.030722713776,50.4686255468622],[-121.030884465508,50.468376767381],[-121.031088909552,50.4680990475122],[-121.031688292713,50.4675377657707],[-121.032432237961,50.4668948757312],[-121.032788570827,50.4665573876705],[-121.033147721667,50.466223584566],[-121.03348461051,50.4658718959424],[-121.033779652432,50.4660352922925],[-121.033587607475,50.4659944881435],[-121.032919465739,50.4666532864084],[-121.03255467895,50.4669924821318],[-121.032178620262,50.4673089389791],[-121.031774381831,50.4676696153007],[-121.031381978892,50.4680356842411],[-121.031147100724,50.4682876094166],[-121.03100873818,50.4684711382102],[-121.030905036721,50.4686557455276],[-121.030828528715,50.4688542837769],[-121.030767660468,50.4691925807304],[-121.030776396189,50.4694019042173],[-121.030873616306,50.4696316297788],[-121.031027618609,50.4699364026187],[-121.031330550859,50.4704051110705],[-121.031530627043,50.4707123105888],[-121.03175028815,50.471084221533],[-121.032146072658,50.4717301673898],[-121.032381373522,50.4721464775621],[-121.032466053654,50.4721465674391]]]}},{"type":"Feature","id":"883059532","properties":{"name":"iSP_22kph_%TR_Brake_CTRL_NOREMOVE","oid":"883059532","speedLimit":6.111111},"geometry":{"type":"Polygon","coordinates":[[[-121.027261959384,50.4773234814994],[-121.027029758291,50.4772113150281],[-121.027334240428,50.4769455487976],[-121.027716216861,50.4766339453072],[-121.028032957187,50.4763242292334],[-121.02819020016,50.4761702699663],[-121.028621068449,50.4756938320942],[-121.028907092854,50.4753272238919],[-121.029263707517,50.4748890736134],[-121.029472519422,50.4746581796512],[-121.029691335136,50.4745418788388],[-121.029801377037,50.4744896603133],[-121.029952138669,50.4745940973643],[-121.029788555254,50.4745434966244],[-121.029555931465,50.4747929951215],[-121.029251731126,50.4751745229025],[-121.02907278975,50.4754794754964],[-121.028852987745,50.475776249285],[-121.02869588567,50.475976225566],[-121.028408734076,50.4762721005849],[-121.02804141111,50.476571480806],[-121.02724364255,50.477220931865],[-121.027261959384,50.4773234814994]]]}},{"type":"Feature","id":"908328496","properties":{"name":"SP_15KPH_%TR_9019_SOFT_GROUND_AUG_17_DS","oid":"908328496","speedLimit":4.1666665},"geometry":{"type":"Polygon","coordinates":[[[-121.039689367498,50.4639776487075],[-121.039874931114,50.4641981169399],[-121.039739245645,50.4650147391821],[-121.039440681255,50.4657765364664],[-121.039206084884,50.4663546252032],[-121.038928937099,50.4669803487394],[-121.03787332388,50.4685923822565],[-121.036177889567,50.4681979121904],[-121.035228936679,50.4668171321434],[-121.037881918702,50.4651411062163],[-121.038521035301,50.464815571794],[-121.039689367498,50.4639776487075]]]}},{"type":"Feature","id":"910445950","properties":{"name":"SP_20KPH_%TR_1635_FLATS_AUG_17_DS","oid":"910445950","speedLimit":5.5555553},"geometry":{"type":"Polygon","coordinates":[[[-121.020224913649,50.4571650634842],[-121.019043759669,50.4569622111399],[-121.018650088642,50.4569235640384],[-121.017842034476,50.457147896981],[-121.018448039876,50.4564134222987],[-121.018502567681,50.4555089003698],[-121.019217628691,50.4555089003698],[-121.019235804626,50.4564597988205],[-121.019423622622,50.4568928261112],[-121.019756988996,50.4570628733577],[-121.020224913649,50.4571650634842]]]}},{"type":"Feature","id":"915576987","properties":{"name":"iSP_15kph_prevent shifting","oid":"915576987","speedLimit":4.1666665},"geometry":{"type":"Polygon","coordinates":[[[-121.036998483719,50.4448639607103],[-121.037512623153,50.4453138848732],[-121.037981956794,50.445796344503],[-121.038525966757,50.4462196650798],[-121.039458716291,50.4468507812349],[-121.039916073541,50.4471005493629],[-121.040472059895,50.4471959088389],[-121.041225304458,50.4473236240278],[-121.041643773661,50.4475104782696],[-121.042322341902,50.4480959369188],[-121.042705022829,50.4485286945785],[-121.042848457727,50.4487957190867],[-121.043009927662,50.4493925022353],[-121.043189150835,50.4501990582558],[-121.043326667987,50.45050221331],[-121.043688355005,50.4511696397651],[-121.043858842458,50.4514899613226],[-121.044127818116,50.4522545447933],[-121.044384958283,50.4529391377516],[-121.044698739735,50.4537990806982],[-121.044737627782,50.4541957078119],[-121.044573198974,50.4550728172618],[-121.044217570602,50.4568403379547],[-121.044053141794,50.4572083841887],[-121.04300682789,50.4584000630693],[-121.041906831573,50.4595384449007],[-121.041344927473,50.4600017607337],[-121.04037343079,50.4605986337593],[-121.03992495016,50.460732101075],[-121.039135776422,50.4608083167542],[-121.038944576857,50.4608064293376],[-121.039001359042,50.4612945512171],[-121.0390611001,50.4609284822767],[-121.039880144367,50.4608808474772],[-121.040708206151,50.4606329667658],[-121.041512315154,50.4600590123701],[-121.042875369383,50.458701330707],[-121.044244341359,50.457143493009],[-121.044429764076,50.4562911896056],[-121.044815403876,50.45442255731],[-121.044812304104,50.4537875764448],[-121.044262376395,50.4523022694698],[-121.043834889675,50.4511868062683],[-121.043347661897,50.4503382776981],[-121.043051774582,50.4493105344294],[-121.042929192695,50.4486927200674],[-121.042241606935,50.4478880514635],[-121.041548103429,50.4473922900407],[-121.041093705053,50.447222602302],[-121.040460083503,50.4471311075362],[-121.039919032414,50.4470204689735],[-121.03882199497,50.4463340784756],[-121.03819725004,50.4458725601822],[-121.037154035908,50.4449077307996],[-121.037378205773,50.4446980478048],[-121.036998483719,50.4448639607103]]]}},{"type":"Feature","id":"917291012","properties":{"name":"SP_15KPH_%TR_CORNER_RUTS_AUG_17_DS","oid":"917291012","speedLimit":4.1666665},"geometry":{"type":"Polygon","coordinates":[[[-121.040610986034,50.4662225959192],[-121.04068523966,50.4661084521544],[-121.040423308937,50.4659274399162],[-121.040529969269,50.4656666169196],[-121.040026679037,50.4656490909085],[-121.040220132981,50.4657720426174],[-121.040017379721,50.4663117538836],[-121.039934390374,50.466487103872],[-121.039995540419,50.4668212664844],[-121.040667768218,50.4667404670792],[-121.040549835989,50.466623537128],[-121.040532364547,50.4663785324799],[-121.040610986034,50.4662225959192]]]}},{"type":"Feature","id":"920440343","properties":{"name":"iSP_17KPH_CAL_PAD_ROAD_LIMIT_AUG_12_DS","oid":"920440343","speedLimit":4.7222223},"geometry":{"type":"Polygon","coordinates":[[[-121.005953845768,50.4378312667625],[-121.005967512944,50.4376135847164],[-121.005585254713,50.4375788023251],[-121.005284999538,50.4376832393761],[-121.005189470205,50.4378355808575],[-121.005284999538,50.4381621039267],[-121.005987943258,50.4392592322241],[-121.007468929718,50.4413706222433],[-121.00767365556,50.441649240882],[-121.007782852069,50.4421542596338],[-121.007933050105,50.4426635924807],[-121.008117345633,50.4432338619201],[-121.008322071475,50.4436517898781],[-121.008683758492,50.4445617044258],[-121.008758857511,50.4449230098863],[-121.008758857511,50.4451798782957],[-121.00869066253,50.4456195564829],[-121.008492699826,50.4462290122858],[-121.008943153038,50.4462159801236],[-121.009134211704,50.445732801478],[-121.009318507232,50.4449186957912],[-121.009216073861,50.4444528634028],[-121.008997680843,50.4437998172645],[-121.008772524687,50.4433775752115],[-121.008458602336,50.4427375612354],[-121.008294737123,50.4420758869071],[-121.008240209318,50.4417450497429],[-121.007919382929,50.4411964406557],[-121.006813750664,50.4398338157586],[-121.006602261683,50.4394942605274],[-121.00622690749,50.4387802777966],[-121.005987943258,50.4383885040398],[-121.005933415453,50.4380576668756],[-121.005953845768,50.4378312667625]]]}},{"type":"Feature","id":"921284584","properties":{"name":"SP_22kph_rough ground_AUG 17_DS","oid":"921284584","speedLimit":6.111111},"geometry":{"type":"Polygon","coordinates":[[[-121.03998553661,50.46782707977],[-121.040545045432,50.4679713323233],[-121.040344264754,50.4682555233347],[-121.039852387319,50.4686657218724],[-121.039241027767,50.4705092784905],[-121.037952790758,50.4698095861996],[-121.03998553661,50.46782707977]]]}},{"type":"Feature","id":"921727643","properties":{"name":"SP_35KPH_%TR_ HIGHMONT TRIAL_Aug17_DS","oid":"921727643","speedLimit":9.722222},"geometry":{"type":"Polygon","coordinates":[[[-121.012708248668,50.4365931214831],[-121.010155304737,50.4366194554383],[-121.007265471964,50.4370215650477],[-121.006147017915,50.4371705810809],[-121.005262173945,50.4370782774223],[-121.004922748926,50.4368546634955],[-121.005301202891,50.4361093136986],[-121.005968921931,50.4354596828856],[-121.00675358691,50.4347249385723],[-121.007315631909,50.4339049908818],[-121.007673232863,50.4330516988317],[-121.007911069905,50.4323928106898],[-121.007905433956,50.4319206869127],[-121.007794123966,50.4313847504797],[-121.007510353942,50.4310049303613],[-121.006987337888,50.4305648027892],[-121.0057519379,50.4297838617081],[-121.004889355929,50.4292691362424],[-121.004115962848,50.4288929112032],[-121.003314953617,50.428498980399],[-121.00346895592,50.4283235405336],[-121.003114032041,50.4285320551277],[-121.004388179177,50.4291673056238],[-121.005349390254,50.4296956923905],[-121.006572954749,50.4304923619431],[-121.007129363799,50.4309179294444],[-121.007499363841,50.431387806297],[-121.007670133092,50.4318537285624],[-121.007635331107,50.4325374227509],[-121.00739819856,50.4332029617894],[-121.007171633416,50.4338692198437],[-121.006589158102,50.4345644182857],[-121.006157021724,50.435039867511],[-121.005743624876,50.4354073744831],[-121.005110989617,50.4360626675458],[-121.004791572216,50.4366459691474],[-121.004710132755,50.4369335754841],[-121.004891751207,50.4370853777037],[-121.005449287447,50.4372771751795],[-121.006282280687,50.4372652215411],[-121.007585030264,50.4371453256495],[-121.008818880366,50.4369815697916],[-121.009457715168,50.4368816265895],[-121.011036062644,50.4367897723158],[-121.012886626449,50.4367967827202],[-121.012877327133,50.4364193892803],[-121.012708248668,50.4365931214831]]]}},{"type":"Feature","id":"921770139","properties":{"name":"15_ KPH HIGHMONT TRIAL1","oid":"921770139","speedLimit":4.1666665},"geometry":{"type":"Polygon","coordinates":[[[-121.003357364132,50.4283912178997],[-121.003136012241,50.4282222491769],[-121.003078243766,50.4277715161211],[-121.003183213313,50.427635712004],[-121.002535501891,50.4274536212421],[-121.002602287885,50.4286546473287],[-121.002695140143,50.4286976085252],[-121.003357364132,50.4283912178997]]]}},{"type":"Feature","id":"921772515","properties":{"name":"12_ KPH HIGHMONT TRIAL11","oid":"921772515","speedLimit":3.3333333},"geometry":{"type":"Polygon","coordinates":[[[-121.003183213313,50.427635712004],[-121.003345105944,50.4274264783941],[-121.004969104605,50.4266705231135],[-121.002652870526,50.4273206931884],[-121.002535501891,50.4274536212421],[-121.003183213313,50.427635712004]]]}},{"type":"Feature","id":"922262468","properties":{"name":"SPD_20kph_HMT_DUMP_AUG_17_DS","oid":"922262468","speedLimit":5.5555553},"geometry":{"type":"Polygon","coordinates":[[[-121.012500423054,50.4364269389466],[-121.012480556334,50.4374176528996],[-121.016363161497,50.4384082769755],[-121.017179528688,50.4369603588242],[-121.016522517951,50.4359061917233],[-121.014770301453,50.4353092288207],[-121.012898743739,50.4352076678331],[-121.012500423054,50.4364269389466]]]}},{"type":"Feature","id":"922385545","properties":{"name":"SPD_20KPH_RUTS_AUG 17_DS","oid":"922385545","speedLimit":5.5555553},"geometry":{"type":"Polygon","coordinates":[[[-121.007510353942,50.4337195746717],[-121.006868842064,50.4335261594102],[-121.006517440653,50.4340727013269],[-121.007224752234,50.4343193237606],[-121.007510353942,50.4337195746717]]]}}]}