{"type":"FeatureCollection","features":[{"type":"Feature","id":"702602533","properties":{"name":"iSP_4KPH_%TR_CR01_SLOW BUMP","oid":"702602533","speedLimit":1.1111112},"geometry":{"type":"Polygon","coordinates":[[[-121.033358078749,50.4648078340125],[-121.033652830861,50.4646908174513],[-121.033696226488,50.4647315305866],[-121.033368364076,50.4648696676486],[-121.033358078749,50.4648078340125]]]}},{"type":"Feature","id":"707947583","properties":{"name":"iSP_25KPH_%TR_Permission Gate 1 from west dump_Jun","oid":"707947583","speedLimit":6.9444447},"geometry":{"type":"Polygon","coordinates":[[[-121.038627829469,50.4619779565437],[-121.038854529349,50.4617994658443],[-121.038139487776,50.461408242272],[-121.03799182993,50.4616709453507],[-121.038191337096,50.4615668707133],[-121.038666293775,50.4618460208203],[-121.038627829469,50.4619779565437]]]}},{"type":"Feature","id":"742345972","properties":{"name":"iSP_4KPH_%TR_CR01_PITSIDE_SLOW BUMP","oid":"742345972","speedLimit":1.1111112},"geometry":{"type":"Polygon","coordinates":[[[-121.033397952003,50.4648827893214],[-121.033705243761,50.4647442927615],[-121.033755402342,50.4647763779477],[-121.03347389435,50.4649182897374],[-121.033397952003,50.4648827893214]]]}},{"type":"Feature","id":"776427243","properties":{"name":"iSP_7KPH_%TR_CR1_PermissionBlocker_DO_NOT_DELETE","oid":"776427243","speedLimit":1.9444444},"geometry":{"type":"Polygon","coordinates":[[[-121.034099185877,50.4652128083789],[-121.034050718034,50.4652331200094],[-121.0340295838,50.4652745521405],[-121.034115247894,50.4652254806793],[-121.034099185877,50.4652128083789]]]}},{"type":"Feature","id":"794004438","properties":{"name":"iSP_11KPH_%TR_LOWER_FUEL_BAY","oid":"794004438","speedLimit":3.0555556},"geometry":{"type":"Polygon","coordinates":[[[-121.036776047914,50.4606954478424],[-121.036778161338,50.4607252861667],[-121.036748432516,50.4606708222373],[-121.037124621875,50.4605991024094],[-121.037534626009,50.4605560525378],[-121.037542375228,50.4605813971386],[-121.03694385373,50.4606502409834],[-121.036776047914,50.4606954478424]]]}},{"type":"Feature","id":"801543391","properties":{"name":"iSP_4KPH_%TR_CR1_PermissionBlocker_DO_NOT_DELETE_","oid":"801543391","speedLimit":1.1111112},"geometry":{"type":"Polygon","coordinates":[[[-121.033154626526,50.4645232914373],[-121.033153781157,50.4644738604782],[-121.033175338075,50.4644317992258],[-121.033107285843,50.4644593906884],[-121.033154626526,50.4645232914373]]]}},{"type":"Feature","id":"806473874","properties":{"name":"iSP_4KPH_%TR_Permission Blocker - DO NOT DELETE","oid":"806473874","speedLimit":1.1111112},"geometry":{"type":"Polygon","coordinates":[[[-121.022718260146,50.481545066875],[-121.022685149846,50.4815427301388],[-121.022677541522,50.481571400095],[-121.02269966202,50.4815724785887],[-121.022703747972,50.4815483922304],[-121.022718260146,50.481545066875]]]}},{"type":"Feature","id":"824566967","properties":{"name":"iSP_4Cr_3KPH","oid":"824566967","speedLimit":0.8333333},"geometry":{"type":"Polygon","coordinates":[[[-121.023301142311,50.4810681929318],[-121.023280994341,50.4810681929318],[-121.023278317338,50.4811862879867],[-121.023303396629,50.4811855689909],[-121.023301142311,50.4810681929318]]]}},{"type":"Feature","id":"826307302","properties":{"name":"iSP_4KPH_TR%_CRUSHER POCKETS","oid":"826307302","speedLimit":1.1111112},"geometry":{"type":"Polygon","coordinates":[[[-121.023296351884,50.4813213693166],[-121.023335802454,50.4814770319004],[-121.023540522731,50.4814375770077],[-121.023459508168,50.4811887145974],[-121.023051194774,50.4811894335932],[-121.02305654878,50.4813601052137],[-121.023281417026,50.4813261326636],[-121.023296351884,50.4813213693166]]]}},{"type":"Feature","id":"883050998","properties":{"name":"iSP_22kph_%TR_4CR_Brake_Temp_CTRL_NOREMOVE","oid":"883050998","speedLimit":6.111111},"geometry":{"type":"Polygon","coordinates":[[[-121.031798231409,50.4745589444941],[-121.032187523993,50.4743123289457],[-121.032489179955,50.4745746725266],[-121.032790835917,50.4748020549382],[-121.03296864527,50.4748844698282],[-121.033177451498,50.474934619783],[-121.033461354704,50.474959425137],[-121.033665229612,50.4749218576081],[-121.033826413367,50.4748624505828],[-121.033917572362,50.474810413264],[-121.034006899723,50.4747472315109],[-121.034057340094,50.4746580760357],[-121.034051563403,50.4745478899342],[-121.034055367565,50.474483539813],[-121.033993232918,50.47437955505],[-121.03387488121,50.4742594827567],[-121.033507990913,50.4739375524015],[-121.033059663369,50.4735598998743],[-121.032946383877,50.4734253577912],[-121.032821410108,50.4732208034952],[-121.032604572871,50.4728148405096],[-121.032251067589,50.4722089068261],[-121.032486080267,50.4721560606371],[-121.032429017836,50.4722055814706],[-121.032901579302,50.4730487837577],[-121.033040783454,50.4733095095981],[-121.033248603419,50.473546868076],[-121.033741594643,50.4739615488853],[-121.034096649769,50.4742710765635],[-121.034202039147,50.4743943843377],[-121.034254733836,50.474461610442],[-121.034261778581,50.4745927372952],[-121.034236840185,50.474678747164],[-121.034182313862,50.4747915396251],[-121.034084814598,50.4748757520045],[-121.03397195779,50.4749375856405],[-121.033789358011,50.4750160460537],[-121.033529829621,50.4750643086446],[-121.033261847538,50.475067993498],[-121.033070230486,50.4750262018689],[-121.03280647525,50.4749164651398],[-121.032655717716,50.4748350388691],[-121.032494111276,50.474705260133],[-121.032143564787,50.4744129883532],[-121.031798231409,50.4745589444941]]]}},{"type":"Feature","id":"883053336","properties":{"name":"iSP_22kph_%TR_Brake_Temp_CTRL_NOREMOVE","oid":"883053336","speedLimit":6.111111},"geometry":{"type":"Polygon","coordinates":[[[-121.032464805139,50.4721451858261],[-121.03224994043,50.4722254437287],[-121.031487276384,50.4710082737678],[-121.030815348648,50.4699233091537],[-121.030660082478,50.4696601567026],[-121.030595270828,50.4694576695194],[-121.030548916408,50.4692567102022],[-121.030595270828,50.4689728866227],[-121.03072151265,50.4686242635497],[-121.030883259985,50.4683754910139],[-121.031087698472,50.4680977788985],[-121.031687065339,50.467536512827],[-121.032430990365,50.4668936407358],[-121.032787313545,50.4665561620972],[-121.033146454622,50.4662223683118],[-121.033483334307,50.4658706895067],[-121.033778368209,50.466034081295],[-121.033586328473,50.4659932782852],[-121.032918204899,50.4666520581577],[-121.032553428025,50.4669912444113],[-121.032177379561,50.4673076924238],[-121.031773152118,50.467668358676],[-121.031380759846,50.4680344173964],[-121.031145888062,50.4682863355387],[-121.031007529279,50.4684698592085],[-121.030903830639,50.4686544613719],[-121.030827324713,50.4688529940784],[-121.03076645812,50.4691912815873],[-121.030775193604,50.4694005992303],[-121.030872411079,50.4696303183782],[-121.031026409195,50.4699350827094],[-121.031329333211,50.4704037780758],[-121.031529403956,50.4707109690177],[-121.031749059092,50.4710828695787],[-121.032144832841,50.4717287974019],[-121.032380127309,50.4721450959516],[-121.032464805139,50.4721451858261]]]}},{"type":"Feature","id":"883059532","properties":{"name":"iSP_22kph_%TR_Brake_CTRL_NOREMOVE","oid":"883059532","speedLimit":6.111111},"geometry":{"type":"Polygon","coordinates":[[[-121.027260852333,50.4773219553565],[-121.027028657552,50.4772097920167],[-121.027333131412,50.4769440332059],[-121.027715097462,50.4766324384149],[-121.028031829177,50.4763227309878],[-121.028189067876,50.4761687760189],[-121.028619924453,50.4756923514481],[-121.028905941082,50.4753257534808],[-121.029262546052,50.4748876154346],[-121.029471352281,50.4746567279186],[-121.029690162047,50.4745404303531],[-121.029800200957,50.4744882132854],[-121.02995095849,50.4745926474208],[-121.029787379522,50.4745420480936],[-121.029554762056,50.4747915396251],[-121.029250569986,50.4751730567546],[-121.029071633474,50.4754780008347],[-121.028851837444,50.475774766338],[-121.02869473964,50.475974737036],[-121.028407595852,50.4762706037946],[-121.028040282871,50.4765699756576],[-121.027242535997,50.4772194085851],[-121.027260852333,50.4773219553565]]]}},{"type":"Feature","id":"884401102","properties":{"name":"iSP_30KPH_MAIN INT_LIMIT_POLICY_SEPT_8_NS","oid":"884401102","speedLimit":8.333333},"geometry":{"type":"Polygon","coordinates":[[[-121.036991617098,50.4611013209534],[-121.037107714488,50.4611077919154],[-121.038294049472,50.4609921234712],[-121.038277705665,50.4603979633433],[-121.038119198912,50.4605658488551],[-121.037032053932,50.4607084796406],[-121.036744346564,50.4605378080202],[-121.036991617098,50.4611013209534]]]}},{"type":"Feature","id":"910445950","properties":{"name":"SP_22KPH_%TR_1635_FLATS_SEP_11_DS","oid":"910445950","speedLimit":6.111111},"geometry":{"type":"Polygon","coordinates":[[[-121.018915084348,50.457603496416],[-121.01825259657,50.4578016696246],[-121.017439351258,50.4564353979163],[-121.017479224512,50.4564158052816],[-121.017771581411,50.4542398544639],[-121.018178485857,50.453993149041],[-121.018531004875,50.4537515664629],[-121.019040621696,50.4536552210299],[-121.019218290154,50.4539290685431],[-121.019243651234,50.4568507977213],[-121.019156296402,50.4570731471626],[-121.019194338022,50.4574051434585],[-121.018915084348,50.457603496416]]]}},{"type":"Feature","id":"917773475","properties":{"name":"SP_15KPH_%TR_1200_CORNER_Sept_12_DS","oid":"917773475","speedLimit":4.1666665},"geometry":{"type":"Polygon","coordinates":[[[-121.037097992741,50.4446826032162],[-121.036923846655,50.4448621724093],[-121.036628249173,50.4448206504037],[-121.036413666254,50.4448699914883],[-121.036322084575,50.4449676850383],[-121.036253468763,50.4450821851144],[-121.036241210907,50.4451450073696],[-121.036262345141,50.4452673265247],[-121.03631503983,50.445351538904],[-121.036183162212,50.4453953077714],[-121.036088058161,50.4451943484542],[-121.036162027979,50.4449317352499],[-121.036258822769,50.4447914412006],[-121.036515674155,50.4447151377748],[-121.036712786108,50.4447118124193],[-121.036922155916,50.444770140951],[-121.03709277963,50.4446836817099],[-121.037097992741,50.4446826032162]]]}},{"type":"Feature","id":"926367691","properties":{"name":"SP_25KPH_%TR_24SH_SEP_12_DS","oid":"926367691","speedLimit":6.9444447},"geometry":{"type":"Polygon","coordinates":[[[-121.038553436967,50.4504036525431],[-121.038073408072,50.451154463874],[-121.03824445447,50.4520115068296],[-121.038396057373,50.4531303541192],[-121.038776473579,50.453096920816],[-121.038841989704,50.4508310056528],[-121.038553436967,50.4504036525431]]]}},{"type":"Feature","id":"929009157","properties":{"name":"iSP_22kph_Long_Single_Lane_Aug30","oid":"929009157","speedLimit":6.111111},"geometry":{"type":"Polygon","coordinates":[[[-121.00567829111,50.4380560685939],[-121.004748525724,50.4382241338547],[-121.005173042031,50.4381976208858],[-121.007933454739,50.4431705551159],[-121.008522254489,50.4445349394604],[-121.008209326936,50.446509751212],[-121.007831305943,50.4466802430835],[-121.008932822202,50.4466469895292],[-121.008822078818,50.4465929749721],[-121.009402143085,50.4448176845462],[-121.008763184753,50.4430684577168],[-121.008261458046,50.4415402322117],[-121.007257863736,50.4401562552326],[-121.006438137259,50.4389841123816],[-121.005859059256,50.438313109581],[-121.00567829111,50.4380560685939]]]}},{"type":"Feature","id":"930116666","properties":{"name":"SP_25KPH_9023 Rough_SEP_12_DS","oid":"930116666","speedLimit":6.9444447},"geometry":{"type":"Polygon","coordinates":[[[-121.043513923401,50.4685946049742],[-121.043672148364,50.4692896042586],[-121.043315120709,50.4693037145505],[-121.042343791329,50.4680406187349],[-121.042763094526,50.4680240818322],[-121.043513923401,50.4685946049742]]]}},{"type":"Feature","id":"933252378","properties":{"name":"SP_20KPH_%TR_1615_ROUGH_SECTION_SEP_12_DS","oid":"933252378","speedLimit":5.5555553},"geometry":{"type":"Polygon","coordinates":[[[-121.007360012532,50.4314120084497],[-121.007542471416,50.4321458335056],[-121.00705117093,50.4322078468906],[-121.007396504309,50.4321240838836],[-121.007255468522,50.4314848966457],[-121.006907599036,50.4314554178192],[-121.007360012532,50.4314120084497]]]}},{"type":"Feature","id":"933252478","properties":{"name":"SP_30KPH_%TR_1605_PATCH_SEP_12_DS","oid":"933252478","speedLimit":8.333333},"geometry":{"type":"Polygon","coordinates":[[[-121.006591290005,50.4333410740956],[-121.007209395893,50.4334385878966],[-121.006978469166,50.4339629155605],[-121.006676249625,50.4343789444868],[-121.006272022182,50.434775470653],[-121.005738735019,50.4345240917575],[-121.006210873799,50.4346042597857],[-121.006699919966,50.4339781043461],[-121.006893509547,50.4335512904833],[-121.006591290005,50.4333410740956]]]}},{"type":"Feature","id":"933252549","properties":{"name":"SP_35KPH_%TR_1590_ROUGH_SEP_12_DS","oid":"933252549","speedLimit":9.722222},"geometry":{"type":"Polygon","coordinates":[[[-121.004360501193,50.4363930313823],[-121.004777127386,50.4364501915458],[-121.004881389606,50.4362113950764],[-121.005079346928,50.4359571401979],[-121.004581847067,50.435832574181],[-121.004795866407,50.4359810468071],[-121.004624679114,50.4363683159028],[-121.004360501193,50.4363930313823]]]}},{"type":"Feature","id":"933371104","properties":{"name":"SP_25KPH_1590_HMT_INTERSECT_SEPT_12_DS","oid":"933371104","speedLimit":6.9444447},"geometry":{"type":"Polygon","coordinates":[[[-121.00635810896,50.4374889606818],[-121.00586032731,50.4376813819243],[-121.006066315641,50.4377780868551],[-121.006385865254,50.4379885728662],[-121.006551698541,50.4382644874922],[-121.007085267494,50.4381538520184],[-121.006743315593,50.438071167505],[-121.006114924378,50.4376598120512],[-121.00635810896,50.4374889606818]]]}},{"type":"Feature","id":"934051091","properties":{"name":"iSP_17KPH_PERMISSIONS BLOCKER_SEPT 7_NS","oid":"934051091","speedLimit":4.7222223},"geometry":{"type":"Polygon","coordinates":[[[-121.039512226701,50.461029691],[-121.039464181543,50.4607716613938],[-121.039016699369,50.4607922426476],[-121.039075593433,50.4610449696601],[-121.039163089161,50.4608999122639],[-121.039379081029,50.4608867905911],[-121.039512226701,50.461029691]]]}},{"type":"Feature","id":"934773555","properties":{"name":"SP_10KPH_NEW RAMP_SEPT 12_DS","oid":"934773555","speedLimit":2.7777777},"geometry":{"type":"Polygon","coordinates":[[[-121.035774285238,50.4443192407299],[-121.036276293735,50.4444736450711],[-121.035931242147,50.4447856892345],[-121.034507499271,50.4446691220456],[-121.034739271367,50.4441518045904],[-121.035774285238,50.4443192407299]]]}},{"type":"Feature","id":"934888580","properties":{"name":"SP_12KPH_RUTS_SEPT 12_DS","oid":"934888580","speedLimit":3.3333333},"geometry":{"type":"Polygon","coordinates":[[[-121.038715888776,50.4531205578019],[-121.038176965817,50.4531794255804],[-121.038461291708,50.4532006359555],[-121.038507364337,50.4536177433755],[-121.038298839898,50.4537115723233],[-121.038741813436,50.4536385942528],[-121.038715888776,50.4531205578019]]]}},{"type":"Feature","id":"935505135","properties":{"name":"SP_15KPH_%TR_1590_WATERHOLES_AUG_12_DS","oid":"935505135","speedLimit":4.1666665},"geometry":{"type":"Polygon","coordinates":[[[-121.013401303676,50.4441737339614],[-121.012717399874,50.4442020444197],[-121.012966079357,50.4452614846841],[-121.013108242302,50.4462075932404],[-121.013276893487,50.4469894112638],[-121.013703241428,50.44709708088],[-121.013792146104,50.4467741619057],[-121.013436809189,50.4437488074624],[-121.01338355092,50.444162409778],[-121.013401303676,50.4441737339614]]]}},{"type":"Feature","id":"936169885","properties":{"name":"SP_12KPH_%TR_Sept_12_DS","oid":"936169885","speedLimit":3.3333333},"geometry":{"type":"Polygon","coordinates":[[[-121.039479961771,50.4535462931711],[-121.038611344767,50.4536149572669],[-121.039071648376,50.4545172070814],[-121.03959140963,50.4544391061661],[-121.039669324505,50.454207050282],[-121.039446569682,50.4538991403443],[-121.039446569682,50.453896803608],[-121.039479961771,50.4535462931711]]]}},{"type":"Feature","id":"936513295","properties":{"name":"SP_27KPH_%TR_1635_FLATS_SEP_12_DS1","oid":"936513295","speedLimit":7.5},"geometry":{"type":"Polygon","coordinates":[[[-121.01825259657,50.4578016696246],[-121.015246885856,50.4587005042092],[-121.014496197876,50.4578796806655],[-121.017439351258,50.4564353979163],[-121.01825259657,50.4578016696246]]]}},{"type":"Feature","id":"937319599","properties":{"name":"sp_15kph_42 amt down ","oid":"937319599","speedLimit":4.1666665},"geometry":{"type":"Polygon","coordinates":[[[-121.039137446291,50.4605140811598],[-121.039148576987,50.4610125249761],[-121.038403524802,50.461029691],[-121.038375768509,50.4605377181457],[-121.039137446291,50.4605140811598]]]}}]}