{"type":"FeatureCollection","features":[{"type":"Feature","id":"702602533","properties":{"name":"iSP_4KPH_%TR_CR01_SLOW BUMP","oid":"702602533","speedLimit":1.1111112},"geometry":{"type":"Polygon","coordinates":[[[-121.033359425712,50.4648078906127],[-121.033654169184,50.4646908733633],[-121.033697563538,50.4647315867381],[-121.033369710737,50.4648697246123],[-121.033359425712,50.4648078906127]]]}},{"type":"Feature","id":"707947583","properties":{"name":"iSP_22KPH_%TR_Permission Gate 1 from west dump_Jun","oid":"707947583","speedLimit":6.111111},"geometry":{"type":"Polygon","coordinates":[[[-121.038629021956,50.4619779965028],[-121.03885571519,50.4617995047538],[-121.037981488018,50.4613510285062],[-121.037744368867,50.4615422825052],[-121.037960495295,50.4614965361304],[-121.038667485133,50.4618460600035],[-121.038629021956,50.4619779965028]]]}},{"type":"Feature","id":"742345972","properties":{"name":"iSP_4KPH_%TR_CR01_PITSIDE_SLOW BUMP","oid":"742345972","speedLimit":1.1111112},"geometry":{"type":"Polygon","coordinates":[[[-121.033399297797,50.4648828463623],[-121.033706580547,50.464744348988],[-121.033756737658,50.4647764343628],[-121.033475237917,50.4649183469871],[-121.033399297797,50.4648828463623]]]}},{"type":"Feature","id":"776427243","properties":{"name":"iSP_7KPH_%TR_CR1_PermissionBlocker_DO_NOT_DELETE","oid":"776427243","speedLimit":1.9444444},"geometry":{"type":"Polygon","coordinates":[[[-121.034100511115,50.4652128673605],[-121.034052044693,50.4652331791104],[-121.034030911079,50.4652746114852],[-121.034116572662,50.4652255397354],[-121.034100511115,50.4652128673605]]]}},{"type":"Feature","id":"794004438","properties":{"name":"iSP_11KPH_%TR_LOWER_FUEL_BAY","oid":"794004438","speedLimit":3.0555556},"geometry":{"type":"Polygon","coordinates":[[[-121.036777294683,50.4606954802597],[-121.036779408045,50.4607253187595],[-121.036749680094,50.4606708545098],[-121.037125858426,50.4605991342602],[-121.037535850541,50.4605560841355],[-121.037543599533,50.4605814288853],[-121.03694509558,50.4606502731349],[-121.036777294683,50.4606954802597]]]}},{"type":"Feature","id":"801543391","properties":{"name":"iSP_4KPH_%TR_CR1_PermissionBlocker_DO_NOT_DELETE_","oid":"801543391","speedLimit":1.1111112},"geometry":{"type":"Polygon","coordinates":[[[-121.033155979453,50.4645233463642],[-121.033155134108,50.4644739151145],[-121.033176690395,50.4644318536147],[-121.033108640157,50.4644594452395],[-121.033155979453,50.4645233463642]]]}},{"type":"Feature","id":"806473874","properties":{"name":"iSP_4KPH_%TR_Permission Blocker - DO NOT DELETE","oid":"806473874","speedLimit":1.1111112},"geometry":{"type":"Polygon","coordinates":[[[-121.022719919002,50.481545221898],[-121.022686809673,50.481542885148],[-121.022679201572,50.4815715552729],[-121.022701321422,50.4815726337729],[-121.022705407254,50.481548547273],[-121.022719919002,50.481545221898]]]}},{"type":"Feature","id":"824566967","properties":{"name":"iSP_4Cr_3KPH","oid":"824566967","speedLimit":0.8333333},"geometry":{"type":"Polygon","coordinates":[[[-121.023302784081,50.4810683451506],[-121.023282636702,50.4810683451506],[-121.023279959777,50.4811864408999],[-121.023305038333,50.4811857218999],[-121.023302784081,50.4810683451506]]]}},{"type":"Feature","id":"826307302","properties":{"name":"iSP_4KPH_TR%_CRUSHER POCKETS","oid":"826307302","speedLimit":1.1111112},"geometry":{"type":"Polygon","coordinates":[[[-121.023297993795,50.4813215230242],[-121.023337443208,50.4814771865234],[-121.023542157484,50.4814377313986],[-121.023461145296,50.4811888675249],[-121.023052843871,50.4811895865249],[-121.023058197719,50.481360259149],[-121.023283059374,50.4813262863992],[-121.023297993795,50.4813215230242]]]}},{"type":"Feature","id":"835348611","properties":{"name":"SP_30KPH_%TR_switchback to 1 gate_AUG_26_DS","oid":"835348611","speedLimit":8.333333},"geometry":{"type":"Polygon","coordinates":[[[-121.039920849343,50.4634034139952],[-121.039548615953,50.4634578782449],[-121.03980179665,50.4633742046204],[-121.039545516356,50.4629227624978],[-121.039365598854,50.4625823159996],[-121.039179482159,50.4622611926263],[-121.038987307161,50.4620179908776],[-121.03874638396,50.4618369826286],[-121.038563366861,50.4617300313792],[-121.038026573061,50.4614322755058],[-121.037959368168,50.4614147498808],[-121.037840456366,50.4614576202556],[-121.037955000555,50.4613477930062],[-121.038145484864,50.461385630381],[-121.038484045363,50.46157041338],[-121.038867831796,50.4617907868788],[-121.039055357398,50.4619262285031],[-121.039239924295,50.462130514377],[-121.039454078252,50.4625355809998],[-121.039582147954,50.4627535278737],[-121.03975910675,50.463060990247],[-121.03986280235,50.463259434246],[-121.039944800773,50.4633238746206],[-121.039920849343,50.4634034139952]]]}},{"type":"Feature","id":"849417440","properties":{"name":"iSP_Permissions_35_KPH_June_19_NS","oid":"849417440","speedLimit":9.722222},"geometry":{"type":"Polygon","coordinates":[[[-121.032695971118,50.4660341451061],[-121.033010580188,50.4660148219812],[-121.033217548715,50.4658139513573],[-121.033806331206,50.4653794956096],[-121.033727150598,50.4652507047353],[-121.033963283514,50.4654001668595],[-121.033427053277,50.4658084689823],[-121.033024669264,50.4661880111053],[-121.032695971118,50.4660341451061]]]}},{"type":"Feature","id":"853029148","properties":{"name":"SP_15KPH_%TR_1635 Flats_AUG_24_NS","oid":"853029148","speedLimit":4.1666665},"geometry":{"type":"Polygon","coordinates":[[[-121.018590410797,50.4569708805297],[-121.017426653111,50.457280859403],[-121.015789079795,50.4579429685244],[-121.014824964317,50.4590964242683],[-121.018349487595,50.4588930371444],[-121.020692641842,50.4589871362689],[-121.020240946062,50.4572316977783],[-121.019423216085,50.457096525779],[-121.018968984272,50.4569999101545],[-121.018590410797,50.4569708805297]]]}},{"type":"Feature","id":"855316169","properties":{"name":"SP_20KPH_TR%_CRUSHER YARD EMPTY_AUG_24_NS","oid":"855316169","speedLimit":5.5555553},"geometry":{"type":"Polygon","coordinates":[[[-121.037912733327,50.4622348592515],[-121.037771279003,50.4621194597521],[-121.03759671535,50.4622033131266],[-121.037546276457,50.4622375555014],[-121.037609395518,50.4622265008765],[-121.037905829679,50.4624612543752],[-121.037947533345,50.463258355746],[-121.037501614086,50.4637414338684],[-121.037077955568,50.4639814001171],[-121.036452259698,50.4642045597409],[-121.036236696833,50.4641030908664],[-121.036399284772,50.4643263403653],[-121.036720938379,50.4642316121158],[-121.037063162038,50.4640565356167],[-121.037842428837,50.4636953279936],[-121.037980360892,50.4635589876194],[-121.038131959351,50.4633172238707],[-121.038186061403,50.4629460401226],[-121.038121674325,50.4624941486251],[-121.037912733327,50.4622348592515]]]}},{"type":"Feature","id":"859384545","properties":{"name":"SP_20KPH_TR%_MAINT_CREW_L1590_DUST_AUG_20_NS","oid":"859384545","speedLimit":5.5555553},"geometry":{"type":"Polygon","coordinates":[[[-121.013533982274,50.4515903339335],[-121.013429723111,50.4510354456865],[-121.012756547055,50.448326792951],[-121.012536193905,50.4488172408233],[-121.013394218639,50.4517792511825],[-121.013277420198,50.4521784759303],[-121.013116804731,50.4521877330553],[-121.013442966843,50.4522149651801],[-121.013533982274,50.4515903339335]]]}},{"type":"Feature","id":"863534413","properties":{"name":"SP_20KPH_%TRAC_1590_AUG_24_NS","oid":"863534413","speedLimit":5.5555553},"geometry":{"type":"Polygon","coordinates":[[[-121.012339510402,50.4562542172835],[-121.013045514006,50.4555690102872],[-121.01334617489,50.4553101702886],[-121.013523697249,50.4551322177895],[-121.013057771502,50.4549759251654],[-121.013287282552,50.4550942006647],[-121.011899508556,50.4565733634068],[-121.011627589387,50.456541278032],[-121.012024760442,50.4566649460313],[-121.012339510402,50.4562542172835]]]}},{"type":"Feature","id":"878230085","properties":{"name":"SP_20KPH_TR%_PUNCH_OUT_L1590_DMP_AUG_24_NS1","oid":"878230085","speedLimit":5.5555553},"geometry":{"type":"Polygon","coordinates":[[[-121.013652894077,50.4533275277992],[-121.013645285975,50.4527796498021],[-121.013741091693,50.4524494490539],[-121.013097925369,50.4524617619288],[-121.013065520494,50.4528629639267],[-121.013205002347,50.453367432299],[-121.013610345067,50.4545820030425],[-121.013328986217,50.4549546247905],[-121.013044245989,50.4549500411655],[-121.013783358921,50.4551889289142],[-121.014113043302,50.4546825731669],[-121.014059363922,50.454296110669],[-121.013652894077,50.4533275277992]]]}},{"type":"Feature","id":"883050998","properties":{"name":"iSP_22kph_%TR_4CR_Brake_Temp_CTRL_NOREMOVE","oid":"883050998","speedLimit":6.111111},"geometry":{"type":"Polygon","coordinates":[[[-121.031799624096,50.4745590584354],[-121.032188905269,50.4743124414368],[-121.032490552389,50.4745747865603],[-121.032792199508,50.4748021703091],[-121.032970003648,50.4748845856837],[-121.033178803756,50.4749347359334],[-121.03346269864,50.4749595414333],[-121.033666567571,50.4749219736835],[-121.033827746601,50.4748625663088],[-121.033918902924,50.4748105286841],[-121.034008227666,50.4747473465594],[-121.034058666559,50.4746581905599],[-121.034052890038,50.4745480038105],[-121.034056694088,50.4744836533108],[-121.033994561262,50.4743796679364],[-121.033876213023,50.474259594937],[-121.033509333482,50.4739376626888],[-121.03306101908,50.4735600079408],[-121.032947742908,50.4734254650665],[-121.032822772803,50.4732209095676],[-121.032605941922,50.4728149441948],[-121.032252447002,50.472209006948],[-121.032487452792,50.4721561604483],[-121.032430392034,50.472205681573],[-121.032902939646,50.4730488888185],[-121.033042139718,50.4733096161921],[-121.03324995359,50.4735469760659],[-121.033742930363,50.4739616593136],[-121.034097975081,50.474271188812],[-121.03420336137,50.4743944973113],[-121.034256054515,50.474461723811],[-121.034263099053,50.4745928514353],[-121.034238161388,50.4746788618098],[-121.034183636664,50.4747916549342],[-121.034086140257,50.4748758678087],[-121.033973286758,50.4749377018084],[-121.033790692331,50.475016162683],[-121.033531171549,50.4750644255577],[-121.033263197322,50.4750681104327],[-121.033071585887,50.4750263185579],[-121.032807838382,50.4749165811835],[-121.032657085268,50.474835154434],[-121.032495483565,50.4747053749346],[-121.032144947352,50.4744131014362],[-121.031799624096,50.4745590584354]]]}},{"type":"Feature","id":"883053336","properties":{"name":"iSP_22kph_%TR_Brake_Temp_CTRL_NOREMOVE","oid":"883053336","speedLimit":6.111111},"geometry":{"type":"Polygon","coordinates":[[[-121.032466178287,50.4721452855734],[-121.032251319876,50.4722255439479],[-121.031488678187,50.4710083668294],[-121.030816770148,50.4699233958353],[-121.030661508529,50.4696602418367],[-121.030596698779,50.4694577534628],[-121.030550345718,50.4692567929638],[-121.030596698779,50.4689729677154],[-121.030722936901,50.4686243425922],[-121.030884679494,50.4683755685936],[-121.031089111989,50.468097854845],[-121.031688461286,50.4675365854731],[-121.032432364504,50.4668937096015],[-121.032788677239,50.4665562289783],[-121.033147807789,50.4662224332301],[-121.033484677598,50.465870752357],[-121.033779702852,50.4660341451061],[-121.033587668745,50.4659933418563],[-121.032919564756,50.4666521256028],[-121.032554798576,50.466991313851],[-121.032178761134,50.4673077637243],[-121.031774545541,50.4676684320974],[-121.031382164772,50.4680344929704],[-121.031147299873,50.468286412594],[-121.031008945146,50.468469937343],[-121.030905249546,50.4686545405921],[-121.030828745862,50.468853074466],[-121.030767881054,50.4691913639642],[-121.030776616281,50.4694006828381],[-121.030873830906,50.4696304033368],[-121.031027824508,50.4699351694602],[-121.031330739644,50.4704038675827],[-121.031530804524,50.470711060331],[-121.031750453221,50.4710829630791],[-121.032146215369,50.4717288947006],[-121.03238150294,50.4721451956984],[-121.032466178287,50.4721452855734]]]}},{"type":"Feature","id":"883059532","properties":{"name":"iSP_22kph_%TR_Brake_CTRL_NOREMOVE","oid":"883059532","speedLimit":6.111111},"geometry":{"type":"Polygon","coordinates":[[[-121.027262378028,50.4773220855456],[-121.027030190054,50.4772099215462],[-121.027334654989,50.4769441611727],[-121.027716609842,50.4766325645493],[-121.028033332273,50.476322855301],[-121.028190566362,50.4761688994268],[-121.028621410309,50.4756924720544],[-121.028907418554,50.4753258719313],[-121.02926401307,50.4748877313087],[-121.029472813178,50.4746568424349],[-121.02969161653,50.4745405441855],[-121.029801652214,50.4744883268108],[-121.029952405329,50.4745927615602],[-121.029788831155,50.4745421619355],[-121.029556220509,50.4747916549342],[-121.029252037356,50.4751731743071],[-121.029073106089,50.4754781201805],[-121.028853316502,50.4757748874289],[-121.028696223303,50.4759748593028],[-121.028409087932,50.4762707278013],[-121.028041785718,50.4765701014247],[-121.02724406223,50.4772195381712],[-121.027262378028,50.4773220855456]]]}},{"type":"Feature","id":"891249991","properties":{"name":"SP_30KPH_TR%_1590 #1_AUG_24_NS","oid":"891249991","speedLimit":8.333333},"geometry":{"type":"Polygon","coordinates":[[[-121.012957034608,50.4498606895678],[-121.013847605108,50.4497487951934],[-121.013379002437,50.4450041142188],[-121.012138881959,50.4430837551041],[-121.011299595695,50.4419102572353],[-121.010529768577,50.4421496842341],[-121.011008797164,50.4427016066061],[-121.011240844248,50.4430298301044],[-121.011456407112,50.4435199184767],[-121.01177439756,50.4445106105964],[-121.012957034608,50.4498606895678]]]}},{"type":"Feature","id":"893804793","properties":{"name":"SP_20KPH_%TR_1590Dynamic_AUG_24_NS","oid":"893804793","speedLimit":5.5555553},"geometry":{"type":"Polygon","coordinates":[[[-121.011186601305,50.4418407838607],[-121.010484260861,50.4421100493593],[-121.005981955702,50.438048148756],[-121.006514522778,50.437681638508],[-121.010067365099,50.4407333441166],[-121.011186601305,50.4418407838607]]]}},{"type":"Feature","id":"903864124","properties":{"name":"SP_15KPH_%TR_OLD_GARBAGEDUMP_AUG_24_NS","oid":"903864124","speedLimit":4.1666665},"geometry":{"type":"Polygon","coordinates":[[[-121.042585234525,50.4670021887259],[-121.042132411619,50.4673287944742],[-121.040894122721,50.4666614726027],[-121.040723785791,50.4661230314806],[-121.042264426262,50.4668263033519],[-121.042585234525,50.4670021887259]]]}},{"type":"Feature","id":"903865068","properties":{"name":"SP_15KPH_%TR_OLD_GARBAGE_DUMP_AUG_24_NS","oid":"903865068","speedLimit":4.1666665},"geometry":{"type":"Polygon","coordinates":[[[-121.04292675373,50.4672014415998],[-121.042599605383,50.4670067723509],[-121.042142837536,50.4673430845991],[-121.042537331666,50.4674834693483],[-121.043338718315,50.4678202309715],[-121.043755895859,50.468475509593],[-121.04366727557,50.4685886622174],[-121.044339465391,50.4682702350941],[-121.044047962406,50.4682660109691],[-121.043766321775,50.4678701115963],[-121.04331378065,50.4674093224737],[-121.04292675373,50.4672014415998]]]}},{"type":"Feature","id":"903996942","properties":{"name":"MRK_CULVERT_1185EL_JULY_6_DS","oid":"903996942","speedLimit":1.9444444},"geometry":{"type":"Polygon","coordinates":[[[-121.036707976429,50.4471634509572],[-121.036651901906,50.4471421505823],[-121.037062598475,50.4468897815837],[-121.037120786359,50.4469100034586],[-121.036707976429,50.4471634509572]]]}},{"type":"Feature","id":"908328496","properties":{"name":"SP_15KPH_%TR_9019_SOFT_GROUND_AUG_24_NS","oid":"908328496","speedLimit":4.1666665},"geometry":{"type":"Polygon","coordinates":[[[-121.038886288485,50.4644516261146],[-121.038900659343,50.464753066863],[-121.039282191524,50.4648803298623],[-121.039728392564,50.4650715838613],[-121.03926486196,50.4662040987302],[-121.038928696604,50.466979180726],[-121.037505277246,50.4694615282127],[-121.035259619406,50.4690833342148],[-121.03522890522,50.4668159677269],[-121.037881737359,50.4651399787359],[-121.038520817851,50.4648144514876],[-121.038886288485,50.4644516261146]]]}},{"type":"Feature","id":"910445950","properties":{"name":"SP_20KPH_%TR_1635_FLATS_AUG_24_NS","oid":"910445950","speedLimit":5.5555553},"geometry":{"type":"Polygon","coordinates":[[[-121.02022572986,50.4571641117786],[-121.01904464261,50.4569612639047],[-121.018650993824,50.4569226176549],[-121.017842985309,50.4571469456537],[-121.018448956473,50.4564124871576],[-121.018503481197,50.4555079851625],[-121.019218501809,50.4555079851625],[-121.019236676717,50.4564588626574],[-121.019424484102,50.4568918804051],[-121.019757831642,50.4570619239042],[-121.02022572986,50.4571641117786]]]}},{"type":"Feature","id":"917291012","properties":{"name":"SP_15KPH_%TR_CORNER_RUTS_AUG_24_NS","oid":"917291012","speedLimit":4.1666665},"geometry":{"type":"Polygon","coordinates":[[[-121.040610650509,50.4662214446051],[-121.04068489994,50.4661073033557],[-121.040422984016,50.4659262951067],[-121.040121196006,50.4658981642318],[-121.040017077733,50.4663106006046],[-121.039934093075,50.4664859467287],[-121.039995239665,50.4668201019769],[-121.040667429486,50.4667393043523],[-121.040549503919,50.466622376978],[-121.040532033465,50.4663773777293],[-121.040610650509,50.4662214446051]]]}},{"type":"Feature","id":"917773475","properties":{"name":"SP_11KPH_%TR_1200_CORNER_AUG_24_NS","oid":"917773475","speedLimit":3.0555556},"geometry":{"type":"Polygon","coordinates":[[[-121.037099230072,50.4446825414705],[-121.036925089092,50.4448621117195],[-121.036629500275,50.4448205894698],[-121.036414923646,50.4448699308445],[-121.036323344651,50.444967624969],[-121.036254730851,50.4450821257184],[-121.036242473355,50.445144948343],[-121.036263606969,50.4452672682174],[-121.036316300113,50.4453514810919],[-121.036184426361,50.4453952502167],[-121.036089325097,50.4451942897178],[-121.036163292747,50.4449316749692],[-121.0362600847,50.4447913800949],[-121.036516928557,50.4447150762203],[-121.036714034732,50.4447117508453],[-121.036923398403,50.44477007972],[-121.037094017114,50.4446836199705],[-121.037099230072,50.4446825414705]]]}},{"type":"Feature","id":"920440343","properties":{"name":"iSP_17KPH_CAL_PAD_ROAD_LIMIT_AUG_23_NS","oid":"920440343","speedLimit":4.7222223},"geometry":{"type":"Polygon","coordinates":[[[-121.005955468239,50.4378307411322],[-121.005969134643,50.4376130638834],[-121.005586898008,50.4375782822586],[-121.005286659796,50.437682717008],[-121.00519113586,50.4378350551322],[-121.005286659796,50.4381615710054],[-121.005989563803,50.4392586751246],[-121.007470466592,50.4413700186132],[-121.007675180868,50.4416486311117],[-121.007784371208,50.442153638734],[-121.007934560759,50.4426629603563],[-121.008118845874,50.4432332172283],[-121.00832356015,50.443651135976],[-121.008685226734,50.4445610304711],[-121.008760321509,50.4449223279692],[-121.008760321509,50.4451791907178],[-121.008692130381,50.4456188592155],[-121.008494178862,50.4462283015872],[-121.008944606625,50.4462152697123],[-121.009135654497,50.4457321017149],[-121.009319939612,50.4449180139692],[-121.009217512029,50.4444521918467],[-121.008999131349,50.4437991601002],[-121.008773987913,50.4433769273525],[-121.008460083297,50.4427369274809],[-121.008296227342,50.4420752677345],[-121.008241702618,50.4417444378612],[-121.007920894355,50.4411958408642],[-121.006815324553,50.4398332459965],[-121.006603847521,50.4394936982483],[-121.006228514534,50.4387797312521],[-121.005989563803,50.4383879661292],[-121.005935039078,50.438057136256],[-121.005955468239,50.4378307411322]]]}},{"type":"Feature","id":"921284584","properties":{"name":"SP_22kph_rough ground_23SH_AUG 24_NS","oid":"921284584","speedLimit":6.111111},"geometry":{"type":"Polygon","coordinates":[[[-121.039975374068,50.4679545940958],[-121.040298718365,50.4674446433486],[-121.040047228356,50.4668716003516],[-121.040675882932,50.466802845977],[-121.040882569678,50.4674217252237],[-121.040343944299,50.4682543272192],[-121.03911664488,50.469788583336],[-121.039354327593,50.4704370314575],[-121.039939587815,50.4707935655806],[-121.039580739046,50.4711136104539],[-121.038663399301,50.4705577335819],[-121.038403737629,50.4695219242124],[-121.039975374068,50.4679545940958]]]}},{"type":"Feature","id":"921727643","properties":{"name":"SP_35KPH_%TR_ HIGHMONT TRIAL_Aug 24_NS","oid":"921727643","speedLimit":9.722222},"geometry":{"type":"Polygon","coordinates":[[[-121.012709489541,50.4365926231388],[-121.010156689842,50.4366189565137],[-121.007267020333,50.4370210572615],[-121.006148629472,50.4371700700107],[-121.005263835493,50.4370777683862],[-121.00492442965,50.4368541593874],[-121.005302862234,50.4361088260164],[-121.00597054355,50.4354592095199],[-121.006755164198,50.4347244813988],[-121.007317177444,50.4339045517782],[-121.007674758195,50.4330512785328],[-121.0079125818,50.4323924049113],[-121.00790694617,50.4319202915389],[-121.007795642468,50.4313843669167],[-121.007511888476,50.4310045551688],[-121.006988901971,50.4305644372961],[-121.005753571778,50.4297835134253],[-121.004891038539,50.4292687993031],[-121.004117689152,50.4288925825551],[-121.003316725175,50.4284986604322],[-121.00311581495,50.428531734432],[-121.004389890102,50.4291669709286],[-121.005351046874,50.4296953460508],[-121.006574542243,50.4304919980465],[-121.007130919858,50.4309175561692],[-121.007500898996,50.4313874226667],[-121.007671658599,50.4318533346642],[-121.007636858581,50.4325370137856],[-121.00739973943,50.433202538157],[-121.007173187086,50.4338687815284],[-121.00659074468,50.4345639646497],[-121.006158632716,50.4350394033972],[-121.005745259223,50.4354069022702],[-121.005112659706,50.4360621808917],[-121.004793260351,50.4366454696386],[-121.004711825491,50.436933069637],[-121.004893433682,50.4370848685112],[-121.005450938423,50.4372766617602],[-121.006283884603,50.4372647083852],[-121.007586560579,50.4371448151359],[-121.008820340973,50.4369810628868],[-121.009459139684,50.4368811218873],[-121.011037397989,50.4367892696378],[-121.012887857244,50.4367962798877],[-121.012878558454,50.4364188947648],[-121.012709489541,50.4365926231388]]]}},{"type":"Feature","id":"922262468","properties":{"name":"SP_20kph_HMT_DUMP_AUG_24_NS","oid":"922262468","speedLimit":5.5555553},"geometry":{"type":"Polygon","coordinates":[[[-121.012501675668,50.4364264442647],[-121.012481810071,50.4374171363844],[-121.016364195882,50.4384077386291],[-121.017180516951,50.4369598523869],[-121.016523543332,50.4359057085175],[-121.014771425828,50.4353087587707],[-121.01289997385,50.4352072000213],[-121.012501675668,50.4364264442647]]]}},{"type":"Feature","id":"922385545","properties":{"name":"SP_20KPH_RUTS_AUG 24_NS","oid":"922385545","speedLimit":5.5555553},"geometry":{"type":"Polygon","coordinates":[[[-121.007511888476,50.4337191396542],[-121.006870412841,50.4335257286553],[-121.006519031283,50.4340722585273],[-121.007226302903,50.434318875526],[-121.007511888476,50.4337191396542]]]}},{"type":"Feature","id":"923351007","properties":{"name":"iSP_17KPH_PERMISSIONS_AUG 18_NS","oid":"923351007","speedLimit":4.7222223},"geometry":{"type":"Polygon","coordinates":[[[-121.038854024501,50.4608772973837],[-121.038873467426,50.4611348791324],[-121.038784142684,50.4608896102587],[-121.038539415432,50.4608896102587],[-121.038535611381,50.460830202884],[-121.038881216418,50.460822743259],[-121.038854024501,50.4608772973837]]]}},{"type":"Feature","id":"923607825","properties":{"name":"MRK_CROSS DITCH ","oid":"923607825","speedLimit":2.7777777},"geometry":{"type":"Polygon","coordinates":[[[-121.035186074428,50.4458453442143],[-121.035617481939,50.4454860239662],[-121.035587049534,50.4454713743413],[-121.035137748897,50.4458265603394],[-121.035186074428,50.4458453442143]]]}},{"type":"Feature","id":"924222108","properties":{"name":"sp_11kph_rough ground_23SH _AUG 24_NS","oid":"924222108","speedLimit":3.0555556},"geometry":{"type":"Polygon","coordinates":[[[-121.039474366522,50.4712557927031],[-121.039829693021,50.4714069624523],[-121.041446273613,50.4722544836978],[-121.041822733727,50.4718505854499],[-121.039781085709,50.4709826625796],[-121.03964442167,50.4710717287041],[-121.039474366522,50.4712557927031]]]}},{"type":"Feature","id":"924266047","properties":{"name":"SP_12KPH_%TR_CROSS DITCH_AUG_24 NS ","oid":"924266047","speedLimit":3.3333333},"geometry":{"type":"Polygon","coordinates":[[[-121.037616158275,50.4473122839564],[-121.037894135746,50.4474714525806],[-121.037657721049,50.4477506942041],[-121.037463010017,50.4476920058294],[-121.037268158095,50.4475133343303],[-121.037616158275,50.4473122839564]]]}},{"type":"Feature","id":"925208014","properties":{"name":"SP_18KPH_BAD RAMPS_AUG 24_NS","oid":"925208014","speedLimit":5},"geometry":{"type":"Polygon","coordinates":[[[-121.036765178078,50.4451605865929],[-121.036033673247,50.4452368904675],[-121.036305169743,50.4456359354654],[-121.037266608297,50.4467980192092],[-121.037919777865,50.4474347835807],[-121.038246503539,50.4478045293288],[-121.038872058518,50.4475375107052],[-121.03687098704,50.4452749974673],[-121.036765178078,50.4451605865929]]]}},{"type":"Feature","id":"925558402","properties":{"name":"SP_15KPH_LAKE2_AUG 24_NS","oid":"925558402","speedLimit":4.1666665},"geometry":{"type":"Polygon","coordinates":[[[-121.02527807255,50.4783481884151],[-121.025271732466,50.47837847629],[-121.025225942969,50.4784257505397],[-121.025197623926,50.4784830907894],[-121.025186493556,50.4785364765391],[-121.025153384227,50.4786280591636],[-121.025082375283,50.4787307862881],[-121.025000235969,50.4788123029126],[-121.024911897462,50.4788686545373],[-121.024853568687,50.4789109856621],[-121.024719440683,50.4789512496619],[-121.02460419204,50.4789834249117],[-121.024498383079,50.4789884579117],[-121.024400604891,50.4789905250367],[-121.025243272532,50.4783502555401],[-121.02527807255,50.4783481884151]]]}},{"type":"Feature","id":"925953053","properties":{"name":"SP_10KPH_TR%_CR4_AUG24_NS","oid":"925953053","speedLimit":2.7777777},"geometry":{"type":"Polygon","coordinates":[[[-121.023426204387,50.4818267103965],[-121.023320677207,50.4815908783978],[-121.022660603992,50.481731982147],[-121.022802480988,50.4819993602706],[-121.023234874734,50.4818856683962],[-121.02362105631,50.4820624525202],[-121.023426204387,50.4818287775215],[-121.023426204387,50.4818267103965]]]}},{"type":"Feature","id":"926023128","properties":{"name":"SP_10KPH_TR%_4CR_1_AUG24_NS","oid":"926023128","speedLimit":2.7777777},"geometry":{"type":"Polygon","coordinates":[[[-121.022862359562,50.4811968663999],[-121.022835872099,50.4815104402732],[-121.022151565672,50.4816164028976],[-121.021885845697,50.4812731702745],[-121.021985455465,50.4808324232768],[-121.022417285648,50.4808789785266],[-121.02251027355,50.4812223010247],[-121.022822487476,50.4810188240258],[-121.022981975818,50.4812604080245],[-121.022862359562,50.4811968663999]]]}},{"type":"Feature","id":"926367691","properties":{"name":"SP_10KPH_%TR_Aug25_NS","oid":"926367691","speedLimit":2.7777777},"geometry":{"type":"Polygon","coordinates":[[[-121.038765122431,50.4500238126919],[-121.037840033694,50.4500348673168],[-121.038207476799,50.4520286543061],[-121.038181552899,50.4523871656792],[-121.038951098235,50.4525305163034],[-121.039076491013,50.4524588859288],[-121.038821337844,50.4510165719366],[-121.038765122431,50.4500238126919]]]}},{"type":"Feature","id":"926715370","properties":{"name":"speed limit 30 truck single lane","oid":"926715370","speedLimit":4.1666665},"geometry":{"type":"Polygon","coordinates":[[[-121.037522465919,50.4458270097144],[-121.038065458912,50.4456007044656],[-121.03695073121,50.4446299645958],[-121.036668245234,50.4451352418431],[-121.037434972756,50.445703701215],[-121.037522465919,50.4458270097144]]]}}]}