{"type":"FeatureCollection","features":[{"type":"Feature","id":"702602533","properties":{"name":"iSP_4KPH_%TR_CR01_Slow Bump","oid":"702602533","speedLimit":1.1111112},"geometry":{"type":"Polygon","coordinates":[[[-121.033358418244,50.4648077654682],[-121.033653142783,50.4646907482592],[-121.03369653435,50.4647314616199],[-121.033368702609,50.4648695994465],[-121.033358418244,50.4648077654682]]]}},{"type":"Feature","id":"707947583","properties":{"name":"iSP_25KPH_%TR_Permission Gate 1 From West Dump","oid":"707947583","speedLimit":6.9444447},"geometry":{"type":"Polygon","coordinates":[[[-121.038627675992,50.4619778723337],[-121.038854354665,50.4617993806462],[-121.038139379982,50.4614081549082],[-121.037991735949,50.4616708594412],[-121.038191224452,50.4615667842276],[-121.038666136699,50.4618459358799],[-121.038627675992,50.4619778723337]]]}},{"type":"Feature","id":"742345972","properties":{"name":"iSP_4KPH_%TR_CR01_Pit Side_Slow Bump","oid":"742345972","speedLimit":1.1111112},"geometry":{"type":"Polygon","coordinates":[[[-121.033398287768,50.464882721192],[-121.03370555078,50.4647442238654],[-121.033755704669,50.4647763092292],[-121.033474223011,50.4649182218045],[-121.033398287768,50.464882721192]]]}},{"type":"Feature","id":"776427243","properties":{"name":"iSP_7KPH_%TR_CR1_PermissionBlocker","oid":"776427243","speedLimit":1.9444444},"geometry":{"type":"Polygon","coordinates":[[[-121.034099456043,50.4652127420764],[-121.034050992735,50.4652330538193],[-121.034029860478,50.4652744861798],[-121.034115516558,50.465225414447],[-121.034099456043,50.4652127420764]]]}},{"type":"Feature","id":"794004438","properties":{"name":"iSP_11KPH_%TR_Lower_Fuel_Bay","oid":"794004438","speedLimit":3.0555556},"geometry":{"type":"Polygon","coordinates":[[[-121.036776067667,50.4606953565327],[-121.036778180892,50.4607251950222],[-121.036748454851,50.4606707307913],[-121.037124609019,50.4605990105664],[-121.037534574798,50.4605559604565],[-121.037542323292,50.4605813051976],[-121.036943857784,50.4606501494235],[-121.036776067667,50.4606953565327]]]}},{"type":"Feature","id":"801543391","properties":{"name":"iSP_4KPH_%TR_CR01_PermissionBlocker_2","oid":"801543391","speedLimit":1.1111112},"geometry":{"type":"Polygon","coordinates":[[[-121.033154985054,50.4645232213178],[-121.033154139764,50.4644737900851],[-121.033175694665,50.4644317285998],[-121.033107648799,50.4644593202152],[-121.033154985054,50.4645232213178]]]}},{"type":"Feature","id":"806473874","properties":{"name":"iSP_4KPH_%TR_CR04_PermissionBlocker","oid":"806473874","speedLimit":1.1111112},"geometry":{"type":"Polygon","coordinates":[[[-121.022719594971,50.4815450909846],[-121.022686487769,50.4815427542354],[-121.022678880157,50.4815714243504],[-121.022700998585,50.48157250285],[-121.022705084155,50.4815484163584],[-121.022719594971,50.4815450909846]]]}},{"type":"Feature","id":"824566967","properties":{"name":"iSP_3KPH_%TR_CR04","oid":"824566967","speedLimit":0.8333333},"geometry":{"type":"Polygon","coordinates":[[[-121.023302422609,50.4810682144015],[-121.023282276524,50.4810682144015],[-121.023279599772,50.4811863101102],[-121.023304676716,50.4811855911104],[-121.023302422609,50.4810682144015]]]}},{"type":"Feature","id":"826307302","properties":{"name":"iSP_4KPH_%TR_CR04_Pockets","oid":"826307302","speedLimit":1.1111112},"geometry":{"type":"Polygon","coordinates":[[[-121.023297632631,50.4813213921879],[-121.02333707951,50.4814770556334],[-121.023541780635,50.4814376005222],[-121.023460773652,50.4811887367343],[-121.023052498454,50.4811894557341],[-121.023057851959,50.4813601282994],[-121.023282699169,50.4813261555612],[-121.023297632631,50.4813213921879]]]}},{"type":"Feature","id":"883050998","properties":{"name":"iSP_22KPH_%TR_4CR_Brake_Temp_Ctrl","oid":"883050998","speedLimit":6.111111},"geometry":{"type":"Polygon","coordinates":[[[-121.031798716824,50.47455892993],[-121.032187972991,50.4743123130163],[-121.032489600734,50.4745746580495],[-121.032791228477,50.4748020417199],[-121.032969021196,50.474884457066],[-121.033177807891,50.4749346072985],[-121.033461684538,50.4749594127898],[-121.033665540374,50.474921845053],[-121.033826709051,50.4748624376987],[-121.033917859518,50.474810400092],[-121.034007178523,50.4747472179891],[-121.034057614175,50.4746580620203],[-121.034051838025,50.4745478753088],[-121.034055641831,50.4744835248314],[-121.033993512997,50.4743795394928],[-121.03387517236,50.4742594665348],[-121.033508316385,50.4739375343975],[-121.033060030781,50.4735598797797],[-121.032946761885,50.4734253369518],[-121.032821799808,50.4732207815234],[-121.032604982855,50.4728148162905],[-121.032251510643,50.4722088792526],[-121.032486501336,50.4721560327711],[-121.032429444243,50.4722055538787],[-121.032901961501,50.4730487608336],[-121.033041152632,50.4733094881173],[-121.033248953155,50.4735468479092],[-121.033741898261,50.4739615310141],[-121.034096920172,50.4742710604057],[-121.034202299692,50.4743943688626],[-121.034254989452,50.474461595339],[-121.034262033537,50.4745927229182],[-121.034237097475,50.474678733263],[-121.034182576253,50.4747915263486],[-121.034085086109,50.4748757391941],[-121.033972239858,50.4749375731724],[-121.033789657161,50.47501603402],[-121.03353015305,50.4750642968781],[-121.033262196036,50.4750679817518],[-121.033070596909,50.4750261898914],[-121.032806866347,50.4749164525548],[-121.032656122916,50.4748350258333],[-121.032494531594,50.4747052463788],[-121.032144017897,50.4744129729811],[-121.031798716824,50.47455892993]]]}},{"type":"Feature","id":"883053336","properties":{"name":"iSP_22KPH_%TR_Brake_Temp_Ctrl","oid":"883053336","speedLimit":6.111111},"geometry":{"type":"Polygon","coordinates":[[[-121.032465228198,50.4721451578999],[-121.032250383589,50.4722254162468],[-121.031487790888,50.4710082395478],[-121.030815926009,50.4699232689276],[-121.030660674364,50.4696601150197],[-121.030595868777,50.4694576267156],[-121.030549518694,50.4692566662859],[-121.030595868777,50.4689728411353],[-121.03072209879,50.4686242161323],[-121.030883830994,50.4683754422194],[-121.031088250356,50.4680977285666],[-121.031687561154,50.4675364593881],[-121.032431416587,50.4668935837381],[-121.032787706434,50.4665561032312],[-121.033146813915,50.466222307598],[-121.033483662085,50.4658706268462],[-121.033778668388,50.466034019539],[-121.033586646616,50.4659932163032],[-121.032918585543,50.4666519998226],[-121.032553842794,50.4669911879539],[-121.032177829508,50.4673076377182],[-121.031773639879,50.4676683059669],[-121.031381284315,50.4680343667138],[-121.031146434503,50.4682862862506],[-121.031008088663,50.4684698109364],[-121.030904399724,50.4686544141217],[-121.030827900955,50.4688529479273],[-121.030767040056,50.4691912373088],[-121.030775774722,50.4694005561106],[-121.030872983102,50.4696302765302],[-121.031026966812,50.4699350425485],[-121.03132986249,50.4704037405094],[-121.03152991452,50.4707109331519],[-121.031749549107,50.4710828357717],[-121.032145285833,50.4717287671706],[-121.03238055829,50.4721450680249],[-121.032465228198,50.4721451578999]]]}},{"type":"Feature","id":"883059532","properties":{"name":"iSP_22KPH_%TR_Brake_Ctrl","oid":"883059532","speedLimit":6.111111},"geometry":{"type":"Polygon","coordinates":[[[-121.027261762209,50.4773219560878],[-121.02702958915,50.4772097921271],[-121.027334034527,50.4769440318451],[-121.027715964845,50.4766324353292],[-121.028032666931,50.4763227261876],[-121.02818989092,50.4761687703665],[-121.028620707192,50.4756923431582],[-121.028906697065,50.4753257431616],[-121.029263268675,50.4748876026899],[-121.02947205537,50.4746567138958],[-121.029690844667,50.4745404156865],[-121.029800873283,50.4744881983297],[-121.029951616714,50.4745926330432],[-121.029788053047,50.4745420334359],[-121.029555457343,50.4747915263486],[-121.029251293729,50.47517304559],[-121.029072373957,50.4754779913583],[-121.028852598488,50.4757747585044],[-121.02869551538,50.4759747303094],[-121.028408398453,50.4762705987058],[-121.028041119833,50.476569972226],[-121.027243447587,50.4772194087487],[-121.027261762209,50.4773219560878]]]}},{"type":"Feature","id":"884401102","properties":{"name":"iSP_30KPH_%TR_Maint_Limit_Policy","oid":"884401102","speedLimit":8.333333},"geometry":{"type":"Polygon","coordinates":[[[-121.036991616684,50.4611012318906],[-121.037107703214,50.4611077028883],[-121.038293927219,50.4609920338038],[-121.038277584941,50.4603978703868],[-121.038119093016,50.460565756828],[-121.037032049735,50.4607083884031],[-121.036744369282,50.4605377158378],[-121.036991616684,50.4611012318906]]]}},{"type":"Feature","id":"910445950","properties":{"name":"SP_22KPH_%TR_1635_FLATS_OCT_1_DS","oid":"910445950","speedLimit":6.111111},"geometry":{"type":"Polygon","coordinates":[[[-121.017369752885,50.4554937528534],[-121.018002875293,50.4544140848563],[-121.018148124337,50.4539984131268],[-121.018532731408,50.4537514367132],[-121.0189487551,50.4536879849855],[-121.018866621062,50.4543415557567],[-121.018261815878,50.456072008401],[-121.018275904049,50.4557007349059],[-121.017369752885,50.4554937528534]]]}},{"type":"Feature","id":"915576987","properties":{"name":"iSP_15KPH_%TR_Preventing Shifting","oid":"915576987","speedLimit":4.1666665},"geometry":{"type":"Polygon","coordinates":[[[-121.036997111071,50.4448631618244],[-121.037511188434,50.4453130759169],[-121.037980465412,50.4457955247481],[-121.038524409698,50.4462188358499],[-121.039457046623,50.446849937879],[-121.039914348657,50.4470997004166],[-121.040470267888,50.4471950577582],[-121.041223421513,50.4473227700885],[-121.041641840195,50.4475096201481],[-121.042320326514,50.4480950656932],[-121.04270296124,50.4485278136667],[-121.042846378822,50.4487948321982],[-121.043007829263,50.4493916019893],[-121.043187030799,50.450198139957],[-121.043324531348,50.4505012882259],[-121.0436861747,50.4511686997423],[-121.04385664157,50.4514890141302],[-121.044125584756,50.4522535804875],[-121.044382693878,50.4529381581229],[-121.044696437448,50.4537980818219],[-121.0447353208,50.4541947000581],[-121.044570911844,50.4550717898761],[-121.044215326406,50.4568392710074],[-121.044050917449,50.4572073090036],[-121.043004729865,50.4583989612115],[-121.041904866349,50.459537317563],[-121.041343030086,50.4600006230258],[-121.04037165069,50.4605974826919],[-121.039923224204,50.4607309470202],[-121.039134145742,50.4608071609935],[-121.038496796883,50.4608387071075],[-121.038644581797,50.4611434731258],[-121.038757428048,50.4609495229437],[-121.03987842382,50.4608796900931],[-121.040706385635,50.4606318149299],[-121.041510397558,50.4600578733808],[-121.042873287229,50.458700222106],[-121.044242093931,50.4571424192763],[-121.044427494262,50.4562901349496],[-121.044813087505,50.4544215444787],[-121.044809988107,50.4537865778259],[-121.04426012679,50.4523013040958],[-121.043832691679,50.4511858658613],[-121.043345522723,50.4503373562833],[-121.043049671131,50.449309636018],[-121.042927104042,50.4486918354843],[-121.042239601294,50.4478871848909],[-121.041546181513,50.4473914345644],[-121.041091837996,50.4472217506238],[-121.040458292942,50.4471302579059],[-121.039917307173,50.4470196218196],[-121.038820402172,50.4463332466848],[-121.038195732667,50.4458717387214],[-121.03715264448,50.4449069309341],[-121.037376787282,50.4446972526325],[-121.036997111071,50.4448631618244]]]}},{"type":"Feature","id":"917773475","properties":{"name":"SP_15KPH_%TR_1200_CORNER_OCT_1_DS","oid":"917773475","speedLimit":4.1666665},"geometry":{"type":"Polygon","coordinates":[[[-121.037097982376,50.4446824232627],[-121.036923852581,50.4448619934498],[-121.036628282752,50.4448204712144],[-121.036413719907,50.4448698125721],[-121.036322146795,50.4449675066629],[-121.036253537401,50.4450820073728],[-121.036241280693,50.4451448299758],[-121.036262412949,50.445267149808],[-121.036315102709,50.4453513626535],[-121.036183237428,50.4453951317632],[-121.036088142273,50.4451941713336],[-121.036162105171,50.4449315566755],[-121.036258890906,50.4447912618496],[-121.036515718265,50.4447149580013],[-121.036712811779,50.4447116326274],[-121.036922162001,50.444769961482],[-121.037092769753,50.4446835017623],[-121.037097982376,50.4446824232627]]]}},{"type":"Feature","id":"929009157","properties":{"name":"iSP_22KPH_%TR_Long_Single_Lane","oid":"929009157","speedLimit":6.111111},"geometry":{"type":"Polygon","coordinates":[[[-121.005681219985,50.4380558519572],[-121.004751541575,50.4382239181484],[-121.00517601817,50.4381974050326],[-121.007936172648,50.4431703667919],[-121.008524917317,50.4445347586894],[-121.008212019038,50.4465095813731],[-121.007834033407,50.4466800741884],[-121.008935446623,50.4466468204501],[-121.008824713598,50.446592805594],[-121.009404723601,50.4448175053404],[-121.008765825043,50.4430682688277],[-121.008264145271,50.4415400348626],[-121.007260644844,50.440156050222],[-121.006440995051,50.4389839008823],[-121.00586197122,50.4383128943672],[-121.005681219985,50.4380558519572]]]}},{"type":"Feature","id":"932268643","properties":{"name":"SP_35KPH_%traction_1185_1170_OCT_1_DS","oid":"932268643","speedLimit":9.722222},"geometry":{"type":"Polygon","coordinates":[[[-121.038728124652,50.4481973434074],[-121.038466366433,50.448255582387],[-121.03894620954,50.4498292032111],[-121.03950536905,50.4497912759744],[-121.039104842346,50.4497305204957],[-121.038621054551,50.448344109231],[-121.038851114385,50.4481594161706],[-121.038728124652,50.4481973434074]]]}},{"type":"Feature","id":"933371104","properties":{"name":"SP_17KPH_%TR_1590_HMT_INTERSECT_OCT_1_DS","oid":"933371104","speedLimit":4.7222223},"geometry":{"type":"Polygon","coordinates":[[[-121.006360974239,50.4374887409057],[-121.005863239155,50.4376811632133],[-121.00594438702,50.4378151667914],[-121.006254045021,50.4380937791939],[-121.006606108416,50.438316219741],[-121.007163295582,50.4382766747549],[-121.006791790511,50.4381831149126],[-121.006117812406,50.4376595932209],[-121.006360974239,50.4374887409057]]]}},{"type":"Feature","id":"934051091","properties":{"name":"iSP_17KPH_%TR_Ramp_Permission Blocker","oid":"934051091","speedLimit":4.7222223},"geometry":{"type":"Polygon","coordinates":[[[-121.039511990491,50.4610296015407],[-121.039463949827,50.460771570506],[-121.039016509514,50.4607921518738],[-121.039075398069,50.4610448802853],[-121.039162885611,50.4608998220861],[-121.039378857274,50.4608867003407],[-121.039511990491,50.4610296015407]]]}},{"type":"Feature","id":"934859271","properties":{"name":"SP_30KPH_%TR_23SH_LOADED_LANES2_OCT_1_DS","oid":"934859271","speedLimit":8.333333},"geometry":{"type":"Polygon","coordinates":[[[-121.04049844423,50.4654083998829],[-121.040444345653,50.4651300571054],[-121.039927732419,50.4634422051962],[-121.039469866859,50.4634990960513],[-121.039719650132,50.463559761655],[-121.040034943401,50.4645694170516],[-121.04027697818,50.4653841336414],[-121.040002681489,50.4654675376122],[-121.04049844423,50.4654083998829]]]}},{"type":"Feature","id":"936169885","properties":{"name":"SP_25KPH_%TR_24shl_loadplan_OCT_1_DS","oid":"936169885","speedLimit":6.9444447},"geometry":{"type":"Polygon","coordinates":[[[-121.038737141081,50.4550727785007],[-121.03804865216,50.4548564494515],[-121.037412853,50.4555982774418],[-121.037844232798,50.4558184711147],[-121.03838874061,50.455697679157],[-121.038576676813,50.4556101409376],[-121.038585975005,50.4552048048295],[-121.038737141081,50.4550727785007]]]}},{"type":"Feature","id":"936513295","properties":{"name":"SP_30KPH_%TR_1635_FLATS_OCT_1_DS","oid":"936513295","speedLimit":8.333333},"geometry":{"type":"Polygon","coordinates":[[[-121.017285928267,50.4555551374569],[-121.018050070667,50.4557851275014],[-121.017433994945,50.4574537461673],[-121.015227082945,50.4585168771702],[-121.014498301855,50.4578795737683],[-121.016177330085,50.4566193469594],[-121.017285928267,50.4555551374569]]]}},{"type":"Feature","id":"938065675","properties":{"name":"iSP_8KPH_CR01_YARD_RUTIING_OCT_1_DS","oid":"938065675","speedLimit":2.2222223},"geometry":{"type":"Polygon","coordinates":[[[-121.034288519299,50.4648011147205],[-121.03409832899,50.4648579157006],[-121.033940118828,50.4649068975585],[-121.033828681395,50.4650048612742],[-121.034043526004,50.4650687623768],[-121.033963505192,50.465011242397],[-121.034241887453,50.4648880238151],[-121.034318527103,50.4649372752979],[-121.034288519299,50.4648011147205]]]}},{"type":"Feature","id":"938165680","properties":{"name":"SP_10KPH_%TR_22SH_OCT_1_DS","oid":"938165680","speedLimit":2.7777777},"geometry":{"type":"Polygon","coordinates":[[[-121.034079732604,50.4466113198375],[-121.035054493161,50.4472505106138],[-121.035496298206,50.4474472469199],[-121.035794403906,50.4469121313572],[-121.034854159368,50.4461952886081],[-121.034079732604,50.4466113198375]]]}},{"type":"Feature","id":"945606742","properties":{"name":"SP_20KPH_%TR_19SH_OCT_1_DS","oid":"945606742","speedLimit":5.5555553},"geometry":{"type":"Polygon","coordinates":[[[-121.003173807296,50.4271971582581],[-121.00272453552,50.4276020449913],[-121.002069999092,50.4273942540641],[-121.002381770318,50.4270466176858],[-121.003173807296,50.4271971582581]]]}},{"type":"Feature","id":"948333262","properties":{"name":"SP_15KPH_%TR_19SH_LOADAREA_OCT_1_DS","oid":"948333262","speedLimit":4.1666665},"geometry":{"type":"Polygon","coordinates":[[[-121.001736250319,50.4276537230982],[-121.002116490056,50.4274006351868],[-121.001865297966,50.4271371217791],[-121.00167045856,50.4267521872888],[-121.002057742383,50.426243045592],[-121.001738504426,50.4261427451271],[-121.001125809866,50.4265275897424],[-121.001736250319,50.4276537230982]]]}}]}