{"type":"FeatureCollection","features":[{"type":"Feature","id":"702602533","properties":{"name":"iSP_4KPH_%TR_CR01_Slow Bump","oid":"702602533","speedLimit":1.1111112},"geometry":{"type":"Polygon","coordinates":[[[-121.033360541655,50.4648076744822],[-121.033655285821,50.4646906578279],[-121.033698680278,50.4647313709956],[-121.033370826705,50.4648695081675],[-121.033360541655,50.4648076744822]]]}},{"type":"Feature","id":"707947583","properties":{"name":"iSP_25KPH_%TR_Permission Gate 1 From West Dump","oid":"707947583","speedLimit":6.9444447},"geometry":{"type":"Polygon","coordinates":[[[-121.038630150312,50.4619777947618],[-121.03885684408,50.4617993039203],[-121.038141821784,50.4614080800367],[-121.037994167919,50.4616707833245],[-121.038193669706,50.4615667086043],[-121.03866861358,50.4618458589334],[-121.038630150312,50.4619777947618]]]}},{"type":"Feature","id":"715433879","properties":{"name":"SP_30KPH_80%TR_Gate_1_INT-1320_1_Sept15_DS","oid":"715433879","speedLimit":8.333333},"geometry":{"type":"Polygon","coordinates":[[[-121.043620371932,50.4514239171077],[-121.043058357362,50.4502923067428],[-121.0428299729,50.449440835327],[-121.042732898937,50.4489823852855],[-121.042603983587,50.4486920905132],[-121.042297686351,50.4487621027818],[-121.042534946952,50.4488028159496],[-121.042689504481,50.4493153704656],[-121.042877453199,50.4500805623206],[-121.043111050631,50.4506632189798],[-121.043253350635,50.4509332021056],[-121.043478071928,50.451398123114],[-121.043922442435,50.4525745808757],[-121.043748582826,50.4526182599033],[-121.044033182834,50.452567840285],[-121.043762671935,50.4518553149119],[-121.043620371932,50.4514239171077]]]}},{"type":"Feature","id":"739334284","properties":{"name":"SP_30KPH_80%TR_1590 - GATE1(3)_SEPT_15_DS","oid":"739334284","speedLimit":8.333333},"geometry":{"type":"Polygon","coordinates":[[[-121.010381908858,50.459177843264],[-121.010277649449,50.4589932409536],[-121.01026750529,50.4589043550311],[-121.010254684201,50.4588075601488],[-121.01025200727,50.4586960258415],[-121.010262433211,50.4586375175143],[-121.010286948261,50.4585105247858],[-121.010410932423,50.4583307757007],[-121.010551823516,50.4582086361974],[-121.010810781344,50.4580083058421],[-121.011034375509,50.4578412290676],[-121.011316157695,50.4579819726012],[-121.011118628382,50.4579184312996],[-121.010700463619,50.4582184325226],[-121.010452354404,50.4584948866154],[-121.010423330839,50.4586394947543],[-121.010406564799,50.458809088016],[-121.010433052324,50.4589502809223],[-121.010516600742,50.4590994726629],[-121.010647347677,50.4592361718421],[-121.011030148776,50.4594830572104],[-121.012118955142,50.4600642758769],[-121.012384957526,50.4602007054325],[-121.012892588133,50.4604901014594],[-121.013040241999,50.4604391425938],[-121.012812561992,50.46058330136],[-121.01178349345,50.4600254500745],[-121.010775558571,50.4594808103468],[-121.010381908858,50.459177843264]]]}},{"type":"Feature","id":"739337561","properties":{"name":"SP_30KPH_80%TR_1590 GATE3__DUSTY_SEP_15_DS","oid":"739337561","speedLimit":8.333333},"geometry":{"type":"Polygon","coordinates":[[[-121.022231413335,50.4632579677455],[-121.020354743978,50.463552756245],[-121.019835701192,50.4635565309758],[-121.019815694656,50.4634278306309],[-121.019723551882,50.4636471245146],[-121.020074370703,50.4636625829359],[-121.020672030719,50.4636216900191],[-121.020969170034,50.4635743261352],[-121.021330555687,50.4635183342952],[-121.021712088767,50.463440772565],[-121.022610269484,50.463277111023],[-121.025611954219,50.4627256408301],[-121.028276063894,50.4621721035227],[-121.030599076234,50.4617133838577],[-121.032604801833,50.4614635326295],[-121.034195180489,50.4612675162522],[-121.036771796797,50.4608417805443],[-121.036646121942,50.4605213778002],[-121.036588638376,50.4607383349458],[-121.033567087997,50.4612373184059],[-121.03060245762,50.4616185662153],[-121.02989335275,50.4617478058075],[-121.028991931537,50.4619007722788],[-121.027617679817,50.4621893594349],[-121.024122876258,50.4629108722623],[-121.022231413335,50.4632579677455]]]}},{"type":"Feature","id":"742345972","properties":{"name":"iSP_4KPH_%TR_CR01_Pit Side_Slow Bump","oid":"742345972","speedLimit":1.1111112},"geometry":{"type":"Polygon","coordinates":[[[-121.033400413834,50.4648826298507],[-121.033707697308,50.4647441331807],[-121.033757854537,50.4647762183923],[-121.033476354133,50.464918130295],[-121.033400413834,50.4648826298507]]]}},{"type":"Feature","id":"776427243","properties":{"name":"iSP_7KPH_%TR_CR1_PermissionBlocker","oid":"776427243","speedLimit":1.9444444},"geometry":{"type":"Polygon","coordinates":[[[-121.034101628804,50.4652126491708],[-121.034053162268,50.4652329608174],[-121.034032028604,50.4652743929816],[-121.034117690388,50.4652253214813],[-121.034101628804,50.4652126491708]]]}},{"type":"Feature","id":"776901904","properties":{"name":"SP_35KPH_80%TR_1CR-Connector Parking_SPET_15_DS","oid":"776901904","speedLimit":9.722222},"geometry":{"type":"Polygon","coordinates":[[[-121.034268443858,50.4656276898082],[-121.034012303851,50.4654802056839],[-121.033532851462,50.4658615433679],[-121.032601702229,50.4667552558187],[-121.03109614001,50.4680969029895],[-121.030852398419,50.4684461554618],[-121.030628663364,50.4688678468153],[-121.030555259104,50.4691724316399],[-121.030575265639,50.4694257879753],[-121.030722215049,50.4697751303221],[-121.031707043789,50.4713531475397],[-121.03217776093,50.4721559968281],[-121.032768658174,50.4731228671565],[-121.033374208091,50.4730054011295],[-121.032899827781,50.4730089062366],[-121.031025976246,50.4699118295012],[-121.030746025644,50.4693078725755],[-121.03077392208,50.4689801001189],[-121.031220969518,50.4681719482325],[-121.032721882331,50.4668936626142],[-121.033526088689,50.4660554027561],[-121.034093034447,50.4655821234152],[-121.034268443858,50.4656276898082]]]}},{"type":"Feature","id":"776902235","properties":{"name":"SP_35KPH_80%TR_1cr-4cr sec2_SEPT_15_DS","oid":"776902235","speedLimit":9.722222},"geometry":{"type":"Polygon","coordinates":[[[-121.033393228389,50.4730313748722],[-121.032872213127,50.4731801172401],[-121.033048890558,50.4735341330631],[-121.033925514938,50.4743025604017],[-121.034054993852,50.4744917463137],[-121.034062038407,50.474664575059],[-121.033837176222,50.4749139769145],[-121.033427183142,50.4749662838982],[-121.033187668284,50.4749421975209],[-121.032695676588,50.4747571458378],[-121.03233626341,50.4744795233759],[-121.032083927462,50.4742622966067],[-121.031901050824,50.4741094200098],[-121.031630399034,50.4739599586456],[-121.031247879717,50.473918616356],[-121.030843240498,50.4739704739671],[-121.030409577714,50.4740617865023],[-121.030503692964,50.4742758676626],[-121.03054046554,50.4741270354202],[-121.030908754856,50.4740591801406],[-121.031242103182,50.4740218822054],[-121.03152163111,50.4740406659848],[-121.031856951912,50.4742320987604],[-121.032418966481,50.4746882120637],[-121.032798667977,50.474975361227],[-121.033269526009,50.4751071173064],[-121.033782369587,50.4750934563759],[-121.034190390192,50.4749703282527],[-121.034411025644,50.4746806626021],[-121.034329027028,50.4743628662197],[-121.033824496024,50.4739001920748],[-121.033062416103,50.4732821248459],[-121.033227822246,50.4731567498591],[-121.033310525317,50.4730941073029],[-121.033351806407,50.4730627410876],[-121.033393228389,50.4730313748722]]]}},{"type":"Feature","id":"776902464","properties":{"name":"SP_35KPH_80%TR_SkyWay-4CR_SEPT_15_DS","oid":"776902464","speedLimit":9.722222},"geometry":{"type":"Polygon","coordinates":[[[-121.029521682047,50.4752291669351],[-121.029200591246,50.4750682016295],[-121.028512479148,50.4759388163229],[-121.027003676434,50.4773120094581],[-121.027192893172,50.4773778874978],[-121.027135550497,50.477306527111],[-121.028523891327,50.476209518445],[-121.029229333029,50.4752840802806],[-121.029441515015,50.4752401316293],[-121.029521682047,50.4752291669351]]]}},{"type":"Feature","id":"794004438","properties":{"name":"iSP_11KPH_%TR_Lower_Fuel_Bay","oid":"794004438","speedLimit":3.0555556},"geometry":{"type":"Polygon","coordinates":[[[-121.036778418678,50.46069528504],[-121.036780532044,50.4607251233881],[-121.036750804024,50.4606706594153],[-121.037126983242,50.4605989395304],[-121.037536976322,50.4605558896245],[-121.037544725332,50.4605812342455],[-121.03694621997,50.4606500781451],[-121.036778418678,50.46069528504]]]}},{"type":"Feature","id":"801543391","properties":{"name":"iSP_4KPH_%TR_CR01_PermissionBlocker_2","oid":"801543391","speedLimit":1.1111112},"geometry":{"type":"Polygon","coordinates":[[[-121.033157094917,50.4645231316806],[-121.03315624957,50.4644737006822],[-121.033177805908,50.4644316393963],[-121.03310975551,50.4644592308809],[-121.033157094917,50.4645231316806]]]}},{"type":"Feature","id":"806473874","properties":{"name":"iSP_4KPH_%TR_CR04_PermissionBlocker","oid":"806473874","speedLimit":1.1111112},"geometry":{"type":"Polygon","coordinates":[[[-121.022721009883,50.4815449206619],[-121.022687900476,50.4815425839238],[-121.022680292357,50.4815712539029],[-121.022702412259,50.4815723323974],[-121.022706498101,50.48154824602],[-121.022721009883,50.4815449206619]]]}},{"type":"Feature","id":"824566967","properties":{"name":"iSP_3KPH_%TR_CR04","oid":"824566967","speedLimit":0.8333333},"geometry":{"type":"Polygon","coordinates":[[[-121.023303876335,50.4810680463393],[-121.023283728908,50.4810680463393],[-121.023281051978,50.4811861414882],[-121.023306130592,50.4811854224918],[-121.023303876335,50.4810680463393]]]}},{"type":"Feature","id":"826307302","properties":{"name":"iSP_4KPH_%TR_CR04_Pockets","oid":"826307302","speedLimit":1.1111112},"geometry":{"type":"Polygon","coordinates":[[[-121.023299086037,50.4813212229256],[-121.023338535543,50.4814768856332],[-121.023543250301,50.481437430709],[-121.023462237923,50.4811885681008],[-121.023053935536,50.4811892870971],[-121.023059289397,50.4813599588534],[-121.023284151582,50.4813259862763],[-121.023299086037,50.4813212229256]]]}},{"type":"Feature","id":"827282342","properties":{"name":"SP_30KPH_80%TR_1230 to 1215 ramp2_Sept15_DS","oid":"827282342","speedLimit":8.333333},"geometry":{"type":"Polygon","coordinates":[[[-121.036956505019,50.4451702666898],[-121.036723893825,50.4452457613056],[-121.03689465383,50.4451110393663],[-121.03696171799,50.4450452512012],[-121.038448964366,50.4463472636987],[-121.039045638145,50.446729320379],[-121.038820212396,50.4468457079116],[-121.038853321803,50.446784323599],[-121.038765405761,50.446710266976],[-121.038375137434,50.446432285016],[-121.037848768311,50.4460420497523],[-121.036956505019,50.4451702666898]]]}},{"type":"Feature","id":"834847043","properties":{"name":"SP_30KPH_80%TR_Gate_1_INT-1320_Sept_15_DS","oid":"834847043","speedLimit":8.333333},"geometry":{"type":"Polygon","coordinates":[[[-121.043755627381,50.4526227536305],[-121.043936531544,50.452625000494],[-121.044158575906,50.4532809947799],[-121.044373857496,50.4538820757203],[-121.044393159576,50.454149901857],[-121.044375689081,50.4542831858036],[-121.04419126264,50.454299992343],[-121.044489529084,50.4543128444026],[-121.044523202055,50.4540658691598],[-121.044497700767,50.4537730579002],[-121.044136737787,50.4528356664217],[-121.044034873527,50.4525790746028],[-121.043755627381,50.4526227536305]]]}},{"type":"Feature","id":"834884540","properties":{"name":"SP_30KPH_80%TR_Leaving Brute into pit_Sept_ 15_DS","oid":"834884540","speedLimit":8.333333},"geometry":{"type":"Polygon","coordinates":[[[-121.041364564643,50.4593941712878],[-121.041480940686,50.459534016076],[-121.040204185602,50.4604140675964],[-121.039816030641,50.460529466509],[-121.039601735289,50.4605585858608],[-121.039185543,50.4605832114854],[-121.038653256451,50.4605832114854],[-121.038388099414,50.4605944458032],[-121.038321317036,50.4604364463575],[-121.03832314862,50.4607020256306],[-121.038544347636,50.4606907913128],[-121.039008020223,50.4606639188246],[-121.039536784495,50.4606448654216],[-121.039923107872,50.4605866267181],[-121.040202494909,50.4605003471572],[-121.040871445818,50.4601762595569],[-121.041679597127,50.459499054879],[-121.041364564643,50.4593941712878]]]}},{"type":"Feature","id":"834888244","properties":{"name":"SP_30KPH_80%TR_Gate_1_INT-1320_2_Sept15_DS","oid":"834888244","speedLimit":8.333333},"geometry":{"type":"Polygon","coordinates":[[[-121.044194644026,50.4543056544392],[-121.044358077694,50.4543392675181],[-121.044261426404,50.4547156621022],[-121.044182386501,50.4554159645376],[-121.044013598972,50.4560735765652],[-121.043875807483,50.4566873298161],[-121.043792540847,50.4569520103438],[-121.043620371932,50.4572825689112],[-121.043176001425,50.4577833498622],[-121.042976217855,50.4578697192976],[-121.042746424482,50.457873763652],[-121.043086394689,50.4580096539603],[-121.043388606084,50.4577271782731],[-121.04359698401,50.4575024020423],[-121.043762390153,50.4572678294863],[-121.04387158075,50.4570618370348],[-121.043976967288,50.4567985046252],[-121.04404431323,50.4565660890582],[-121.044127016302,50.4561908628432],[-121.044243392344,50.4557236949712],[-121.044363290664,50.4549834882389],[-121.044466986509,50.4543784528187],[-121.044489529084,50.4543128444026],[-121.044194644026,50.4543056544392]]]}},{"type":"Feature","id":"835348611","properties":{"name":"SP_30KPH_80%TR_switchback to 1 gate_SEP_15_DS","oid":"835348611","speedLimit":8.333333},"geometry":{"type":"Polygon","coordinates":[[[-121.039921980743,50.4634032050062],[-121.039549746475,50.463457668979],[-121.039802927769,50.4633739957799],[-121.039546646871,50.4629225559528],[-121.039366728946,50.4625821111857],[-121.039180611812,50.4622609894453],[-121.038988436361,50.4620177889332],[-121.038747512592,50.4618367816046],[-121.038564495063,50.461729830899],[-121.038078279901,50.4614745871982],[-121.038040943761,50.4615167383586],[-121.037960354056,50.4615571819028],[-121.038035167227,50.4613736580869],[-121.038146612081,50.461385431652],[-121.038485173377,50.4615702137114],[-121.038868960714,50.4617905860897],[-121.039056486759,50.4619260270253],[-121.039241054091,50.4621303118604],[-121.039455208552,50.4625353764236],[-121.039583278555,50.4627533221892],[-121.039760237768,50.4630607829992],[-121.039863933613,50.4632592259891],[-121.039945932229,50.4633236660361],[-121.039921980743,50.4634032050062]]]}},{"type":"Feature","id":"837655370","properties":{"name":"SP_30KPH_800%TR_1620 To 1590_MT_DUSTY _SEP_15_DS","oid":"837655370","speedLimit":8.333333},"geometry":{"type":"Polygon","coordinates":[[[-121.011041560955,50.457833679606],[-121.011901701077,50.4572128262662],[-121.012089508904,50.45709814635],[-121.013395992008,50.4562082086299],[-121.013882488952,50.45589778196],[-121.014189490643,50.4556864869106],[-121.014546790455,50.4554507459855],[-121.014988624922,50.4550852262211],[-121.015284355326,50.4547348952543],[-121.015475544539,50.4542803996928],[-121.015469486222,50.4537722490294],[-121.015789590786,50.453769373044],[-121.015631792762,50.4538055026101],[-121.015624184642,50.4542266547164],[-121.015544158502,50.4545539778002],[-121.015371426022,50.4548723134298],[-121.015169951759,50.4551139860747],[-121.014867881256,50.4553490080034],[-121.013367672899,50.4563613548504],[-121.01117892977,50.457868461054],[-121.011322216012,50.4579766700032],[-121.011041560955,50.457833679606]]]}},{"type":"Feature","id":"838667959","properties":{"name":"SP_35KPH_80%TR__SEPT_15_DS","oid":"838667959","speedLimit":9.722222},"geometry":{"type":"Polygon","coordinates":[[[-121.032607760546,50.4743664612014],[-121.033119054322,50.4747010641233],[-121.033458742747,50.4747157136737],[-121.033702343446,50.4746322202237],[-121.033732353249,50.474390907077],[-121.033634715722,50.4742807208879],[-121.033456770272,50.4743398583369],[-121.033708260872,50.4741899475999],[-121.033909594244,50.4743661017033],[-121.033984407414,50.4745826993508],[-121.033829004539,50.4747477988854],[-121.033552857997,50.4748432456495],[-121.033116095609,50.4748240124974],[-121.032767953718,50.4746578344683],[-121.032439536581,50.474364394087],[-121.032647350943,50.4742592408722],[-121.032607760546,50.4743664612014]]]}},{"type":"Feature","id":"849309937","properties":{"name":"SP_30KPH_80%TR_Gate_1_INT-1320_6_SEPT_15_DS","oid":"849309937","speedLimit":8.333333},"geometry":{"type":"Polygon","coordinates":[[[-121.042808980128,50.4579144768197],[-121.042944094686,50.4579906005572],[-121.042649068737,50.4582965335],[-121.042334740709,50.4586325744145],[-121.042030838621,50.4589687052035],[-121.041597034946,50.4594281438649],[-121.041433601279,50.459394530786],[-121.041688332375,50.4594751482507],[-121.04224330239,50.4588880877389],[-121.04280545785,50.4583054310797],[-121.043079350135,50.4580141476874],[-121.042808980128,50.4579144768197]]]}},{"type":"Feature","id":"853505792","properties":{"name":"SP_35KPH_80%TR_Skyway_SEPT_15_DS","oid":"853505792","speedLimit":9.722222},"geometry":{"type":"Polygon","coordinates":[[[-121.030413945338,50.4741010616774],[-121.029943087306,50.4742938425711],[-121.029753588786,50.4744883310811],[-121.029531544423,50.4747489672544],[-121.029209326494,50.4750623597842],[-121.029529149275,50.4752199997318],[-121.029425030757,50.4750076261878],[-121.029756547499,50.4745978881484],[-121.030150197212,50.4742768562825],[-121.030304191177,50.4742126858592],[-121.030496930192,50.4742769461571],[-121.030413945338,50.4741010616774]]]}},{"type":"Feature","id":"859339791","properties":{"name":"SP_30KPH_80%TR_1230_to_1215_Ramp1_Sept_15_DS","oid":"859339791","speedLimit":8.333333},"geometry":{"type":"Polygon","coordinates":[[[-121.040705335219,50.4473789335724],[-121.040683356209,50.4475607497719],[-121.040632212742,50.4474348355378],[-121.040164313423,50.4474146137658],[-121.03990352401,50.4473928641265],[-121.039489304196,50.4472141036614],[-121.03919202399,50.4470089200808],[-121.038967866262,50.4468503813878],[-121.038845995466,50.4468597283402],[-121.039048174185,50.4467555637454],[-121.039457603701,50.4470182670332],[-121.039720788262,50.4471736601172],[-121.040161918274,50.4472747689776],[-121.040554159077,50.4473089213037],[-121.040690682546,50.4473276152086],[-121.040705335219,50.4473789335724]]]}},{"type":"Feature","id":"863534413","properties":{"name":"SP_35KPH_80%TRAC_1590_SEPT_15_DS","oid":"863534413","speedLimit":9.722222},"geometry":{"type":"Polygon","coordinates":[[[-121.012340576831,50.4562540446466],[-121.013046582098,50.4555688411344],[-121.01334724369,50.4553100024519],[-121.013390215473,50.4552184202931],[-121.012796923081,50.4550437041824],[-121.013142388041,50.4552072758498],[-121.011900573948,50.4565731891471],[-121.011628654139,50.4565411039354],[-121.01202582613,50.4566647713059],[-121.012340576831,50.4562540446466]]]}},{"type":"Feature","id":"867844514","properties":{"name":"SP_30KPH_80%TR_Garbage_Dump_DUSTY_SEP_15_DS","oid":"867844514","speedLimit":8.333333},"geometry":{"type":"Polygon","coordinates":[[[-121.013063348138,50.4604498376643],[-121.012829187141,50.4606040623793],[-121.015635033257,50.4626927467476],[-121.015954010691,50.4628691704745],[-121.016948279134,50.4631394232239],[-121.017621034102,50.4632649779598],[-121.019734118714,50.4636496410018],[-121.019861202479,50.4634208204165],[-121.019724115446,50.4635383763182],[-121.016798652793,50.4629931973432],[-121.015961477919,50.4627372346461],[-121.015393264141,50.4623812415832],[-121.013014318038,50.4605762012711],[-121.013063348138,50.4604498376643]]]}},{"type":"Feature","id":"872232587","properties":{"name":"SP_30KPH_80%TR_Gate_1_INT-1320_1_Sept_15_DS","oid":"872232587","speedLimit":8.333333},"geometry":{"type":"Polygon","coordinates":[[[-121.04251282705,50.4485415506545],[-121.042153695654,50.4481517647635],[-121.041862614656,50.4478702776964],[-121.041617464155,50.4476767778063],[-121.041317225236,50.4475047579319],[-121.041102788992,50.4474167707548],[-121.040963588593,50.4473764170852],[-121.040855384233,50.447352869955],[-121.040733372547,50.447352869955],[-121.040706180566,50.4475487065832],[-121.04083439146,50.4474395988886],[-121.041203526124,50.4475416963689],[-121.041509118904,50.4476795639171],[-121.042195399418,50.4484066489661],[-121.042296136549,50.4484933778997],[-121.042069583672,50.4485993399853],[-121.04251282705,50.4485415506545]]]}},{"type":"Feature","id":"875953603","properties":{"name":"SP_35KPH_80%TR_CR01_YARD_LOADED_Sept_15_DS","oid":"875953603","speedLimit":9.722222},"geometry":{"type":"Polygon","coordinates":[[[-121.038112516437,50.4622574843381],[-121.038366402186,50.4628957733391],[-121.038317372086,50.4633430789373],[-121.038103217624,50.4637138114252],[-121.037627146622,50.4639748070967],[-121.03792992158,50.464204796051],[-121.03783059336,50.4640210924861],[-121.03827665456,50.4637267533593],[-121.038558014072,50.4631642285976],[-121.038357526047,50.4621659021793],[-121.038112516437,50.4622574843381]]]}},{"type":"Feature","id":"883050998","properties":{"name":"iSP_22KPH_%TR_4CR_Brake_Temp_Ctrl","oid":"883050998","speedLimit":6.111111},"geometry":{"type":"Polygon","coordinates":[[[-121.031800736366,50.4745587927224],[-121.032190018455,50.4743121769778],[-121.032491666285,50.4745745207674],[-121.032793314115,50.47480190336],[-121.032971118674,50.4748843183155],[-121.033179919274,50.4749344683102],[-121.033463814826,50.4749592736839],[-121.033667684238,50.4749217061252],[-121.033828863648,50.4748622990525],[-121.033920020185,50.4748102616924],[-121.034009345138,50.474747079889],[-121.034059784149,50.4746579243428],[-121.034054007614,50.4745477381537],[-121.034057811674,50.4744833879813],[-121.033995678702,50.4743794031356],[-121.033877330184,50.4742593307468],[-121.033510449778,50.4739374001354],[-121.03306213432,50.4735597473077],[-121.032948857882,50.4734252051176],[-121.032823887482,50.4732206506588],[-121.03260705609,50.4728146873502],[-121.032253560338,50.4722087531845],[-121.032488566681,50.4721559069535],[-121.032431505788,50.4722054278265],[-121.032904054514,50.4730486307844],[-121.033043254914,50.4733093568323],[-121.033251069276,50.4735467154991],[-121.03374404721,50.4739613966383],[-121.034099092764,50.4742709245627],[-121.034204479302,50.4743942324351],[-121.03425717257,50.4744614585929],[-121.034264217125,50.4745925855504],[-121.034239279402,50.4746785954876],[-121.034184754549,50.4747913880385],[-121.034087257912,50.4748756004848],[-121.033974404147,50.4749374341701],[-121.03379180929,50.4750158946457],[-121.033532287897,50.4750641572751],[-121.033264313039,50.4750678421313],[-121.033072701152,50.475026050469],[-121.032808953026,50.4749163136526],[-121.032658199557,50.4748348873171],[-121.032496597473,50.4747051084777],[-121.032146060434,50.4744128364654],[-121.031800736366,50.4745587927224]]]}},{"type":"Feature","id":"883053336","properties":{"name":"iSP_22KPH_%TR_Brake_Temp_Ctrl","oid":"883053336","speedLimit":6.111111},"geometry":{"type":"Polygon","coordinates":[[[-121.032467292126,50.4721450321339],[-121.032252433209,50.4722252901004],[-121.031489789724,50.471008119171],[-121.030817880101,50.4699231536936],[-121.030662618117,50.4696600010331],[-121.030597808214,50.4694575136888],[-121.030551455045,50.4692565542117],[-121.030597808214,50.4689727304064],[-121.030724046634,50.468624107056],[-121.030885789608,50.4683753343223],[-121.031090222584,50.4680976219859],[-121.031689573293,50.4675363554678],[-121.032433478264,50.4668934828651],[-121.032789791838,50.466556003958],[-121.033148923234,50.466222209907],[-121.033485793837,50.4658705308221],[-121.033780819785,50.4660339227404],[-121.033588785226,50.4659931196981],[-121.032920679663,50.4666519000948],[-121.032555912624,50.4669910866183],[-121.032179874297,50.4673075348825],[-121.031775657751,50.4676682014217],[-121.031383276057,50.4680342604334],[-121.031148410605,50.4682861787761],[-121.031010055552,50.4684697025919],[-121.030906359708,50.4686543049022],[-121.030829855844,50.4688528377667],[-121.030768990892,50.4691911255447],[-121.03077772614,50.4694004433543],[-121.030874940994,50.469630162685],[-121.031028934959,50.4699349272587],[-121.031331850808,50.4704036229979],[-121.03153191616,50.4707108141843],[-121.031751565374,50.4710827150412],[-121.032147328454,50.4717286433784],[-121.032382616579,50.4721449422593],[-121.032467292126,50.4721450321339]]]}},{"type":"Feature","id":"883059532","properties":{"name":"iSP_22KPH_%TR_Brake_Ctrl","oid":"883059532","speedLimit":6.111111},"geometry":{"type":"Polygon","coordinates":[[[-121.02726347961,50.4773218057833],[-121.027031291088,50.4772096423542],[-121.02733575674,50.4769438833319],[-121.027717712493,50.476632288293],[-121.02803443567,50.4763225806195],[-121.02819167013,50.4761686255281],[-121.028622515092,50.4756922005782],[-121.02890852401,50.4753256023193],[-121.029265119367,50.4748874639245],[-121.029473919966,50.4746565762247],[-121.029692723833,50.4745402785667],[-121.029802759777,50.4744880614575],[-121.029953513246,50.4745924956759],[-121.029789938688,50.4745418963084],[-121.029557327493,50.4747913880385],[-121.029253143624,50.4751729054715],[-121.029074211936,50.4754778497943],[-121.028854421831,50.4757746155337],[-121.028697328262,50.4759745863908],[-121.028410192215,50.4762704533848],[-121.028042889136,50.476569825486],[-121.027245163768,50.4772192589302],[-121.02726347961,50.4773218057833]]]}},{"type":"Feature","id":"884401102","properties":{"name":"iSP_30KPH_%TR_Maint_Limit_Policy","oid":"884401102","speedLimit":8.333333},"geometry":{"type":"Polygon","coordinates":[[[-121.03699398205,50.461101158474],[-121.037110076311,50.4611076294411],[-121.038296379313,50.4609919609048],[-121.038280035946,50.4603978003042],[-121.038121533467,50.4605656859496],[-121.037034417794,50.4607083168486],[-121.036746718182,50.4605376450924],[-121.03699398205,50.461101158474]]]}},{"type":"Feature","id":"901482363","properties":{"name":"SP_25KPH_80%trx_1200-1185_RAMP_SEPT15_DS","oid":"901482363","speedLimit":6.9444447},"geometry":{"type":"Polygon","coordinates":[[[-121.036668100952,50.4451089722518],[-121.036262898169,50.4451193976988],[-121.038632404569,50.4479561078845],[-121.039157646564,50.4476144048738],[-121.038831342793,50.4476632966249],[-121.038217480301,50.4469311786015],[-121.036578212435,50.4451795237677],[-121.036695856497,50.4451089722518],[-121.036668100952,50.4451089722518]]]}},{"type":"Feature","id":"903864124","properties":{"name":"SP_35KPH_80%TR_OLD_GARBAGEDUMP_SEP_15_DS","oid":"903864124","speedLimit":9.722222},"geometry":{"type":"Polygon","coordinates":[[[-121.040824106411,50.4662679560492],[-121.042371372393,50.4670051969215],[-121.042522971209,50.4669585520339],[-121.042133548228,50.4673285655255],[-121.042025062087,50.4669789535551],[-121.040623336603,50.4663048046116],[-121.040878631264,50.4660909032004],[-121.040824106411,50.4662679560492]]]}},{"type":"Feature","id":"908328496","properties":{"name":"SP_25KPH_800%TR_1445_SOFT_GROUND_SEPT_15_DS","oid":"908328496","speedLimit":6.9444447},"geometry":{"type":"Polygon","coordinates":[[[-121.039333196866,50.4644966186906],[-121.03994226906,50.46470890236],[-121.039190474188,50.4666745484795],[-121.038828243189,50.4674276072713],[-121.038453472881,50.467894056147],[-121.037916536926,50.4682377363977],[-121.037181508095,50.4680256324773],[-121.038314554264,50.4667050159494],[-121.038795274673,50.4655657662484],[-121.039333196866,50.4644966186906]]]}},{"type":"Feature","id":"910445950","properties":{"name":"SP_22KPH_%80TR_1635_FLATS_SEP_15_DS","oid":"910445950","speedLimit":6.111111},"geometry":{"type":"Polygon","coordinates":[[[-121.01791465114,50.4571008425863],[-121.017758825591,50.4573815207826],[-121.016600700807,50.457135084787],[-121.017123688544,50.4561455660738],[-121.017774464502,50.454239686525],[-121.018181357979,50.4539929809058],[-121.018533867493,50.4537513981355],[-121.019043470576,50.4536550526259],[-121.018867779383,50.4543415143817],[-121.018262933922,50.4560719588234],[-121.018043002926,50.4566097680859],[-121.017987914508,50.4569254973538],[-121.01791465114,50.4571008425863]]]}},{"type":"Feature","id":"915576987","properties":{"name":"iSP_15KPH_%TR_Preventing Shifting","oid":"915576987","speedLimit":4.1666665},"geometry":{"type":"Polygon","coordinates":[[[-121.036999476803,50.444863165378],[-121.037513588401,50.4453130773379],[-121.037982896631,50.4457955238822],[-121.038526877141,50.4462188329775],[-121.039459576176,50.4468499320151],[-121.039916908663,50.4470996933688],[-121.040472864916,50.4471950502584],[-121.041226068699,50.4473227619833],[-121.041644515245,50.4475096111572],[-121.042323046748,50.4480950539272],[-121.042705706956,50.4485277998495],[-121.042849134089,50.4487948171153],[-121.043010595281,50.4493915840776],[-121.043189808752,50.4501981182223],[-121.043327318458,50.4505012650542],[-121.043688985894,50.451168673407],[-121.043859464116,50.4514889862765],[-121.044128425213,50.4522535490098],[-121.044385551457,50.4529381234002],[-121.044699315921,50.4537980430231],[-121.044738201863,50.4541946593792],[-121.044573781957,50.4550717450397],[-121.044218172839,50.456839217793],[-121.044053752933,50.4572072540446],[-121.043007495677,50.4583989006039],[-121.041907558915,50.4595372515595],[-121.041345685237,50.4600005548263],[-121.040374241151,50.4605974116632],[-121.039925784802,50.4607308753588],[-121.039136653791,50.4608070889709],[-121.038499262487,50.4608386349353],[-121.038647057243,50.461143399509],[-121.038759911009,50.4609494502462],[-121.039880981435,50.4608796177267],[-121.040708998388,50.4606317437384],[-121.041513063855,50.4600578049098],[-121.042876044288,50.4587001600705],[-121.044244942146,50.4571423646249],[-121.044430354825,50.4562900843382],[-121.044815973746,50.4544215027245],[-121.044812874142,50.4537865390816],[-121.044262976206,50.4523012723919],[-121.04383551263,50.4511858394446],[-121.043348311231,50.4503373338886],[-121.043052439936,50.4493096184949],[-121.042929864685,50.4486918208896],[-121.042242316152,50.4478871741104],[-121.041548850193,50.4473914261338],[-121.041094476418,50.4472217429975],[-121.040460889173,50.4471302507132],[-121.039919867376,50.4470196151514],[-121.038822889327,50.4463332432701],[-121.038198178221,50.4458717374942],[-121.037155020569,50.4449069342803],[-121.037379178298,50.4446972569725],[-121.036999476803,50.444863165378]]]}},{"type":"Feature","id":"917773475","properties":{"name":"SP_15KPH_%TR_1200_CORNER_Sept_15_DS","oid":"917773475","speedLimit":4.1666665},"geometry":{"type":"Polygon","coordinates":[[[-121.037100354825,50.444682427673],[-121.036926213434,50.444861997009],[-121.036630623921,50.4448204749704],[-121.036416046787,50.4448698160942],[-121.036324467577,50.4449675097219],[-121.036255853614,50.4450820098891],[-121.036243596089,50.4451448321943],[-121.036264729753,50.4452671514467],[-121.036317423022,50.445351363893],[-121.036185548959,50.4453951327952],[-121.036090447471,50.4451941733182],[-121.036164415295,50.4449315599049],[-121.036261207476,50.444791265744],[-121.036518051938,50.4447149622574],[-121.036715158577,50.4447116368994],[-121.036924522741,50.4447699654774],[-121.037095141855,50.4446835061675],[-121.037100354825,50.444682427673]]]}},{"type":"Feature","id":"921770139","properties":{"name":"SP_15KPH_%TR_HIGHMONT_SEPT 15_DS","oid":"921770139","speedLimit":4.1666665},"geometry":{"type":"Polygon","coordinates":[[[-121.001284993662,50.4285223558054],[-121.000940655831,50.4287420091874],[-121.000852458007,50.4292275114661],[-121.001084787419,50.4292734373573],[-121.001269072969,50.4287573777341],[-121.001942109719,50.428455848644],[-121.002510605279,50.4282872440022],[-121.002406486762,50.4281544094283],[-121.001284993662,50.4285223558054]]]}},{"type":"Feature","id":"926367691","properties":{"name":"SP_25KPH_%TR_24SH_EMPTY_LANE_SEP_15_DS","oid":"926367691","speedLimit":6.9444447},"geometry":{"type":"Polygon","coordinates":[[[-121.038872623883,50.4506500074221],[-121.038552096646,50.4511528554875],[-121.038554773577,50.4518115460096],[-121.038699186947,50.4530686212359],[-121.038841205169,50.4529999570854],[-121.038951522895,50.4507740342908],[-121.038872623883,50.4506500074221]]]}},{"type":"Feature","id":"929009157","properties":{"name":"iSP_22KPH_%TR_Long_Single_Lane","oid":"929009157","speedLimit":6.111111},"geometry":{"type":"Polygon","coordinates":[[[-121.005681500216,50.4380558877782],[-121.004751759894,50.4382239531727],[-121.005176264757,50.4381974401827],[-121.007936603049,50.4431703783696],[-121.008525386926,50.4445347637997],[-121.008212467809,50.4465095771225],[-121.007834457007,50.4466800691297],[-121.008935943571,50.446646815549],[-121.008825203172,50.4465928009489],[-121.009405251802,50.4448175091104],[-121.008766310695,50.4430682808893],[-121.008264597513,50.4415400541682],[-121.007261030259,50.4401560760879],[-121.00644132588,50.4389839323043],[-121.005862263488,50.4383129289698],[-121.005681500216,50.4380558877782]]]}},{"type":"Feature","id":"930976872","properties":{"name":"SP_11KPH_%80TR_21SH_SEP_15_DS","oid":"930976872","speedLimit":3.0555556},"geometry":{"type":"Polygon","coordinates":[[[-121.037271396612,50.4477306126573],[-121.037161078886,50.4478303733995],[-121.037069640567,50.4478354962484],[-121.036967071851,50.4478011641732],[-121.036139618463,50.447476447451],[-121.035396840621,50.447107512454],[-121.035695529738,50.4468786019941],[-121.037271396612,50.4477306126573]]]}},{"type":"Feature","id":"932095545","properties":{"name":"SP_35KPH_TR_80%_SEPT_15_DS","oid":"932095545","speedLimit":9.722222},"geometry":{"type":"Polygon","coordinates":[[[-121.038886994774,50.461120211877],[-121.038651002194,50.4612319259334],[-121.038510392883,50.4613890266337],[-121.039099599434,50.4617648819705],[-121.039439569641,50.462224500381],[-121.039688805984,50.4625222547404],[-121.039918881139,50.4630015556757],[-121.040003556686,50.4631490398],[-121.040399601548,50.4630262711749],[-121.040106548074,50.4630123406208],[-121.039659359746,50.4621025406268],[-121.038816549228,50.4613148801361],[-121.038886994774,50.461120211877]]]}},{"type":"Feature","id":"932114358","properties":{"name":"SP_30KPH_80%TR_23SH_LOADED_LANES_SEP_15_DS","oid":"932114358","speedLimit":8.333333},"geometry":{"type":"Polygon","coordinates":[[[-121.042100157039,50.4671395593626],[-121.041267349789,50.4667315289395],[-121.040736190369,50.4664966867599],[-121.040690682546,50.4664762852387],[-121.040379031448,50.466781139687],[-121.040595581058,50.4666717623687],[-121.041768217624,50.4671896194827],[-121.041840635646,50.4675475897856],[-121.042100157039,50.4671395593626]]]}},{"type":"Feature","id":"932118723","properties":{"name":"SP_25KPH_80%TR_1635_TO_1620_SEP_15_DS","oid":"932118723","speedLimit":6.9444447},"geometry":{"type":"Polygon","coordinates":[[[-121.01823827798,50.4539383371839],[-121.01853090878,50.4537442081721],[-121.018242222931,50.4536422005663],[-121.017621879449,50.4534680237029],[-121.017126506366,50.4534431284546],[-121.016412470307,50.4534406119674],[-121.016061369704,50.4534804263898],[-121.015776628805,50.4535127812251],[-121.015503581867,50.4536049026312],[-121.015897513363,50.4538313864783],[-121.015823404648,50.4536670958146],[-121.016252558917,50.4536049026312],[-121.016615353481,50.4536074191184],[-121.017325444589,50.453594926557],[-121.017742904898,50.4536546931277],[-121.018121338373,50.453714369824],[-121.018265610852,50.4537691034204],[-121.01823827798,50.4539383371839]]]}},{"type":"Feature","id":"932268643","properties":{"name":"SP_25KPH_80%traction_1185_1170_SEP15_DS","oid":"932268643","speedLimit":6.9444447},"geometry":{"type":"Polygon","coordinates":[[[-121.038730605661,50.4481973311566],[-121.038468830011,50.4482555698602],[-121.038948705073,50.4498291832252],[-121.039507901821,50.4497912561683],[-121.039107348444,50.4497305009775],[-121.038623528431,50.4483440962845],[-121.038853603585,50.4481594040996],[-121.038730605661,50.4481973311566]]]}},{"type":"Feature","id":"932281958","properties":{"name":"SP_25KPH_80%TR_1185-1170_22shl_SEPT_15_DS","oid":"932281958","speedLimit":6.9444447},"geometry":{"type":"Polygon","coordinates":[[[-121.037376501367,50.4481141073302],[-121.037410033447,50.4479619497297],[-121.036983415218,50.447908654126],[-121.035925464001,50.4473799221923],[-121.03546376389,50.4471780639698],[-121.035099278633,50.4474259379581],[-121.035349923887,50.447347567357],[-121.0368160366,50.4479513445337],[-121.037217576214,50.448055419254],[-121.037335924733,50.4481910399386],[-121.037376501367,50.4481141073302]]]}},{"type":"Feature","id":"932364856","properties":{"name":"SP_11KPH_xx%_1170rOUGH_SEPT_15_DS","oid":"932364856","speedLimit":3.0555556},"geometry":{"type":"Polygon","coordinates":[[[-121.037133323341,50.448098828658],[-121.037897939302,50.4481767498864],[-121.038326389116,50.4498587519497],[-121.038777945068,50.4502068360529],[-121.038723561107,50.4496639039415],[-121.038332588324,50.4483822030906],[-121.038161405646,50.4479472103048],[-121.037133323341,50.448098828658]]]}},{"type":"Feature","id":"932654885","properties":{"name":"SP_11KPH_%TX_LOTS OF MUD_SEPT_15_DS","oid":"932654885","speedLimit":3.0555556},"geometry":{"type":"Polygon","coordinates":[[[-121.036366875796,50.4453590032292],[-121.03605931054,50.4454650551893],[-121.03626430708,50.4454605614622],[-121.03801107485,50.4473913362592],[-121.038177326339,50.4473145833999],[-121.036366875796,50.4453590032292]]]}},{"type":"Feature","id":"933252378","properties":{"name":"SP_20KPH_%TR_1615_ROUGH_SECTION_SEP_15_DS","oid":"933252378","speedLimit":5.5555553},"geometry":{"type":"Polygon","coordinates":[[[-121.007363176301,50.4314118223476],[-121.007545630266,50.4321456479873],[-121.007054343025,50.4322076614216],[-121.007399667094,50.432123898348],[-121.00725863511,50.4314847106016],[-121.006910775002,50.4314552317516],[-121.007363176301,50.4314118223476]]]}},{"type":"Feature","id":"933252549","properties":{"name":"SP_35KPH_%TR_1590_ROUGH_SEP_15_DS","oid":"933252549","speedLimit":9.722222},"geometry":{"type":"Polygon","coordinates":[[[-121.004363745824,50.4363928492433],[-121.004780360786,50.4364500094524],[-121.004884620195,50.4362112127929],[-121.00508257218,50.4359569577121],[-121.004585085731,50.4358323915962],[-121.004799099301,50.4359808643404],[-121.004627916623,50.4363681337441],[-121.004363745824,50.4363928492433]]]}},{"type":"Feature","id":"933274269","properties":{"name":"SP_25KPH_%TR_21SH_EMPTY_LANE_SEP_15_DS","oid":"933274269","speedLimit":6.9444447},"geometry":{"type":"Polygon","coordinates":[[[-121.039296283399,50.4524184687953],[-121.039546365089,50.4523080129826],[-121.039514382811,50.4511379363134],[-121.039187233693,50.4506000371764],[-121.0392899433,50.4512177449072],[-121.039296283399,50.4524184687953]]]}},{"type":"Feature","id":"933371104","properties":{"name":"SP_25KPH_1590_HMT_INTERSECT_SEPT_15_DS","oid":"933371104","speedLimit":6.9444447},"geometry":{"type":"Polygon","coordinates":[[[-121.006361299739,50.4374887794149],[-121.005863531508,50.4376812008104],[-121.006069514286,50.4377779058182],[-121.006389055285,50.4379883919968],[-121.006554884101,50.4382643068423],[-121.00708843867,50.4381536712805],[-121.006746495987,50.4380709867014],[-121.006118121713,50.4376596309202],[-121.006361299739,50.4374887794149]]]}},{"type":"Feature","id":"934051091","properties":{"name":"iSP_17KPH_%TR_Ramp_Permission Blocker","oid":"934051091","speedLimit":4.7222223},"geometry":{"type":"Polygon","coordinates":[[[-121.039514523702,50.4610295284636],[-121.039466479839,50.460771498652],[-121.039019009728,50.4607920799223],[-121.039077902205,50.4610448071358],[-121.039165395574,50.4608997496242],[-121.039381381619,50.460886627941],[-121.039514523702,50.4610295284636]]]}},{"type":"Feature","id":"934181877","properties":{"name":"SP_35KPH_TR80%_1590_7_SEPT 15_DS","oid":"934181877","speedLimit":9.722222},"geometry":{"type":"Polygon","coordinates":[[[-121.013996469846,50.4497857738212],[-121.013326250917,50.4498806813381],[-121.013674815481,50.4515052535687],[-121.014403785996,50.4513827545673],[-121.01398533945,50.4512794887179],[-121.013708065779,50.4500004841032],[-121.013996469846,50.4497857738212]]]}},{"type":"Feature","id":"934182014","properties":{"name":"SP_35KPH_TR80%_1590_8_SEPT 15_DS","oid":"934182014","speedLimit":9.722222},"geometry":{"type":"Polygon","coordinates":[[[-121.014415198174,50.4514339830565],[-121.013700739442,50.4515371590313],[-121.013685382313,50.4519280234168],[-121.013479258644,50.4525263182463],[-121.013429664979,50.4528464513668],[-121.013599438746,50.4535848606082],[-121.014234716684,50.4534697313192],[-121.013763999543,50.4534029545341],[-121.013669038946,50.4530021140745],[-121.013678055976,50.4527109205567],[-121.013908694695,50.4520274246608],[-121.013971532123,50.4516617251473],[-121.014415198174,50.4514339830565]]]}},{"type":"Feature","id":"934183529","properties":{"name":"SP_35KPH_80TR%_1590_10_SEPT_15_DS","oid":"934183529","speedLimit":9.722222},"geometry":{"type":"Polygon","coordinates":[[[-121.013537446665,50.4536271915177],[-121.012709570604,50.4537864492071],[-121.013353442898,50.4537445676703],[-121.013563652409,50.454211196295],[-121.013638183797,50.4545352838954],[-121.013480526664,50.4548454409416],[-121.013327237155,50.4550215051704],[-121.012718305851,50.4549935541877],[-121.013401627652,50.4552114999533],[-121.013607469539,50.4550102708526],[-121.01379584093,50.4548063455156],[-121.013852760931,50.4546554461587],[-121.013852760931,50.4544878301369],[-121.01379584093,50.4542614361643],[-121.013651286669,50.4539149698029],[-121.013567174686,50.4537032253807],[-121.013537446665,50.4536271915177]]]}},{"type":"Feature","id":"934183713","properties":{"name":"SP_35KPH_TR80%_1590_11_SEPT_15_DS","oid":"934183713","speedLimit":9.722222},"geometry":{"type":"Polygon","coordinates":[[[-121.013506309734,50.4535868378481],[-121.013322446858,50.4528129281624],[-121.01333822666,50.4526386614245],[-121.013527302507,50.4521864127265],[-121.013606060628,50.4519016003013],[-121.01358830835,50.4515181056283],[-121.012906254569,50.4515580997997],[-121.013422197751,50.4516135523925],[-121.013373590324,50.4518579212736],[-121.01326468151,50.4522239802853],[-121.013109701307,50.4526596920674],[-121.013152673091,50.4530696098559],[-121.013276093688,50.453477820028],[-121.012796500408,50.4536845314758],[-121.013506309734,50.4535868378481]]]}},{"type":"Feature","id":"934183783","properties":{"name":"SP_35KPH_TR80%_1590_12_SEPT15_DS","oid":"934183783","speedLimit":9.722222},"geometry":{"type":"Polygon","coordinates":[[[-121.012906254569,50.451540754013],[-121.013591971518,50.4515035459524],[-121.013248056361,50.449878524349],[-121.012518522282,50.4500003043542],[-121.012936687045,50.4501041094508],[-121.013210861112,50.4513831140654],[-121.012906254569,50.451540754013]]]}},{"type":"Feature","id":"934186247","properties":{"name":"SP_35KPH_TR80%_1590_18_SEPT 15_DS","oid":"934186247","speedLimit":9.722222},"geometry":{"type":"Polygon","coordinates":[[[-121.014232462427,50.4535429790714],[-121.013630716569,50.4536291687576],[-121.01382416004,50.4541042455894],[-121.013943494795,50.4544291420607],[-121.01397251836,50.4546409763574],[-121.013846702614,50.4548795033932],[-121.013501801219,50.4552393610615],[-121.014020844005,50.4553977200054],[-121.013904327071,50.4551693487929],[-121.013969277865,50.4550645550763],[-121.014111155196,50.4548692576954],[-121.014220768466,50.4546882503668],[-121.014217527971,50.4545113772671],[-121.013904749745,50.453715538193],[-121.014232462427,50.4535429790714]]]}},{"type":"Feature","id":"934773555","properties":{"name":"SP_10KPH_NEW RAMP_SEPT 15_DS","oid":"934773555","speedLimit":2.7777777},"geometry":{"type":"Polygon","coordinates":[[[-121.035776683007,50.4443190648976],[-121.036278677971,50.4444734693617],[-121.035933635685,50.4447855137733],[-121.034509931191,50.4446689464916],[-121.034741697039,50.4441516286249],[-121.035776683007,50.4443190648976]]]}},{"type":"Feature","id":"934859271","properties":{"name":"SP_30KPH_80%TR_23SH_LOADED_LANES2_SEP_15_DS","oid":"934859271","speedLimit":8.333333},"geometry":{"type":"Polygon","coordinates":[[[-121.040501043135,50.4654083060499],[-121.040446940955,50.4651299645917],[-121.039930293317,50.4634421206831],[-121.039472397265,50.4634990112685],[-121.039722197173,50.4635596765847],[-121.040037511439,50.4645693271955],[-121.040279562337,50.4653840399234],[-121.040005247379,50.4654674434989],[-121.040501043135,50.4654083060499]]]}},{"type":"Feature","id":"934859421","properties":{"name":"SP_30KPH_80%TR_23SH_LOADED_LANES1_SEP_15_DS","oid":"934859421","speedLimit":8.333333},"geometry":{"type":"Polygon","coordinates":[[[-121.040690682546,50.4664762852387],[-121.040513018878,50.4663965665195],[-121.0403560662,50.4663119047005],[-121.040362124517,50.4660655585794],[-121.040452576599,50.4657767916743],[-121.040518936303,50.4655112124011],[-121.040499352442,50.4654082161754],[-121.040015109755,50.4654842500384],[-121.040285761545,50.4655168744973],[-121.040247439167,50.4657152276126],[-121.040102603124,50.4659577091284],[-121.039981859457,50.4662195136707],[-121.040162904512,50.4664851828184],[-121.040472301352,50.4666103780562],[-121.040354939071,50.4667715231109],[-121.040690682546,50.4664762852387]]]}},{"type":"Feature","id":"934860743","properties":{"name":"SP_30KPH_TR80%_CRUSHER YARD EMPTY1_SEPT_15_DS","oid":"934860743","speedLimit":8.333333},"geometry":{"type":"Polygon","coordinates":[[[-121.037497385925,50.4624814516981],[-121.037863280093,50.4624687793876],[-121.037921609006,50.4626182407518],[-121.037908647025,50.4632758527795],[-121.037749862763,50.463469442544],[-121.037565436323,50.4634603652153],[-121.037938797719,50.4636153089266],[-121.03798148772,50.4635587778393],[-121.038211844657,50.4632685729415],[-121.038185498023,50.4627770490684],[-121.038039675742,50.4623453816407],[-121.037497385925,50.4624814516981]]]}},{"type":"Feature","id":"934860935","properties":{"name":"SP_30KPH_TR80%_CRUSHER YARD EMPTY2_SEPT_15_DS","oid":"934860935","speedLimit":8.333333},"geometry":{"type":"Polygon","coordinates":[[[-121.037548388501,50.4634730375258],[-121.037684489296,50.4636376876877],[-121.03707908027,50.4639811881892],[-121.036453382927,50.4642043466783],[-121.036237819554,50.4641028783198],[-121.036400407876,50.4643261266834],[-121.036722062241,50.4642313989156],[-121.037432435131,50.4639640221516],[-121.037848486528,50.4637350218172],[-121.037938797719,50.4636153089266],[-121.037548388501,50.4634730375258]]]}},{"type":"Feature","id":"935505135","properties":{"name":"SP_20KPH_%TR_1590_WATERHOLES_SEPT_15_DS","oid":"935505135","speedLimit":5.5555553},"geometry":{"type":"Polygon","coordinates":[[[-121.013404304583,50.4441735580133],[-121.012720419218,50.4442018684942],[-121.012969091997,50.4452613096014],[-121.013111251109,50.4462074189106],[-121.013279897748,50.446989237556],[-121.013706234195,50.4470969072579],[-121.013795136474,50.4467739880266],[-121.013439809138,50.4437486311762],[-121.013386552305,50.4441622338209],[-121.013404304583,50.4441735580133]]]}},{"type":"Feature","id":"936169885","properties":{"name":"SP_10KPH_%TR_24shl_loadplan_Sept_15_DS","oid":"936169885","speedLimit":2.7777777},"geometry":{"type":"Polygon","coordinates":[[[-121.039174412604,50.453647952537],[-121.038379927731,50.4537581387262],[-121.038964203093,50.4546638044912],[-121.039435342908,50.4547590715063],[-121.039516214395,50.4544047860596],[-121.039379409144,50.4538956467762],[-121.039282476072,50.4537247053964],[-121.039174412604,50.453647952537]]]}},{"type":"Feature","id":"936513295","properties":{"name":"SP_30KPH_%80TR_1635_FLATS_SEP_15_DS","oid":"936513295","speedLimit":8.333333},"geometry":{"type":"Polygon","coordinates":[[[-121.01743505786,50.4574536900402],[-121.015227998889,50.4585168160037],[-121.014499169266,50.4578795156227],[-121.016652971403,50.4569266657229],[-121.01743505786,50.4574536900402]]]}},{"type":"Feature","id":"937786749","properties":{"name":"SP_30KPH_%TR_24SH_Loaded_LANE_SEP_15_DS","oid":"937786749","speedLimit":8.333333},"geometry":{"type":"Polygon","coordinates":[[[-121.038520537042,50.4505393718602],[-121.038273554956,50.4509802064913],[-121.038255239114,50.4516606466528],[-121.038257775153,50.4529730845972],[-121.038538993775,50.4526663427836],[-121.038465448624,50.4516539959366],[-121.038520537042,50.4505393718602]]]}},{"type":"Feature","id":"937793793","properties":{"name":"SP_10KPH_%TR_21SH_LOAD_AREA_SEP_15_DS","oid":"937793793","speedLimit":2.7777777},"geometry":{"type":"Polygon","coordinates":[[[-121.039543265485,50.4523447716704],[-121.038962794182,50.4525983976294],[-121.039257820131,50.4533286282874],[-121.039709939648,50.4532447753393],[-121.039546365089,50.4524266473787],[-121.039543265485,50.4523447716704]]]}},{"type":"Feature","id":"938065675","properties":{"name":"SP_8KPH_CR01_YARD_RUTIING_SEP_15_DS","oid":"938065675","speedLimit":2.2222223},"geometry":{"type":"Polygon","coordinates":[[[-121.03429070465,50.4648010237661],[-121.034100501675,50.464857824477],[-121.033942280978,50.4649068061026],[-121.033830836123,50.465004769354],[-121.03404569504,50.4650686701537],[-121.033965668899,50.4650111504465],[-121.034244069699,50.4648879324487],[-121.034320714453,50.464937183698],[-121.03429070465,50.4648010237661]]]}},{"type":"Feature","id":"938217281","properties":{"name":"SP_20KPH_CRUSHER_YARD_WEATHER_SEPT_15_DS","oid":"938217281","speedLimit":5.5555553},"geometry":{"type":"Polygon","coordinates":[[[-121.036885073235,50.4639823565582],[-121.037243781958,50.4642843350211],[-121.034293522472,50.4654989894633],[-121.032880807484,50.4644541979065],[-121.036885073235,50.4639823565582]]]}},{"type":"Feature","id":"938718470","properties":{"name":"SP_35KPH_80%TR_1590 TO MAIN INTERSECTION_SEPT15_DS","oid":"938718470","speedLimit":9.722222},"geometry":{"type":"Polygon","coordinates":[[[-121.013946312617,50.455412729054],[-121.013632829935,50.4553367850656],[-121.012974164076,50.4558657866229],[-121.012553604164,50.4562530560266],[-121.012315498217,50.4565593484676],[-121.012410740596,50.4565543154932],[-121.012672657137,50.4563745664081],[-121.012553604164,50.4563518281489],[-121.013652695579,50.4554431066494],[-121.013914612121,50.4554228848773],[-121.013946312617,50.455412729054]]]}},{"type":"Feature","id":"938812881","properties":{"name":"SP_35KPH_TR_1460Ramp_80%_SEPT_15_DS","oid":"938812881","speedLimit":9.722222},"geometry":{"type":"Polygon","coordinates":[[[-121.04051978165,50.4630206989532],[-121.040040611043,50.4631723173065],[-121.040240535504,50.4637667475307],[-121.040334932536,50.4642769653086],[-121.040421721449,50.464613815094],[-121.040521754125,50.46507037777],[-121.040614037791,50.4655596547795],[-121.041059253645,50.4656534838019],[-121.040768736211,50.4655042920613],[-121.040753660864,50.4651072263325],[-121.040369450854,50.4632455650586],[-121.04051978165,50.4630206989532]]]}}]}