{"type":"FeatureCollection","features":[{"type":"Feature","id":"702602533","properties":{"name":"iSP_4KPH_%TR_CR01_SLOW BUMP","oid":"702602533","speedLimit":1.1111112},"geometry":{"type":"Polygon","coordinates":[[[-121.033360369281,50.4648075470564],[-121.033655108048,50.4646905307406],[-121.033698501709,50.4647312437906],[-121.033370654142,50.4648693805628],[-121.033360369281,50.4648075470564]]]}},{"type":"Feature","id":"707947583","properties":{"name":"iSP_22KPH_%TR_Permission Gate 1 from west dump_Jun","oid":"707947583","speedLimit":6.111111},"geometry":{"type":"Polygon","coordinates":[[[-121.038629881395,50.4619776755221],[-121.038856571011,50.461799185197],[-121.037982357796,50.4613507125271],[-121.03774524243,50.4615419650004],[-121.037961365407,50.4614962189905],[-121.038668343959,50.4618457400753],[-121.038629881395,50.4619776755221]]]}},{"type":"Feature","id":"742345972","properties":{"name":"iSP_4KPH_%TR_CR01_PITSIDE_SLOW BUMP","oid":"742345972","speedLimit":1.1111112},"geometry":{"type":"Polygon","coordinates":[[[-121.03340024073,50.4648825022081],[-121.033707518574,50.4647440059387],[-121.033757674884,50.4647760910576],[-121.033476179638,50.4649180025497],[-121.03340024073,50.4648825022081]]]}},{"type":"Feature","id":"776427243","properties":{"name":"iSP_7KPH_%TR_CR1_PermissionBlocker_DO_NOT_DELETE","oid":"776427243","speedLimit":1.9444444},"geometry":{"type":"Polygon","coordinates":[[[-121.034101442853,50.4652125205736],[-121.034052977205,50.4652328321614],[-121.034031843928,50.4652742642057],[-121.034117504143,50.4652251928474],[-121.034101442853,50.4652125205736]]]}},{"type":"Feature","id":"794004438","properties":{"name":"iSP_11KPH_%TR_LOWER_FUEL_BAY","oid":"794004438","speedLimit":3.0555556},"geometry":{"type":"Polygon","coordinates":[[[-121.036778183686,50.4606951695103],[-121.036780297014,50.4607250077721],[-121.036750569538,50.4606705439568],[-121.037126741864,50.4605988242794],[-121.037536727433,50.460555774498],[-121.037544476301,50.4605811190457],[-121.036945981904,50.4606499627461],[-121.036778183686,50.4606951695103]]]}},{"type":"Feature","id":"801543391","properties":{"name":"iSP_4KPH_%TR_CR1_PermissionBlocker_DO_NOT_DELETE_","oid":"801543391","speedLimit":1.1111112},"geometry":{"type":"Polygon","coordinates":[[[-121.03315692627,50.4645230050779],[-121.033156080939,50.4644735742225],[-121.033177636881,50.4644315130583],[-121.03310958773,50.464459104463],[-121.03315692627,50.4645230050779]]]}},{"type":"Feature","id":"806473874","properties":{"name":"iSP_4KPH_%TR_Permission Blocker - DO NOT DELETE","oid":"806473874","speedLimit":1.1111112},"geometry":{"type":"Polygon","coordinates":[[[-121.022721032432,50.4815447448196],[-121.022687923632,50.4815424080882],[-121.022680315653,50.4815710779844],[-121.022702435149,50.4815721564758],[-121.022706520916,50.481548070168],[-121.022721032432,50.4815447448196]]]}},{"type":"Feature","id":"824566967","properties":{"name":"iSP_4Cr_3KPH","oid":"824566967","speedLimit":0.8333333},"geometry":{"type":"Polygon","coordinates":[[[-121.023303888205,50.4810678718764],[-121.023283741148,50.4810678718764],[-121.023281064266,50.4811859666837],[-121.023306142421,50.4811852476894],[-121.023303888205,50.4810678718764]]]}},{"type":"Feature","id":"826307302","properties":{"name":"iSP_4KPH_TR%_CRUSHER POCKETS","oid":"826307302","speedLimit":1.1111112},"geometry":{"type":"Polygon","coordinates":[[[-121.023299097996,50.4813210477303],[-121.023338546779,50.4814767099877],[-121.023543257787,50.4814372551777],[-121.023462246892,50.4811883932893],[-121.023053951986,50.4811891122836],[-121.023059305749,50.4813597835461],[-121.023284163814,50.4813258110673],[-121.023299097996,50.4813210477303]]]}},{"type":"Feature","id":"849417440","properties":{"name":"iSP_Permissions_35_KPH_June_19_NS","oid":"849417440","speedLimit":9.722222},"geometry":{"type":"Polygon","coordinates":[[[-121.03269692528,50.4660337917674],[-121.033011529326,50.4660144687967],[-121.03321849455,50.4658135997752],[-121.03380726764,50.4653791474934],[-121.033728088297,50.4652503576465],[-121.033964217442,50.4653998185784],[-121.033427995767,50.465808117444],[-121.033025618177,50.4661876565391],[-121.03269692528,50.4660337917674]]]}},{"type":"Feature","id":"883050998","properties":{"name":"iSP_22kph_%TR_4CR_Brake_Temp_CTRL_NOREMOVE","oid":"883050998","speedLimit":6.111111},"geometry":{"type":"Polygon","coordinates":[[[-121.031800592568,50.4745586370892],[-121.032189867526,50.4743120220579],[-121.03249150983,50.4745743650886],[-121.032793152133,50.4748017470234],[-121.032970953435,50.4748841617405],[-121.033179750209,50.4749343115902],[-121.03346364056,50.4749591168922],[-121.033667506237,50.4749215494421],[-121.033828682694,50.4748621425413],[-121.033919837561,50.4748101053317],[-121.034009160877,50.4747469237111],[-121.034059598965,50.4746577684228],[-121.034053822536,50.4745475825524],[-121.034057626525,50.4744832325661],[-121.033995494692,50.4743792480212],[-121.033877148342,50.4742591759798],[-121.033510274658,50.4739372462997],[-121.033061967413,50.4735595945645],[-121.03294869305,50.4734250527635],[-121.03282372494,50.4732204988964],[-121.032606897521,50.4728145367622],[-121.032253408245,50.4722086043493],[-121.032488410282,50.4721557582712],[-121.032431350435,50.4722052790009],[-121.032903890503,50.4730484795197],[-121.033043088353,50.4733092048133],[-121.033250898908,50.4735465627935],[-121.03374386781,50.4739612427331],[-121.034098906859,50.4742707697622],[-121.034204291466,50.4743940772778],[-121.034256983769,50.4744613032412],[-121.034264028195,50.4745924298194],[-121.034239090928,50.4746784395078],[-121.034184567074,50.4747912317324],[-121.034087072224,50.4748754439351],[-121.033974220527,50.4749372774415],[-121.033791629015,50.4750157376902],[-121.033532112377,50.4750640001799],[-121.033264142428,50.4750676850255],[-121.033072534052,50.4750258934841],[-121.032808790758,50.4749161569851],[-121.03265804005,50.4748347308851],[-121.032496440927,50.4747049524212],[-121.03214591031,50.4744126812543],[-121.031800592568,50.4745586370892]]]}},{"type":"Feature","id":"883053336","properties":{"name":"iSP_22kph_%TR_Brake_Temp_CTRL_NOREMOVE","oid":"883053336","speedLimit":6.111111},"geometry":{"type":"Polygon","coordinates":[[[-121.032467136117,50.472144883483],[-121.032252281137,50.4722251412173],[-121.031489651623,50.4710079738089],[-121.030817754311,50.46992301147],[-121.030662495171,50.4696598595708],[-121.030597686455,50.4694573728122],[-121.030551334135,50.4692564139165],[-121.030597686455,50.4689725909322],[-121.030723922562,50.4686239685902],[-121.030885662573,50.4683751965762],[-121.031090091804,50.4680974850431],[-121.031689431532,50.4675362201486],[-121.032433322874,50.4668933494056],[-121.03278962992,50.4665558714747],[-121.033148754737,50.4662220783893],[-121.033485619168,50.4658704003218],[-121.033780639711,50.4660337917674],[-121.03358860867,50.4659929888431],[-121.032920515348,50.4666517673342],[-121.032555754991,50.4669909528765],[-121.032179723553,50.4673074002253],[-121.031775514413,50.4676680657211],[-121.031383139908,50.4680341236739],[-121.031148278759,50.4682860412879],[-121.031009926241,50.4684695645728],[-121.030906232296,50.4686541663492],[-121.030829729834,50.4688526986393],[-121.030768865997,50.4691909854388],[-121.030777601085,50.4694003026428],[-121.030874814158,50.469630021309],[-121.031028805301,50.4699347850011],[-121.031331715601,50.4704034793845],[-121.031531777288,50.4707106696822],[-121.031751422478,50.4710825694634],[-121.032147178307,50.471728495932],[-121.032382462121,50.4721447936087],[-121.032467136117,50.472144883483]]]}},{"type":"Feature","id":"883059532","properties":{"name":"iSP_22kph_%TR_Brake_CTRL_NOREMOVE","oid":"883059532","speedLimit":6.111111},"geometry":{"type":"Polygon","coordinates":[[[-121.027263418938,50.4773216421573],[-121.02703123467,50.4772094790527],[-121.027335694744,50.4769437207992],[-121.027717643499,50.4766321266617],[-121.028034360874,50.476322419884],[-121.028191592453,50.476168465238],[-121.028622429522,50.4756920416663],[-121.0289084332,50.4753254444678],[-121.029265022023,50.4748873073404],[-121.029473818798,50.4746564203086],[-121.029692618656,50.474540122987],[-121.029802652584,50.4744879060288],[-121.029953403291,50.4745923399451],[-121.029789831729,50.4745417407241],[-121.029557224797,50.4747912317324],[-121.0292530465,50.4751727480618],[-121.02907411809,50.4754776915024],[-121.028854332012,50.4757744563834],[-121.028697241321,50.475974426662],[-121.028410110534,50.4762702928002],[-121.028042814184,50.4765696640353],[-121.027245103431,50.4772190956009],[-121.027263418938,50.4773216421573]]]}},{"type":"Feature","id":"884401102","properties":{"name":"SP_25KPH_MAIN INT. DUST_AUG_ 7_NS","oid":"884401102","speedLimit":6.9444447},"geometry":{"type":"Polygon","coordinates":[[[-121.035773930375,50.4609088006799],[-121.035955817443,50.4612023300866],[-121.038296116511,50.4609918445169],[-121.038279773444,50.460397685635],[-121.038121273868,50.4605655707948],[-121.035904674914,50.4608508317676],[-121.035711516764,50.4607566435195],[-121.035773930375,50.4609088006799]]]}},{"type":"Feature","id":"903864124","properties":{"name":"SP_20KPH_%TR_OLD_GARBAGEDUMP_AUG_7_NS","oid":"903864124","speedLimit":5.5555553},"geometry":{"type":"Polygon","coordinates":[[[-121.042586030803,50.4670018276646],[-121.042133215127,50.4673284308074],[-121.040894945998,50.4666611142595],[-121.040724611787,50.4661226774328],[-121.042265227662,50.4668259436937],[-121.042586030803,50.4670018276646]]]}},{"type":"Feature","id":"908328496","properties":{"name":"SP_12KPH_%TR_9019_SOFT_GROUND_AUG_7_NS","oid":"908328496","speedLimit":3.3333333},"geometry":{"type":"Polygon","coordinates":[[[-121.039001122624,50.464488673102],[-121.039305582697,50.4646766901011],[-121.039205129188,50.4648763907569],[-121.039036626529,50.4652630299204],[-121.038207356749,50.4663102450605],[-121.039219922482,50.4663022462494],[-121.039226121577,50.4665693526171],[-121.038258640167,50.4670759739478],[-121.036114457908,50.4667425403595],[-121.037882608729,50.4651396325304],[-121.038521679018,50.4648141078791],[-121.039001122624,50.464488673102]]]}},{"type":"Feature","id":"915576987","properties":{"name":"iSP_15kph_prevent shifting","oid":"915576987","speedLimit":4.1666665},"geometry":{"type":"Polygon","coordinates":[[[-121.036999237761,50.4448630956466],[-121.03751333994,50.445313006305],[-121.037982639573,50.4457954514537],[-121.038526610116,50.4462187593244],[-121.039459292064,50.4468498565364],[-121.039916616173,50.4470996171676],[-121.04047256224,50.4471949737814],[-121.041225752223,50.4473226851369],[-121.041644191103,50.4475095337703],[-121.042322710175,50.4480949748467],[-121.042705363373,50.4485277195172],[-121.042848787878,50.4487947360106],[-121.043010246112,50.4493915012466],[-121.043189456299,50.4501980330582],[-121.043326963486,50.4505011790132],[-121.043688624296,50.4511685854353],[-121.043859099395,50.4514888973783],[-121.044128055564,50.4522534578998],[-121.044385177098,50.45293803031],[-121.044698935813,50.4537979474453],[-121.044737821042,50.4541945626541],[-121.044573404149,50.4550716457774],[-121.044217801546,50.4568391134179],[-121.044053384653,50.4572071486049],[-121.043007146565,50.4583987917171],[-121.041907229954,50.4595371393797],[-121.04134536657,50.4600004413062],[-121.040373940281,50.4605972964166],[-121.039925492149,50.4607307597261],[-121.039136375595,50.4608069731177],[-121.038945189884,50.4608050857578],[-121.039001967955,50.4612931929863],[-121.039061704684,50.4609271350335],[-121.039880689602,50.4608795016638],[-121.040708691385,50.4606316283925],[-121.041512742121,50.4600576912242],[-121.042875697584,50.4587000503122],[-121.044244570363,50.4571422593729],[-121.044429979644,50.4562899815516],[-121.044815591501,50.4544214053433],[-121.044812491954,50.4537864435371],[-121.044262604093,50.4523011811439],[-121.043835148348,50.4511857514233],[-121.043347955875,50.4503372483218],[-121.04305209,50.449309535901],[-121.042929516995,50.4486917400828],[-121.042241981058,50.4478870956312],[-121.041548527803,50.4473913490887],[-121.041094162353,50.4472216664433],[-121.040460586716,50.4471301744237],[-121.039919574831,50.4470195391818],[-121.038822616879,50.4463331692861],[-121.038197917218,50.4458716648452],[-121.037154778678,50.4449068644222],[-121.0373789323,50.444697187721],[-121.036999237761,50.4448630956466]]]}},{"type":"Feature","id":"917291012","properties":{"name":"SP_15KPH_%TR_CORNER_RUTS_AUG_7_NS","oid":"917291012","speedLimit":4.1666665},"geometry":{"type":"Polygon","coordinates":[[[-121.040556109127,50.4664418210102],[-121.040365064305,50.4663126716661],[-121.040275036546,50.4660940075367],[-121.040331251062,50.4660007180314],[-121.039808413796,50.4659756431066],[-121.040089486376,50.4660437678128],[-121.040095121917,50.4663091665691],[-121.040230093111,50.4665135406876],[-121.040539202506,50.4666461951286],[-121.040713481595,50.4667251047487],[-121.040820275086,50.4665816653938],[-121.040544838046,50.4664382260388],[-121.040556109127,50.4664418210102]]]}},{"type":"Feature","id":"917665392","properties":{"name":"SP_15KPH_22SH RUTS_AUG 7_NS","oid":"917665392","speedLimit":4.1666665},"geometry":{"type":"Polygon","coordinates":[[[-121.035648821376,50.445519447532],[-121.035216575423,50.4452075837716],[-121.034707967895,50.4452030001832],[-121.035038351455,50.445632060008],[-121.035587393985,50.445956506168],[-121.036007664416,50.4464642958643],[-121.036510213737,50.4462078845362],[-121.035648821376,50.445519447532]]]}},{"type":"Feature","id":"917773475","properties":{"name":"SP_15KPH_%TR_1200_CORNER_AUG_8_NS","oid":"917773475","speedLimit":4.1666665},"geometry":{"type":"Polygon","coordinates":[[[-121.037100113935,50.4446823584644],[-121.036925975735,50.4448619272809],[-121.036630391637,50.4448204053624],[-121.036415818434,50.4448697463435],[-121.036324240901,50.4449674396886],[-121.036255628196,50.4450819395246],[-121.036243370896,50.4451447616481],[-121.036264504173,50.4452670805466],[-121.036317196476,50.4453512927493],[-121.036185324829,50.4453950615249],[-121.036090225084,50.4451941026292],[-121.036164191552,50.4449314899756],[-121.03626098196,50.4447911962206],[-121.036517821717,50.4447148929547],[-121.036714924744,50.4447115676062],[-121.036924285073,50.4447698960156],[-121.03709490106,50.4446834369558],[-121.037100113935,50.4446823584644]]]}}]}