{"type":"FeatureCollection","features":[{"type":"Feature","id":"702602533","properties":{"name":"iSP_4KPH_%TR_CR01_SLOW BUMP","oid":"702602533","speedLimit":1.1111112},"geometry":{"type":"Polygon","coordinates":[[[-121.033337481671,50.4648103461312],[-121.033632194351,50.4646933281533],[-121.033675584172,50.4647340417815],[-121.033347765622,50.4648721805158],[-121.033337481671,50.4648103461312]]]}},{"type":"Feature","id":"707947583","properties":{"name":"iSP_22KPH_%TR_Permission Gate 1 from west dump_Jun","oid":"707947583","speedLimit":6.111111},"geometry":{"type":"Polygon","coordinates":[[[-121.038606527393,50.4619804344031],[-121.038833196945,50.4618019415428],[-121.037959061104,50.4613534625031],[-121.037721966726,50.4615447176928],[-121.037938070574,50.4614989710333],[-121.038644986553,50.4618484970824],[-121.038606527393,50.4619804344031]]]}},{"type":"Feature","id":"742345972","properties":{"name":"iSP_4KPH_%TR_CR01_PITSIDE_SLOW BUMP","oid":"742345972","speedLimit":1.1111112},"geometry":{"type":"Polygon","coordinates":[[[-121.033377349591,50.4648853023474],[-121.033684600239,50.4647468041109],[-121.03373475211,50.4647788896855],[-121.033453281778,50.4649208031932],[-121.033377349591,50.4648853023474]]]}},{"type":"Feature","id":"776427243","properties":{"name":"iSP_4KPH_%TR_CR1_PermissionBlocker_DO_NOT_DELETE","oid":"776427243","speedLimit":1.9444444},"geometry":{"type":"Polygon","coordinates":[[[-121.034078489652,50.4652153254003],[-121.034030028294,50.4652356372766],[-121.034008896887,50.4652770699094],[-121.034094549521,50.4652279978541],[-121.034078489652,50.4652153254003]]]}},{"type":"Feature","id":"794004438","properties":{"name":"iSP_11KPH_%TR_LOWER_FUEL_BAY","oid":"794004438","speedLimit":3.0555556},"geometry":{"type":"Polygon","coordinates":[[[-121.036754993573,50.4606979101754],[-121.036757106714,50.460727748861],[-121.036727381869,50.4606732842722],[-121.037103520901,50.4606015635761],[-121.037513470183,50.4605585131833],[-121.037521218366,50.4605838580909],[-121.036922776939,50.4606527027692],[-121.036754993573,50.4606979101754]]]}},{"type":"Feature","id":"801543391","properties":{"name":"iSP_4KPH_%TR_CR1_PermissionBlocker_DO_NOT_DELETE_","oid":"801543391","speedLimit":1.1111112},"geometry":{"type":"Polygon","coordinates":[[[-121.033134056667,50.4645258001112],[-121.033133211411,50.4644763685537],[-121.033154765445,50.4644343067921],[-121.033086722317,50.4644618985887],[-121.033134056667,50.4645258001112]]]}},{"type":"Feature","id":"806473874","properties":{"name":"iSP_4KPH_%TR_Permission Blocker - DO NOT DELETE","oid":"806473874","speedLimit":1.1111112},"geometry":{"type":"Polygon","coordinates":[[[-121.022699086486,50.4815477816189],[-121.022665980616,50.4815454448544],[-121.02265837331,50.4815741151577],[-121.022680490849,50.4815751936644],[-121.022684576254,50.4815511070146],[-121.022699086486,50.4815477816189]]]}},{"type":"Feature","id":"824566967","properties":{"name":"iSP_4Cr_3KPH","oid":"824566967","speedLimit":0.8333333},"geometry":{"type":"Polygon","coordinates":[[[-121.023281890672,50.4810709019026],[-121.023261745398,50.4810709019026],[-121.023259068753,50.4811889983871],[-121.023284144688,50.4811882793827],[-121.023281890672,50.4810709019026]]]}},{"type":"Feature","id":"826307302","properties":{"name":"iSP_4KPH_TR%_CRUSHER POCKETS","oid":"826307302","speedLimit":1.1111112},"geometry":{"type":"Polygon","coordinates":[[[-121.023277100886,50.4813240813524],[-121.023316546178,50.4814797458207],[-121.023521239067,50.4814402904503],[-121.023440235343,50.4811914250272],[-121.023031976573,50.4811921440317],[-121.023037329863,50.4813628177184],[-121.023262168026,50.481328844757],[-121.023277100886,50.4813240813524]]]}},{"type":"Feature","id":"849417440","properties":{"name":"iSP_Permissions_35_KPH_June_19_NS","oid":"849417440","speedLimit":9.722222},"geometry":{"type":"Polygon","coordinates":[[[-121.03267409639,50.466036608259],[-121.032988672591,50.4660172850138],[-121.033195619497,50.4658164131393],[-121.033784340476,50.4653819546868],[-121.033705168141,50.4652531630106],[-121.033941276387,50.4654026260654],[-121.033405102172,50.4658109307302],[-121.033002760196,50.4661904752161],[-121.03267409639,50.466036608259]]]}},{"type":"Feature","id":"853029148","properties":{"name":"SP_25KPH_%TR_1635 Flats_July_24_NS","oid":"853029148","speedLimit":6.9444447},"geometry":{"type":"Polygon","coordinates":[[[-121.018570009696,50.4569732872569],[-121.01738890496,50.4572920758649],[-121.016410520849,50.4584599188793],[-121.018329111664,50.4588954558385],[-121.020672021118,50.4589895555488],[-121.020220372528,50.4572341061293],[-121.01940272798,50.4570989332885],[-121.018948543621,50.4570023170625],[-121.018570009696,50.4569732872569]]]}},{"type":"Feature","id":"883050998","properties":{"name":"iSP_22kph_%TR_4CR_Brake_Temp_CTRL_NOREMOVE","oid":"883050998","speedLimit":6.111111},"geometry":{"type":"Polygon","coordinates":[[[-121.031777843011,50.4745615746622],[-121.032167083515,50.4743149561282],[-121.032468699121,50.4745773028851],[-121.032770314726,50.4748046880495],[-121.032948100291,50.4748871039372],[-121.033156878586,50.4749372544991],[-121.03344074381,50.4749620601534],[-121.033644591443,50.4749244921697],[-121.033805753635,50.4748650844252],[-121.033896900434,50.4748130464765],[-121.033986215845,50.4747498639585],[-121.034036649468,50.4746607074039],[-121.03403087355,50.4745505199685],[-121.034034677203,50.4744861690682],[-121.033972550869,50.4743821830464],[-121.033854214993,50.4742621092995],[-121.03348737378,50.4739401750469],[-121.033039106214,50.4735625179478],[-121.032925841877,50.4734279742359],[-121.032800884828,50.4732234174634],[-121.032584076599,50.4728174495632],[-121.03223061861,50.472211508544],[-121.032465599848,50.4721586617153],[-121.032408545051,50.4722081831483],[-121.032881043295,50.4730513956434],[-121.033020228825,50.4733121246402],[-121.033228020987,50.4735494859917],[-121.033720946258,50.4739641718212],[-121.034075953883,50.4742737032466],[-121.034181329163,50.4743970125136],[-121.034234016802,50.4744642394318],[-121.034241060605,50.4745953678724],[-121.034216125545,50.4746813787825],[-121.034161606517,50.4747941726091],[-121.034064120296,50.4748783860079],[-121.033951278586,50.4749402203926],[-121.033768703236,50.4750186817556],[-121.033509209567,50.4750669449308],[-121.033241263335,50.4750706298287],[-121.033049671918,50.4750288376938],[-121.032785951967,50.4749190996362],[-121.032635214602,50.4748376723797],[-121.032473629782,50.4747078920724],[-121.03212313019,50.4744156167543],[-121.031777843011,50.4745615746622]]]}},{"type":"Feature","id":"883053336","properties":{"name":"iSP_22kph_%TR_Brake_Temp_CTRL_NOREMOVE","oid":"883053336","speedLimit":6.111111},"geometry":{"type":"Polygon","coordinates":[[[-121.032444327565,50.4721477867726],[-121.032229491601,50.4722280456469],[-121.031466929586,50.4710108609506],[-121.030795091742,50.4699258832016],[-121.030639846344,50.4696627275647],[-121.030575043364,50.4694602379301],[-121.030528695147,50.4692592761801],[-121.030575043364,50.4689754491646],[-121.030701268298,50.468626821871],[-121.030862993994,50.4683780463235],[-121.031067405131,50.468100330846],[-121.031666691814,50.4675390579797],[-121.032410517315,50.4668961781058],[-121.032766792825,50.4665586953815],[-121.033125885856,50.4662248975552],[-121.033462720473,50.4658732144926],[-121.033757714905,50.466036608259],[-121.033565700859,50.4659958047551],[-121.032897666668,50.466654592603],[-121.032532938596,50.4669937829629],[-121.03215694044,50.4673102348064],[-121.031752767075,50.4676709054249],[-121.031360427298,50.4680369685769],[-121.031125586936,50.4682888897689],[-121.030987246663,50.4684724156605],[-121.030883561896,50.4686570200588],[-121.030807066206,50.4688555551688],[-121.030746207755,50.4691938467731],[-121.03075494207,50.4694031669501],[-121.030852146539,50.4696328888791],[-121.031006124053,50.4699376568998],[-121.031309007543,50.4704063579403],[-121.031509051523,50.4707135526012],[-121.031728677272,50.4710854576646],[-121.032124398074,50.4717313933075],[-121.032359661064,50.4721476968971],[-121.032444327565,50.4721477867726]]]}},{"type":"Feature","id":"883059532","properties":{"name":"iSP_22kph_%TR_Brake_CTRL_NOREMOVE","oid":"883059532","speedLimit":6.111111},"geometry":{"type":"Polygon","coordinates":[[[-121.027241070955,50.4773246189744],[-121.027008907238,50.4772124542766],[-121.027313340365,50.4769466922485],[-121.027695255314,50.4766350936853],[-121.028011944657,50.4763253825088],[-121.02816916232,50.4761714256761],[-121.028599961256,50.4756949953375],[-121.028885939621,50.4753283929321],[-121.029242496883,50.4748902495817],[-121.029451275178,50.4746593592705],[-121.029670055671,50.4745430602971],[-121.02978007986,50.4744908425973],[-121.029930817224,50.4745952779969],[-121.02976726014,50.4745446780571],[-121.029534673794,50.4747941726091],[-121.02923052242,50.4751756943573],[-121.029051609847,50.4754806421292],[-121.028831843221,50.4757774112252],[-121.028674766434,50.4759773843441],[-121.028387661061,50.4762732546845],[-121.028020397219,50.4765726301717],[-121.02722275707,50.4772220709615],[-121.027241070955,50.4773246189744]]]}},{"type":"Feature","id":"886231481","properties":{"name":"SP_15KPH_%TR_1200_SWITCHBACK_July_24_NS","oid":"886231481","speedLimit":4.1666665},"geometry":{"type":"Polygon","coordinates":[[[-121.036887276177,50.4452298770838],[-121.036946303238,50.4446828944313],[-121.036261927427,50.4447481440872],[-121.036018070998,50.4452776010056],[-121.036501839326,50.4453477938173],[-121.036596226274,50.4451044108033],[-121.036750203788,50.44513362036],[-121.036887276177,50.4452298770838]]]}},{"type":"Feature","id":"899288147","properties":{"name":"SP_30KPH_%TR_1185_BENCH_JULY_24_NS","oid":"899288147","speedLimit":8.333333},"geometry":{"type":"Polygon","coordinates":[[[-121.03973776201,50.4500585313697],[-121.039521235534,50.4496343187309],[-121.03981749785,50.449591717716],[-121.04012855215,50.4505456568998],[-121.040312113633,50.4509558489513],[-121.040177999641,50.4511955470673],[-121.039995424291,50.450603087382],[-121.03973776201,50.4500585313697]]]}},{"type":"Feature","id":"902935346","properties":{"name":"SP_20KPH_%TRX_NEW LANES_July24_NS","oid":"902935346","speedLimit":5.5555553},"geometry":{"type":"Polygon","coordinates":[[[-121.039130163641,50.4482820510694],[-121.039099030036,50.4482931057631],[-121.039054090578,50.4483261799689],[-121.039223987085,50.4487281933445],[-121.03948827054,50.4492700530901],[-121.039606183787,50.4495861454313],[-121.039807918279,50.4495443532963],[-121.039686764883,50.4493158896252],[-121.039204687067,50.4483001160567],[-121.039130163641,50.4482820510694]]]}},{"type":"Feature","id":"903864124","properties":{"name":"SP_15KPH_%TR_OLD_GARBAGEDUMP_July_24_NS","oid":"903864124","speedLimit":4.1666665},"geometry":{"type":"Polygon","coordinates":[[[-121.042562326652,50.4670046579056],[-121.042109551053,50.4673312656872],[-121.039910194285,50.4663012917804],[-121.040701072385,50.4661254951869],[-121.042241551904,50.4668287714365],[-121.042562326652,50.4670046579056]]]}},{"type":"Feature","id":"908328496","properties":{"name":"SP_15KPH_%TR_9019_SOFT_GROUND_July 24_NS","oid":"908328496","speedLimit":4.1666665},"geometry":{"type":"Polygon","coordinates":[[[-121.038977735764,50.4644914676476],[-121.039302314164,50.4647051018515],[-121.039481367614,50.4648808085695],[-121.03936937116,50.4652180216671],[-121.038189111681,50.4655632336894],[-121.037859320866,50.4651424363219],[-121.038498334593,50.464816907047],[-121.038977735764,50.4644914676476]]]}},{"type":"Feature","id":"908575258","properties":{"name":"iSP_15km_permissions ","oid":"908575258","speedLimit":4.1666665},"geometry":{"type":"Polygon","coordinates":[[[-121.041847239863,50.459552895553],[-121.041437149704,50.4599154535582],[-121.041061574176,50.4602085377563],[-121.040666276003,50.4604261264848],[-121.040325215105,50.4605869138599],[-121.039934847593,50.4607161549139],[-121.03949503259,50.4607823033253],[-121.039154112568,50.4607981214237],[-121.039099734416,50.4612142452622],[-121.039233144028,50.4609399450559],[-121.039781715335,50.4608485416124],[-121.040251114307,50.4607067179802],[-121.040918303242,50.4603945801636],[-121.041521111825,50.4599879831344],[-121.041921481537,50.4596537359302],[-121.042069683133,50.4595307861654],[-121.041921481537,50.4594929485551],[-121.041847239863,50.459552895553]]]}},{"type":"Feature","id":"910445950","properties":{"name":"SP_25KPH_%TR_1635_FLATS_JULY26_DS","oid":"910445950","speedLimit":6.9444447},"geometry":{"type":"Polygon","coordinates":[[[-121.020205157915,50.4571665197089],[-121.019024194055,50.4569636705721],[-121.018630586394,50.4569250240817],[-121.017434407922,50.4572341061293],[-121.018070322375,50.4544714213194],[-121.018751598914,50.4539015203994],[-121.018918255272,50.453515145371],[-121.019538955113,50.4545197743702],[-121.020205157915,50.4571471964637],[-121.020190084179,50.4571471964637],[-121.020205157915,50.4571665197089]]]}},{"type":"Feature","id":"911981461","properties":{"name":"SP_15KPH_%TR_NEWLANES_21SH_1185_JULY_24_NS","oid":"911981461","speedLimit":4.1666665},"geometry":{"type":"Polygon","coordinates":[[[-121.04055709707,50.4504001483697],[-121.040405091821,50.450423516015],[-121.040431294765,50.4507110279285],[-121.040394666994,50.4509015641137],[-121.040216458801,50.4512393164646],[-121.040436507178,50.4518777924361],[-121.040944928814,50.4517875573748],[-121.040468063412,50.4504769919727],[-121.0405780876,50.4504001483697],[-121.04055709707,50.4504001483697]]]}}]}