{"type":"FeatureCollection","features":[{"type":"Feature","id":"915576987","properties":{"name":"iSP_15KPH_%TR_Preventing Shifting","oid":"915576987","speedLimit":4.1666665},"geometry":{"type":"Polygon","coordinates":[[[-121.036997991748,50.44486320093],[-121.0375120897,50.4453131154809],[-121.037981385474,50.4457955648037],[-121.038525351545,50.4462188763368],[-121.039458025824,50.446849979009],[-121.039915346172,50.4470997418011],[-121.040471287668,50.4471950992399],[-121.041224471459,50.4473228117003],[-121.041642906898,50.4475096619503],[-121.042321420391,50.448095108092],[-121.042704070443,50.4485278565065],[-121.042847493768,50.4487948753101],[-121.043008950675,50.4493916457093],[-121.043188159389,50.4501981844988],[-121.043325665445,50.4505013330766],[-121.043687323281,50.4511687452731],[-121.043857796979,50.4514890599874],[-121.044126750936,50.4522536271238],[-121.044383870356,50.4529382054568],[-121.044697626491,50.453798130032],[-121.044736511401,50.4541947486724],[-121.04457209586,50.4550718393841],[-121.04421649618,50.4568393223165],[-121.044052080639,50.4572073606877],[-121.043005851154,50.4583990141098],[-121.041905943587,50.4595373716214],[-121.041344084822,50.4600006775563],[-121.040372666521,50.4605975378306],[-121.039924222076,50.4607310022948],[-121.03913511201,50.4608072163458],[-121.038497737624,50.4608387624919],[-121.038645528457,50.4611435288208],[-121.038758379227,50.460949578441],[-121.039879419897,50.4608797455193],[-121.040707414872,50.4606318701035],[-121.041511458997,50.4600579279696],[-121.042874403253,50.4587002753114],[-121.044243264777,50.4571424708943],[-121.044428672534,50.4562901856991],[-121.04481428122,50.4544215933241],[-121.044811181698,50.4537866260243],[-121.044261298358,50.4523013507808],[-121.043833846129,50.4511859114096],[-121.043346657661,50.450337400967],[-121.043050794219,50.4493096796545],[-121.042928222222,50.4486918784912],[-121.042240691938,50.4478872270779],[-121.041547244385,50.4473914762463],[-121.041092882671,50.4472217921328],[-121.040459312243,50.4471302993216],[-121.039918304807,50.4470196631225],[-121.038821355874,50.4463332872884],[-121.03819666135,50.4458717788547],[-121.037153531386,50.4449069700842],[-121.037377683165,50.444697291569],[-121.036997991748,50.44486320093]]]}},{"type":"Feature","id":"910445950","properties":{"name":"SP_22KPH_%TR_1635_FLATS_SEP_28_DS","oid":"910445950","speedLimit":6.111111},"geometry":{"type":"Polygon","coordinates":[[[-121.017369847466,50.4554938027914],[-121.018002995232,50.4544141336941],[-121.018148250093,50.4539984615411],[-121.018532872568,50.4537514848758],[-121.018948912922,50.4536880330834],[-121.018866775595,50.4543416045206],[-121.018261946187,50.4560720589282],[-121.018276034923,50.4557007850548],[-121.017369847466,50.4554938027914]]]}},{"type":"Feature","id":"884401102","properties":{"name":"iSP_30KPH_%TR_Maint_Limit_Policy","oid":"884401102","speedLimit":8.333333},"geometry":{"type":"Polygon","coordinates":[[[-121.036992497142,50.4611012875425],[-121.037108588321,50.4611077585469],[-121.038294859835,50.4609920893445],[-121.038278516902,50.460397925322],[-121.03812001863,50.4605658119343],[-121.037032931812,50.4607084436547],[-121.036745239837,50.4605377709156],[-121.036992497142,50.4611012875425]]]}},{"type":"Feature","id":"883059532","properties":{"name":"iSP_22KPH_%TR_Brake_Ctrl","oid":"883059532","speedLimit":6.111111},"geometry":{"type":"Polygon","coordinates":[[[-121.027262252976,50.4773220282685],[-121.027030070618,50.4772098641935],[-121.027334528188,50.4769441036407],[-121.027716473803,50.4766325068073],[-121.028033188573,50.4763227973501],[-121.028190418859,50.4761688413721],[-121.028621252385,50.4756924136784],[-121.028907253713,50.4753258133081],[-121.029263839604,50.47488767239],[-121.029472634661,50.4746567833606],[-121.029691432721,50.4745404850328],[-121.029801465744,50.4744882676228],[-121.029952215212,50.4745927024427],[-121.029788644995,50.4745421027839],[-121.029556039974,50.4747915959508],[-121.029251864179,50.475173115581],[-121.02907293724,50.47547806166],[-121.028853152969,50.4757748291085],[-121.02869606357,50.4759748011173],[-121.028408935144,50.4762706698152],[-121.028041641814,50.4765700436405],[-121.02724393762,50.4772194808249],[-121.027262252976,50.4773220282685]]]}},{"type":"Feature","id":"883053336","properties":{"name":"iSP_22KPH_%TR_Brake_Temp_Ctrl","oid":"883053336","speedLimit":6.111111},"geometry":{"type":"Polygon","coordinates":[[[-121.032465927369,50.4721452248055],[-121.032251074155,50.4722254832342],[-121.031488450912,50.4710083052949],[-121.030816559124,50.4699233335691],[-121.030661301261,50.4696601793931],[-121.030596493078,50.4694576908826],[-121.030550141139,50.4692567302482],[-121.030596493078,50.4689729048083],[-121.030722728147,50.4686242794501],[-121.030884466828,50.4683755052837],[-121.031088894378,50.4680977913479],[-121.031688229179,50.4675365215974],[-121.032432114404,50.4668936452924],[-121.03278841852,50.4665561644416],[-121.033147540384,50.4662223684683],[-121.033484402045,50.4658706873581],[-121.033779420163,50.4660340802174],[-121.033587390701,50.4659932769401],[-121.032919302871,50.4666520611308],[-121.032554545514,50.4669912496077],[-121.032178517168,50.4673076996944],[-121.031774311351,50.4676683683106],[-121.031381940073,50.4680344294305],[-121.031147080855,50.468286349224],[-121.031008729474,50.4684698740968],[-121.030905036382,50.4686544774703],[-121.030828534549,50.4688530114781],[-121.030767671212,50.4691913012044],[-121.030776406228,50.4694006202194],[-121.030873618502,50.4696303408731],[-121.031027608379,50.469935107202],[-121.031330516189,50.4704038056405],[-121.03153057623,50.470710998596],[-121.031750219614,50.4710829015948],[-121.032145972189,50.4717288336519],[-121.032381254069,50.4721451349304],[-121.032465927369,50.4721452248055]]]}},{"type":"Feature","id":"883050998","properties":{"name":"iSP_22KPH_%TR_4CR_Brake_Temp_Ctrl","oid":"883050998","speedLimit":6.111111},"geometry":{"type":"Polygon","coordinates":[[[-121.0317993893,50.4745589992952],[-121.032188661057,50.4743123821302],[-121.032490300881,50.4745747274307],[-121.032791940704,50.4748021113328],[-121.032969740544,50.4748845267629],[-121.033178535601,50.4749346770465],[-121.033462423618,50.4749594825631],[-121.033666287618,50.474921914788],[-121.033827462751,50.4748625073732],[-121.033918616868,50.4748104697134],[-121.03400793945,50.4747472875461],[-121.034058377122,50.4746581314865],[-121.034052600741,50.4745479446628],[-121.0340564047,50.4744835941197],[-121.033994273377,50.4743796086752],[-121.033875928,50.4742595355948],[-121.033509057332,50.4739376031295],[-121.033060753774,50.4735599481268],[-121.032947480342,50.4734254051618],[-121.03282251326,50.473220849525],[-121.032605687623,50.4728148838784],[-121.032252201254,50.4722089462231],[-121.032487201359,50.4721560996877],[-121.032430141981,50.4722056208459],[-121.032902678164,50.4730488286599],[-121.033041874869,50.4733095562094],[-121.033249683715,50.4735469162431],[-121.033742648564,50.4739615997705],[-121.034097684694,50.4742711294776],[-121.034203068434,50.4743944380601],[-121.034255760304,50.4744616646051],[-121.034262804672,50.4745927923178],[-121.034237867611,50.4746788027503],[-121.034183344205,50.4747915959508],[-121.034085850156,50.4748758088821],[-121.033972999386,50.4749376429235],[-121.033790409377,50.475016103851],[-121.033530894872,50.4750643667582],[-121.033262927126,50.4750680516357],[-121.033071320326,50.4750262597328],[-121.0328075792,50.4749165222843],[-121.032656829732,50.4748350954799],[-121.032495231938,50.4747053158931],[-121.032144704203,50.4744130421975],[-121.0317993893,50.4745589992952]]]}},{"type":"Feature","id":"826307302","properties":{"name":"iSP_4KPH_%TR_CR04_Pockets","oid":"826307302","speedLimit":1.1111112},"geometry":{"type":"Polygon","coordinates":[[[-121.02329796463,50.481321468444],[-121.023337413089,50.4814771320481],[-121.023542122413,50.4814376768967],[-121.023461112185,50.4811888128552],[-121.023052820635,50.4811895318557],[-121.023058174354,50.4813602045949],[-121.02328303057,50.4813262318222],[-121.02329796463,50.481321468444]]]}},{"type":"Feature","id":"824566967","properties":{"name":"iSP_3KPH_%TR_CR04","oid":"824566967","speedLimit":0.8333333},"geometry":{"type":"Polygon","coordinates":[[[-121.0233027548,50.4810682903996],[-121.023282607908,50.4810682903996],[-121.023279931048,50.4811863862286],[-121.023305008997,50.4811856672281],[-121.0233027548,50.4810682903996]]]}},{"type":"Feature","id":"806473874","properties":{"name":"iSP_4KPH_%TR_CR04_PermissionBlocker","oid":"806473874","speedLimit":1.1111112},"geometry":{"type":"Polygon","coordinates":[[[-121.022719903819,50.4815451674686],[-121.022686795291,50.4815428307171],[-121.022679187374,50.4815715008612],[-121.022701306689,50.481572579362],[-121.022705392422,50.4815484928458],[-121.022719903819,50.4815451674686]]]}},{"type":"Feature","id":"801543391","properties":{"name":"iSP_4KPH_%TR_CR01_PermissionBlocker_2","oid":"801543391","speedLimit":1.1111112},"geometry":{"type":"Polygon","coordinates":[[[-121.03315571185,50.4645232804567],[-121.033154866526,50.4644738491736],[-121.033176422291,50.4644317876455],[-121.033108373699,50.464459379289],[-121.03315571185,50.4645232804567]]]}},{"type":"Feature","id":"794004438","properties":{"name":"iSP_11KPH_%TR_Lower_Fuel_Bay","oid":"794004438","speedLimit":3.0555556},"geometry":{"type":"Polygon","coordinates":[[[-121.036776939491,50.460695411771],[-121.036779052801,50.460725250291],[-121.03674932557,50.4606707860046],[-121.037125494803,50.4605990657066],[-121.037535477001,50.4605560155528],[-121.037543225805,50.4605813603197],[-121.036944736329,50.4606502046158],[-121.036776939491,50.460695411771]]]}},{"type":"Feature","id":"776427243","properties":{"name":"iSP_7KPH_%TR_CR1_PermissionBlocker","oid":"776427243","speedLimit":1.9444444},"geometry":{"type":"Polygon","coordinates":[[[-121.034100220666,50.465212801918],[-121.034051755417,50.4652331136816],[-121.034030622314,50.4652745460843],[-121.034116281825,50.4652254743014],[-121.034100220666,50.465212801918]]]}},{"type":"Feature","id":"742345972","properties":{"name":"iSP_4KPH_%TR_CR01_Pit Side_Slow Bump","oid":"742345972","speedLimit":1.1111112},"geometry":{"type":"Polygon","coordinates":[[[-121.033399024309,50.4648827806972],[-121.033706299627,50.4647442832296],[-121.033756455524,50.464776368626],[-121.033474962593,50.4649182813459],[-121.033399024309,50.4648827806972]]]}},{"type":"Feature","id":"707947583","properties":{"name":"iSP_25KPH_%TR_Permission Gate 1 From West Dump","oid":"707947583","speedLimit":6.9444447},"geometry":{"type":"Polygon","coordinates":[[[-121.038628621975,50.461977928879],[-121.038855309726,50.4617994370096],[-121.038140306409,50.4614082108729],[-121.037992656462,50.4616709156736],[-121.038192152955,50.461566840354],[-121.038667084222,50.4618459922907],[-121.038628621975,50.461977928879]]]}},{"type":"Feature","id":"702602533","properties":{"name":"iSP_4KPH_%TR_CR01_Slow Bump","oid":"702602533","speedLimit":1.1111112},"geometry":{"type":"Polygon","coordinates":[[[-121.033359153188,50.4648078248971],[-121.033653889531,50.4646908075688],[-121.033697282836,50.464731520971],[-121.033369437965,50.4648696589384],[-121.033359153188,50.4648078248971]]]}},{"type":"Feature","id":"926367691","properties":{"name":"SP_30KPH_%TR_24SH_EMPTY_LANE_SEP_28_DS","oid":"926367691","speedLimit":6.9444447},"geometry":{"type":"Polygon","coordinates":[[[-121.038923499205,50.4549415205469],[-121.039203442376,50.4546234527092],[-121.039439006031,50.4538306648038],[-121.039920981666,50.4514268664458],[-121.039502546227,50.451591697306],[-121.039433229649,50.4530470441546],[-121.0392042877,50.4540991216084],[-121.038923499205,50.4549415205469]]]}},{"type":"Feature","id":"917773475","properties":{"name":"SP_15KPH_%TR_1200_CORNER_Sept_28_DS","oid":"917773475","speedLimit":4.1666665},"geometry":{"type":"Polygon","coordinates":[[[-121.037098867093,50.4446824621841],[-121.036924730325,50.4448620325542],[-121.036629148657,50.4448205102764],[-121.036414577218,50.4448698516844],[-121.036323000439,50.4449675458748],[-121.036254388298,50.4450820467014],[-121.036242131098,50.4451448693684],[-121.036263264201,50.4452671893252],[-121.036315956071,50.4453514022566],[-121.036184085509,50.4453951714108],[-121.036088986545,50.4451942107764],[-121.036162952406,50.4449315958507],[-121.036259742017,50.4447913008819],[-121.036516579662,50.4447149969558],[-121.036713681069,50.4447116715786],[-121.036923039676,50.4447700004926],[-121.037093654261,50.4446835406848],[-121.037098867093,50.4446824621841]]]}},{"type":"Feature","id":"938165680","properties":{"name":"SP_10KPH_%TR_22SH_Sept_28_DS","oid":"938165680","speedLimit":2.7777777},"geometry":{"type":"Polygon","coordinates":[[[-121.034080496437,50.4466113607244],[-121.035055296034,50.447250552152],[-121.035497118774,50.4474472886586],[-121.035795236414,50.4469121725506],[-121.034854954218,50.4461953290711],[-121.034080496437,50.4466113607244]]]}},{"type":"Feature","id":"938065675","properties":{"name":"iSP_8KPH_CR01_YARD_RUTIING_SEP_28_DS","oid":"938065675","speedLimit":2.2222223},"geometry":{"type":"Polygon","coordinates":[[[-121.034289291494,50.4648011741426],[-121.034099093568,50.4648579751806],[-121.03394087707,50.4649069570884],[-121.033829435173,50.4650049209039],[-121.034044288387,50.4650688220716],[-121.033964264371,50.4650113020332],[-121.034242657781,50.4648880833257],[-121.034319300501,50.4649373348587],[-121.034289291494,50.4648011741426]]]}},{"type":"Feature","id":"945606742","properties":{"name":"SP_20KPH_19SH_SEPT 28_DS","oid":"945606742","speedLimit":5.5555553},"geometry":{"type":"Polygon","coordinates":[[[-121.002893953693,50.4271197070603],[-121.002444663924,50.4275245942062],[-121.001790101281,50.4273168030672],[-121.002101884993,50.4269691663346],[-121.002893953693,50.4271197070603]]]}},{"type":"Feature","id":"944724972","properties":{"name":"SP_20KPH_%TR_21SH_LOADED_SEPT 28_DS","oid":"944724972","speedLimit":5.5555553},"geometry":{"type":"Polygon","coordinates":[[[-121.038848124471,50.4522166884741],[-121.039181745724,50.4521684255668],[-121.039250921414,50.4519691725586],[-121.039327705022,50.4516355563354],[-121.039213445378,50.4512646419622],[-121.038913073541,50.4506401900445],[-121.038818538127,50.450965358012],[-121.038886023169,50.4509782101456],[-121.039058187515,50.451292593106],[-121.039102003482,50.4515746210446],[-121.039046916527,50.4519344807854],[-121.038997183291,50.4521382275466],[-121.038848124471,50.4522166884741]]]}},{"type":"Feature","id":"944724443","properties":{"name":"SP_12KPH_%TR_21SH_EMPTY_SEPT 28_DS","oid":"944724443","speedLimit":3.3333333},"geometry":{"type":"Polygon","coordinates":[[[-121.039134689348,50.4501830854887],[-121.038912791767,50.4501672674782],[-121.038927866713,50.4505369236004],[-121.039265573699,50.4511709022745],[-121.039344893279,50.4515559270321],[-121.039732474388,50.4514983171186],[-121.039710918623,50.4511095176085],[-121.039407306376,50.4509586173825],[-121.039104539454,50.4503565443548],[-121.039084674337,50.4502969571899],[-121.039134689348,50.4501830854887]]]}},{"type":"Feature","id":"937786749","properties":{"name":"SP_15KPH_%TR_24SH_Loaded_LANE_SEP_28_DS","oid":"937786749","speedLimit":4.1666665},"geometry":{"type":"Polygon","coordinates":[[[-121.03828020755,50.4554283737476],[-121.038456457629,50.4555011725463],[-121.038969710257,50.4539574785136],[-121.039257120458,50.4521233981617],[-121.038991970459,50.452268816009],[-121.038490693256,50.4548540721134],[-121.03828020755,50.4554283737476]]]}},{"type":"Feature","id":"936513295","properties":{"name":"SP_30KPH_%TR_1635_FLATS_SEP_28_DS","oid":"936513295","speedLimit":8.333333},"geometry":{"type":"Polygon","coordinates":[[[-121.017286019491,50.4555551874574],[-121.018050192495,50.4557851777363],[-121.0174340921,50.4574537981025],[-121.015227091711,50.4585169301887],[-121.014498281432,50.4578796261374],[-121.016177376908,50.4566193980444],[-121.017286019491,50.4555551874574]]]}},{"type":"Feature","id":"936169885","properties":{"name":"SP_15KPH_%TR_24shl_loadplan_Sept_28_DS","oid":"936169885","speedLimit":4.1666665},"geometry":{"type":"Polygon","coordinates":[[[-121.039168924975,50.454636664343],[-121.038619041635,50.4545681795472],[-121.038154536031,50.4553922439734],[-121.038670042857,50.4555193273084],[-121.038842066315,50.4552445792497],[-121.039002114348,50.4549473624258],[-121.039087492085,50.4547916988217],[-121.039168924975,50.454636664343]]]}},{"type":"Feature","id":"934182273","properties":{"name":"SP_30KPH_TR%_1590_17_SEPT 28_DS","oid":"934182273","speedLimit":8.333333},"geometry":{"type":"Polygon","coordinates":[[[-121.008849684778,50.4413696674679],[-121.009440707225,50.4411107374197],[-121.007219758988,50.4391734804988],[-121.006130699747,50.4382650233911],[-121.005749317682,50.4379788611996],[-121.004975564338,50.4375496179125],[-121.004515848904,50.4371633349041],[-121.003585006161,50.4374709772349],[-121.00411206575,50.4376569287343],[-121.005054038594,50.4380646918821],[-121.006108157771,50.4386441163947],[-121.007075913,50.4394768088267],[-121.008913788524,50.4411152311727],[-121.008849684778,50.4413696674679]]]}},{"type":"Feature","id":"934181877","properties":{"name":"SP_30KPH_TR%_1590_7_SEPT 28_DS","oid":"934181877","speedLimit":8.333333},"geometry":{"type":"Polygon","coordinates":[[[-121.013995595356,50.449785837723],[-121.013325394216,50.4498807457865],[-121.013673949528,50.4515053273733],[-121.014402900694,50.4513828276663],[-121.013984465255,50.4512795612222],[-121.013707198944,50.4500005492416],[-121.013995595356,50.449785837723]]]}},{"type":"Feature","id":"934181442","properties":{"name":"SP_30KPH_TR%_1590_3_SEPT 28_DS_Rough_section ","oid":"934181442","speedLimit":8.333333},"geometry":{"type":"Polygon","coordinates":[[[-121.011062320661,50.4415091535612],[-121.010401277199,50.4418072691357],[-121.011607132056,50.4432052756959],[-121.012272683913,50.4429312466376],[-121.011824521242,50.442921450256],[-121.010901427304,50.4417730267378],[-121.011062320661,50.4415091535612]]]}},{"type":"Feature","id":"934051091","properties":{"name":"iSP_17KPH_%TR_Ramp_Permission Blocker","oid":"934051091","speedLimit":4.7222223},"geometry":{"type":"Polygon","coordinates":[[[-121.039512971891,50.4610296571196],[-121.039464929304,50.460771625822],[-121.03901747107,50.4607922072108],[-121.039076361984,50.4610449358798],[-121.03916385303,50.4608998775328],[-121.039379833343,50.460886755774],[-121.039512971891,50.4610296571196]]]}},{"type":"Feature","id":"932268643","properties":{"name":"SP_35KPH_%traction_1185_1170_SEP_28_DS","oid":"932268643","speedLimit":9.722222},"geometry":{"type":"Polygon","coordinates":[[[-121.038729074658,50.4481973859104],[-121.038467305956,50.4482556249494],[-121.038947168281,50.449829247377],[-121.039506350186,50.4497913201017],[-121.03910580744,50.449730564561],[-121.038622000269,50.4483441518836],[-121.038852069317,50.448159458635],[-121.038729074658,50.4481973859104]]]}},{"type":"Feature","id":"929009157","properties":{"name":"iSP_22KPH_%TR_Long_Single_Lane","oid":"929009157","speedLimit":6.111111},"geometry":{"type":"Polygon","coordinates":[[[-121.005680846428,50.4380558841262],[-121.004751130784,50.4382239504886],[-121.00517562438,50.4381974373459],[-121.007935889405,50.4431704041726],[-121.008524657654,50.4445347974603],[-121.008211746842,50.4465096221564],[-121.007833746074,50.4466801151454],[-121.008935203401,50.4466468613732],[-121.008824465942,50.446592846462],[-121.009404499175,50.4448175443994],[-121.008765575028,50.4430683061042],[-121.008263875163,50.4415400705819],[-121.007260334546,50.4401560845311],[-121.006440651925,50.438983933997],[-121.005861604903,50.4383129267981],[-121.005680846428,50.4380558841262]]]}}]}