{"type":"FeatureCollection","features":[{"type":"Feature","id":"702602533","properties":{"name":"iSP_4KPH_%TR_CR01_Slow Bump","oid":"702602533","speedLimit":1.1111112},"geometry":{"type":"Polygon","coordinates":[[[-121.033358716727,50.4648078878105],[-121.033653444482,50.4646908706157],[-121.033696836522,50.4647315839715],[-121.033369001204,50.4648697217813],[-121.033358716727,50.4648078878105]]]}},{"type":"Feature","id":"707947583","properties":{"name":"iSP_25KPH_%TR_Permission Gate 1 From West Dump","oid":"707947583","speedLimit":6.9444447},"geometry":{"type":"Polygon","coordinates":[[[-121.038628031969,50.4619779950213],[-121.038854713115,50.4617995033556],[-121.038139730631,50.4614082776653],[-121.037992084987,50.4616709821663],[-121.038191575666,50.4615669069654],[-121.038666493096,50.4618460585836],[-121.038628031969,50.4619779950213]]]}},{"type":"Feature","id":"742345972","properties":{"name":"iSP_4KPH_%TR_CR01_Pit Side_Slow Bump","oid":"742345972","speedLimit":1.1111112},"geometry":{"type":"Polygon","coordinates":[[[-121.033398586686,50.4648828435251],[-121.03370585305,50.4647443462155],[-121.033756007486,50.4647764315753],[-121.033474522757,50.4649183441333],[-121.033398586686,50.4648828435251]]]}},{"type":"Feature","id":"776427243","properties":{"name":"iSP_7KPH_%TR_CR1_PermissionBlocker","oid":"776427243","speedLimit":1.9444444},"geometry":{"type":"Polygon","coordinates":[[[-121.034099762611,50.4652128643693],[-121.034051298774,50.4652331761097],[-121.034030166287,50.4652746084651],[-121.034115823302,50.4652255367383],[-121.034099762611,50.4652128643693]]]}},{"type":"Feature","id":"794004438","properties":{"name":"iSP_11KPH_%TR_Lower_Fuel_Bay","oid":"794004438","speedLimit":3.0555556},"geometry":{"type":"Polygon","coordinates":[[[-121.03677640344,50.4606954793768],[-121.036778516689,50.4607253178627],[-121.036748790324,50.4606708536384],[-121.037124948596,50.4605991334222],[-121.037534918848,50.4605560833176],[-121.037542667426,50.4605814280556],[-121.036944195389,50.4606502722731],[-121.03677640344,50.4606954793768]]]}},{"type":"Feature","id":"801543391","properties":{"name":"iSP_4KPH_%TR_CR01_PermissionBlocker_2","oid":"801543391","speedLimit":1.1111112},"geometry":{"type":"Polygon","coordinates":[[[-121.033155281317,50.4645233436948],[-121.033154436017,50.4644739124681],[-121.033175991154,50.464431850988],[-121.033107944545,50.4644594425999],[-121.033155281317,50.4645233436948]]]}},{"type":"Feature","id":"806473874","properties":{"name":"iSP_4KPH_%TR_CR04_PermissionBlocker","oid":"806473874","speedLimit":1.1111112},"geometry":{"type":"Polygon","coordinates":[[[-121.02271977737,50.4815452112844],[-121.022686669807,50.4815428745355],[-121.022679062111,50.481571544647],[-121.022701180781,50.4815726231465],[-121.022705266396,50.4815485366579],[-121.02271977737,50.4815452112844]]]}},{"type":"Feature","id":"824566967","properties":{"name":"iSP_3KPH_%TR_CR04","oid":"824566967","speedLimit":0.8333333},"geometry":{"type":"Polygon","coordinates":[[[-121.023302611367,50.4810683347595],[-121.023282465063,50.4810683347595],[-121.023279788281,50.4811864304538],[-121.023304865499,50.4811857114541],[-121.023302611367,50.4810683347595]]]}},{"type":"Feature","id":"826307302","properties":{"name":"iSP_4KPH_%TR_CR04_Pockets","oid":"826307302","speedLimit":1.1111112},"geometry":{"type":"Polygon","coordinates":[[[-121.023297821337,50.481321512515],[-121.023337268646,50.4814771759415],[-121.023541972006,50.4814377208352],[-121.023460964138,50.4811888570776],[-121.023052684485,50.4811895760773],[-121.023058038049,50.4813602486217],[-121.023282887712,50.4813262758878],[-121.023297821337,50.481321512515]]]}},{"type":"Feature","id":"883050998","properties":{"name":"iSP_22KPH_%TR_4CR_Brake_Temp_Ctrl","oid":"883050998","speedLimit":6.111111},"geometry":{"type":"Polygon","coordinates":[[[-121.031798998288,50.4745590510823],[-121.032188258702,50.4743124341987],[-121.032489889736,50.4745747791999],[-121.03279152077,50.4748021628426],[-121.032969315429,50.4748845781786],[-121.033178104403,50.474934728405],[-121.033461984148,50.4749595338933],[-121.033665842207,50.474921966161],[-121.033827012643,50.474862558814],[-121.033918164105,50.4748105212136],[-121.034007484084,50.4747473391184],[-121.034057920287,50.4746581831605],[-121.034052144074,50.4745479964625],[-121.034055947921,50.4744836459929],[-121.033993818409,50.474379660667],[-121.03387547648,50.4742595877237],[-121.033508616503,50.4739376556256],[-121.033060326008,50.4735600010539],[-121.032947055876,50.4734254582424],[-121.032822092435,50.473220902839],[-121.032605273116,50.4728149376556],[-121.032251797047,50.4722090006917],[-121.032486790305,50.4721561542166],[-121.032429732589,50.4722056753182],[-121.032902255003,50.4730488821702],[-121.033041447652,50.4733096094221],[-121.033249250443,50.4735469691851],[-121.033742200928,50.4739616522393],[-121.034097226713,50.4742711815932],[-121.034202607382,50.474394490035],[-121.034255297717,50.4744617165033],[-121.03426234188,50.4745928440664],[-121.034237405545,50.4746788544008],[-121.034182883728,50.4747916474725],[-121.03408539252,50.4748758603078],[-121.033972545038,50.4749376942786],[-121.033789960349,50.4750161551165],[-121.033530453406,50.4750644179688],[-121.033262493468,50.475068102842],[-121.033070892251,50.4750263109867],[-121.032807158811,50.4749165736635],[-121.032656413735,50.474835146952],[-121.03249482065,50.4747053675132],[-121.032144303129,50.4744130941512],[-121.031798998288,50.4745590510823]]]}},{"type":"Feature","id":"883053336","properties":{"name":"iSP_22KPH_%TR_Brake_Temp_Ctrl","oid":"883053336","speedLimit":6.111111},"geometry":{"type":"Polygon","coordinates":[[[-121.032465516934,50.4721452793468],[-121.032250669981,50.4722255376839],[-121.03148806896,50.4710083611335],[-121.03081619675,50.4699233906456],[-121.030660943411,50.4696602367699],[-121.030596137117,50.4694577484904],[-121.030549786528,50.4692567880853],[-121.030596137117,50.4689729629693],[-121.030722368507,50.4686243380089],[-121.030884102476,50.4683755641263],[-121.031088524068,50.4680978505074],[-121.031687841405,50.4675365813974],[-121.032431704955,50.4668937058258],[-121.032787998689,50.4665562253601],[-121.033147110088,50.4662224297677],[-121.033483961934,50.4658707490587],[-121.033778971456,50.4660341417316],[-121.033586947589,50.4659933385008],[-121.032918879226,50.4666521219399],[-121.032554132497,50.4669913100298],[-121.032178115108,50.4673077597554],[-121.03177392107,50.4676684279601],[-121.031381561224,50.4680344886623],[-121.03114670885,50.4682864081684],[-121.0310083615,50.4684699328317],[-121.03090467143,50.4686545359946],[-121.030828171826,50.4688530697759],[-121.030767310263,50.4691913591162],[-121.030776045024,50.4694006778924],[-121.030873254465,50.4696303982839],[-121.031027239855,50.4699351642651],[-121.031330138839,50.4704038621688],[-121.031530193051,50.4707110547738],[-121.031749830035,50.4710829573482],[-121.032145571078,50.4717288886683],[-121.032380846102,50.4721451894718],[-121.032465516934,50.4721452793468]]]}},{"type":"Feature","id":"883059532","properties":{"name":"iSP_22KPH_%TR_Brake_Ctrl","oid":"883059532","speedLimit":6.111111},"geometry":{"type":"Polygon","coordinates":[[[-121.027261994169,50.477322076903],[-121.027029818576,50.4772099129559],[-121.027334267275,50.4769441527064],[-121.027716201761,50.4766325562285],[-121.028032907302,50.4763228471247],[-121.028190133007,50.4761688913224],[-121.028620953979,50.4756924641723],[-121.028906946973,50.4753258642203],[-121.029263522474,50.4748877238022],[-121.029472311447,50.4746568350362],[-121.029691103131,50.4745405368411],[-121.029801132948,50.4744883194907],[-121.029951878023,50.4745927541914],[-121.029788312572,50.4745421545903],[-121.02955571433,50.4747916474725],[-121.029251547398,50.4751731666674],[-121.029072625673,50.4754781123985],[-121.028852847806,50.4757748795084],[-121.028695762984,50.475974851289],[-121.028408642925,50.4762707196493],[-121.028041360297,50.476570093133],[-121.027243679347,50.4772195295764],[-121.027261994169,50.477322076903]]]}},{"type":"Feature","id":"884401102","properties":{"name":"iSP_30KPH_%TR_Maint_Limit_Policy","oid":"884401102","speedLimit":8.333333},"geometry":{"type":"Polygon","coordinates":[[[-121.03699195481,50.4611013546852],[-121.037108042606,50.4611078256821],[-121.038294279554,50.4609921566117],[-121.038277937098,50.4603979932672],[-121.038119443444,50.4605658796879],[-121.037032388302,50.4607085112456],[-121.036744704709,50.4605378387012],[-121.03699195481,50.4611013546852]]]}},{"type":"Feature","id":"910445950","properties":{"name":"SP_22KPH_%TR_1635_FLATS_SEP_28_DS","oid":"910445950","speedLimit":6.111111},"geometry":{"type":"Polygon","coordinates":[[[-121.01736987691,50.4554938763322],[-121.018003006227,50.4544142084669],[-121.018148256855,50.4539985367881],[-121.018532868123,50.4537515604047],[-121.018948896354,50.4536881086847],[-121.01886676142,50.4543416793761],[-121.018261949637,50.4560721318093],[-121.018276037961,50.4557008583595],[-121.01736987691,50.4554938763322]]]}},{"type":"Feature","id":"915576987","properties":{"name":"iSP_15KPH_%TR_Preventing Shifting","oid":"915576987","speedLimit":4.1666665},"geometry":{"type":"Polygon","coordinates":[[[-121.036997449256,50.4448632866005],[-121.037511532228,50.4453132006381],[-121.037980814327,50.4457956494104],[-121.038524764548,50.4462189604606],[-121.03945741165,50.4468500624126],[-121.039914718673,50.4470998249197],[-121.04047064397,50.4471951822497],[-121.041223805813,50.4473228945644],[-121.04164222906,50.4475097446012],[-121.042320722782,50.4480951900749],[-121.042703361684,50.4485279379956],[-121.04284678083,50.4487949564945],[-121.043008233033,50.4493917262128],[-121.043187436524,50.4501982640821],[-121.043324938574,50.450501412314],[-121.043686585872,50.4511688237489],[-121.043857054602,50.4514891380977],[-121.044126000722,50.4522537043618],[-121.04438311265,50.4529382819136],[-121.044696859643,50.4537982055077],[-121.04473574342,50.4541948236955],[-121.044571332669,50.4550719134064],[-121.044215743351,50.4568393943221],[-121.044051332601,50.4572074322733],[-121.043005133601,50.4583990843358],[-121.041905258084,50.4595374405484],[-121.041343415691,50.4600007459547],[-121.040372025696,50.460597605548],[-121.039923594318,50.46073106986],[-121.039134507245,50.460807283824],[-121.038497151431,50.4608388299341],[-121.038644937959,50.4611435959152],[-121.03875778544,50.4609496457568],[-121.039878793445,50.4608798129148],[-121.040706764293,50.4606319377818],[-121.04151078499,50.4600579963027],[-121.042873689531,50.4587003451936],[-121.044242511168,50.457142542554],[-121.044427913523,50.4562902583313],[-121.044813510973,50.4544216680884],[-121.044810411541,50.4537867015131],[-121.044260544224,50.4523014279643],[-121.04383310445,50.4511859898658],[-121.043345930178,50.4503374803914],[-121.043050075357,50.4493097602515],[-121.042927506932,50.4486919597932],[-121.042239996681,50.447887309298],[-121.041546569335,50.447391559032],[-121.04109222086,50.4472218751121],[-121.040458668893,50.4471303824053],[-121.039917677221,50.4470197463325],[-121.038820760252,50.4463333712816],[-121.03819608393,50.4458718633744],[-121.037152984362,50.4449070557049],[-121.03737712961,50.4446973774288],[-121.036997449256,50.4448632866005]]]}},{"type":"Feature","id":"917773475","properties":{"name":"SP_15KPH_%TR_1200_CORNER_Sept_28_DS","oid":"917773475","speedLimit":4.1666665},"geometry":{"type":"Polygon","coordinates":[[[-121.037098321662,50.4446825480608],[-121.036924189967,50.4448621182261],[-121.036628616913,50.4448205959957],[-121.036414051726,50.4448699373474],[-121.036322477615,50.4449676314263],[-121.036253867473,50.4450821321222],[-121.036241610631,50.4451449547176],[-121.036262743118,50.4452672745348],[-121.036315433453,50.4453514873701],[-121.036183566733,50.4453952564744],[-121.03608847054,50.4451942960693],[-121.036162434245,50.4449316814432],[-121.036259221037,50.4447913866345],[-121.036516051198,50.4447150827955],[-121.036713146862,50.4447117574221],[-121.036922499368,50.4447700862695],[-121.037093108982,50.4446836265603],[-121.037098321662,50.4446825480608]]]}},{"type":"Feature","id":"926367691","properties":{"name":"SP_30KPH_%TR_24SH_EMPTY_LANE_SEP_28_DS","oid":"926367691","speedLimit":6.9444447},"geometry":{"type":"Polygon","coordinates":[[[-121.038922900607,50.4549415947179],[-121.039202835621,50.4546235272431],[-121.039438392411,50.4538307402423],[-121.039920354003,50.4514269446271],[-121.039501930756,50.4515917752993],[-121.039432616198,50.4530471204873],[-121.03920368092,50.4540991967406],[-121.038922900607,50.4549415947179]]]}},{"type":"Feature","id":"929009157","properties":{"name":"iSP_22KPH_%TR_Long_Single_Lane","oid":"929009157","speedLimit":6.111111},"geometry":{"type":"Polygon","coordinates":[[[-121.005681216473,50.438055977564],[-121.004751527919,50.4382240437346],[-121.005176009145,50.4381975306222],[-121.00793619374,50.4431704917746],[-121.008524944834,50.4445348835056],[-121.00821204314,50.4465097059483],[-121.007834053385,50.4466801987428],[-121.008935478618,50.4466469450085],[-121.008824744385,50.446592930159],[-121.009404760718,50.4448176301221],[-121.008765855188,50.4430683938228],[-121.008264169942,50.4415401600442],[-121.007260658566,50.4401561755726],[-121.006440999829,50.4389840263759],[-121.00586196968,50.4383130199426],[-121.005681216473,50.438055977564]]]}},{"type":"Feature","id":"932268643","properties":{"name":"SP_35KPH_70%traction_1185_1170_SEP_28_DS","oid":"932268643","speedLimit":9.722222},"geometry":{"type":"Polygon","coordinates":[[[-121.038728481725,50.4481974677766],[-121.03846672065,50.4482557067491],[-121.038946568993,50.4498293273812],[-121.039505734604,50.4497914001492],[-121.03910520353,50.4497306446778],[-121.038621410456,50.4483442335823],[-121.0388514728,50.4481595405445],[-121.038728481725,50.4481974677766]]]}},{"type":"Feature","id":"934051091","properties":{"name":"iSP_17KPH_%TR_Ramp_Permission Blocker","oid":"934051091","speedLimit":4.7222223},"geometry":{"type":"Polygon","coordinates":[[[-121.039512356117,50.461029724344],[-121.039464314929,50.4607716933408],[-121.039016869733,50.4607922747061],[-121.039075758931,50.4610450030868],[-121.039163247428,50.4608999449052],[-121.039379221447,50.4608868231614],[-121.039512356117,50.461029724344]]]}},{"type":"Feature","id":"934181442","properties":{"name":"SP_30KPH_TR%_1590_3_SEPT 28_DS_Rough_section ","oid":"934181442","speedLimit":8.333333},"geometry":{"type":"Polygon","coordinates":[[[-121.011062533897,50.4415092430588],[-121.010401509697,50.4418073582931],[-121.011607329417,50.4432053632582],[-121.01227286188,50.4429313345125],[-121.011824712269,50.4429215381421],[-121.010901645228,50.4417731159343],[-121.011062533897,50.4415092430588]]]}},{"type":"Feature","id":"934181877","properties":{"name":"SP_30KPH_TR%_1590_7_SEPT 28_DS","oid":"934181877","speedLimit":8.333333},"geometry":{"type":"Polygon","coordinates":[[[-121.01399572312,50.4497859177767],[-121.01332554151,50.4498808257319],[-121.013674086665,50.451505405465],[-121.01440301659,50.4513829058979],[-121.013984593344,50.4512796395716],[-121.013707335112,50.4500006290504],[-121.01399572312,50.4497859177767]]]}},{"type":"Feature","id":"934182273","properties":{"name":"SP_30KPH_TR%_1590_17_SEPT 28_DS","oid":"934182273","speedLimit":8.333333},"geometry":{"type":"Polygon","coordinates":[[[-121.008849962487,50.4413697571247],[-121.009440967712,50.4411108273719],[-121.007220084191,50.4391735726614],[-121.006298566865,50.4396570100582],[-121.007076242394,50.4394769006432],[-121.008914064365,50.4411153211198],[-121.008849962487,50.4413697571247]]]}},{"type":"Feature","id":"936169885","properties":{"name":"SP_15KPH_%TR_24shl_loadplan_Sept_28_DS","oid":"936169885","speedLimit":4.1666665},"geometry":{"type":"Polygon","coordinates":[[[-121.039168319225,50.4546367388619],[-121.038618451908,50.4545682541442],[-121.038153959839,50.4553923176302],[-121.038669451644,50.4555194008202],[-121.03884147009,50.4552446530749],[-121.039001513459,50.4549474365902],[-121.039086888708,50.4547917731637],[-121.039168319225,50.4546367388619]]]}},{"type":"Feature","id":"936513295","properties":{"name":"SP_30KPH_%TR_1635_FLATS_SEP_28_DS","oid":"936513295","speedLimit":8.333333},"geometry":{"type":"Polygon","coordinates":[[[-121.017286051378,50.4555552609283],[-121.018050202115,50.4557852509447],[-121.017434119671,50.457453869407],[-121.015227183591,50.4585170002801],[-121.014498394549,50.457879696956],[-121.016177441099,50.4566194703009],[-121.017286051378,50.4555552609283]]]}},{"type":"Feature","id":"937786749","properties":{"name":"SP_15KPH_%TR_24SH_Loaded_LANE_SEP_28_DS","oid":"937786749","speedLimit":4.1666665},"geometry":{"type":"Polygon","coordinates":[[[-121.038279627697,50.4554284473631],[-121.03845587264,50.4555012460788],[-121.038969110312,50.4539575538075],[-121.039133661946,50.4529389110383],[-121.038910221115,50.4529280361685],[-121.038490107269,50.4548541463842],[-121.038279627697,50.4554284473631]]]}},{"type":"Feature","id":"938065675","properties":{"name":"iSP_8KPH_CR01_YARD_RUTIING_SEP_29_DS","oid":"938065675","speedLimit":2.2222223},"geometry":{"type":"Polygon","coordinates":[[[-121.03428882793,50.4648012370636],[-121.034098635545,50.4648580380368],[-121.033940423658,50.4649070198887],[-121.033828985009,50.4650049835924],[-121.034043831962,50.4650688846872],[-121.033963810277,50.4650113647144],[-121.034242195575,50.4648881461476],[-121.034318836062,50.4649373976243],[-121.03428882793,50.4648012370636]]]}},{"type":"Feature","id":"938165680","properties":{"name":"SP_10KPH_%TR_22SH_Sept_28_DS","oid":"938165680","speedLimit":2.7777777},"geometry":{"type":"Polygon","coordinates":[[[-121.034080038957,50.4466114444003],[-121.03505481015,50.4472506350986],[-121.035496620015,50.4474473713807],[-121.035794728968,50.4469122558833],[-121.034854474171,50.4461954132217],[-121.034080038957,50.4466114444003]]]}},{"type":"Feature","id":"944724972","properties":{"name":"SP_20KPH_%TR_21SH_LOADED_SEPT 28_DS","oid":"944724972","speedLimit":5.5555553},"geometry":{"type":"Polygon","coordinates":[[[-121.038746092131,50.4528630565741],[-121.039145073489,50.4529208461719],[-121.039173391022,50.4521843208945],[-121.039258202737,50.4516355444036],[-121.039212838331,50.4512647203287],[-121.038912475247,50.4506402691234],[-121.038817942587,50.4509654367199],[-121.038885425663,50.4509782888389],[-121.039057584992,50.4512926714405],[-121.039101399682,50.4515746990573],[-121.039046314332,50.4519345583874],[-121.0389893975,50.4528594615758],[-121.038746092131,50.4528630565741]]]}},{"type":"Feature","id":"945606742","properties":{"name":"SP_20KPH_19SH_SEPT 29_DS","oid":"945606742","speedLimit":5.5555553},"geometry":{"type":"Polygon","coordinates":[[[-121.003173776425,50.42719728519],[-121.002724499747,50.4276021718738],[-121.002069956176,50.4273943809719],[-121.002381730804,50.427046744636],[-121.003173776425,50.42719728519]]]}},{"type":"Feature","id":"947937278","properties":{"name":"SP_20KM_HDH_RAMP_SEPT_28_DS","oid":"947937278","speedLimit":5.5555553},"geometry":{"type":"Polygon","coordinates":[[[-121.035683431202,50.4530871148434],[-121.034802347369,50.4533740855829],[-121.033880125628,50.4522901935946],[-121.033033135541,50.4504455100904],[-121.032908453866,50.4481652925418],[-121.033815037567,50.4482010627749],[-121.033429158351,50.4497292965535],[-121.034150762347,50.4518553785498],[-121.035258386443,50.4531885836705],[-121.035683431202,50.4530871148434]]]}},{"type":"Feature","id":"948238095","properties":{"name":"SP_30KPH_CRUSHER YARD_sep29 ds","oid":"948238095","speedLimit":8.333333},"geometry":{"type":"Polygon","coordinates":[[[-121.035558467761,50.4644269078653],[-121.035667793162,50.4645727749214],[-121.036764428364,50.464200782472],[-121.036575503929,50.4640972465209],[-121.035956040287,50.4643169907922],[-121.035558467761,50.4644269078653]]]}},{"type":"Feature","id":"948301528","properties":{"name":"SP_25KPH_%TR_24SH__LANE_SEP_28_DS","oid":"948301528","speedLimit":6.9444447},"geometry":{"type":"Polygon","coordinates":[[[-121.038885989196,50.4508956937529],[-121.038354436701,50.450793595801],[-121.038184108854,50.451524548831],[-121.038307945229,50.4527592509982],[-121.038333726864,50.4539972785387],[-121.038142830063,50.4547940200376],[-121.038720874029,50.4548072316564],[-121.039004753774,50.4538326276164],[-121.038839638607,50.4523641606846],[-121.038767365501,50.4514784429778],[-121.038870492039,50.4509812547125],[-121.038885989196,50.4508956937529]]]}},{"type":"Feature","id":"948333262","properties":{"name":"SP_15KPH_19SH_SEP 29 DS","oid":"948333262","speedLimit":4.1666665},"geometry":{"type":"Polygon","coordinates":[[[-121.001736203762,50.4276538499744],[-121.002116447648,50.4274007620939],[-121.001865252817,50.4271372487183],[-121.001670411285,50.426752314275],[-121.002057699334,50.4262431726404],[-121.001738457894,50.4261428721877],[-121.001125756648,50.426527716756],[-121.001736203762,50.4276538499744]]]}},{"type":"Feature","id":"949038673","properties":{"name":"LK_GARBAGE","oid":"949038673","speedLimit":4.1666665},"geometry":{"type":"Polygon","coordinates":[[[-121.009492249215,50.458833000631],[-121.010419542753,50.4597403782026],[-121.011313165195,50.4604672868595],[-121.010438139342,50.4608616581733],[-121.009700897305,50.4601418496381],[-121.009484923286,50.4596620072396],[-121.009376865834,50.4589422885794],[-121.009492249215,50.458833000631]]]}}]}