{"type":"FeatureCollection","features":[{"type":"Feature","id":"702602533","properties":{"name":"iSP_4KPH_%TR_CR01_Slow Bump","oid":"702602533","speedLimit":1.1111112},"geometry":{"type":"Polygon","coordinates":[[[-121.033360670604,50.464807950099],[-121.033655399055,50.4646909326486],[-121.033698791198,50.4647316460933],[-121.033370955105,50.464869784205],[-121.033360670604,50.464807950099]]]}},{"type":"Feature","id":"707947583","properties":{"name":"iSP_25KPH_%TR_Permission Gate 1 From West Dump","oid":"707947583","speedLimit":6.9444447},"geometry":{"type":"Polygon","coordinates":[[[-121.038629998295,50.4619780511265],[-121.038856679976,50.4617995590708],[-121.038141695804,50.4614083325256],[-121.037994049811,50.4616710376006],[-121.038193540961,50.4615669621724],[-121.038668459512,50.4618461144005],[-121.038629998295,50.4619780511265]]]}},{"type":"Feature","id":"742345972","properties":{"name":"iSP_4KPH_%TR_CR01_Pit Side_Slow Bump","oid":"742345972","speedLimit":1.1111112},"geometry":{"type":"Polygon","coordinates":[[[-121.033400540657,50.4648829059774],[-121.033707807747,50.4647444083652],[-121.033757962302,50.4647764937952],[-121.033476476907,50.4649184066632],[-121.033400540657,50.4648829059774]]]}},{"type":"Feature","id":"776427243","properties":{"name":"iSP_7KPH_%TR_CR1_PermissionBlocker","oid":"776427243","speedLimit":1.9444444},"geometry":{"type":"Polygon","coordinates":[[[-121.034101718239,50.4652129275428],[-121.034053254287,50.4652332393275],[-121.03403212175,50.4652746717735],[-121.034117778967,50.4652255999395],[-121.034101718239,50.4652129275428]]]}},{"type":"Feature","id":"794004438","properties":{"name":"iSP_11KPH_%TR_Lower_Fuel_Bay","oid":"794004438","speedLimit":3.0555556},"geometry":{"type":"Polygon","coordinates":[[[-121.036778365392,50.4606955326796],[-121.036780478645,50.4607253712308],[-121.03675075221,50.4606709068875],[-121.037126911371,50.4605991865146],[-121.037536882591,50.4605561363159],[-121.037544631188,50.4605814811093],[-121.036946157737,50.4606503254772],[-121.036778365392,50.4606955326796]]]}},{"type":"Feature","id":"801543391","properties":{"name":"iSP_4KPH_%TR_CR01_PermissionBlocker_2","oid":"801543391","speedLimit":1.1111112},"geometry":{"type":"Polygon","coordinates":[[[-121.033157234713,50.4645234053616],[-121.033156389412,50.464473974027],[-121.0331779446,50.4644319124549],[-121.03310989783,50.4644595041272],[-121.033157234713,50.4645234053616]]]}},{"type":"Feature","id":"806473874","properties":{"name":"iSP_4KPH_%TR_CR04_PermissionBlocker","oid":"806473874","speedLimit":1.1111112},"geometry":{"type":"Polygon","coordinates":[[[-121.022721706113,50.4815453101445],[-121.022688598471,50.4815429733904],[-121.022680990758,50.4815716435646],[-121.02270310948,50.4815727220664],[-121.022707195104,50.4815486355252],[-121.022721706113,50.4815453101445]]]}},{"type":"Feature","id":"824566967","properties":{"name":"iSP_3KPH_%TR_CR04","oid":"824566967","speedLimit":0.8333333},"geometry":{"type":"Polygon","coordinates":[[[-121.023304541487,50.4810684325776],[-121.023284395135,50.4810684325776],[-121.023281718347,50.4811865285299],[-121.023306795624,50.4811858095286],[-121.023304541487,50.4810684325776]]]}},{"type":"Feature","id":"826307302","properties":{"name":"iSP_4KPH_%TR_CR04_Pockets","oid":"826307302","speedLimit":1.1111112},"geometry":{"type":"Polygon","coordinates":[[[-121.023299751445,50.4813216108863],[-121.023339198848,50.4814772746529],[-121.023543902691,50.4814378194603],[-121.023462894632,50.481188955159],[-121.023054614014,50.4811896741603],[-121.02305996759,50.4813603470776],[-121.023284817786,50.4813263742694],[-121.023299751445,50.4813216108863]]]}},{"type":"Feature","id":"883050998","properties":{"name":"iSP_22KPH_%TR_4CR_Brake_Temp_Ctrl","oid":"883050998","speedLimit":6.111111},"geometry":{"type":"Polygon","coordinates":[[[-121.03180094848,50.4745591346774],[-121.032190209814,50.474312517255],[-121.032491841561,50.4745748628294],[-121.032793473308,50.4748022469689],[-121.032971268387,50.474884662485],[-121.033180057853,50.4749348128209],[-121.033463938269,50.4749596183634],[-121.03366779681,50.4749220505491],[-121.033828967627,50.4748626430723],[-121.033920119304,50.4748106053582],[-121.034009439494,50.474747423125],[-121.034059875816,50.4746582669722],[-121.034054099589,50.4745480800335],[-121.034057903446,50.4744837294233],[-121.033995773786,50.4743797438701],[-121.033877431579,50.4742596706644],[-121.033510570734,50.473937737863],[-121.03306227918,50.4735600824661],[-121.032949008781,50.4734255393606],[-121.032824045045,50.4732209835102],[-121.032607225214,50.4728150174398],[-121.032253748309,50.4722090791519],[-121.032488742122,50.4721562325613],[-121.032431684272,50.4722057537712],[-121.032904207802,50.4730489624656],[-121.03304340078,50.4733096902872],[-121.033251204062,50.4735470505688],[-121.033744155711,50.4739617345291],[-121.034099182335,50.4742712645593],[-121.034204563253,50.4743945732705],[-121.034257253713,50.4744617998857],[-121.034264297892,50.4745929277353],[-121.034239361498,50.4746789382576],[-121.034184839552,50.4747917315758],[-121.034087348114,50.4748759445951],[-121.033974500366,50.474937778701],[-121.033791915245,50.4750162397104],[-121.033532407689,50.4750645026681],[-121.033264447118,50.4750681875494],[-121.033072845448,50.4750263956028],[-121.032809111385,50.4749166580398],[-121.032658365954,50.4748352311504],[-121.032496772486,50.4747054514281],[-121.032146254137,50.4744131774274],[-121.03180094848,50.4745591346774]]]}},{"type":"Feature","id":"883053336","properties":{"name":"iSP_22KPH_%TR_Brake_Temp_Ctrl","oid":"883053336","speedLimit":6.111111},"geometry":{"type":"Polygon","coordinates":[[[-121.032467468701,50.4721453576677],[-121.032252621241,50.4722256161802],[-121.031490018418,50.4710084369702],[-121.03081814462,50.4699234641117],[-121.030662890914,50.4696603096609],[-121.030598084467,50.4694578209391],[-121.030551733769,50.4692568600948],[-121.030598084467,50.4689730343587],[-121.030724316156,50.4686244086365],[-121.030886050506,50.4683756342103],[-121.031090472582,50.4680979199846],[-121.031689791335,50.4675366496482],[-121.032433656642,50.466893772672],[-121.032789951218,50.4665562914689],[-121.033149063466,50.4662224951471],[-121.033485916107,50.4658708136697],[-121.033780926326,50.4660342066996],[-121.033588902005,50.4659934033797],[-121.032920832065,50.4666521882581],[-121.032556084474,50.4669913770892],[-121.032180066197,50.4673078275062],[-121.031775871203,50.467668496499],[-121.03138351043,50.4680345580011],[-121.031148657501,50.4682864780576],[-121.031010309825,50.468470003122],[-121.030906619509,50.4686546066882],[-121.030830119725,50.4688531409033],[-121.030769258018,50.4691914309828],[-121.0307779928,50.4694007502163],[-121.030875202471,50.4696304711098],[-121.031029188225,50.4699352377569],[-121.031332087923,50.4704039366847],[-121.031532142608,50.4707111299609],[-121.031751780111,50.471083033348],[-121.032147522089,50.4717289660795],[-121.032382797669,50.4721452677926],[-121.032467468701,50.4721453576677]]]}},{"type":"Feature","id":"883059532","properties":{"name":"iSP_22KPH_%TR_Brake_Ctrl","oid":"883059532","speedLimit":6.111111},"geometry":{"type":"Polygon","coordinates":[[[-121.027263933643,50.4773221665354],[-121.027031757502,50.4772100023432],[-121.02733620692,50.476944241513],[-121.027718142308,50.4766326443543],[-121.028034848597,50.4763229345737],[-121.028192074674,50.476168978435],[-121.028622896664,50.4756925502439],[-121.028908890333,50.4753259494909],[-121.029265466676,50.4748878081154],[-121.029474256143,50.4746569188449],[-121.029693048344,50.4745406203957],[-121.029803078421,50.4744884029313],[-121.029953823852,50.4745928378602],[-121.029790258015,50.4745422381485],[-121.029557659223,50.4747917315758],[-121.029253491572,50.4751732516044],[-121.029074569424,50.4754781980017],[-121.028854791038,50.4757749657601],[-121.028697705845,50.4759749379776],[-121.028410585107,50.4762708069844],[-121.028043301612,50.4765701811223],[-121.027245618777,50.4772196189847],[-121.027263933643,50.4773221665354]]]}},{"type":"Feature","id":"884401102","properties":{"name":"iSP_30KPH_%TR_Maint_Limit_Policy","oid":"884401102","speedLimit":8.333333},"geometry":{"type":"Polygon","coordinates":[[[-121.03699391727,50.4611014088749],[-121.037110005341,50.461107879886],[-121.038296245092,50.4609922105628],[-121.038279902596,50.4603980459201],[-121.038121408568,50.4605659327076],[-121.037034350858,50.460708564577],[-121.036746666586,50.4605378916596],[-121.03699391727,50.4611014088749]]]}},{"type":"Feature","id":"887797506","properties":{"name":"SP_20KPH_%TR_LNX WEST_FLATS_SEPT 18_NS","oid":"887797506","speedLimit":5.5555553},"geometry":{"type":"Polygon","coordinates":[[[-121.055041526628,50.4668457793398],[-121.054279769106,50.4668725621356],[-121.054003637287,50.4667283125135],[-121.053449964815,50.4663378049696],[-121.053424464887,50.4658515803867],[-121.053449964815,50.4654410306835],[-121.054110427042,50.4652519333596],[-121.054847107286,50.4651439034245],[-121.054780751119,50.4656838733495],[-121.05484020399,50.4659010117214],[-121.055014336096,50.4663529938706],[-121.055041526628,50.4668457793398]]]}},{"type":"Feature","id":"908328496","properties":{"name":"SP_25KPH_%TR_1445_SOFT_GROUND_SEPT_17_NS","oid":"908328496","speedLimit":6.9444447},"geometry":{"type":"Polygon","coordinates":[[[-121.039333007363,50.4644968921912],[-121.039942047083,50.4647091773048],[-121.039190292296,50.4666748367969],[-121.038828080609,50.4674279007119],[-121.038453330284,50.4678943527609],[-121.037916422958,50.4682380353496],[-121.037181433317,50.4680259299863],[-121.038314419074,50.4667053044741],[-121.038795113852,50.4655660470226],[-121.039333007363,50.4644968921912]]]}},{"type":"Feature","id":"910445950","properties":{"name":"SP_22KPH_%TR_1635_FLATS_SEP_17_NS","oid":"910445950","speedLimit":6.111111},"geometry":{"type":"Polygon","coordinates":[[[-121.017371793014,50.4554939182695],[-121.018004923826,50.4544142480451],[-121.018150174798,50.453998575458],[-121.018534786974,50.453751598535],[-121.018950816188,50.4536881466763],[-121.01886868106,50.4543417187958],[-121.018263867848,50.45607217501],[-121.018277956206,50.455700900749],[-121.017371793014,50.4554939182695]]]}},{"type":"Feature","id":"915576987","properties":{"name":"iSP_15KPH_%TR_Preventing Shifting","oid":"915576987","speedLimit":4.1666665},"geometry":{"type":"Polygon","coordinates":[[[-121.03699941173,50.4448633053097],[-121.037513495917,50.4453132203304],[-121.037982779124,50.4457956701568],[-121.03852673063,50.4462189821319],[-121.039459379935,50.446850085463],[-121.039916688039,50.4470998485158],[-121.040472614649,50.4471952060541],[-121.041225778272,50.4473229186479],[-121.041644202507,50.447509769093],[-121.042322697832,50.4480952158458],[-121.042705337638,50.4485279647121],[-121.042848757123,50.4487949837945],[-121.043010209707,50.4493917548167],[-121.043189413622,50.4501982944483],[-121.043326915997,50.4505014433426],[-121.043688564149,50.4511688562358],[-121.043859033281,50.4514891712845],[-121.044127980037,50.4522537392192],[-121.044385092572,50.4529383182668],[-121.044698840307,50.4537982437399],[-121.044737724175,50.4541948627943],[-121.044573313036,50.4550719544217],[-121.044217722878,50.4568394391993],[-121.044053311739,50.4572074779547],[-121.043007110268,50.458399132621],[-121.041907232152,50.459537491321],[-121.041345388432,50.4600007977396],[-121.040373996142,50.460597658637],[-121.039925563704,50.4607311232406],[-121.039136474768,50.4608073373712],[-121.038499117448,50.4608388835502],[-121.038646904325,50.4611436501972],[-121.038759752073,50.460949699615],[-121.039880762726,50.4608798666204],[-121.04070873553,50.4606319909458],[-121.041512758126,50.4600580482126],[-121.042875665887,50.458700394137],[-121.044244490759,50.4571425880936],[-121.044429893551,50.4562903020087],[-121.044815491912,50.4544217076828],[-121.044812392473,50.4537867397202],[-121.044262523857,50.4523014629259],[-121.043835083073,50.4511860223902],[-121.04334790765,50.4503375110618],[-121.04305205213,50.4493097886763],[-121.042929483415,50.4486919868681],[-121.042241971541,50.4478873346147],[-121.041548542556,50.4473915832655],[-121.041094193007,50.4472218989749],[-121.040460639544,50.4471304060681],[-121.039919646594,50.4470197697536],[-121.038822727033,50.4463333932029],[-121.038198049236,50.4458718842873],[-121.037154947203,50.4449070745097],[-121.03737909298,50.4446973957755],[-121.03699941173,50.4448633053097]]]}},{"type":"Feature","id":"917773475","properties":{"name":"SP_15KPH_%TR_1200_CORNER_Sept_17_NS","oid":"917773475","speedLimit":4.1666665},"geometry":{"type":"Polygon","coordinates":[[[-121.037100284374,50.4446825663751],[-121.036926152268,50.4448621369327],[-121.036630578515,50.4448206146116],[-121.036416012822,50.4448699560711],[-121.036324438494,50.4449676503634],[-121.03625582819,50.4450821513096],[-121.036243571319,50.4451449740422],[-121.036264703856,50.4452672941267],[-121.036317394315,50.445351507146],[-121.036185527284,50.4453952763459],[-121.036090430866,50.4451943155017],[-121.036164394746,50.4449317003018],[-121.036261181766,50.4447914051865],[-121.036518012534,50.4447151011808],[-121.036715108664,50.4447117758001],[-121.036924461665,50.444770104775],[-121.037095071681,50.4446836448769],[-121.037100284374,50.4446825663751]]]}},{"type":"Feature","id":"921770139","properties":{"name":"SP_20KPH_%TR_HIGHMONT_SEPT 17_NS","oid":"921770139","speedLimit":5.5555553},"geometry":{"type":"Polygon","coordinates":[[[-121.002081838868,50.4283003030629],[-121.001586069547,50.4284272966555],[-121.001001261803,50.4285433254792],[-121.001189764034,50.4289620538215],[-121.001583533643,50.4287564194692],[-121.001925739861,50.4286884738529],[-121.002548867939,50.4285670525199],[-121.002408266125,50.4282228306802],[-121.002081838868,50.4283003030629]]]}},{"type":"Feature","id":"926367691","properties":{"name":"SP_30KPH_%TR_24SH_EMPTY_LANE_SEP_20_DS","oid":"926367691","speedLimit":8.333333},"geometry":{"type":"Polygon","coordinates":[[[-121.038785533768,50.4508575287025],[-121.038614360217,50.4512056151738],[-121.038640282796,50.4520121548054],[-121.038867246245,50.4535985411478],[-121.03904645016,50.4535756229835],[-121.038783561398,50.4517187124277],[-121.038785533768,50.4508575287025]]]}},{"type":"Feature","id":"929009157","properties":{"name":"iSP_22KPH_%TR_Long_Single_Lane","oid":"929009157","speedLimit":6.111111},"geometry":{"type":"Polygon","coordinates":[[[-121.005683104962,50.438055981399],[-121.004753414212,50.4382240479369],[-121.005177896441,50.4381975347665],[-121.007938087557,50.443170506785],[-121.008526840041,50.4445349014971],[-121.008213937608,50.4465097282549],[-121.007835946961,50.446680221422],[-121.008937374796,50.446646967615],[-121.008826640301,50.4465929526475],[-121.009406658004,50.4448176487315],[-121.008767750964,50.4430684086101],[-121.008266064533,50.4415401714923],[-121.007262550787,50.4401561839966],[-121.006442890113,50.4389840322387],[-121.005863858596,50.4383130243393],[-121.005683104962,50.438055981399]]]}},{"type":"Feature","id":"929572873","properties":{"name":"SP_11KPH_%TR_1665_FLATS_WATERHOLE_SEPT 18_NS","oid":"929572873","speedLimit":3.0555556},"geometry":{"type":"Polygon","coordinates":[[[-121.053572110879,50.4666492223781],[-121.05336360318,50.4670037798604],[-121.05326329407,50.4671269088213],[-121.053008576556,50.4671859567975],[-121.052784712546,50.4671269088213],[-121.052275277518,50.4664177938566],[-121.052259921207,50.4654280886613],[-121.052738502731,50.4650982468463],[-121.053564362282,50.4651129863716],[-121.053626069291,50.4653296753677],[-121.05336360318,50.465423235403],[-121.053371351777,50.4663440063552],[-121.053556613685,50.4666344828528],[-121.053572110879,50.4666492223781]]]}},{"type":"Feature","id":"932281958","properties":{"name":"SP_15KPH_%TR_1185-1170_22shl_SEPT_17_NS","oid":"932281958","speedLimit":4.1666665},"geometry":{"type":"Polygon","coordinates":[[[-121.037376416192,50.4481142693784],[-121.037409946485,50.4479621107428],[-121.036983351002,50.4479088147765],[-121.035925456193,50.4473800792458],[-121.035634390715,50.4472468842677],[-121.035476741988,50.4475379898913],[-121.03555197382,50.4474434412294],[-121.036815981308,50.4479515054746],[-121.037217499513,50.4480555809029],[-121.037335841721,50.4481912025102],[-121.037376416192,50.4481142693784]]]}},{"type":"Feature","id":"934051091","properties":{"name":"iSP_17KPH_%TR_Ramp_Permission Blocker","oid":"934051091","speedLimit":4.7222223},"geometry":{"type":"Polygon","coordinates":[[[-121.039514324532,50.4610297783772],[-121.039466283231,50.4607717468102],[-121.039018836978,50.4607923282204],[-121.039077726315,50.4610450571534],[-121.039165215018,50.4608999986549],[-121.039381189548,50.4608868768824],[-121.039514324532,50.4610297783772]]]}},{"type":"Feature","id":"934181262","properties":{"name":"SP_25KPH_TR%_1590_1_SEPT 19_NS","oid":"934181262","speedLimit":6.9444447},"geometry":{"type":"Polygon","coordinates":[[[-121.007187882489,50.4383850143376],[-121.00679171786,50.4384791136238],[-121.008913424587,50.4404385717303],[-121.009586143686,50.4400915637609],[-121.009054730819,50.4401351532106],[-121.007132656125,50.4385143446842],[-121.007187882489,50.4383850143376]]]}},{"type":"Feature","id":"934181339","properties":{"name":"SP_30KPH_TR%_1590_2_SEPT 16_NS_ROUGH_SECTION.","oid":"934181339","speedLimit":8.333333},"geometry":{"type":"Polygon","coordinates":[[[-121.00962643639,50.4401266150709],[-121.00892258202,50.4404385717303],[-121.010385094473,50.4417985625599],[-121.011096697439,50.4414569470997],[-121.010562748668,50.4414849881478],[-121.009453149585,50.440407474927],[-121.00962643639,50.4401266150709]]]}},{"type":"Feature","id":"934182445","properties":{"name":"SP_25KPH_TR%_1590_16_SEPT 16_NS","oid":"934182445","speedLimit":6.9444447},"geometry":{"type":"Polygon","coordinates":[[[-121.010728427759,50.4432868951094],[-121.011317180243,50.4430413561888],[-121.010416934162,50.4420371810936],[-121.009451740749,50.4411427435615],[-121.008812270176,50.4414165032805],[-121.009276058924,50.4414389720689],[-121.010824651245,50.4430593312196],[-121.010728427759,50.4432868951094]]]}},{"type":"Feature","id":"934773555","properties":{"name":"SP_10KPH_NEW RAMP_SEPT 17_NS","oid":"934773555","speedLimit":2.7777777},"geometry":{"type":"Polygon","coordinates":[[[-121.03390462211,50.4443402319137],[-121.034416170392,50.4442041609306],[-121.035776683132,50.4443192011277],[-121.03627865133,50.4444736066422],[-121.035933627441,50.4447856531767],[-121.034624396324,50.4446108460022],[-121.034346714786,50.4446010496105],[-121.03390462211,50.4443402319137]]]}},{"type":"Feature","id":"936169885","properties":{"name":"SP_15KPH_%TR_24shl_loadplan_Sept_19_NS","oid":"936169885","speedLimit":4.1666665},"geometry":{"type":"Polygon","coordinates":[[[-121.039054198757,50.4535938676398],[-121.038509120182,50.4536748451535],[-121.038613655799,50.4545480721493],[-121.039165215018,50.4545295578676],[-121.039145913968,50.4542340483614],[-121.039101676523,50.4539211030753],[-121.039079135151,50.4537567214187],[-121.039054198757,50.4535938676398]]]}},{"type":"Feature","id":"936513295","properties":{"name":"SP_30KPH_%TR_1635_FLATS_SEP_17_NS","oid":"936513295","speedLimit":8.333333},"geometry":{"type":"Polygon","coordinates":[[[-121.017287967283,50.4555553029996],[-121.018052119826,50.4557852935186],[-121.017436035927,50.4574539156269],[-121.015229094633,50.458517048823],[-121.014500303869,50.4578797441063],[-121.016179354386,50.4566195146976],[-121.017287967283,50.4555553029996]]]}},{"type":"Feature","id":"937786749","properties":{"name":"SP_30KPH_%TR_24SH_Loaded_LANE_SEP_17_NS","oid":"937786749","speedLimit":8.333333},"geometry":{"type":"Polygon","coordinates":[[[-121.038411628744,50.4510853622178],[-121.038214532615,50.4510392562638],[-121.038255107086,50.4516608328286],[-121.038480802583,50.4536763730311],[-121.038648031393,50.4536486914837],[-121.0384051481,50.4516753027284],[-121.038411628744,50.4510853622178]]]}},{"type":"Feature","id":"938065675","properties":{"name":"SP_8KPH_CR01_YARD_RUTIING_SEP_17_NS","oid":"938065675","speedLimit":2.2222223},"geometry":{"type":"Polygon","coordinates":[[[-121.034290784005,50.4648012993376],[-121.034100591171,50.4648581004349],[-121.033942378909,50.4649070823938],[-121.033830939997,50.4650050463117],[-121.034045787458,50.4650689475461],[-121.033965765584,50.4650114274476],[-121.03424415154,50.4648882086115],[-121.034320792207,50.4649374601959],[-121.034290784005,50.4648012993376]]]}},{"type":"Feature","id":"938165680","properties":{"name":"SP_22SH_10kph_%TR_Sept17_NS","oid":"938165680","speedLimit":2.7777777},"geometry":{"type":"Polygon","coordinates":[[[-121.034632849339,50.4470558096904],[-121.035056768034,50.4472506590241],[-121.035498578943,50.4474473957361],[-121.0357966886,50.4469122790695],[-121.034873055844,50.4467191373636],[-121.034632849339,50.4470558096904]]]}},{"type":"Feature","id":"938217281","properties":{"name":"SP_25KPH_CRUSHER_YARD_WEATHER_SEPT_17_NS","oid":"938217281","speedLimit":6.9444447},"geometry":{"type":"Polygon","coordinates":[[[-121.036885014262,50.4639826265603],[-121.037243703859,50.4642846070776],[-121.034293601676,50.4654992697832],[-121.032880962011,50.4644544711186],[-121.036885014262,50.4639826265603]]]}},{"type":"Feature","id":"939481274","properties":{"name":"SP_10KPH_%TR_LRNX_PIT_BOTTOM_SEP_17_NS1","oid":"939481274","speedLimit":2.7777777},"geometry":{"type":"Polygon","coordinates":[[[-121.034056917261,50.4452363770737],[-121.03406396144,50.4449962306624],[-121.033304458055,50.4447664198937],[-121.033470700681,50.4448876614764],[-121.033359543535,50.4469937958341],[-121.033817133406,50.4469741131754],[-121.033665401789,50.4469200083327],[-121.034056917261,50.4452363770737]]]}},{"type":"Feature","id":"939584863","properties":{"name":"SP_40KPH_%TR_HMT EMPTY2_ROUGH_SECTION_SEPT 17_NS","oid":"939584863","speedLimit":11.111111},"geometry":{"type":"Polygon","coordinates":[[[-121.005962195336,50.4301700657658],[-121.005670707207,50.4303973600301],[-121.005923311467,50.4302830388343],[-121.006322716419,50.4305570681787],[-121.006715499842,50.4308737882212],[-121.007138714119,50.4312429054785],[-121.007266072876,50.4315321237239],[-121.007412873567,50.4321903693515],[-121.007320031288,50.4325924707902],[-121.007054465738,50.432614490203],[-121.007548826223,50.4326902549578],[-121.007646035894,50.4323019044175],[-121.007587710091,50.4319287427783],[-121.007419354212,50.4313516544148],[-121.007307069998,50.4311740611106],[-121.007119272185,50.43098397516],[-121.006685350756,50.430646583832],[-121.005962195336,50.4301700657658]]]}},{"type":"Feature","id":"939585115","properties":{"name":"SP_40KPH_%TR_HMT EMPTY22_ROUGH_SECTION_SEPT 17_NS","oid":"939585115","speedLimit":11.111111},"geometry":{"type":"Polygon","coordinates":[[[-121.00752079039,50.4327112857438],[-121.007047280675,50.4338270857801],[-121.006950634539,50.4340181603574],[-121.006754242827,50.4342996493396],[-121.005791162668,50.4352900735361],[-121.005291871258,50.4350887531913],[-121.005662254192,50.4351667648249],[-121.006612513945,50.4341291561725],[-121.006757342266,50.4339277459525],[-121.006963595828,50.433411952444],[-121.007227611659,50.4327831858669],[-121.007031219947,50.4326537656452],[-121.00752079039,50.4327112857438]]]}},{"type":"Feature","id":"940771585","properties":{"name":"SP_15KPH_%TR_1660_HMT_SEPT17_NS","oid":"940771585","speedLimit":4.1666665},"geometry":{"type":"Polygon","coordinates":[[[-121.002711306708,50.4281184856265],[-121.002606066673,50.4277113511791],[-121.002234415786,50.4276979597812],[-121.002507870817,50.4277963730747],[-121.002535906649,50.4281139918688],[-121.002676226696,50.4280826254401],[-121.002711306708,50.4281184856265]]]}},{"type":"Feature","id":"940772885","properties":{"name":"SP_11KPH_%TR_1654_HMT_SEPT17_NS","oid":"940772885","speedLimit":3.0555556},"geometry":{"type":"Polygon","coordinates":[[[-121.004064775269,50.426490037712],[-121.004415434501,50.4266376127148],[-121.00461168533,50.4261544438872],[-121.00438035449,50.4258055485395],[-121.003973623592,50.4255504828526],[-121.003538715978,50.425917353231],[-121.003840347724,50.4258323313354],[-121.004183962778,50.4261097759357],[-121.004148882766,50.426490037712],[-121.004064775269,50.426490037712]]]}},{"type":"Feature","id":"940778315","properties":{"name":"SP_25KPH_%TR_HMT_SPILLING_ROCK_IN_CORNER_SEPT17_NS","oid":"940778315","speedLimit":6.9444447},"geometry":{"type":"Polygon","coordinates":[[[-121.004787085388,50.43670803384],[-121.00477299703,50.4370436276649],[-121.004990380395,50.4372762245633],[-121.005123656262,50.4371688237544],[-121.004892325423,50.4369362268559],[-121.004885281244,50.4367572854244],[-121.005200860465,50.4367975494934],[-121.004801032862,50.4366991361998],[-121.004787085388,50.43670803384]]]}},{"type":"Feature","id":"941544052","properties":{"name":"SP_11KPH_%TR_TEMP_LOADED_SPILL_SEPT19_NS","oid":"941544052","speedLimit":3.0555556},"geometry":{"type":"Polygon","coordinates":[[[-121.012795330774,50.4562997388998],[-121.012428188162,50.4565454575707],[-121.012325343148,50.4564643901819],[-121.012557378406,50.4564001294468],[-121.012779129162,50.4563099846674],[-121.012795330774,50.4562997388998]]]}},{"type":"Feature","id":"942629325","properties":{"name":"SPD_12KPH_RUTS_23SH_SEPT 20_NS","oid":"942629325","speedLimit":3.3333333},"geometry":{"type":"Polygon","coordinates":[[[-121.043748298787,50.4705980670173],[-121.044369313611,50.4707063665778],[-121.044206874843,50.4712223398366],[-121.043665318358,50.4713006210957],[-121.043733928662,50.470994326571],[-121.043748298787,50.4705980670173]]]}}]}