{"type":"FeatureCollection","features":[{"type":"Feature","id":"702602533","properties":{"name":"iSP_4KPH_%TR_CR01_SLOW BUMP","oid":"702602533","speedLimit":1.1111112},"geometry":{"type":"Polygon","coordinates":[[[-121.033360521102,50.4648075666718],[-121.033655261198,50.4646905503986],[-121.033698655055,50.4647312634337],[-121.03337080601,50.4648694001556],[-121.033360521102,50.4648075666718]]]}},{"type":"Feature","id":"707947583","properties":{"name":"iSP_22KPH_%TR_Permission Gate 1 from west dump_Jun","oid":"707947583","speedLimit":6.111111},"geometry":{"type":"Polygon","coordinates":[[[-121.038630056983,50.4619776961699],[-121.038856747621,50.4617992059099],[-121.037982530463,50.4613507334037],[-121.037745414029,50.4615419858071],[-121.03796153798,50.461496239814],[-121.038668519721,50.4618457607713],[-121.038630056983,50.4619776961699]]]}},{"type":"Feature","id":"742345972","properties":{"name":"iSP_4KPH_%TR_CR01_PITSIDE_SLOW BUMP","oid":"742345972","speedLimit":1.1111112},"geometry":{"type":"Polygon","coordinates":[[[-121.03340039273,50.4648825217961],[-121.03370767196,50.4647440255772],[-121.033757828497,50.4647761106844],[-121.033476331981,50.4649180221247],[-121.03340039273,50.4648825217961]]]}},{"type":"Feature","id":"776427243","properties":{"name":"iSP_7KPH_%TR_CR1_PermissionBlocker_DO_NOT_DELETE","oid":"776427243","speedLimit":1.9444444},"geometry":{"type":"Polygon","coordinates":[[[-121.034101598016,50.4652125400412],[-121.034053132149,50.4652328516216],[-121.034031998777,50.4652742836507],[-121.034117659379,50.4652252123104],[-121.034101598016,50.4652125400412]]]}},{"type":"Feature","id":"794004438","properties":{"name":"iSP_11KPH_%TR_LOWER_FUEL_BAY","oid":"794004438","speedLimit":3.0555556},"geometry":{"type":"Polygon","coordinates":[[[-121.036778350922,50.460695190626],[-121.03678046426,50.4607250288769],[-121.03675073665,50.4606705650816],[-121.037126910673,50.4605988454303],[-121.037536898091,50.4605557956646],[-121.037544646994,50.4605811402031],[-121.036946149897,50.4606499838784],[-121.036778350922,50.460695190626]]]}},{"type":"Feature","id":"801543391","properties":{"name":"iSP_4KPH_%TR_CR1_PermissionBlocker_DO_NOT_DELETE_","oid":"801543391","speedLimit":1.1111112},"geometry":{"type":"Polygon","coordinates":[[[-121.033157077173,50.4645230247971],[-121.033156231838,50.4644735939597],[-121.033177787878,50.4644315328108],[-121.03310973842,50.4644591242055],[-121.033157077173,50.4645230247971]]]}},{"type":"Feature","id":"806473874","properties":{"name":"iSP_4KPH_%TR_Permission Blocker - DO NOT DELETE","oid":"806473874","speedLimit":1.1111112},"geometry":{"type":"Polygon","coordinates":[[[-121.022721136266,50.4815447583283],[-121.022688027316,50.4815424215978],[-121.022680419302,50.4815710914835],[-121.022702538898,50.4815721699745],[-121.022706624684,50.4815480836756],[-121.022721136266,50.4815447583283]]]}},{"type":"Feature","id":"824566967","properties":{"name":"iSP_4Cr_3KPH","oid":"824566967","speedLimit":0.8333333},"geometry":{"type":"Polygon","coordinates":[[[-121.023303994668,50.4810678855592],[-121.02328384752,50.4810678855592],[-121.023281170626,50.4811859803233],[-121.023306248894,50.4811852613293],[-121.023303994668,50.4810678855592]]]}},{"type":"Feature","id":"826307302","properties":{"name":"iSP_4KPH_TR%_CRUSHER POCKETS","oid":"826307302","speedLimit":1.1111112},"geometry":{"type":"Polygon","coordinates":[[[-121.023299204437,50.4813210613207],[-121.023338653398,50.4814767235213],[-121.023543365329,50.4814372687256],[-121.023462354069,50.4811884069281],[-121.023054057321,50.4811891259221],[-121.023059411108,50.4813597971223],[-121.023284270187,50.4813258246559],[-121.023299204437,50.4813210613207]]]}},{"type":"Feature","id":"849417440","properties":{"name":"iSP_Permissions_35_KPH_June_19_NS","oid":"849417440","speedLimit":9.722222},"geometry":{"type":"Polygon","coordinates":[[[-121.032697074108,50.4660338109354],[-121.033011679573,50.4660144879717],[-121.033218645731,50.4658136190235],[-121.033807421477,50.4653791669002],[-121.033728241776,50.4652503771003],[-121.033964371987,50.4653998379776],[-121.033428147892,50.4658081366942],[-121.033025768488,50.4661876756509],[-121.032697074108,50.4660338109354]]]}},{"type":"Feature","id":"853029148","properties":{"name":"SP_30KPH_%TR_1635 Flats_AUG_6_DS","oid":"853029148","speedLimit":8.333333},"geometry":{"type":"Polygon","coordinates":[[[-121.018591675363,50.4569706219679],[-121.017410460753,50.4572894059318],[-121.016431985626,50.458457231933],[-121.018350754921,50.4588927625473],[-121.020693882328,50.4589868608868],[-121.020242191722,50.4572314370407],[-121.019424471112,50.457096266169],[-121.018970244501,50.4569996513506],[-121.018591675363,50.4569706219679]]]}},{"type":"Feature","id":"883050998","properties":{"name":"iSP_22kph_%TR_4CR_Brake_Temp_CTRL_NOREMOVE","oid":"883050998","speedLimit":6.111111},"geometry":{"type":"Polygon","coordinates":[[[-121.031800737354,50.4745586531468],[-121.032190014067,50.4743120382055],[-121.032491657731,50.4745743811405],[-121.032793301395,50.4748017629924],[-121.032971103499,50.4748841776794],[-121.033179901215,50.4749343275108],[-121.033463792847,50.4749591328037],[-121.033667659443,50.4749215653673],[-121.033828836627,50.4748621584882],[-121.033919991905,50.4748101212976],[-121.034009315624,50.4747469397],[-121.034059753939,50.4746577844443],[-121.034053977484,50.4745475986141],[-121.034057781491,50.4744832486513],[-121.033995649377,50.4743792641443],[-121.033877302494,50.4742591921467],[-121.033510427154,50.473937262584],[-121.033062117888,50.4735596109866],[-121.032948843014,50.4734250692347],[-121.03282387434,50.4732205154423],[-121.032607045943,50.4728145534562],[-121.032253555073,50.4722086212644],[-121.03248855817,50.4721557752055],[-121.032431498066,50.4722052959171],[-121.032904040265,50.4730484961283],[-121.033043238742,50.4733092213268],[-121.033251050234,50.4735465792204],[-121.03374402136,50.4739612590087],[-121.034099062011,50.4742707859249],[-121.034204447093,50.4743940933955],[-121.034257139634,50.4744613193343],[-121.034264184092,50.4745924458647],[-121.034239246713,50.4746784555217],[-121.034184722613,50.4747912477052],[-121.034087227323,50.4748754598772],[-121.033974375116,50.474937293361],[-121.033791782781,50.475015753581],[-121.033532264972,50.4750640160532],[-121.033264293814,50.4750677008974],[-121.033072684574,50.4750259093713],[-121.032808940091,50.4749161729123],[-121.032658188703,50.474834746842],[-121.032496588852,50.4747049684254],[-121.032146056653,50.4744126973652],[-121.031800737354,50.4745586531468]]]}},{"type":"Feature","id":"883053336","properties":{"name":"iSP_22kph_%TR_Brake_Temp_CTRL_NOREMOVE","oid":"883053336","speedLimit":6.111111},"geometry":{"type":"Polygon","coordinates":[[[-121.032467283909,50.4721449004213],[-121.03225242796,50.4722251581263],[-121.031489795006,50.471007991162],[-121.030817894663,50.469923029219],[-121.030662634823,50.4696598774157],[-121.030597825815,50.4694573907311],[-121.030551473286,50.4692564319086],[-121.030597825815,50.4689726090279],[-121.030724062491,50.4686239868131],[-121.030885803232,50.4683752148898],[-121.031090233385,50.4680975034581],[-121.031689575817,50.4675362387684],[-121.032433470514,50.46689336826],[-121.032789779167,50.4665558904522],[-121.033148905603,50.4662220974886],[-121.033485771554,50.4658704195493],[-121.033780793428,50.4660338109354],[-121.03358876152,50.465993008026],[-121.032920665184,50.4666517862766],[-121.032555903182,50.4669909716952],[-121.032179870049,50.4673074189286],[-121.031775659086,50.4676680842928],[-121.031383282811,50.468034142112],[-121.031148420602,50.4682860596341],[-121.03101006746,50.4684695828521],[-121.030906373048,50.468654184561],[-121.030829870241,50.4688527167787],[-121.030769006129,50.4691910034548],[-121.030777741256,50.4694003205825],[-121.030874954768,50.4696300391648],[-121.031028946606,50.4699348027457],[-121.031331858272,50.4704034969582],[-121.031531920861,50.4707106871438],[-121.031751567041,50.4710825867893],[-121.032147324656,50.4717285130222],[-121.032382609531,50.4721448105471],[-121.032467283909,50.4721449004213]]]}},{"type":"Feature","id":"883059532","properties":{"name":"iSP_22kph_%TR_Brake_CTRL_NOREMOVE","oid":"883059532","speedLimit":6.111111},"geometry":{"type":"Polygon","coordinates":[[[-121.027263543259,50.4773216572069],[-121.027031357945,50.4772094941432],[-121.027335819392,50.4769437359867],[-121.027717769869,50.4766321419628],[-121.028034488672,50.4763224352982],[-121.02819172096,50.4761684807083],[-121.028622559972,50.4756920573104],[-121.028908564941,50.4753254602457],[-121.029265155373,50.4748873232782],[-121.029473953089,50.4746564363306],[-121.029692753934,50.4745401390514],[-121.029802788358,50.4744879221123],[-121.029953539746,50.4745923559905],[-121.029789967446,50.4745417567879],[-121.029557359464,50.4747912477052],[-121.029253179795,50.4751727638954],[-121.029074250578,50.4754777072248],[-121.028854463509,50.4757744719974],[-121.02869737211,50.4759744422031],[-121.028410240028,50.4762703082333],[-121.028042942021,50.4765696793592],[-121.02724522767,50.4772191106879],[-121.027263543259,50.4773216572069]]]}},{"type":"Feature","id":"884401102","properties":{"name":"SP_25KPH_MAIN INT. DUST_AUG_ 7_NS","oid":"884401102","speedLimit":6.9444447},"geometry":{"type":"Polygon","coordinates":[[[-121.035774093082,50.4609088217177],[-121.035955980971,50.4612023510173],[-121.038296290594,50.4609918655244],[-121.038279947453,50.4603977068593],[-121.038121447162,50.4605655919579],[-121.03590483821,50.4608508528266],[-121.035711679189,50.4607566646128],[-121.035774093082,50.4609088217177]]]}},{"type":"Feature","id":"903864124","properties":{"name":"SP_20KPH_%TR_OLD_GARBAGEDUMP_AUG_7_NS","oid":"903864124","speedLimit":5.5555553},"geometry":{"type":"Polygon","coordinates":[[[-121.042586224235,50.4670018464794],[-121.042133406516,50.467328449503],[-121.040895131802,50.4666611331986],[-121.040724796823,50.4661226965684],[-121.042265419647,50.4668259625726],[-121.042586224235,50.4670018464794]]]}},{"type":"Feature","id":"908328496","properties":{"name":"SP_12KPH_%TR_9019_SOFT_GROUND_AUG_7_NS","oid":"908328496","speedLimit":3.3333333},"geometry":{"type":"Polygon","coordinates":[[[-121.039001299886,50.4644886928337],[-121.039305761333,50.4646767097642],[-121.039205307371,50.4648764103471],[-121.039036803951,50.4652630493695],[-121.038207530431,50.4663102641276],[-121.039220100732,50.4663022653194],[-121.039226299854,50.4665693715896],[-121.038258814081,50.4670759927354],[-121.03611462215,50.4667425592689],[-121.037882780947,50.4651396520246],[-121.038521854118,50.464814127492],[-121.039001299886,50.4644886928337]]]}},{"type":"Feature","id":"910445950","properties":{"name":"SP_30KPH_%TR_1635_FLATS_AUG_6_DS","oid":"910445950","speedLimit":8.333333},"geometry":{"type":"Polygon","coordinates":[[[-121.020226975694,50.4571638516049],[-121.019045901973,50.4569610054232],[-121.018652257696,50.4569223594958],[-121.017455967948,50.4572314370407],[-121.018091941558,50.4544687924776],[-121.018773281474,50.45389889986],[-121.018939953335,50.4535125304603],[-121.019560710917,50.454517144824],[-121.020226975694,50.4571445286412],[-121.020211900555,50.4571445286412],[-121.020226975694,50.4571638516049]]]}},{"type":"Feature","id":"915576987","properties":{"name":"iSP_15kph_prevent shifting","oid":"915576987","speedLimit":4.1666665},"geometry":{"type":"Polygon","coordinates":[[[-121.036999405994,50.4448631225387],[-121.037513510492,50.4453130330329],[-121.037982812241,50.4457954780056],[-121.038526785239,50.4462187857219],[-121.039459471393,50.4468498827036],[-121.039916797564,50.4470996432437],[-121.040472746139,50.4471949998227],[-121.04122593952,50.4473227111316],[-121.041644380287,50.4475095596968],[-121.042322902419,50.4480950005597],[-121.042705557343,50.4485277450722],[-121.042848982495,50.4487947614682],[-121.043010441457,50.4493915264866],[-121.043189652453,50.4501980580038],[-121.04332716026,50.4505012038482],[-121.043688822701,50.4511686100268],[-121.043859298569,50.451488921853],[-121.044128255951,50.4522534820956],[-121.044385378644,50.4529380542559],[-121.044699138775,50.4537979710775],[-121.04473802418,50.4541945861416],[-121.044573606545,50.455071668945],[-121.044218002338,50.4568391359405],[-121.044053584703,50.4572071709932],[-121.043007341896,50.4583988136707],[-121.041907420324,50.459537160918],[-121.041345554406,50.4600004626754],[-121.040374123736,50.460597317568],[-121.039925673581,50.4607307808289],[-121.039136553467,50.4608069941927],[-121.038945366895,50.4608051068334],[-121.039002145221,50.4612932138838],[-121.039061882219,50.4609271560646],[-121.039880870832,50.4608795227122],[-121.04070887635,50.4606316495314],[-121.041512930712,50.4600577125725],[-121.042875892322,50.4587000721558],[-121.044244771276,50.4571422817849],[-121.044430181393,50.4562900042746],[-121.044815794989,50.454421428748],[-121.044812695428,50.4537864671735],[-121.044262805086,50.4523012053222],[-121.043835347414,50.4511857760085],[-121.043348152743,50.4503372732167],[-121.043052285534,50.4493095611708],[-121.042929711976,50.448691765578],[-121.042242172938,50.44788712142],[-121.041548716556,50.4473913750584],[-121.041094349056,50.4472216924749],[-121.040460770562,50.4471302004886],[-121.039919756236,50.4470195652872],[-121.038822793337,50.4463331956418],[-121.038198090858,50.4458716913694],[-121.037154947613,50.4449068912983],[-121.037379102246,50.4446972146736],[-121.036999405994,50.4448631225387]]]}},{"type":"Feature","id":"917291012","properties":{"name":"SP_15KPH_%TR_CORNER_RUTS_AUG_7_NS","oid":"917291012","speedLimit":4.1666665},"geometry":{"type":"Polygon","coordinates":[[[-121.040556293403,50.4664418400292],[-121.04036524772,50.4663126907323],[-121.040275219555,50.4660940266827],[-121.040331434324,50.4660007372114],[-121.039808594699,50.4659756622958],[-121.040089668548,50.4660437869771],[-121.040095304114,50.4663091856366],[-121.040230275917,50.4665135596805],[-121.040539386706,50.4666462140732],[-121.040713666581,50.4667251236644],[-121.040820460554,50.4665816843618],[-121.040545022271,50.4664382450592],[-121.040556293403,50.4664418400292]]]}},{"type":"Feature","id":"917665392","properties":{"name":"SP_15KPH_22SH RUTS_AUG 7_NS","oid":"917665392","speedLimit":4.1666665},"geometry":{"type":"Polygon","coordinates":[[[-121.035648983519,50.4455194741846],[-121.035216735616,50.445207610538],[-121.034708125794,50.4452030269512],[-121.035038510844,50.4456320866195],[-121.035587555851,50.4459565326611],[-121.036007828177,50.4464643221722],[-121.036510379765,50.4462079109377],[-121.035648983519,50.4455194741846]]]}},{"type":"Feature","id":"917773475","properties":{"name":"SP_15KPH_%TR_1200_CORNER_AUG_8_NS","oid":"917773475","speedLimit":4.1666665},"geometry":{"type":"Polygon","coordinates":[[[-121.037100282624,50.4446823854224],[-121.036926143638,50.4448619541734],[-121.036630558207,50.4448204322701],[-121.036415984036,50.4448697732332],[-121.03632440609,50.4449674665426],[-121.036255793076,50.4450819663368],[-121.03624353572,50.4451447884374],[-121.036264669092,50.4452671072913],[-121.036317361633,50.4453513194633],[-121.036185489391,50.445395088223],[-121.036090389217,50.4451941294005],[-121.036164356019,50.4449315168428],[-121.036261146863,50.4447912231389],[-121.036517987779,50.4447149199009],[-121.036715091695,50.4447115945536],[-121.036924452968,50.4447699229417],[-121.037095069725,50.4446834639134],[-121.037100282624,50.4446823854224]]]}}]}