{"type":"FeatureCollection","features":[{"type":"Feature","id":"702602533","properties":{"name":"iSP_4KPH_%TR_CR01_SLOW BUMP","oid":"702602533","speedLimit":1.1111112},"geometry":{"type":"Polygon","coordinates":[[[-121.033358664277,50.4648077518539],[-121.033653406711,50.464690735441],[-121.033696800913,50.4647314485247],[-121.033368949266,50.4648695854116],[-121.033358664277,50.4648077518539]]]}},{"type":"Feature","id":"707947583","properties":{"name":"iSP_22KPH_%TR_Permission Gate 1 from west dump_Jun","oid":"707947583","speedLimit":6.111111},"geometry":{"type":"Polygon","coordinates":[[[-121.038628241971,50.4619778779719],[-121.038854934407,50.4617993874987],[-121.038139916312,50.4614081644223],[-121.037992263314,50.4616708671681],[-121.038191763929,50.4615667926626],[-121.038666705013,50.4618459424157],[-121.038628241971,50.4619778779719]]]}},{"type":"Feature","id":"742345972","properties":{"name":"iSP_4KPH_%TR_CR01_PITSIDE_SLOW BUMP","oid":"742345972","speedLimit":1.1111112},"geometry":{"type":"Polygon","coordinates":[[[-121.033398536222,50.4648827070677],[-121.03370581789,50.4647442106834],[-121.033755974824,50.4647762958289],[-121.033474476075,50.4649182074388],[-121.033398536222,50.4648827070677]]]}},{"type":"Feature","id":"776427243","properties":{"name":"iSP_7KPH_%TR_CR1_PermissionBlocker_DO_NOT_DELETE","oid":"776427243","speedLimit":1.9444444},"geometry":{"type":"Polygon","coordinates":[[[-121.034099747071,50.465212725707],[-121.03405128082,50.4652330373117],[-121.03403014728,50.4652744693903],[-121.034115808561,50.4652253979914],[-121.034099747071,50.465212725707]]]}},{"type":"Feature","id":"794004438","properties":{"name":"iSP_11KPH_%TR_LOWER_FUEL_BAY","oid":"794004438","speedLimit":3.0555556},"geometry":{"type":"Polygon","coordinates":[[[-121.036776521217,50.4606953708961],[-121.036778634571,50.4607252091827],[-121.036748906725,50.4606707453223],[-121.037125083733,50.4605990255853],[-121.037535074404,50.4605559757683],[-121.037542823369,50.460581320337],[-121.036944321523,50.4606501640945],[-121.036776521217,50.4606953708961]]]}},{"type":"Feature","id":"801543391","properties":{"name":"iSP_4KPH_%TR_CR1_PermissionBlocker_DO_NOT_DELETE_","oid":"801543391","speedLimit":1.1111112},"geometry":{"type":"Polygon","coordinates":[[[-121.033155218734,50.4645232096393],[-121.033154373392,50.4644737787429],[-121.033175929603,50.4644317175438],[-121.033107879605,50.4644593089714],[-121.033155218734,50.4645232096393]]]}},{"type":"Feature","id":"806473874","properties":{"name":"iSP_4KPH_%TR_Permission Blocker - DO NOT DELETE","oid":"806473874","speedLimit":1.1111112},"geometry":{"type":"Polygon","coordinates":[[[-121.02271919502,50.4815449635021],[-121.022686085808,50.4815426267688],[-121.022678477734,50.4815712966888],[-121.022700597505,50.481572375181],[-121.022704683323,50.4815482888533],[-121.02271919502,50.4815449635021]]]}},{"type":"Feature","id":"824566967","properties":{"name":"iSP_4Cr_3KPH","oid":"824566967","speedLimit":0.8333333},"geometry":{"type":"Polygon","coordinates":[[[-121.023302058047,50.4810680901634],[-121.023281910739,50.4810680901634],[-121.023279233824,50.4811861850686],[-121.023304312291,50.4811854660737],[-121.023302058047,50.4810680901634]]]}},{"type":"Feature","id":"826307302","properties":{"name":"iSP_4KPH_TR%_CRUSHER POCKETS","oid":"826307302","speedLimit":1.1111112},"geometry":{"type":"Polygon","coordinates":[[[-121.023297267778,50.4813212662273],[-121.023336717052,50.4814769286138],[-121.023541430607,50.481437473771],[-121.023460418705,50.4811886116762],[-121.023052118717,50.4811893306711],[-121.023057472547,50.4813600020752],[-121.02328233341,50.4813260295682],[-121.023297267778,50.4813212662273]]]}},{"type":"Feature","id":"855316169","properties":{"name":"SP_30KPH_TR%_CRUSHER YARD EMPTY_SEP_1_NS","oid":"855316169","speedLimit":8.333333},"geometry":{"type":"Polygon","coordinates":[[[-121.037911955863,50.4622347388845],[-121.037770502037,50.46211934021],[-121.037595938998,50.4622031929852],[-121.037545500284,50.4622374351152],[-121.037608619122,50.4622263805693],[-121.03790505224,50.4624611323901],[-121.037719358871,50.462513708889],[-121.038122586809,50.4625062493173],[-121.038120896126,50.4624940264048],[-121.037911955863,50.4622347388845]]]}},{"type":"Feature","id":"883050998","properties":{"name":"iSP_22kph_%TR_4CR_Brake_Temp_CTRL_NOREMOVE","oid":"883050998","speedLimit":6.111111},"geometry":{"type":"Polygon","coordinates":[[[-121.031798868152,50.4745588499761],[-121.032188147955,50.4743122347402],[-121.032489794012,50.4745745779886],[-121.03279144007,50.4748019601121],[-121.032969243584,50.4748843748975],[-121.033178042957,50.4749345247888],[-121.033461936841,50.4749593301113],[-121.033665805055,50.4749217626301],[-121.033826983518,50.47486235568],[-121.033918139519,50.4748103184273],[-121.034007463947,50.4747471367542],[-121.034057902662,50.474657981392],[-121.034052126161,50.4745477954302],[-121.034055930199,50.4744834453905],[-121.033993797592,50.4743794607593],[-121.033875449769,50.4742593886182],[-121.033508571519,50.4739374586711],[-121.033060258695,50.4735598066226],[-121.032946982922,50.47342526471],[-121.032822013257,50.4732207106732],[-121.032605183139,50.4728147482022],[-121.032251689464,50.4722088152867],[-121.032486694426,50.4721559691647],[-121.032429633869,50.4722054899355],[-121.032902179818,50.4730486911538],[-121.0330413794,50.4733094166637],[-121.033249192541,50.4735467748408],[-121.033742167578,50.4739614551245],[-121.034097211046,50.4742709824103],[-121.034202596964,50.4743942900282],[-121.034255289924,50.4744615160474],[-121.034262334437,50.4745926427344],[-121.03423739686,50.4746786524941],[-121.034182872327,50.4747914448123],[-121.034085376264,50.4748756570849],[-121.033972523162,50.4749374906426],[-121.033789929378,50.4750159509563],[-121.03353040951,50.4750642134861],[-121.033262436226,50.4750678983347],[-121.033070825465,50.4750261067587],[-121.032807078889,50.4749163701686],[-121.032656326305,50.4748349440011],[-121.032494725171,50.4747051654295],[-121.032144190192,50.4744128940202],[-121.031798868152,50.4745588499761]]]}},{"type":"Feature","id":"883053336","properties":{"name":"iSP_22kph_%TR_Brake_Temp_CTRL_NOREMOVE","oid":"883053336","speedLimit":6.111111},"geometry":{"type":"Polygon","coordinates":[[[-121.032465419996,50.4721450943675],[-121.032250562342,50.4722253521684],[-121.031487923337,50.4710081837502],[-121.030816017663,50.4699232205113],[-121.030660756591,50.4696600683937],[-121.030595947069,50.4694575814672],[-121.030549594172,50.4692566224047],[-121.030595947069,50.468972799185],[-121.030722184747,50.4686241765538],[-121.030883926771,50.4683754043333],[-121.031088358546,50.4680976925699],[-121.031687705733,50.4675364272098],[-121.032431606333,50.4668935559335],[-121.032787917813,50.4665560777226],[-121.033147047099,50.4662222843603],[-121.033483915722,50.465870606001],[-121.033778939937,50.4660339975822],[-121.033586906506,50.4659931946241],[-121.032918804869,50.4666519736616],[-121.032554039973,50.4669911594853],[-121.032178003856,50.4673076070966],[-121.031773789685,50.4676682728917],[-121.031381410297,50.4680343311481],[-121.031146546225,50.4682862489711],[-121.031008191985,50.4684697724083],[-121.03090449675,50.4686543743378],[-121.030827993336,50.4688529067926],[-121.030767128741,50.4691911938727],[-121.030775863938,50.4694005112504],[-121.030873078221,50.4696302301071],[-121.03102707128,50.4699349940521],[-121.03132998535,50.4704036888243],[-121.031530049527,50.4707108793769],[-121.03174969745,50.4710827794666],[-121.032145458204,50.471728706471],[-121.032380744947,50.4721450044931],[-121.032465419996,50.4721450943675]]]}},{"type":"Feature","id":"883059532","properties":{"name":"iSP_22kph_%TR_Brake_CTRL_NOREMOVE","oid":"883059532","speedLimit":6.111111},"geometry":{"type":"Polygon","coordinates":[[[-121.027261638056,50.4773218573364],[-121.027029450899,50.4772096941387],[-121.027333914762,50.4769439356648],[-121.027715868271,50.4766323412687],[-121.028032589587,50.4763226342342],[-121.028189823122,50.4761686794605],[-121.028620665553,50.4756922554935],[-121.028906672791,50.4753256579909],[-121.029263266052,50.4748875205],[-121.029472065425,50.4746566332766],[-121.029690868006,50.4745403358585],[-121.029800903303,50.4744881188571],[-121.029951655887,50.47459255286],[-121.029788082289,50.474541953597],[-121.029555472462,50.4747914448123],[-121.029251290379,50.4751729614582],[-121.029072359743,50.4754779051518],[-121.028852570929,50.4757746702789],[-121.028695478284,50.4759746407235],[-121.028408343924,50.476270507107],[-121.028041043003,50.4765698785905],[-121.027243322322,50.477219310695],[-121.027261638056,50.4773218573364]]]}},{"type":"Feature","id":"903864124","properties":{"name":"SP_15KPH_%TR_OLD_GARBAGEDUMP_SEP_1_NS","oid":"903864124","speedLimit":4.1666665},"geometry":{"type":"Polygon","coordinates":[[[-121.042484831196,50.4669869353905],[-121.042131619302,50.4673286376962],[-121.042023133797,50.4669790264471],[-121.041685983393,50.4668097031583],[-121.041834481733,50.466710212245],[-121.042484831196,50.4669869353905]]]}},{"type":"Feature","id":"910445950","properties":{"name":"SP_22KPH_%TR_1635_FLATS_SEP_1_NS","oid":"910445950","speedLimit":6.111111},"geometry":{"type":"Polygon","coordinates":[[[-121.018916144096,50.4576034233889],[-121.015248066045,50.4587004297916],[-121.014497402713,50.4578796072882],[-121.017900747955,50.4565670821771],[-121.018228740492,50.4542746569506],[-121.018440498561,50.4540100668433],[-121.019219339946,50.4539290001732],[-121.019244700194,50.4568507256481],[-121.019157348229,50.4570730748076],[-121.019195388601,50.4574050706827],[-121.018916144096,50.4576034233889]]]}},{"type":"Feature","id":"917291012","properties":{"name":"SP_20KPH_%TR_CORNER_RUTS_SEP_1_NS","oid":"917291012","speedLimit":5.5555553},"geometry":{"type":"Polygon","coordinates":[[[-121.040609863549,50.4662212957424],[-121.040684112718,50.4661071553089],[-121.040422197716,50.4659261483537],[-121.040120410768,50.4658980176799],[-121.040016292862,50.4663104511046],[-121.039933308496,50.4664857959753],[-121.039994454871,50.466819948835],[-121.040666642325,50.466739151788],[-121.040548717174,50.4666222252494],[-121.040531246781,50.4663772277519],[-121.040609863549,50.4662212957424]]]}},{"type":"Feature","id":"922262468","properties":{"name":"SP_20kph_HMT_DUMP_SEP_1_NS","oid":"922262468","speedLimit":5.5555553},"geometry":{"type":"Polygon","coordinates":[[[-121.012500987657,50.4364265083743],[-121.012481122129,50.4374171934126],[-121.016363494273,50.4384077885766],[-121.017179812469,50.4369599126837],[-121.016522841163,50.4359057763493],[-121.014770729827,50.4353088308694],[-121.012899284436,50.4352072728459],[-121.012500987657,50.4364265083743]]]}},{"type":"Feature","id":"923351007","properties":{"name":"iSP_17KPH_PERMISSIONS_AUG 18_NS","oid":"923351007","speedLimit":4.7222223},"geometry":{"type":"Polygon","coordinates":[[[-121.038853243724,50.4608771867205],[-121.03887268658,50.461134766628],[-121.038783362152,50.4608894995075],[-121.038538635762,50.4608894995075],[-121.038534831725,50.4608300925574],[-121.038880435545,50.4608226329858],[-121.038853243724,50.4608771867205]]]}},{"type":"Feature","id":"926367691","properties":{"name":"SP_15KPH_%TR_24SH_SEP_1_NS","oid":"926367691","speedLimit":4.1666665},"geometry":{"type":"Polygon","coordinates":[[[-121.038600768369,50.4501822281001],[-121.037733307007,50.4501786331258],[-121.038244879559,50.4520114408901],[-121.038476784936,50.4519885229291],[-121.039663644528,50.4519356768071],[-121.039537688632,50.4510982275477],[-121.038600768369,50.4501822281001]]]}},{"type":"Feature","id":"929009157","properties":{"name":"iSP_22kph_Long_Single_Lane_Aug30","oid":"929009157","speedLimit":6.111111},"geometry":{"type":"Polygon","coordinates":[[[-121.005868437539,50.4378882249182],[-121.004809083636,50.4381071588521],[-121.005174552983,50.4381975724553],[-121.007934875056,50.4431705003823],[-121.008523655474,50.4445348829974],[-121.008210738195,50.446509692246],[-121.007832729614,50.4466801839014],[-121.008934209706,50.4466469303893],[-121.008823469958,50.4465929159006],[-121.009403515179,50.4448176277249],[-121.008764577827,50.4430684031126],[-121.008262867593,50.4415401795445],[-121.007259306235,50.4401562043196],[-121.006439606673,50.4389840629543],[-121.005689366012,50.4380215085897],[-121.005868437539,50.4378882249182]]]}},{"type":"Feature","id":"930116666","properties":{"name":"SP_9023 Rough_15KM_SEP_1_NS","oid":"930116666","speedLimit":4.1666665},"geometry":{"type":"Polygon","coordinates":[[[-121.043597441619,50.4685541644296],[-121.043297204464,50.4689177960784],[-121.042548654486,50.4684624925854],[-121.042344081821,50.4680405324788],[-121.043035993913,50.4679072488072],[-121.043597441619,50.4685541644296]]]}}]}