{"type":"FeatureCollection","features":[{"type":"Feature","id":"702602533","properties":{"name":"iSP_4KPH_%TR_CR01_Slow Bump","oid":"702602533","speedLimit":1.1111112},"geometry":{"type":"Polygon","coordinates":[[[-121.033360889378,50.4648076744822],[-121.033655631349,50.4646906578279],[-121.033699025483,50.4647313709956],[-121.033371174352,50.4648695081675],[-121.033360889378,50.4648076744822]]]}},{"type":"Feature","id":"707947583","properties":{"name":"iSP_25KPH_%TR_Permission Gate 1 From West Dump","oid":"707947583","speedLimit":6.9444447},"geometry":{"type":"Polygon","coordinates":[[[-121.038630458781,50.4619777947618],[-121.038857150861,50.4617993039203],[-121.038142133891,50.4614080800367],[-121.037994481125,50.4616707833245],[-121.038193981427,50.4615667086043],[-121.038668921763,50.4618458589334],[-121.038630458781,50.4619777947618]]]}},{"type":"Feature","id":"715433879","properties":{"name":"SP_30KPH_80%TR_Gate_1_INT-1320_1_Sept15_DS","oid":"715433879","speedLimit":8.333333},"geometry":{"type":"Polygon","coordinates":[[[-121.043620643227,50.4514239171077],[-121.043058632844,50.4502923067428],[-121.042830250084,50.449440835327],[-121.042733176844,50.4489823852855],[-121.042604262454,50.4486920905132],[-121.0422979675,50.4487621027818],[-121.042535226333,50.4488028159496],[-121.042689782711,50.4493153704656],[-121.042877730029,50.4500805623206],[-121.04311132572,50.4506632189798],[-121.043253624664,50.4509332021056],[-121.043478344283,50.451398123114],[-121.04392271148,50.4525745808757],[-121.043748853167,50.4526182599033],[-121.044033451054,50.452567840285],[-121.043762942171,50.4518553149119],[-121.043620643227,50.4514239171077]]]}},{"type":"Feature","id":"739334284","properties":{"name":"SP_30KPH_80%TR_1590 - GATE1(3)_SEPT_15_DS","oid":"739334284","speedLimit":8.333333},"geometry":{"type":"Polygon","coordinates":[[[-121.010382427754,50.459177843264],[-121.010278169122,50.4589932409536],[-121.010268025039,50.4589043550311],[-121.010255204045,50.4588075601488],[-121.010252527134,50.4586960258415],[-121.010262952997,50.4586375175143],[-121.010287467865,50.4585105247858],[-121.010411451103,50.4583307757007],[-121.010552341146,50.4582086361974],[-121.010811297046,50.4580083058421],[-121.011034889545,50.4578412290676],[-121.011316669632,50.4579819726012],[-121.011119141791,50.4579184312996],[-121.010700980142,50.4582184325226],[-121.010452872776,50.4584948866154],[-121.010423849427,50.4586394947543],[-121.010407083511,50.458809088016],[-121.01043357084,50.4589502809223],[-121.010517118635,50.4590994726629],[-121.010647864596,50.4592361718421],[-121.011030662843,50.4594830572104],[-121.012119461099,50.4600642758769],[-121.012385461501,50.4602007054325],[-121.012893088327,50.4604901014594],[-121.013040741092,50.4604391425938],[-121.012813062782,50.46058330136],[-121.011784001905,50.4600254500745],[-121.010776074535,50.4594808103468],[-121.010382427754,50.459177843264]]]}},{"type":"Feature","id":"739337561","properties":{"name":"SP_30KPH_80%TR_1590 GATE3__DUSTY_SEP_15_DS","oid":"739337561","speedLimit":8.333333},"geometry":{"type":"Polygon","coordinates":[[[-121.022231843962,50.4632579677455],[-121.020355188584,50.463552756245],[-121.019836149664,50.4635565309758],[-121.019816143278,50.4634278306309],[-121.01972400119,50.4636471245146],[-121.020074817398,50.4636625829359],[-121.020672472962,50.4636216900191],[-121.020969610063,50.4635743261352],[-121.021330993025,50.4635183342952],[-121.021712523262,50.463440772565],[-121.022610697289,50.463277111023],[-121.025612359663,50.4627256408301],[-121.028276449493,50.4621721035227],[-121.030599444528,50.4617133838577],[-121.032605155186,50.4614635326295],[-121.034195521995,50.4612675162522],[-121.036772119109,50.4608417805443],[-121.03664644519,50.4605213778002],[-121.036588962052,50.4607383349458],[-121.033567434182,50.4612373184059],[-121.030602825889,50.4616185662153],[-121.029893726301,50.4617478058075],[-121.028992311804,50.4619007722788],[-121.02761807032,50.4621893594349],[-121.024123292794,50.4629108722623],[-121.022231843962,50.4632579677455]]]}},{"type":"Feature","id":"742345972","properties":{"name":"iSP_4KPH_%TR_CR01_Pit Side_Slow Bump","oid":"742345972","speedLimit":1.1111112},"geometry":{"type":"Polygon","coordinates":[[[-121.033400761261,50.4648826298507],[-121.033708042445,50.4647441331807],[-121.033758199301,50.4647762183923],[-121.033476700994,50.464918130295],[-121.033400761261,50.4648826298507]]]}},{"type":"Feature","id":"776427243","properties":{"name":"iSP_7KPH_%TR_CR1_PermissionBlocker","oid":"776427243","speedLimit":1.9444444},"geometry":{"type":"Polygon","coordinates":[[[-121.034101971007,50.4652126491708],[-121.034053504832,50.4652329608174],[-121.034032371325,50.4652743929816],[-121.034118032472,50.4652253214813],[-121.034101971007,50.4652126491708]]]}},{"type":"Feature","id":"776901904","properties":{"name":"SP_35KPH_80%TR_1CR-Connector Parking_SPET_15_DS","oid":"776901904","speedLimit":9.722222},"geometry":{"type":"Polygon","coordinates":[[[-121.034268784818,50.4656276898082],[-121.034012646719,50.4654802056839],[-121.033533197902,50.4658615433679],[-121.032602055605,50.4667552558187],[-121.031096504601,50.4680969029895],[-121.030852764826,50.4684461554618],[-121.030629031437,50.4688678468153],[-121.030555627725,50.4691724316399],[-121.030575634111,50.4694257879753],[-121.030722582426,50.4697751303221],[-121.031707403829,50.4713531475397],[-121.032178117464,50.4721559968281],[-121.032769010306,50.4731228671565],[-121.033374555713,50.4730054011295],[-121.032900178937,50.4730089062366],[-121.03102634136,50.4699118295012],[-121.030746392844,50.4693078725755],[-121.030774289072,50.4689801001189],[-121.03122133318,50.4681719482325],[-121.032722234812,50.4668936626142],[-121.033526435179,50.4660554027561],[-121.034093376714,50.4655821234152],[-121.034268784818,50.4656276898082]]]}},{"type":"Feature","id":"776902235","properties":{"name":"SP_35KPH_80%TR_1cr-4cr sec2_SEPT_15_DS","oid":"776902235","speedLimit":9.722222},"geometry":{"type":"Polygon","coordinates":[[[-121.033393575869,50.4730313748722],[-121.032872564488,50.4731801172401],[-121.033049240603,50.4735341330631],[-121.033925858452,50.4743025604017],[-121.034055336402,50.4744917463137],[-121.034062380904,50.474664575059],[-121.033837520395,50.4749139769145],[-121.033427530369,50.4749662838982],[-121.033188017295,50.4749421975209],[-121.032696029264,50.4747571458378],[-121.032336618763,50.4744795233759],[-121.032084284695,50.4742622966067],[-121.031901409419,50.4741094200098],[-121.031630759646,50.4739599586456],[-121.031248243178,50.473918616356],[-121.030843606973,50.4739704739671],[-121.03040994742,50.4740617865023],[-121.030504061969,50.4742758676626],[-121.03054083427,50.4741270354202],[-121.030909120844,50.4740591801406],[-121.031242466686,50.4740218822054],[-121.031521992532,50.4740406659848],[-121.031857310836,50.4742320987604],[-121.032419321219,50.4746882120637],[-121.032799019886,50.474975361227],[-121.03326987441,50.4751071173064],[-121.033782714168,50.4750934563759],[-121.034190731734,50.4749703282527],[-121.034411365542,50.4746806626021],[-121.034329367537,50.4743628662197],[-121.033824840291,50.4739001920748],[-121.033062766047,50.4732821248459],[-121.033228170958,50.4731567498591],[-121.033310873413,50.4730941073029],[-121.033352154196,50.4730627410876],[-121.033393575869,50.4730313748722]]]}},{"type":"Feature","id":"776902464","properties":{"name":"SP_35KPH_80%TR_SkyWay-4CR_SEPT_15_DS","oid":"776902464","speedLimit":9.722222},"geometry":{"type":"Polygon","coordinates":[[[-121.029522058367,50.4752291669351],[-121.029200969958,50.4750682016295],[-121.028512862986,50.4759388163229],[-121.027004071511,50.4773120094581],[-121.02719328684,50.4773778874978],[-121.027135944592,50.477306527111],[-121.028524275079,50.476209518445],[-121.029229711527,50.4752840802806],[-121.029441891932,50.4752401316293],[-121.029522058367,50.4752291669351]]]}},{"type":"Feature","id":"794004438","properties":{"name":"iSP_11KPH_%TR_Lower_Fuel_Bay","oid":"794004438","speedLimit":3.0555556},"geometry":{"type":"Polygon","coordinates":[[[-121.036778740941,50.46069528504],[-121.036780854291,50.4607251233881],[-121.036751126492,50.4606706594153],[-121.037127302908,50.4605989395304],[-121.037537292934,50.4605558896245],[-121.037545041887,50.4605812342455],[-121.036946540982,50.4606500781451],[-121.036778740941,50.46069528504]]]}},{"type":"Feature","id":"801543391","properties":{"name":"iSP_4KPH_%TR_CR01_PermissionBlocker_2","oid":"801543391","speedLimit":1.1111112},"geometry":{"type":"Polygon","coordinates":[[[-121.033157444156,50.4645231316806],[-121.033156598816,50.4644737006822],[-121.033178154992,50.4644316393963],[-121.033110105101,50.4644592308809],[-121.033157444156,50.4645231316806]]]}},{"type":"Feature","id":"806473874","properties":{"name":"iSP_4KPH_%TR_CR04_PermissionBlocker","oid":"806473874","speedLimit":1.1111112},"geometry":{"type":"Polygon","coordinates":[[[-121.022721436863,50.4815449206619],[-121.022688327703,50.4815425839238],[-121.02268071964,50.4815712539029],[-121.022702839377,50.4815723323974],[-121.022706925188,50.48154824602],[-121.022721436863,50.4815449206619]]]}},{"type":"Feature","id":"824566967","properties":{"name":"iSP_3KPH_%TR_CR04","oid":"824566967","speedLimit":0.8333333},"geometry":{"type":"Polygon","coordinates":[[[-121.023304298972,50.4810680463393],[-121.023284151696,50.4810680463393],[-121.023281474785,50.4811861414882],[-121.023306553213,50.4811854224918],[-121.023304298972,50.4810680463393]]]}},{"type":"Feature","id":"826307302","properties":{"name":"iSP_4KPH_%TR_CR04_Pockets","oid":"826307302","speedLimit":1.1111112},"geometry":{"type":"Polygon","coordinates":[[[-121.023299508711,50.4813212229256],[-121.023338957923,50.4814768856332],[-121.023543671156,50.481437430709],[-121.023462659381,50.4811885681008],[-121.023054360035,50.4811892870971],[-121.023059713857,50.4813599588534],[-121.023284574366,50.4813259862763],[-121.023299508711,50.4813212229256]]]}},{"type":"Feature","id":"827282342","properties":{"name":"SP_30KPH_80%TR_1230 to 1215 ramp2_Sept15_DS","oid":"827282342","speedLimit":8.333333},"geometry":{"type":"Polygon","coordinates":[[[-121.036956825956,50.4451702666898],[-121.036724216494,50.4452457613056],[-121.036894975227,50.4451110393663],[-121.036962038887,50.4450452512012],[-121.038449274185,50.4463472636987],[-121.039045943519,50.446729320379],[-121.038820519449,50.4468457079116],[-121.03885362861,50.446784323599],[-121.038765713223,50.446710266976],[-121.038375447802,50.446432285016],[-121.0378490826,50.4460420497523],[-121.036956825956,50.4451702666898]]]}},{"type":"Feature","id":"834847043","properties":{"name":"SP_30KPH_80%TR_Gate_1_INT-1320_Sept_15_DS","oid":"834847043","speedLimit":8.333333},"geometry":{"type":"Polygon","coordinates":[[[-121.043755897669,50.4526227536305],[-121.043936800485,50.452625000494],[-121.044158843193,50.4532809947799],[-121.044374123179,50.4538820757203],[-121.044393425115,50.454149901857],[-121.04437595475,50.4542831858036],[-121.044191529683,50.454299992343],[-121.044489793905,50.4543128444026],[-121.044523466625,50.4540658691598],[-121.044497965527,50.4537730579002],[-121.044137005236,50.4528356664217],[-121.044035141735,50.4525790746028],[-121.043755897669,50.4526227536305]]]}},{"type":"Feature","id":"834884540","properties":{"name":"SP_30KPH_80%TR_Leaving Brute into pit_Sept_ 15_DS","oid":"834884540","speedLimit":8.333333},"geometry":{"type":"Polygon","coordinates":[[[-121.041364852743,50.4593941712878],[-121.041481227919,50.459534016076],[-121.040204482346,50.4604140675964],[-121.039816330276,50.460529466509],[-121.03960203652,50.4605585858608],[-121.039185847332,50.4605832114854],[-121.038653564748,50.4605832114854],[-121.038388409686,50.4605944458032],[-121.038321627806,50.4604364463575],[-121.038323459376,50.4607020256306],[-121.038544656744,50.4606907913128],[-121.039008325877,50.4606639188246],[-121.03953708621,50.4606448654216],[-121.039923406709,50.4605866267181],[-121.040202791665,50.4605003471572],[-121.040871737591,50.4601762595569],[-121.04167988288,50.459499054879],[-121.041364852743,50.4593941712878]]]}},{"type":"Feature","id":"834888244","properties":{"name":"SP_30KPH_80%TR_Gate_1_INT-1320_2_Sept15_DS","oid":"834888244","speedLimit":8.333333},"geometry":{"type":"Polygon","coordinates":[[[-121.044194911044,50.4543056544392],[-121.044358343494,50.4543392675181],[-121.044261692925,50.4547156621022],[-121.04418265361,50.4554159645376],[-121.044013867338,50.4560735765652],[-121.043876076876,50.4566873298161],[-121.04379281086,50.4569520103438],[-121.043620643227,50.4572825689112],[-121.04317627603,50.4577833498622],[-121.042976493949,50.4578697192976],[-121.042746702288,50.457873763652],[-121.043086669963,50.4580096539603],[-121.043388879106,50.4577271782731],[-121.04359725548,50.4575024020423],[-121.043762660391,50.4572678294863],[-121.043871850175,50.4570618370348],[-121.043977235927,50.4567985046252],[-121.044044581368,50.4565660890582],[-121.044127283823,50.4561908628432],[-121.044243658999,50.4557236949712],[-121.044363556426,50.4549834882389],[-121.044467251498,50.4543784528187],[-121.044489793905,50.4543128444026],[-121.044194911044,50.4543056544392]]]}},{"type":"Feature","id":"835348611","properties":{"name":"SP_30KPH_80%TR_switchback to 1 gate_SEP_15_DS","oid":"835348611","speedLimit":8.333333},"geometry":{"type":"Polygon","coordinates":[[[-121.039922279589,50.4634032050062],[-121.039550048094,50.463457668979],[-121.039803227502,50.4633739957799],[-121.039546948513,50.4629225559528],[-121.039367031928,50.4625821111857],[-121.03918091618,50.4622609894453],[-121.038988742161,50.4620177889332],[-121.038747820187,50.4618367816046],[-121.038564804021,50.461729830899],[-121.038078592481,50.4614745871982],[-121.03804125662,50.4615167383586],[-121.037960667515,50.4615571819028],[-121.038035480128,50.4613736580869],[-121.038146924152,50.461385431652],[-121.038485482926,50.4615702137114],[-121.038869267404,50.4617905860897],[-121.039056792052,50.4619260270253],[-121.039241358009,50.4621303118604],[-121.039455510875,50.4625353764236],[-121.039583579924,50.4627533221892],[-121.039760537819,50.4630607829992],[-121.039864232891,50.4632592259891],[-121.039946230896,50.4633236660361],[-121.039922279589,50.4634032050062]]]}},{"type":"Feature","id":"837655370","properties":{"name":"SP_30KPH_800%TR_1620 To 1590_MT_DUSTY _SEP_15_DS","oid":"837655370","speedLimit":8.333333},"geometry":{"type":"Polygon","coordinates":[[[-121.011042074937,50.457833679606],[-121.011902208652,50.4572128262662],[-121.01209001508,50.45709814635],[-121.013396488452,50.4562082086299],[-121.013882981772,50.45589778196],[-121.014189981176,50.4556864869106],[-121.014547278326,50.4554507459855],[-121.014989109502,50.4550852262211],[-121.015284837703,50.4547348952543],[-121.015476025492,50.4542803996928],[-121.01546996722,50.4537722490294],[-121.015790069399,50.453769373044],[-121.01563227255,50.4538055026101],[-121.015624664488,50.4542266547164],[-121.015544638943,50.4545539778002],[-121.01537190775,50.4548723134298],[-121.015170434988,50.4551139860747],[-121.014868366735,50.4553490080034],[-121.013368169553,50.4563613548504],[-121.011179442729,50.457868461054],[-121.011322727903,50.4579766700032],[-121.011042074937,50.457833679606]]]}},{"type":"Feature","id":"838667959","properties":{"name":"SP_35KPH_80%TR__SEPT_15_DS","oid":"838667959","speedLimit":9.722222},"geometry":{"type":"Polygon","coordinates":[[[-121.032608113877,50.4743664612014],[-121.033119403844,50.4747010641233],[-121.033459089739,50.4747157136737],[-121.033702688624,50.4746322202237],[-121.033732698203,50.474390907077],[-121.033635061403,50.4742807208879],[-121.033457117278,50.4743398583369],[-121.033708606006,50.4741899475999],[-121.033909937878,50.4743661017033],[-121.033984750491,50.4745826993508],[-121.033829348773,50.4747477988854],[-121.033553204288,50.4748432456495],[-121.033116445153,50.4748240124974],[-121.032768305856,50.4746578344683],[-121.032439891165,50.474364394087],[-121.032647703979,50.4742592408722],[-121.032608113877,50.4743664612014]]]}},{"type":"Feature","id":"849309937","properties":{"name":"SP_30KPH_80%TR_Gate_1_INT-1320_6_SEPT_15_DS","oid":"849309937","speedLimit":8.333333},"geometry":{"type":"Polygon","coordinates":[[[-121.042809257467,50.4579144768197],[-121.042944371019,50.4579906005572],[-121.042649347268,50.4582965335],[-121.042335021581,50.4586325744145],[-121.042031121758,50.4589687052035],[-121.041597321314,50.4594281438649],[-121.041433888864,50.459394530786],[-121.041688618062,50.4594751482507],[-121.042243583943,50.4588880877389],[-121.042805735216,50.4583054310797],[-121.043079625461,50.4580141476874],[-121.042809257467,50.4579144768197]]]}},{"type":"Feature","id":"853505792","properties":{"name":"SP_35KPH_80%TR_Skyway_SEPT_15_DS","oid":"853505792","speedLimit":9.722222},"geometry":{"type":"Polygon","coordinates":[[[-121.030414315011,50.4741010616774],[-121.029943460486,50.4742938425711],[-121.029753963378,50.4744883310811],[-121.02953192067,50.4747489672544],[-121.02920970514,50.4750623597842],[-121.029529525539,50.4752199997318],[-121.029425407797,50.4750076261878],[-121.029756922069,50.4745978881484],[-121.03015056885,50.4742768562825],[-121.030304561668,50.4742126858592],[-121.030497299247,50.4742769461571],[-121.030414315011,50.4741010616774]]]}},{"type":"Feature","id":"859339791","properties":{"name":"SP_30KPH_80%TR_1230_to_1215_Ramp1_Sept_15_DS","oid":"859339791","speedLimit":8.333333},"geometry":{"type":"Polygon","coordinates":[[[-121.04070562823,50.4473789335724],[-121.040683649383,50.4475607497719],[-121.040632506297,50.4474348355378],[-121.040164610463,50.4474146137658],[-121.039903822993,50.4473928641265],[-121.039489606265,50.4472141036614],[-121.039192328274,50.4470089200808],[-121.038968172215,50.4468503813878],[-121.038846302327,50.4468597283402],[-121.03904847954,50.4467555637454],[-121.039457906006,50.4470182670332],[-121.039721088607,50.4471736601172],[-121.040162215332,50.4472747689776],[-121.040554453213,50.4473089213037],[-121.040690975665,50.4473276152086],[-121.04070562823,50.4473789335724]]]}},{"type":"Feature","id":"863534413","properties":{"name":"SP_35KPH_80%TRAC_1590_SEPT_15_DS","oid":"863534413","speedLimit":9.722222},"geometry":{"type":"Polygon","coordinates":[[[-121.012341081137,50.4562540446466],[-121.013047081144,50.4555688411344],[-121.013347740497,50.4553100024519],[-121.01339071196,50.4552184202931],[-121.012797423987,50.4550437041824],[-121.013142886374,50.4552072758498],[-121.011901081531,50.4565731891471],[-121.011629163748,50.4565411039354],[-121.01202633278,50.4566647713059],[-121.012341081137,50.4562540446466]]]}},{"type":"Feature","id":"867844514","properties":{"name":"SP_30KPH_80%TR_Garbage_Dump_DUSTY_SEP_15_DS","oid":"867844514","speedLimit":8.333333},"geometry":{"type":"Polygon","coordinates":[[[-121.013063847059,50.4604498376643],[-121.012829687807,50.4606040623793],[-121.015635513021,50.4626927467476],[-121.015954488079,50.4628691704745],[-121.016948749116,50.4631394232239],[-121.017621499073,50.4632649779598],[-121.019734567943,50.4636496410018],[-121.019861650762,50.4634208204165],[-121.01972456475,50.4635383763182],[-121.016799123889,50.4629931973432],[-121.015961955252,50.4627372346461],[-121.015393745707,50.4623812415832],[-121.013014817324,50.4605762012711],[-121.013063847059,50.4604498376643]]]}},{"type":"Feature","id":"872232587","properties":{"name":"SP_30KPH_80%TR_Gate_1_INT-1320_1_Sept_15_DS","oid":"872232587","speedLimit":8.333333},"geometry":{"type":"Polygon","coordinates":[[[-121.042513106596,50.4485415506545],[-121.042153977876,50.4481517647635],[-121.041862899046,50.4478702776964],[-121.041617750371,50.4476767778063],[-121.041317513688,50.4475047579319],[-121.041103079042,50.4474167707548],[-121.040963879679,50.4473764170852],[-121.040855676126,50.447352869955],[-121.040733665348,50.447352869955],[-121.04070647357,50.4475487065832],[-121.04083468351,50.4474395988886],[-121.041203815423,50.4475416963689],[-121.041509405927,50.4476795639171],[-121.042195681329,50.4484066489661],[-121.04229641771,50.4484933778997],[-121.04206986652,50.4485993399853],[-121.042513106596,50.4485415506545]]]}},{"type":"Feature","id":"875953603","properties":{"name":"SP_35KPH_80%TR_CR01_YARD_LOADED_Sept_15_DS","oid":"875953603","speedLimit":9.722222},"geometry":{"type":"Polygon","coordinates":[[[-121.038112828762,50.4622574843381],[-121.03836671262,50.4628957733391],[-121.038317682885,50.4633430789373],[-121.038103530019,50.4637138114252],[-121.037627462562,50.4639748070967],[-121.037930235265,50.464204796051],[-121.037830907785,50.4640210924861],[-121.038276965662,50.4637267533593],[-121.038558323079,50.4631642285976],[-121.038357836547,50.4621659021793],[-121.038112828762,50.4622574843381]]]}},{"type":"Feature","id":"883050998","properties":{"name":"iSP_22KPH_%TR_4CR_Brake_Temp_Ctrl","oid":"883050998","speedLimit":6.111111},"geometry":{"type":"Polygon","coordinates":[[[-121.031801095708,50.4745587927224],[-121.032190374898,50.4743121769778],[-121.032492020481,50.4745745207674],[-121.032793666064,50.47480190336],[-121.032971469299,50.4748843183155],[-121.033180268343,50.4749344683102],[-121.03346416178,50.4749592736839],[-121.033668029673,50.4749217061252],[-121.033829207883,50.4748622990525],[-121.033920363741,50.4748102616924],[-121.034009688028,50.474747079889],[-121.034060126664,50.4746579243428],[-121.034054350172,50.4745477381537],[-121.034058154203,50.4744833879813],[-121.033996021694,50.4743794031356],[-121.033877674058,50.4742593307468],[-121.033510796385,50.4739374001354],[-121.033062484267,50.4735597473077],[-121.032949208672,50.4734252051176],[-121.032824239203,50.4732206506588],[-121.032607409427,50.4728146873502],[-121.032253916308,50.4722087531845],[-121.0324889209,50.4721559069535],[-121.032431860432,50.4722054278265],[-121.032904405638,50.4730486307844],[-121.033043605001,50.4733093568323],[-121.033251417815,50.4735467154991],[-121.033744392077,50.4739613966383],[-121.034099434986,50.4742709245627],[-121.034204820738,50.4743942324351],[-121.034257513615,50.4744614585929],[-121.034264558117,50.4745925855504],[-121.034239620579,50.4746785954876],[-121.034185096132,50.4747913880385],[-121.034087600222,50.4748756004848],[-121.033974747297,50.4749374341701],[-121.033792153801,50.4750158946457],[-121.033532634341,50.4750641572751],[-121.033264661479,50.4750678421313],[-121.03307305102,50.475026050469],[-121.032809304859,50.4749163136526],[-121.032658552512,50.4748348873171],[-121.032496951633,50.4747051084777],[-121.032146417205,50.4744128364654],[-121.031801095708,50.4745587927224]]]}},{"type":"Feature","id":"883053336","properties":{"name":"iSP_22KPH_%TR_Brake_Temp_Ctrl","oid":"883053336","speedLimit":6.111111},"geometry":{"type":"Polygon","coordinates":[[[-121.032467646503,50.4721450321339],[-121.032252789187,50.4722252901004],[-121.031490151383,50.471008119171],[-121.030818246766,50.4699231536936],[-121.030662985938,50.4696600010331],[-121.030598176518,50.4694575136888],[-121.030551823694,50.4692565542117],[-121.030598176518,50.4689727304064],[-121.030724413997,50.468624107056],[-121.030886155767,50.4683753343223],[-121.03109058722,50.4680976219859],[-121.031689933464,50.4675363554678],[-121.032433832893,50.4668934828651],[-121.032790143813,50.466556003958],[-121.033149272533,50.466222209907],[-121.033486140627,50.4658705308221],[-121.033781164378,50.4660339227404],[-121.033589131249,50.4659931196981],[-121.032921030663,50.4666519000948],[-121.032556266341,50.4669910866183],[-121.032180230815,50.4673075348825],[-121.031776017281,50.4676682014217],[-121.03138363851,50.4680342604334],[-121.031148774807,50.4682861787761],[-121.031010420785,50.4684697025919],[-121.030906725713,50.4686543049022],[-121.030830222419,50.4688528377667],[-121.030769357921,50.4691911255447],[-121.030778093103,50.4694004433543],[-121.030875307233,50.469630162685],[-121.031029300051,50.4699349272587],[-121.031332213644,50.4704036229979],[-121.031532277506,50.4707108141843],[-121.031751925083,50.4710827150412],[-121.032147685215,50.4717286433784],[-121.032382971587,50.4721449422593],[-121.032467646503,50.4721450321339]]]}},{"type":"Feature","id":"883059532","properties":{"name":"iSP_22KPH_%TR_Brake_Ctrl","oid":"883059532","speedLimit":6.111111},"geometry":{"type":"Polygon","coordinates":[[[-121.027263872751,50.4773218057833],[-121.02703168596,50.4772096423542],[-121.027336149344,50.4769438833319],[-121.027718102251,50.476632288293],[-121.028034823069,50.4763225806195],[-121.028192056357,50.4761686255281],[-121.02862289811,50.4756922005782],[-121.028908904898,50.4753256023193],[-121.029265497598,50.4748874639245],[-121.029474296642,50.4746565762247],[-121.029693098879,50.4745402785667],[-121.029803134003,50.4744880614575],[-121.02995388635,50.4745924956759],[-121.029790313009,50.4745418963084],[-121.029557703548,50.4747913880385],[-121.029253521944,50.4751729054715],[-121.029074591589,50.4754778497943],[-121.028854803121,50.4757746155337],[-121.028697710723,50.4759745863908],[-121.028410576814,50.4762704533848],[-121.028043276471,50.476569825486],[-121.027245557046,50.4772192589302],[-121.027263872751,50.4773218057833]]]}},{"type":"Feature","id":"884401102","properties":{"name":"iSP_30KPH_%TR_Maint_Limit_Policy","oid":"884401102","speedLimit":8.333333},"geometry":{"type":"Polygon","coordinates":[[[-121.036994302707,50.461101158474],[-121.037110396103,50.4611076294411],[-121.038296690268,50.4609919609048],[-121.038280347023,50.4603978003042],[-121.038121845724,50.4605656859496],[-121.03703473815,50.4607083168486],[-121.036747040681,50.4605376450924],[-121.036994302707,50.461101158474]]]}},{"type":"Feature","id":"901482363","properties":{"name":"SP_25KPH_80%trx_1200-1185_RAMP_SEPT15_DS","oid":"901482363","speedLimit":6.9444447},"geometry":{"type":"Polygon","coordinates":[[[-121.036668424037,50.4451089722518],[-121.036263224272,50.4451193976988],[-121.038632713022,50.4479561078845],[-121.039157951103,50.4476144048738],[-121.038831649763,50.4476632966249],[-121.038217791844,50.4469311786015],[-121.036578536189,50.4451795237677],[-121.036696179375,50.4451089722518],[-121.036668424037,50.4451089722518]]]}},{"type":"Feature","id":"903864124","properties":{"name":"SP_35KPH_80%TR_OLD_GARBAGEDUMP_SEP_15_DS","oid":"903864124","speedLimit":9.722222},"geometry":{"type":"Polygon","coordinates":[[[-121.040824398536,50.4662679560492],[-121.042371652993,50.4670051969215],[-121.042523250679,50.4669585520339],[-121.0421338306,50.4673285655255],[-121.042025345266,50.4669789535551],[-121.040623630225,50.4663048046116],[-121.040878922983,50.4660909032004],[-121.040824398536,50.4662679560492]]]}},{"type":"Feature","id":"908328496","properties":{"name":"SP_25KPH_800%TR_1445_SOFT_GROUND_SEPT_15_DS","oid":"908328496","speedLimit":6.9444447},"geometry":{"type":"Polygon","coordinates":[[[-121.039333500097,50.4644966186906],[-121.039942567755,50.46470890236],[-121.039190778483,50.4666745484795],[-121.038828550182,50.4674276072713],[-121.038453782667,50.467894056147],[-121.037916850711,50.4682377363977],[-121.037181827355,50.4680256324773],[-121.038314865084,50.4667050159494],[-121.038795581912,50.4655657662484],[-121.039333500097,50.4644966186906]]]}},{"type":"Feature","id":"910445950","properties":{"name":"SP_22KPH_%80TR_1635_FLATS_SEP_15_DS","oid":"910445950","speedLimit":6.111111},"geometry":{"type":"Polygon","coordinates":[[[-121.017915113923,50.4571008425863],[-121.017759289535,50.4573815207826],[-121.016601173379,50.457135084787],[-121.01712415722,50.4561455660738],[-121.01777492833,50.454239686525],[-121.018181818775,50.4539929809058],[-121.018534325664,50.4537513981355],[-121.019043924951,50.4536550526259],[-121.018868235066,50.4543415143817],[-121.01826339411,50.4560719588234],[-121.018043464753,50.4566097680859],[-121.017988376746,50.4569254973538],[-121.017915113923,50.4571008425863]]]}},{"type":"Feature","id":"915576987","properties":{"name":"iSP_15KPH_%TR_Preventing Shifting","oid":"915576987","speedLimit":4.1666665},"geometry":{"type":"Polygon","coordinates":[[[-121.036999797419,50.444863165378],[-121.037513905187,50.4453130773379],[-121.037983209922,50.4457955238822],[-121.038527186379,50.4462188329775],[-121.039459878466,50.4468499320151],[-121.039917207547,50.4470996933688],[-121.040473159658,50.4471950502584],[-121.04122635783,50.4473227619833],[-121.041644801259,50.4475096111572],[-121.042323327708,50.4480950539272],[-121.042705985066,50.4485277998495],[-121.04284941113,50.4487948171153],[-121.04301087112,50.4493915840776],[-121.043190083255,50.4501981182223],[-121.043327591937,50.4505012650542],[-121.043689256678,50.451168673407],[-121.043859733631,50.4514889862765],[-121.044128692724,50.4522535490098],[-121.044385817053,50.4529381234002],[-121.044699579179,50.4537980430231],[-121.044738464831,50.4541946593792],[-121.044574046151,50.4550717450397],[-121.044218439681,50.456839217793],[-121.044054021001,50.4572072540446],[-121.043007771539,50.4583989006039],[-121.04190784297,50.4595372515595],[-121.041345973477,50.4600005548263],[-121.040374536628,50.4605974116632],[-121.03992608362,50.4607308753588],[-121.039136958487,50.4608070889709],[-121.038499571931,50.4608386349353],[-121.038647365586,50.461143399509],[-121.038760218511,50.4609494502462],[-121.039881280586,50.4608796177267],[-121.040709291371,50.4606317437384],[-121.041513350848,50.4600578049098],[-121.042876321128,50.4587001600705],[-121.04424520879,50.4571423646249],[-121.044430620087,50.4562900843382],[-121.044816236135,50.4544215027245],[-121.044813136554,50.4537865390816],[-121.044263242715,50.4523012723919],[-121.043835782324,50.4511858394446],[-121.043348584554,50.4503373338886],[-121.043052715462,50.4493096184949],[-121.042930141125,50.4486918208896],[-121.042242597713,50.4478871741104],[-121.04154913692,50.4473914261338],[-121.04109476653,50.4472217429975],[-121.040461184005,50.4471302507132],[-121.039920166238,50.4470196151514],[-121.03882319636,50.4463332432701],[-121.038198489908,50.4458717374942],[-121.037155340027,50.4449069342803],[-121.037379496086,50.4446972569725],[-121.036999797419,50.444863165378]]]}},{"type":"Feature","id":"917773475","properties":{"name":"SP_15KPH_%TR_1200_CORNER_Sept_15_DS","oid":"917773475","speedLimit":4.1666665},"geometry":{"type":"Polygon","coordinates":[[[-121.03710067469,50.444682427673],[-121.036926534596,50.444861997009],[-121.036630947285,50.4448204749704],[-121.036416371749,50.4448698160942],[-121.036324793221,50.4449675097219],[-121.03625617977,50.4450820098891],[-121.036243922336,50.4451448321943],[-121.036265055843,50.4452671514467],[-121.036317748719,50.445351363893],[-121.036185875638,50.4453951327952],[-121.036090774859,50.4451941733182],[-121.036164742132,50.4449315599049],[-121.036261533592,50.444791265744],[-121.036518376141,50.4447149622574],[-121.036715481311,50.4447116368994],[-121.036924843916,50.4447699654774],[-121.037095461758,50.4446835061675],[-121.03710067469,50.444682427673]]]}},{"type":"Feature","id":"921770139","properties":{"name":"SP_15KPH_%TR_HIGHMONT_SEPT 15_DS","oid":"921770139","speedLimit":4.1666665},"geometry":{"type":"Polygon","coordinates":[[[-121.001285580323,50.4285223558054],[-121.000941245057,50.4287420091874],[-121.00085304789,50.4292275114661],[-121.001085375572,50.4292734373573],[-121.001269659748,50.4287573777341],[-121.001942691485,50.428455848644],[-121.00251118281,50.4282872440022],[-121.002407065068,50.4281544094283],[-121.001285580323,50.4285223558054]]]}},{"type":"Feature","id":"926367691","properties":{"name":"SP_25KPH_%TR_24SH_EMPTY_LANE_SEP_15_DS","oid":"926367691","speedLimit":6.9444447},"geometry":{"type":"Polygon","coordinates":[[[-121.038872930546,50.4506500074221],[-121.038552405697,50.4511528554875],[-121.038555082608,50.4518115460096],[-121.038699494902,50.4530686212359],[-121.038841512066,50.4529999570854],[-121.03895182897,50.4507740342908],[-121.038872930546,50.4506500074221]]]}},{"type":"Feature","id":"929009157","properties":{"name":"iSP_22KPH_%TR_Long_Single_Lane","oid":"929009157","speedLimit":6.111111},"geometry":{"type":"Polygon","coordinates":[[[-121.005682054127,50.4380558877782],[-121.00475232073,50.4382239531727],[-121.005176822431,50.4381974401827],[-121.007937140161,50.4431703783696],[-121.008525919652,50.4445347637997],[-121.008213002866,50.4465095771225],[-121.00783499488,50.4466800691297],[-121.008936473239,50.446646815549],[-121.008825733665,50.4465928009489],[-121.009405777973,50.4448175091104],[-121.008766841626,50.4430682808893],[-121.008265132182,50.4415400541682],[-121.007261572403,50.4401560760879],[-121.006441874131,50.4389839323043],[-121.005862816052,50.4383129289698],[-121.005682054127,50.4380558877782]]]}},{"type":"Feature","id":"930976872","properties":{"name":"SP_11KPH_%80TR_21SH_SEP_15_DS","oid":"930976872","speedLimit":3.0555556},"geometry":{"type":"Polygon","coordinates":[[[-121.037271715203,50.4477306126573],[-121.037161398299,50.4478303733995],[-121.03706996066,50.4478354962484],[-121.036967392709,50.4478011641732],[-121.036139945484,50.447476447451],[-121.035397173175,50.447107512454],[-121.035695860067,50.4468786019941],[-121.037271715203,50.4477306126573]]]}},{"type":"Feature","id":"932095545","properties":{"name":"SP_35KPH_TR_80%_SEPT_15_DS","oid":"932095545","speedLimit":9.722222},"geometry":{"type":"Polygon","coordinates":[[[-121.03888730133,50.461120211877],[-121.038651310507,50.4612319259334],[-121.038510702244,50.4613890266337],[-121.039099904405,50.4617648819705],[-121.03943987208,50.462224500381],[-121.039689106567,50.4625222547404],[-121.039919180008,50.4630015556757],[-121.040003854924,50.4631490398],[-121.040399896836,50.4630262711749],[-121.040106845545,50.4630123406208],[-121.039659660548,50.4621025406268],[-121.038816856308,50.4613148801361],[-121.03888730133,50.461120211877]]]}},{"type":"Feature","id":"932114358","properties":{"name":"SP_30KPH_80%TR_23SH_LOADED_LANES_SEP_15_DS","oid":"932114358","speedLimit":8.333333},"geometry":{"type":"Polygon","coordinates":[[[-121.042100439659,50.4671395593626],[-121.041267638613,50.4667315289395],[-121.040736483149,50.4664966867599],[-121.040690975665,50.4664762852387],[-121.040379326889,50.466781139687],[-121.040595874886,50.4666717623687],[-121.041768502717,50.4671896194827],[-121.041840920199,50.4675475897856],[-121.042100439659,50.4671395593626]]]}},{"type":"Feature","id":"932118723","properties":{"name":"SP_25KPH_80%TR_1635_TO_1620_SEP_15_DS","oid":"932118723","speedLimit":6.9444447},"geometry":{"type":"Polygon","coordinates":[[[-121.018238738353,50.4539383371839],[-121.018531366973,50.4537442081721],[-121.018242683274,50.4536422005663],[-121.017622344413,50.4534680237029],[-121.01712697502,50.4534431284546],[-121.016412944281,50.4534406119674],[-121.016061846292,50.4534804263898],[-121.015777107515,50.4535127812251],[-121.015504062611,50.4536049026312],[-121.015897991172,50.4538313864783],[-121.015823883009,50.4536670958146],[-121.016253034081,50.4536049026312],[-121.016615825943,50.4536074191184],[-121.017325911762,50.453594926557],[-121.01774336896,50.4536546931277],[-121.018121799617,50.453714369824],[-121.018266071021,50.4537691034204],[-121.018238738353,50.4539383371839]]]}},{"type":"Feature","id":"932268643","properties":{"name":"SP_25KPH_80%traction_1185_1170_SEP15_DS","oid":"932268643","speedLimit":6.9444447},"geometry":{"type":"Polygon","coordinates":[[[-121.038730913382,50.4481973311566],[-121.038469139681,50.4482555698602],[-121.038949011169,50.4498291832252],[-121.039508203751,50.4497912561683],[-121.039107653358,50.4497305009775],[-121.038623836949,50.4483440962845],[-121.03885391039,50.4481594040996],[-121.038730913382,50.4481973311566]]]}},{"type":"Feature","id":"932281958","properties":{"name":"SP_25KPH_80%TR_1185-1170_22shl_SEPT_15_DS","oid":"932281958","speedLimit":6.9444447},"geometry":{"type":"Polygon","coordinates":[[[-121.037376819175,50.4481141073302],[-121.037410351005,50.4479619497297],[-121.036983735954,50.447908654126],[-121.035925792618,50.4473799221923],[-121.035464095946,50.4471780639698],[-121.035099613404,50.4474259379581],[-121.035350256791,50.447347567357],[-121.036816358582,50.4479513445337],[-121.037217895206,50.448055419254],[-121.037336242842,50.4481910399386],[-121.037376819175,50.4481141073302]]]}},{"type":"Feature","id":"932364856","properties":{"name":"SP_11KPH_xx%_1170rOUGH_SEPT_15_DS","oid":"932364856","speedLimit":3.0555556},"geometry":{"type":"Polygon","coordinates":[[[-121.03713364296,50.448098828658],[-121.037898253225,50.4481767498864],[-121.038326699847,50.4498587519497],[-121.038778252436,50.4502068360529],[-121.03872386888,50.4496639039415],[-121.038332899009,50.4483822030906],[-121.038161717607,50.4479472103048],[-121.03713364296,50.448098828658]]]}},{"type":"Feature","id":"932654885","properties":{"name":"SP_11KPH_%TX_LOTS OF MUD_SEPT_15_DS","oid":"932654885","speedLimit":3.0555556},"geometry":{"type":"Polygon","coordinates":[[[-121.036367201124,50.4453590032292],[-121.036059638159,50.4454650551893],[-121.036264633172,50.4454605614622],[-121.03801138793,50.4473913362592],[-121.038177638181,50.4473145833999],[-121.036367201124,50.4453590032292]]]}},{"type":"Feature","id":"933252378","properties":{"name":"SP_20KPH_%TR_1615_ROUGH_SECTION_SEP_15_DS","oid":"933252378","speedLimit":5.5555553},"geometry":{"type":"Polygon","coordinates":[[[-121.007363717684,50.4314118223476],[-121.007546170291,50.4321456479873],[-121.007054886709,50.4322076614216],[-121.007400208206,50.432123898348],[-121.007259177272,50.4314847106016],[-121.006911319755,50.4314552317516],[-121.007363717684,50.4314118223476]]]}},{"type":"Feature","id":"933252549","properties":{"name":"SP_35KPH_%TR_1590_ROUGH_SEP_15_DS","oid":"933252549","speedLimit":9.722222},"geometry":{"type":"Polygon","coordinates":[[[-121.004364309551,50.4363928492433],[-121.004780921409,50.4364500094524],[-121.004885180041,50.4362112127929],[-121.005083130552,50.4359569577121],[-121.004585647809,50.4358323915962],[-121.004799659785,50.4359808643404],[-121.004628478382,50.4363681337441],[-121.004364309551,50.4363928492433]]]}},{"type":"Feature","id":"933274269","properties":{"name":"SP_25KPH_%TR_21SH_EMPTY_LANE_SEP_15_DS","oid":"933274269","speedLimit":6.9444447},"geometry":{"type":"Polygon","coordinates":[[[-121.039296586906,50.4524184687953],[-121.039546666733,50.4523080129826],[-121.039514684693,50.4511379363134],[-121.039187538012,50.4506000371764],[-121.039290246854,50.4512177449072],[-121.039296586906,50.4524184687953]]]}},{"type":"Feature","id":"933371104","properties":{"name":"SP_25KPH_1590_HMT_INTERSECT_SEPT_15_DS","oid":"933371104","speedLimit":6.9444447},"geometry":{"type":"Polygon","coordinates":[[[-121.006361848586,50.4374887794149],[-121.005864084063,50.4376812008104],[-121.006070065306,50.4377779058182],[-121.006389603925,50.4379883919968],[-121.006555431506,50.4382643068423],[-121.0070889821,50.4381536712805],[-121.006747041965,50.4380709867014],[-121.006118672371,50.4376596309202],[-121.006361848586,50.4374887794149]]]}},{"type":"Feature","id":"934051091","properties":{"name":"iSP_17KPH_%TR_Ramp_Permission Blocker","oid":"934051091","speedLimit":4.7222223},"geometry":{"type":"Polygon","coordinates":[[[-121.039514825583,50.4610295284636],[-121.039466782078,50.460771498652],[-121.039019315301,50.4607920799223],[-121.039078207339,50.4610448071358],[-121.039165700056,50.4608997496242],[-121.039381684492,50.460886627941],[-121.039514825583,50.4610295284636]]]}},{"type":"Feature","id":"934181877","properties":{"name":"SP_35KPH_TR80%_1590_7_SEPT 15_DS","oid":"934181877","speedLimit":9.722222},"geometry":{"type":"Polygon","coordinates":[[[-121.013996961817,50.4497857738212],[-121.01332674788,50.4498806813381],[-121.013675309848,50.4515052535687],[-121.014404274932,50.4513827545673],[-121.013985831503,50.4512794887179],[-121.013708559898,50.4500004841032],[-121.013996961817,50.4497857738212]]]}},{"type":"Feature","id":"934182014","properties":{"name":"SP_35KPH_TR80%_1590_8_SEPT 15_DS","oid":"934182014","speedLimit":9.722222},"geometry":{"type":"Polygon","coordinates":[[[-121.014415687026,50.4514339830565],[-121.013701233616,50.4515371590313],[-121.013685876601,50.4519280234168],[-121.013479754467,50.4525263182463],[-121.013430161172,50.4528464513668],[-121.013599933674,50.4535848606082],[-121.01423520688,50.4534697313192],[-121.013764493245,50.4534029545341],[-121.013669533356,50.4530021140745],[-121.013678550319,50.4527109205567],[-121.01390918732,50.4520274246608],[-121.013972024279,50.4516617251473],[-121.014415687026,50.4514339830565]]]}},{"type":"Feature","id":"934183529","properties":{"name":"SP_35KPH_80TR%_1590_10_SEPT_15_DS","oid":"934183529","speedLimit":9.722222},"geometry":{"type":"Polygon","coordinates":[[[-121.013537942055,50.4536271915177],[-121.012710072161,50.4537864492071],[-121.013353939659,50.4537445676703],[-121.013564147603,50.454211196295],[-121.013638678436,50.4545352838954],[-121.013481022478,50.4548454409416],[-121.013327734111,50.4550215051704],[-121.012718807343,50.4549935541877],[-121.013402124054,50.4552114999533],[-121.013607964407,50.4550102708526],[-121.013796334395,50.4548063455156],[-121.013853253972,50.4546554461587],[-121.013853253972,50.4544878301369],[-121.013796334395,50.4542614361643],[-121.01365178121,50.4539149698029],[-121.013567669855,50.4537032253807],[-121.013537942055,50.4536271915177]]]}},{"type":"Feature","id":"934183713","properties":{"name":"SP_35KPH_TR80%_1590_11_SEPT_15_DS","oid":"934183713","speedLimit":9.722222},"geometry":{"type":"Polygon","coordinates":[[[-121.013506805356,50.4535868378481],[-121.013322943849,50.4528129281624],[-121.013338723534,50.4526386614245],[-121.013527797972,50.4521864127265],[-121.013606555507,50.4519016003013],[-121.013588803361,50.4515181056283],[-121.012906754661,50.4515580997997],[-121.013422694,50.4516135523925],[-121.013374086935,50.4518579212736],[-121.013265178931,50.4522239802853],[-121.013110199884,50.4526596920674],[-121.013153171347,50.4530696098559],[-121.013276591025,50.453477820028],[-121.012797001317,50.4536845314758],[-121.013506805356,50.4535868378481]]]}},{"type":"Feature","id":"934183783","properties":{"name":"SP_35KPH_TR80%_1590_12_SEPT15_DS","oid":"934183783","speedLimit":9.722222},"geometry":{"type":"Polygon","coordinates":[[[-121.012906754661,50.451540754013],[-121.013592466502,50.4515035459524],[-121.013248553906,50.449878524349],[-121.012519025262,50.4500003043542],[-121.01293718691,50.4501041094508],[-121.013211358935,50.4513831140654],[-121.012906754661,50.451540754013]]]}},{"type":"Feature","id":"934186247","properties":{"name":"SP_35KPH_TR80%_1590_18_SEPT 15_DS","oid":"934186247","speedLimit":9.722222},"geometry":{"type":"Polygon","coordinates":[[[-121.014232952639,50.4535429790714],[-121.013631211264,50.4536291687576],[-121.013824653294,50.4541042455894],[-121.01394398716,50.4544291420607],[-121.013973010509,50.4546409763574],[-121.013847195701,50.4548795033932],[-121.013502296874,50.4552393610615],[-121.014021335794,50.4553977200054],[-121.013904819728,50.4551693487929],[-121.013969770038,50.4550645550763],[-121.014111646312,50.4548692576954],[-121.014221258766,50.4546882503668],[-121.014218018295,50.4545113772671],[-121.013905242398,50.453715538193],[-121.014232952639,50.4535429790714]]]}},{"type":"Feature","id":"934773555","properties":{"name":"SP_10KPH_NEW RAMP_SEPT 15_DS","oid":"934773555","speedLimit":2.7777777},"geometry":{"type":"Polygon","coordinates":[[[-121.035777012732,50.4443190648976],[-121.036279003957,50.4444734693617],[-121.035933964241,50.4447855137733],[-121.034510270352,50.4446689464916],[-121.034742034474,50.4441516286249],[-121.035777012732,50.4443190648976]]]}},{"type":"Feature","id":"934859271","properties":{"name":"SP_30KPH_80%TR_23SH_LOADED_LANES2_SEP_15_DS","oid":"934859271","speedLimit":8.333333},"geometry":{"type":"Polygon","coordinates":[[[-121.040501337667,50.4654083060499],[-121.04044723589,50.4651299645917],[-121.039930592101,50.4634421206831],[-121.03947269946,50.4634990112685],[-121.039722497507,50.4635596765847],[-121.040037809424,50.4645693271955],[-121.040279858519,50.4653840399234],[-121.040005545604,50.4654674434989],[-121.040501337667,50.4654083060499]]]}},{"type":"Feature","id":"934859421","properties":{"name":"SP_30KPH_80%TR_23SH_LOADED_LANES1_SEP_15_DS","oid":"934859421","speedLimit":8.333333},"geometry":{"type":"Polygon","coordinates":[[[-121.040690975665,50.4664762852387],[-121.040513313321,50.4663965665195],[-121.040356361812,50.4663119047005],[-121.040362420084,50.4660655585794],[-121.040452871492,50.4657767916743],[-121.040519230702,50.4655112124011],[-121.040499646986,50.4654082161754],[-121.040015407907,50.4654842500384],[-121.040286057681,50.4655168744973],[-121.040247735589,50.4657152276126],[-121.040102900624,50.4659577091284],[-121.039982157857,50.4662195136707],[-121.040163201563,50.4664851828184],[-121.040472596098,50.4666103780562],[-121.040355234692,50.4667715231109],[-121.040690975665,50.4664762852387]]]}},{"type":"Feature","id":"934860743","properties":{"name":"SP_30KPH_TR80%_CRUSHER YARD EMPTY1_SEPT_15_DS","oid":"934860743","speedLimit":8.333333},"geometry":{"type":"Polygon","coordinates":[[[-121.037497702832,50.4624814516981],[-121.037863594275,50.4624687793876],[-121.037921922753,50.4626182407518],[-121.037908960869,50.4632758527795],[-121.03775017779,50.463469442544],[-121.037565752723,50.4634603652153],[-121.037939111338,50.4636153089266],[-121.037981801021,50.4635587778393],[-121.038212156242,50.4632685729415],[-121.038185809804,50.4627770490684],[-121.038039988609,50.4623453816407],[-121.037497702832,50.4624814516981]]]}},{"type":"Feature","id":"934860935","properties":{"name":"SP_30KPH_TR80%_CRUSHER YARD EMPTY2_SEPT_15_DS","oid":"934860935","speedLimit":8.333333},"geometry":{"type":"Polygon","coordinates":[[[-121.037548705028,50.4634730375258],[-121.03768480481,50.4636376876877],[-121.037079400293,50.4639811881892],[-121.036453707611,50.4642043466783],[-121.036238145844,50.4641028783198],[-121.036400732954,50.4643261266834],[-121.036722384923,50.4642313989156],[-121.037432752522,50.4639640221516],[-121.03784880082,50.4637350218172],[-121.037939111338,50.4636153089266],[-121.037548705028,50.4634730375258]]]}},{"type":"Feature","id":"935505135","properties":{"name":"SP_20KPH_%TR_1590_WATERHOLES_SEPT_15_DS","oid":"935505135","speedLimit":5.5555553},"geometry":{"type":"Polygon","coordinates":[[[-121.013404800964,50.4441735580133],[-121.012720920694,50.4442018684942],[-121.01296959162,50.4452613096014],[-121.013111749674,50.4462074189106],[-121.013280395056,50.446989237556],[-121.013706728327,50.4470969072579],[-121.013795629945,50.4467739880266],[-121.013440305255,50.4437486311762],[-121.013387048819,50.4441622338209],[-121.013404800964,50.4441735580133]]]}},{"type":"Feature","id":"936169885","properties":{"name":"SP_10KPH_%TR_24shl_loadplan_Sept_15_DS","oid":"936169885","speedLimit":2.7777777},"geometry":{"type":"Polygon","coordinates":[[[-121.039174717018,50.453647952537],[-121.038380238064,50.4537581387262],[-121.038964509074,50.4546638044912],[-121.039435645379,50.4547590715063],[-121.039516516264,50.4544047860596],[-121.039379712032,50.4538956467762],[-121.039282779682,50.4537247053964],[-121.039174717018,50.453647952537]]]}},{"type":"Feature","id":"936513295","properties":{"name":"SP_30KPH_%80TR_1635_FLATS_SEP_15_DS","oid":"936513295","speedLimit":8.333333},"geometry":{"type":"Polygon","coordinates":[[[-121.017435524215,50.4574536900402],[-121.015228481686,50.4585168160037],[-121.014499657492,50.4578795156227],[-121.016653443585,50.4569266657229],[-121.017435524215,50.4574536900402]]]}},{"type":"Feature","id":"937786749","properties":{"name":"SP_30KPH_%TR_24SH_Loaded_LANE_SEP_15_DS","oid":"937786749","speedLimit":8.333333},"geometry":{"type":"Polygon","coordinates":[[[-121.038520846327,50.4505393718602],[-121.038273866081,50.4509802064913],[-121.038255550375,50.4516606466528],[-121.038258086396,50.4529730845972],[-121.038539302923,50.4526663427836],[-121.03846575832,50.4516539959366],[-121.038520846327,50.4505393718602]]]}},{"type":"Feature","id":"937793793","properties":{"name":"SP_10KPH_%TR_21SH_LOAD_AREA_SEP_15_DS","oid":"937793793","speedLimit":2.7777777},"geometry":{"type":"Polygon","coordinates":[[[-121.039543567152,50.4523447716704],[-121.038963100173,50.4525983976294],[-121.039258123924,50.4533286282874],[-121.039710240073,50.4532447753393],[-121.039546666733,50.4524266473787],[-121.039543567152,50.4523447716704]]]}},{"type":"Feature","id":"938065675","properties":{"name":"SP_8KPH_CR01_YARD_RUTIING_SEP_15_DS","oid":"938065675","speedLimit":2.2222223},"geometry":{"type":"Polygon","coordinates":[[[-121.034291045445,50.4648010237661],[-121.034100843886,50.464857824477],[-121.033942624368,50.4649068061026],[-121.033831180343,50.465004769354],[-121.034046037659,50.4650686701537],[-121.033966012115,50.4650111504465],[-121.034244410841,50.4648879324487],[-121.034321055024,50.464937183698],[-121.034291045445,50.4648010237661]]]}},{"type":"Feature","id":"938217281","properties":{"name":"SP_20KPH_CRUSHER_YARD_WEATHER_SEPT_15_DS","oid":"938217281","speedLimit":5.5555553},"geometry":{"type":"Polygon","coordinates":[[[-121.036885394704,50.4639823565582],[-121.037244100754,50.4642843350211],[-121.034293863246,50.4654989894633],[-121.032881158781,50.4644541979065],[-121.036885394704,50.4639823565582]]]}},{"type":"Feature","id":"938718470","properties":{"name":"SP_35KPH_80%TR_1590 TO MAIN INTERSECTION_SEPT15_DS","oid":"938718470","speedLimit":9.722222},"geometry":{"type":"Polygon","coordinates":[[[-121.013946804961,50.455412729054],[-121.013633324615,50.4553367850656],[-121.012974663662,50.4558657866229],[-121.012554106882,50.4562530560266],[-121.012316002709,50.4565593484676],[-121.012411244379,50.4565543154932],[-121.012673158969,50.4563745664081],[-121.012554106882,50.4563518281489],[-121.013653190111,50.4554431066494],[-121.013915104702,50.4554228848773],[-121.013946804961,50.455412729054]]]}},{"type":"Feature","id":"938812881","properties":{"name":"SP_35KPH_TR_1460Ramp_80%_SEPT_15_DS","oid":"938812881","speedLimit":9.722222},"geometry":{"type":"Polygon","coordinates":[[[-121.040520076043,50.4630206989532],[-121.040040909005,50.4631723173065],[-121.040240831977,50.4637667475307],[-121.040335228306,50.4642769653086],[-121.040422016572,50.464613815094],[-121.040522048503,50.46507037777],[-121.040614331482,50.4655596547795],[-121.041059544019,50.4656534838019],[-121.040769028749,50.4655042920613],[-121.040753953515,50.4651072263325],[-121.040369746366,50.4632455650586],[-121.040520076043,50.4630206989532]]]}}]}