{"type":"FeatureCollection","features":[{"type":"Feature","id":"702602533","properties":{"name":"iSP_4KPH_%TR_CR01_SLOW BUMP","oid":"702602533","speedLimit":1.1111112},"geometry":{"type":"Polygon","coordinates":[[[-121.033359787244,50.4648076053249],[-121.033654522777,50.4646905884302],[-121.033697915963,50.4647313016816],[-121.033370071993,50.4648694391371],[-121.033359787244,50.4648076053249]]]}},{"type":"Feature","id":"707947583","properties":{"name":"iSP_25KPH_%TR_Permission Gate 1 from west dump_Jun","oid":"707947583","speedLimit":6.9444447},"geometry":{"type":"Polygon","coordinates":[[[-121.038629241548,50.4619777197931],[-121.038855928677,50.4617992285851],[-121.038140927324,50.4614080038981],[-121.037993277784,50.4616707077253],[-121.038192773728,50.4615666327914],[-121.03866770369,50.4618457836937],[-121.038629241548,50.4619777197931]]]}},{"type":"Feature","id":"742345972","properties":{"name":"iSP_4KPH_%TR_CR01_PITSIDE_SLOW BUMP","oid":"742345972","speedLimit":1.1111112},"geometry":{"type":"Polygon","coordinates":[[[-121.033399658256,50.4648825608472],[-121.033706932729,50.4647440638928],[-121.033757088489,50.4647761491704],[-121.033475596331,50.4649180613644],[-121.033399658256,50.4648825608472]]]}},{"type":"Feature","id":"776427243","properties":{"name":"iSP_7KPH_%TR_CR1_PermissionBlocker_DO_NOT_DELETE","oid":"776427243","speedLimit":1.9444444},"geometry":{"type":"Polygon","coordinates":[[[-121.034100852686,50.4652125808451],[-121.03405238757,50.4652328925334],[-121.034031254525,50.4652743247826],[-121.0341169138,50.4652252531816],[-121.034100852686,50.4652125808451]]]}},{"type":"Feature","id":"794004438","properties":{"name":"iSP_11KPH_%TR_LOWER_FUEL_BAY","oid":"794004438","speedLimit":3.0555556},"geometry":{"type":"Polygon","coordinates":[[[-121.036777564154,50.4606952074375],[-121.036779677458,50.4607250458469],[-121.036749950308,50.4606705817623],[-121.037126118508,50.4605988617301],[-121.037536099579,50.4605558117358],[-121.037543848362,50.4605811564088],[-121.03694536053,50.4606500004498],[-121.036777564154,50.4606952074375]]]}},{"type":"Feature","id":"801543391","properties":{"name":"iSP_4KPH_%TR_CR1_PermissionBlocker_DO_NOT_DELETE_","oid":"801543391","speedLimit":1.1111112},"geometry":{"type":"Polygon","coordinates":[[[-121.033156346466,50.4645230619389],[-121.033155501144,50.464473630839],[-121.03317705685,50.4644315694667],[-121.033109008445,50.4644591610079],[-121.033156346466,50.4645230619389]]]}},{"type":"Feature","id":"806473874","properties":{"name":"iSP_4KPH_%TR_Permission Blocker - DO NOT DELETE","oid":"806473874","speedLimit":1.1111112},"geometry":{"type":"Polygon","coordinates":[[[-121.022720567117,50.4815448858756],[-121.02268745868,50.4815425491327],[-121.022679850784,50.4815712191706],[-121.022701970037,50.4815722976674],[-121.022706055759,50.4815482112405],[-121.022720567117,50.4815448858756]]]}},{"type":"Feature","id":"824566967","properties":{"name":"iSP_4Cr_3KPH","oid":"824566967","speedLimit":0.8333333},"geometry":{"type":"Polygon","coordinates":[[[-121.023303416495,50.4810680105737],[-121.023283269659,50.4810680105737],[-121.023280592807,50.4811861059651],[-121.023305670687,50.4811853869672],[-121.023303416495,50.4810680105737]]]}},{"type":"Feature","id":"826307302","properties":{"name":"iSP_4KPH_TR%_CRUSHER POCKETS","oid":"826307302","speedLimit":1.1111112},"geometry":{"type":"Polygon","coordinates":[[[-121.023298626338,50.4813211876799],[-121.023338074689,50.4814768507072],[-121.023542783451,50.481437395702],[-121.023461773445,50.4811885325827],[-121.023053483017,50.4811892515805],[-121.023058836722,50.4813599236872],[-121.02328369232,50.4813259510404],[-121.023298626338,50.4813211876799]]]}},{"type":"Feature","id":"835348611","properties":{"name":"SP_35KPH_%TR_switchback to 1 gate_SEP_6_NS","oid":"835348611","speedLimit":9.722222},"geometry":{"type":"Polygon","coordinates":[[[-121.03992103414,50.4634031329647],[-121.039548810776,50.4634575970493],[-121.039801984654,50.4633739236784],[-121.039545711263,50.4629224829242],[-121.039365798607,50.462582037458],[-121.039179686925,50.4622609150581],[-121.038987517103,50.4620177140466],[-121.038746600391,50.4618367063463],[-121.038563588222,50.461729755421],[-121.038077387302,50.4614745111961],[-121.038040052256,50.4615166624431],[-121.037959464912,50.4615571060703],[-121.038034275891,50.4613735818776],[-121.038145717481,50.4613853554668],[-121.03848426886,50.4615701379057],[-121.038868044956,50.4617905107365],[-121.039055565508,50.4619259519503],[-121.039240127433,50.4621302372049],[-121.039454275622,50.4625353025999],[-121.039582341874,50.4627532488131],[-121.039759295903,50.4630607102545],[-121.03986298871,50.4632591536519],[-121.039944984924,50.4633235938312],[-121.03992103414,50.4634031329647]]]}},{"type":"Feature","id":"859384545","properties":{"name":"SP_30KPH_MAINT_CREW_L1590_ROUGH_SEP_6_NS","oid":"859384545","speedLimit":8.333333},"geometry":{"type":"Polygon","coordinates":[[[-121.013973740717,50.4518290656104],[-121.013917808591,50.451152758289],[-121.013838348342,50.449761407639],[-121.012656729358,50.4498955007318],[-121.013142507617,50.4500384914226],[-121.013401880522,50.4517965309592],[-121.013225349153,50.4523052219145],[-121.012545569542,50.4524636710583],[-121.013761424059,50.4524428201216],[-121.013973740717,50.4518290656104]]]}},{"type":"Feature","id":"875953603","properties":{"name":"SP_35_KPH_%TR_CR01_YARD_LOADED_Sept_06_NS","oid":"875953603","speedLimit":9.722222},"geometry":{"type":"Polygon","coordinates":[[[-121.038111622835,50.4622574099438],[-121.038365501148,50.4628957002555],[-121.038316472484,50.4633430067722],[-121.038102324295,50.4637137400215],[-121.037626267237,50.4639747362289],[-121.037929033327,50.4642047256556],[-121.037829708016,50.4640210217134],[-121.038275756151,50.4637266819822],[-121.038557107422,50.4631641560653],[-121.038356625269,50.4621658275969],[-121.038111622835,50.4622574099438]]]}},{"type":"Feature","id":"878230085","properties":{"name":"SP_35KPH_TR%_PUNCH_OUT_L1590_DMP_Sep 6_NS","oid":"878230085","speedLimit":9.722222},"geometry":{"type":"Polygon","coordinates":[[[-121.013763396477,50.4533972897233],[-121.013625890798,50.4529074724607],[-121.013786220165,50.4525126527846],[-121.013098832658,50.4524615140649],[-121.013066428656,50.4528627148466],[-121.013205906752,50.4533671816897],[-121.013611238553,50.4545817487516],[-121.013329887282,50.4549543693701],[-121.013045154724,50.454949785759],[-121.013784247748,50.4551886727836],[-121.014084336985,50.4546987656463],[-121.01399261957,50.4541357903558],[-121.013763396477,50.4533972897233]]]}},{"type":"Feature","id":"883050998","properties":{"name":"iSP_22kph_%TR_4CR_Brake_Temp_CTRL_NOREMOVE","oid":"883050998","speedLimit":6.111111},"geometry":{"type":"Polygon","coordinates":[[[-121.031800027643,50.4745587435896],[-121.032189298331,50.4743121273385],[-121.032490937325,50.4745744716669],[-121.032792576319,50.4748018547264],[-121.03297037567,50.4748842698512],[-121.033179170154,50.4749344199489],[-121.033463057391,50.4749592253736],[-121.03366692083,50.4749216577376],[-121.03382809552,50.474862250543],[-121.033919249387,50.474810213076],[-121.034008571723,50.4747470311429],[-121.034059009257,50.4746578754136],[-121.034053232891,50.4745476889982],[-121.034057036839,50.4744833386936],[-121.033994905687,50.4743793536344],[-121.033876560636,50.474259280999],[-121.033509690976,50.4739373497266],[-121.03306138865,50.4735596961233],[-121.03294811553,50.4734251536569],[-121.032823148791,50.473220598778],[-121.03260632375,50.4728146346358],[-121.032252838352,50.4722086992258],[-121.032487837812,50.4721558528862],[-121.03243077859,50.4722053738609],[-121.032903313475,50.4730485785504],[-121.033042509797,50.4733093051337],[-121.033250318072,50.4735466642879],[-121.033743281566,50.4739613462787],[-121.034098316721,50.4742708748388],[-121.034203700171,50.4743941829644],[-121.034256391896,50.4744614092602],[-121.034263436245,50.474592536487],[-121.034238499252,50.4746785466009],[-121.034183975996,50.4747913393834],[-121.034086482215,50.4748755520026],[-121.033973631756,50.4749373858149],[-121.033791042248,50.4750158464516],[-121.033531528456,50.4750641091801],[-121.033263561447,50.4750677940439],[-121.033071955173,50.4750260022958],[-121.032808214772,50.474916265254],[-121.032657465719,50.4748348387513],[-121.032495868369,50.4747050596453],[-121.032145341597,50.4744127870329],[-121.031800027643,50.4745587435896]]]}},{"type":"Feature","id":"883053336","properties":{"name":"iSP_22kph_%TR_Brake_Temp_CTRL_NOREMOVE","oid":"883053336","speedLimit":6.111111},"geometry":{"type":"Polygon","coordinates":[[[-121.03246656388,50.4721449780443],[-121.032251711257,50.4722252361756],[-121.031489090109,50.4710080627466],[-121.030817200168,50.4699230950412],[-121.030661942732,50.4696599418403],[-121.030597134727,50.4694574540802],[-121.030550782916,50.4692564941904],[-121.030597134727,50.4689726698023],[-121.030723369449,50.4686240457359],[-121.030885107686,50.4683752724913],[-121.031089534674,50.4680975595846],[-121.031688867827,50.467536291914],[-121.032432751008,50.4668934179911],[-121.032789054145,50.4665559383909],[-121.033148175022,50.4662221436545],[-121.033485035757,50.4658704638474],[-121.033780053064,50.4660338561012],[-121.03358802413,50.4659930529751],[-121.032919938137,50.4666518347247],[-121.032555181781,50.4669910219447],[-121.032179154469,50.4673074708588],[-121.031774949763,50.4676681381386],[-121.031382579563,50.468034197902],[-121.031147720991,50.468286116762],[-121.03100936999,50.4684696409548],[-121.030905677183,50.4686542436442],[-121.03082917556,50.4688527769163],[-121.030768312391,50.4691910653891],[-121.030777047383,50.4694003836285],[-121.03087425939,50.4696301034309],[-121.031028248843,50.4699348686305],[-121.03133115582,50.4704035653322],[-121.031531215312,50.4707107571494],[-121.031750858092,50.4710826587701],[-121.03214660958,50.4717285884337],[-121.032381890813,50.4721448881695],[-121.03246656388,50.4721449780443]]]}},{"type":"Feature","id":"883059532","properties":{"name":"iSP_22kph_%TR_Brake_CTRL_NOREMOVE","oid":"883059532","speedLimit":6.111111},"geometry":{"type":"Polygon","coordinates":[[[-121.027262903789,50.4773217623245],[-121.027030722069,50.4772095986651],[-121.027335178803,50.4769438390971],[-121.027717123367,50.4766322434183],[-121.028033837267,50.4763225351087],[-121.028191067121,50.4761685797012],[-121.028621899463,50.4756921537729],[-121.028907900004,50.4753255547612],[-121.029264484916,50.4748874154666],[-121.029473279399,50.4746565272927],[-121.029692076857,50.4745402293959],[-121.029802109578,50.4744880121794],[-121.029952858632,50.4745924466123],[-121.029789288864,50.474541847141],[-121.029556684483,50.4747913393834],[-121.029252509523,50.4751728575998],[-121.029073583077,50.4754778025488],[-121.02885379941,50.4757745688977],[-121.028696710442,50.4759745401654],[-121.028409582806,50.476270407767],[-121.028042290485,50.476569780483],[-121.027244588483,50.4772192152609],[-121.027262903789,50.4773217623245]]]}},{"type":"Feature","id":"884401102","properties":{"name":"SP_30KPH_MAIN INT_LIMIT_POLICY_SEPT_6_NS","oid":"884401102","speedLimit":8.333333},"geometry":{"type":"Polygon","coordinates":[[[-121.036993121212,50.461101081705],[-121.037109212072,50.4611075526854],[-121.038295480326,50.4609918839116],[-121.038279137438,50.4603977220909],[-121.038120639601,50.4605656080811],[-121.037033555771,50.460708239273],[-121.036745864586,50.4605375671662],[-121.036993121212,50.461101081705]]]}},{"type":"Feature","id":"891249991","properties":{"name":"SP_25KPH_TR%_1590_rough section_ #1_SEPT 6_NS","oid":"891249991","speedLimit":6.9444447},"geometry":{"type":"Polygon","coordinates":[[[-121.012957945692,50.4498604495882],[-121.013848492204,50.449748555553],[-121.013379902155,50.4450038889606],[-121.011853532765,50.4421436257711],[-121.007783871864,50.4388898011516],[-121.00673271421,50.4393238960834],[-121.010931145798,50.442766727254],[-121.011093870244,50.4430955788804],[-121.011457358616,50.4435196977175],[-121.011775340499,50.4445103868342],[-121.012957945692,50.4498604495882]]]}},{"type":"Feature","id":"901482363","properties":{"name":"SP_25KPH_1200-1185_%TRAC_RAMP_SEPT_6_NS","oid":"901482363","speedLimit":6.9444447},"geometry":{"type":"Polygon","coordinates":[[[-121.036667249659,50.4451088626419],[-121.036262058745,50.4451192881102],[-121.039069231543,50.4482663415539],[-121.039088110397,50.4482636453121],[-121.038804504934,50.4476150194067],[-121.038216583625,50.4469310727336],[-121.036577363775,50.4451794143026],[-121.036695004392,50.4451088626419],[-121.036667249659,50.4451088626419]]]}},{"type":"Feature","id":"903864124","properties":{"name":"SP_15KPH_%TR_OLD_GARBAGEDUMP_SEP_6_NS","oid":"903864124","speedLimit":4.1666665},"geometry":{"type":"Polygon","coordinates":[[[-121.04248574047,50.4669867978326],[-121.042132536846,50.4673285015449],[-121.042024053882,50.4669788888566],[-121.041686911373,50.4668095648707],[-121.041835406235,50.4667100735478],[-121.04248574047,50.4669867978326]]]}},{"type":"Feature","id":"908328496","properties":{"name":"SP_15KPH_%TR_1445_SOFT_GROUND_SEPT_6_NS","oid":"908328496","speedLimit":4.1666665},"geometry":{"type":"Polygon","coordinates":[[[-121.039332267509,50.4644965488944],[-121.039941321863,50.4647088329998],[-121.039189549012,50.4666744831559],[-121.038827328623,50.4674275434942],[-121.038452569293,50.4678939933278],[-121.037915649065,50.4682376742842],[-121.037180641764,50.4680255699282],[-121.038313654745,50.4667049506884],[-121.038794361073,50.4655656986478],[-121.039332267509,50.4644965488944]]]}},{"type":"Feature","id":"910445950","properties":{"name":"SP_22KPH_%TR_1635_FLATS_SEP_6_NS","oid":"910445950","speedLimit":6.111111},"geometry":{"type":"Polygon","coordinates":[[[-121.018917605242,50.4576032472015],[-121.015249613081,50.4587002581204],[-121.014498967326,50.4578794322379],[-121.017481826171,50.4564155526831],[-121.017774166626,50.4542395956656],[-121.018441970845,50.4540098758631],[-121.019220793993,50.4539288088593],[-121.019246153647,50.4568505463622],[-121.019158803728,50.457072896437],[-121.019196843209,50.4574048936789],[-121.018917605242,50.4576032472015]]]}},{"type":"Feature","id":"917773475","properties":{"name":"SP_15KPH_%TR_1200_CORNER_Sept_6_NS","oid":"917773475","speedLimit":4.1666665},"geometry":{"type":"Polygon","coordinates":[[[-121.037099490871,50.4446823171871],[-121.036925354581,50.4448618868918],[-121.036629773726,50.4448203647679],[-121.036415202877,50.4448697059931],[-121.036323626349,50.4449673998214],[-121.036255014397,50.4450819002237],[-121.036242757231,50.445144722658],[-121.036263890276,50.4452670421615],[-121.036316582001,50.4453512547808],[-121.036184711801,50.4453950237729],[-121.036089613099,50.4451940638831],[-121.036163578756,50.4449314499306],[-121.036260368101,50.4447911554816],[-121.036517205041,50.4447148518383],[-121.036714305906,50.4447115264734],[-121.036923663938,50.4447698551713],[-121.037094278053,50.4446833956838],[-121.037099490871,50.4446823171871]]]}},{"type":"Feature","id":"921770139","properties":{"name":"SP_30KPH_%TR_HIGHMONT_SEPT 6_NS","oid":"921770139","speedLimit":8.333333},"geometry":{"type":"Polygon","coordinates":[[[-121.002514276673,50.4281367394292],[-121.002137122265,50.4281568713681],[-121.001469458933,50.4282384776203],[-121.001504962448,50.4285897080538],[-121.002055689598,50.4286073235003],[-121.002474264774,50.428580091458],[-121.002750966776,50.4285620266378],[-121.002514276673,50.4281367394292]]]}},{"type":"Feature","id":"922262468","properties":{"name":"SP_20kph_HMT_DUMP_SEP_6_NS","oid":"922262468","speedLimit":5.5555553},"geometry":{"type":"Polygon","coordinates":[[[-121.012502599017,50.4364262450074],[-121.012482733955,50.4374169341241],[-121.014763271275,50.4387147251832],[-121.017333049535,50.4379496216315],[-121.01652435835,50.4359055108387],[-121.01477228804,50.4353085629014],[-121.013004156617,50.4354271975411],[-121.012502599017,50.4364262450074]]]}},{"type":"Feature","id":"925542039","properties":{"name":"SP_12KPH_DRAINAGE DITCHSEPT_6_NS","oid":"925542039","speedLimit":3.3333333},"geometry":{"type":"Polygon","coordinates":[[[-121.018172454079,50.4555311853685],[-121.018489167979,50.4557204615438],[-121.018469162029,50.4558354113197],[-121.018125116058,50.4556368780476],[-121.018172454079,50.4555311853685]]]}},{"type":"Feature","id":"926367691","properties":{"name":"SP_20KPH_%TR_24SH_SEP_6_NS","oid":"926367691","speedLimit":5.5555553},"geometry":{"type":"Polygon","coordinates":[[[-121.03855485323,50.4504033828146],[-121.03807471045,50.4496785431406],[-121.037543284814,50.4498593710915],[-121.038245888114,50.4520112416822],[-121.038397482489,50.4531300921597],[-121.038777877298,50.4530966587612],[-121.038843389737,50.4508307371419],[-121.03855485323,50.4504033828146]]]}},{"type":"Feature","id":"927549571","properties":{"name":"SP_40_KPH_TR%_CRUSHER YARD EMPTY_SEPT_6_NS","oid":"927549571","speedLimit":11.111111},"geometry":{"type":"Polygon","coordinates":[[[-121.037755601472,50.461928019069],[-121.037449172321,50.4612605194709],[-121.036779254797,50.4614643553519],[-121.037247703959,50.4615090230913],[-121.037920720996,50.4626181670983],[-121.037947771294,50.4632580751551],[-121.037501864046,50.4637411518132],[-121.037078216939,50.4639811173346],[-121.036452537923,50.4642042762819],[-121.036236980865,50.464102807715],[-121.036399564424,50.4643260565371],[-121.036721209367,50.4642313285748],[-121.03743156145,50.4639639512617],[-121.037847600661,50.4637349504571],[-121.037980597957,50.4635587061173],[-121.038210948146,50.4632685006235],[-121.038184602284,50.462776975741],[-121.038027090656,50.4623106157822],[-121.037755601472,50.461928019069]]]}},{"type":"Feature","id":"929009157","properties":{"name":"iSP_22kph_Long_Single_Lane_Aug30","oid":"929009157","speedLimit":6.111111},"geometry":{"type":"Polygon","coordinates":[[[-121.005870204204,50.4378879675688],[-121.004810875106,50.438106902404],[-121.005176335896,50.4381973163794],[-121.007936593335,50.4431702647786],[-121.008525359966,50.4445346530105],[-121.008212450014,50.4465094703888],[-121.007834450285,50.4466799627461],[-121.008935904585,50.4466467090971],[-121.00882516743,50.4465926943861],[-121.009405199069,50.4448173989019],[-121.008766276678,50.4430681670886],[-121.008264578192,50.4415399372292],[-121.007261040333,50.4401559563068],[-121.006441359964,50.4389838101161],[-121.00569113687,50.438021251789],[-121.005870204204,50.4378879675688]]]}},{"type":"Feature","id":"930116666","properties":{"name":"SP_15KPH_9023 Rough_SEP_6_NS","oid":"930116666","speedLimit":4.1666665},"geometry":{"type":"Polygon","coordinates":[[[-121.043598324841,50.4685540333235],[-121.043298094716,50.4689176664693],[-121.042549562266,50.4684623611019],[-121.042344994391,50.4680403992582],[-121.043036890281,50.4679071150379],[-121.043598324841,50.4685540333235]]]}},{"type":"Feature","id":"930976872","properties":{"name":"SP_13KPH_%TR_21SH_SEP_6_NS","oid":"930976872","speedLimit":3.6111112},"geometry":{"type":"Polygon","coordinates":[[[-121.036323203688,50.4472474317729],[-121.036212889194,50.44734719272],[-121.036121453553,50.4473523155794],[-121.036018887842,50.4473179834337],[-121.035311353498,50.4469665732508],[-121.035515921373,50.4467737020864],[-121.036323203688,50.4472474317729]]]}},{"type":"Feature","id":"932114358","properties":{"name":"SP_35KPH_%TR_23SH_LOADED_LANES_SEP_6_NS","oid":"932114358","speedLimit":9.722222},"geometry":{"type":"Polygon","coordinates":[[[-121.042099146635,50.4671394949939],[-121.041266363779,50.4667314637329],[-121.040735219917,50.466496621071],[-121.040512054963,50.466396500625],[-121.040355106883,50.4663118386321],[-121.040361165022,50.4660654920052],[-121.040451614454,50.465776724507],[-121.040517972215,50.4655111446885],[-121.040445556315,50.4651299859709],[-121.040234366753,50.4644139540202],[-121.039984151501,50.4634785378607],[-121.039865102015,50.4631625383203],[-121.039698291847,50.4628768265628],[-121.03892172289,50.4631291049218],[-121.039550642306,50.4630530709027],[-121.039764931382,50.4635150269999],[-121.03991455334,50.4642253069681],[-121.040083476812,50.4647219547099],[-121.040276632842,50.4653840618244],[-121.040246483032,50.465715160319],[-121.040101651231,50.4659576423327],[-121.039980911101,50.4662194474127],[-121.040161950852,50.4664851171059],[-121.041767216943,50.4671895552169],[-121.041839632844,50.4675475262548],[-121.042099146635,50.4671394949939]]]}},{"type":"Feature","id":"932118723","properties":{"name":"SP_35KPH_%TR_1635_TO_1620_SEP_6_NS","oid":"932118723","speedLimit":9.722222},"geometry":{"type":"Polygon","coordinates":[[[-121.018237966518,50.4539382457056],[-121.018530588747,50.4537441162951],[-121.018241911353,50.4536421084799],[-121.017621586042,50.4534679312588],[-121.017126227469,50.4534430359594],[-121.016412212325,50.453440519467],[-121.016061122006,50.4534803339711],[-121.015776389447,50.4535126888729],[-121.015503350507,50.4536048104682],[-121.015897270464,50.4538312947804],[-121.01582316392,50.4536670037793],[-121.016252305619,50.4536048104682],[-121.016615089556,50.4536073269605],[-121.017325159865,50.4535948343734],[-121.017742607946,50.453654601067],[-121.018121030336,50.4537142778857],[-121.01826529859,50.4537690115945],[-121.018237966518,50.4539382457056]]]}},{"type":"Feature","id":"932281958","properties":{"name":"SP_15KPH_%TR_1185-1170_22shl_SEPT_6_NS","oid":"932281958","speedLimit":4.1666665},"geometry":{"type":"Polygon","coordinates":[[[-121.037375629325,50.4481140038915],[-121.037409160423,50.4479618459785],[-121.036982554689,50.4479085502654],[-121.035924634461,50.4473798172459],[-121.035454071995,50.4469917381744],[-121.035098473292,50.4474258331062],[-121.035349111205,50.4473474623442],[-121.036815180974,50.4479512407607],[-121.037216708827,50.4480553156947],[-121.037335053878,50.4481909366579],[-121.037375629325,50.4481140038915]]]}},{"type":"Feature","id":"932364856","properties":{"name":"SP_35km_%_1170rOUGH_SEPT_6_NS","oid":"932364856","speedLimit":9.722222},"geometry":{"type":"Polygon","coordinates":[[[-121.038074428676,50.4473199606777],[-121.037832384869,50.4473888945933],[-121.037706854582,50.4473849401054],[-121.037727987627,50.4480408458636],[-121.03832548925,50.4498586520937],[-121.038777031976,50.4502067369117],[-121.038722649607,50.4496638036854],[-121.038331688276,50.4483821002024],[-121.038104719374,50.447325443036],[-121.038074428676,50.4473199606777]]]}},{"type":"Feature","id":"933252285","properties":{"name":"SP_17KPH_%TR1645_PATCH_SEP_6_NS","oid":"933252285","speedLimit":4.7222223},"geometry":{"type":"Polygon","coordinates":[[[-121.004300582515,50.4287924654381],[-121.004057411612,50.4290156243854],[-121.005062217454,50.4295095758855],[-121.005320322375,50.4293122109848],[-121.005134633354,50.4293870766325],[-121.00430917662,50.4289748212593],[-121.004300582515,50.4287924654381]]]}},{"type":"Feature","id":"933252378","properties":{"name":"SP_20KPH_%TR_1615_ROUGH_SECTION_SEP_6_NS","oid":"933252378","speedLimit":5.5555553},"geometry":{"type":"Polygon","coordinates":[[[-121.007363183383,50.4314116846096],[-121.007545632004,50.4321455117562],[-121.007054359154,50.4322075253179],[-121.007399673107,50.4321237620723],[-121.007258645254,50.4314845730132],[-121.006910795335,50.4314550941028],[-121.007363183383,50.4314116846096]]]}},{"type":"Feature","id":"933252478","properties":{"name":"SP_20KPH_%TR_1605_PATCH_SEP_6_NS","oid":"933252478","speedLimit":5.5555553},"geometry":{"type":"Polygon","coordinates":[[[-121.006594504096,50.4333407557518],[-121.007212575216,50.4334382698307],[-121.006981661479,50.4339625989885],[-121.006679458937,50.4343786291002],[-121.006275254231,50.4347751563961],[-121.005741997065,50.4345237767844],[-121.006214109288,50.434603945041],[-121.006703127947,50.4339777878174],[-121.006896706639,50.4335509727384],[-121.006594504096,50.4333407557518]]]}},{"type":"Feature","id":"933252549","properties":{"name":"SP_35KPH_%TR_1590_ROUGH_SEP_6_NS","oid":"933252549","speedLimit":9.722222},"geometry":{"type":"Polygon","coordinates":[[[-121.004363840763,50.4363927217342],[-121.004780443522,50.4364498820606],[-121.004884699876,50.4362110849108],[-121.005082646064,50.4359568293078],[-121.004585174187,50.4358322629361],[-121.004799181488,50.4359807359852],[-121.004628003824,50.4363680061843],[-121.004363840763,50.4363927217342]]]}},{"type":"Feature","id":"933371104","properties":{"name":"SP_12KPH_1590_HMT_INTERSECT_SEPT_6_NS","oid":"933371104","speedLimit":3.3333333},"geometry":{"type":"Polygon","coordinates":[[[-121.00626229263,50.4373386532368],[-121.006005737465,50.4376213991282],[-121.006184382138,50.4377486617418],[-121.0063890909,50.4379882677642],[-121.006554914859,50.4382641831764],[-121.007088453799,50.4381535473873],[-121.006746521133,50.4380708626384],[-121.006308785329,50.4375949759585],[-121.00626229263,50.4373386532368]]]}},{"type":"Feature","id":"934006205","properties":{"name":"SP_15KPH_SINGLE_6132AMT","oid":"934006205","speedLimit":4.1666665},"geometry":{"type":"Polygon","coordinates":[[[-121.041814977625,50.4567294851048],[-121.041515311048,50.4567855669345],[-121.041639150691,50.4571554014365],[-121.042622823488,50.4569518351796],[-121.041850903801,50.4570224767151],[-121.041792153936,50.456735686461],[-121.041814977625,50.4567294851048]]]}}]}