{"type":"FeatureCollection","features":[{"type":"Feature","id":"702602533","properties":{"name":"iSP_4KPH_%TR_CR01_SLOW BUMP","oid":"702602533","speedLimit":1.1111112},"geometry":{"type":"Polygon","coordinates":[[[-121.033353730275,50.464810016772],[-121.033648497778,50.4646929985061],[-121.03369189567,50.4647337122346],[-121.033364016139,50.4648718513087],[-121.033353730275,50.464810016772]]]}},{"type":"Feature","id":"707947583","properties":{"name":"iSP_22KPH_%TR_Permission Gate 1 from west dump_Jun","oid":"707947583","speedLimit":6.111111},"geometry":{"type":"Polygon","coordinates":[[[-121.038623756157,50.4619800980807],[-121.038850467874,50.4618016047812],[-121.037976169425,50.461353124638],[-121.037739030941,50.4615443802982],[-121.03795517499,50.4614986335261],[-121.038662222471,50.4618481604353],[-121.038623756157,50.4619800980807]]]}},{"type":"Feature","id":"742345972","properties":{"name":"iSP_4KPH_%TR_CR01_PITSIDE_SLOW BUMP","oid":"742345972","speedLimit":1.1111112},"geometry":{"type":"Polygon","coordinates":[[[-121.033393605611,50.4648849731726],[-121.033700913414,50.4647464745954],[-121.033751074614,50.4647785602489],[-121.033469551923,50.4649204741058],[-121.033393605611,50.4648849731726]]]}},{"type":"Feature","id":"776427243","properties":{"name":"iSP_4KPH_%TR_CR1_PermissionBlocker_DO_NOT_DELETE","oid":"776427243","speedLimit":1.1111112},"geometry":{"type":"Polygon","coordinates":[[[-121.033921989041,50.4651553195195],[-121.034051055501,50.4652442066661],[-121.03407669971,50.4652294670382],[-121.034162368277,50.4651803948622],[-121.033921989041,50.4651553195195]]]}},{"type":"Feature","id":"794004438","properties":{"name":"iSP_11KPH_%TR_LOWER_FUEL_BAY","oid":"794004438","speedLimit":3.0555556},"geometry":{"type":"Polygon","coordinates":[[[-121.036771877911,50.4606975706972],[-121.036773991444,50.4607274094562],[-121.03674426107,50.4606729447334],[-121.037120470072,50.4606012238608],[-121.037530495614,50.460558173362],[-121.037538245238,50.4605835183321],[-121.036939692488,50.4606523631797],[-121.036771877911,50.4606975706972]]]}},{"type":"Feature","id":"801543391","properties":{"name":"iSP_4KPH_%TR_CR1_PermissionBlocker_DO_NOT_DELETE_","oid":"801543391","speedLimit":1.1111112},"geometry":{"type":"Polygon","coordinates":[[[-121.033150267429,50.4645254700518],[-121.033149422015,50.4644760383727],[-121.033170980059,50.4644339765076],[-121.033102924273,50.4644615683721],[-121.033150267429,50.4645254700518]]]}},{"type":"Feature","id":"806473874","properties":{"name":"iSP_4KPH_%TR_Permission Blocker - DO NOT DELETE","oid":"806473874","speedLimit":1.1111112},"geometry":{"type":"Polygon","coordinates":[[[-121.02271335611,50.4815474934436],[-121.022680244082,50.4815451566733],[-121.022672635361,50.4815738270472],[-121.022694757014,50.4815749055566],[-121.022698843179,50.4815508188475],[-121.02271335611,50.4815474934436]]]}},{"type":"Feature","id":"824566967","properties":{"name":"iSP_4Cr_3KPH","oid":"824566967","speedLimit":0.8333333},"geometry":{"type":"Polygon","coordinates":[[[-121.023296268711,50.4810706125539],[-121.023276119689,50.4810706125539],[-121.023273442546,50.481188709329],[-121.023298523147,50.4811879903228],[-121.023296268711,50.4810706125539]]]}},{"type":"Feature","id":"826307302","properties":{"name":"iSP_4KPH_TR%_CRUSHER POCKETS","oid":"826307302","speedLimit":1.1111112},"geometry":{"type":"Polygon","coordinates":[[[-121.023291478034,50.4813237926267],[-121.023330930664,50.481479457478],[-121.02353566163,50.4814400020105],[-121.023454642837,50.4811911359751],[-121.023046308123,50.4811918549814],[-121.023051662408,50.481362529088],[-121.023276542396,50.481328556043],[-121.023291478034,50.4813237926267]]]}},{"type":"Feature","id":"849417440","properties":{"name":"iSP_Permissions_35_KPH_June_19_NS","oid":"849417440","speedLimit":9.722222},"geometry":{"type":"Polygon","coordinates":[[[-121.032690221589,50.4660362819171],[-121.033004856309,50.4660169586243],[-121.033211841711,50.4658160862556],[-121.033800672206,50.465381626734],[-121.033721485142,50.465252834741],[-121.03395763731,50.4654022981635],[-121.033421363354,50.465810603833],[-121.033018946534,50.4661901492528],[-121.032690221589,50.4660362819171]]]}},{"type":"Feature","id":"853029148","properties":{"name":"SP_25KPH_%TR_1635 Flats_July_23_NS","oid":"853029148","speedLimit":6.9444447},"geometry":{"type":"Polygon","coordinates":[[[-121.01858351122,50.4569729386139],[-121.017402186772,50.4572917280063],[-121.016423620659,50.4584595738943],[-121.018342568376,50.4588951119252],[-121.020685913663,50.458989211867],[-121.020234181056,50.4572337581281],[-121.019416384408,50.4570985849546],[-121.01896211556,50.4570019684909],[-121.01858351122,50.4569729386139]]]}},{"type":"Feature","id":"883050998","properties":{"name":"iSP_22kph_%TR_4CR_Brake_Temp_CTRL_NOREMOVE","oid":"883050998","speedLimit":6.111111},"geometry":{"type":"Polygon","coordinates":[[[-121.031793801487,50.4745612692968],[-121.032183114398,50.4743146501559],[-121.032484786111,50.4745769975583],[-121.032786457824,50.4748043832822],[-121.032964276461,50.4748867993727],[-121.033173093593,50.474936950058],[-121.033457011623,50.4749617557734],[-121.033660897176,50.4749241876972],[-121.033822089347,50.4748647798065],[-121.033913253102,50.4748127417298],[-121.034002585127,50.4747495590563],[-121.034053028132,50.4746604022823],[-121.03404725114,50.4745502145758],[-121.034051055501,50.4744858635172],[-121.033988917609,50.4743818772395],[-121.033870559721,50.4742618031971],[-121.033503650267,50.4739398681524],[-121.033055299314,50.473562210124],[-121.032942013906,50.4734276660811],[-121.032817033612,50.4732231088053],[-121.032600185052,50.4728171399061],[-121.032246661312,50.472211197396],[-121.032481686262,50.4721583504372],[-121.032424620851,50.4722078719921],[-121.032897206991,50.473051086562],[-121.033036418412,50.4733118162004],[-121.033244249228,50.4735491781359],[-121.033737266194,50.4739638649858],[-121.034092339859,50.4742733971728],[-121.034197734741,50.4743967067432],[-121.034250432182,50.4744639338268],[-121.034257477294,50.4745950625901],[-121.034232537596,50.4746810737118],[-121.034178008426,50.474793867816],[-121.03408050407,50.474878081422],[-121.03396764137,50.4749399159588],[-121.033785032056,50.4750183775149],[-121.033525490115,50.4750666408089],[-121.033257494039,50.4750703257159],[-121.033065866982,50.4750285334781],[-121.032802097974,50.4749187951504],[-121.032651332568,50.4748373676936],[-121.03248971769,50.474707587067],[-121.032139152897,50.4744153110297],[-121.031793801487,50.4745612692968]]]}},{"type":"Feature","id":"883053336","properties":{"name":"iSP_22kph_%TR_Brake_Temp_CTRL_NOREMOVE","oid":"883053336","speedLimit":6.111111},"geometry":{"type":"Polygon","coordinates":[[[-121.032460410022,50.4721474754678],[-121.032245534094,50.4722277345396],[-121.031482830225,50.4710105468482],[-121.030810867404,50.4699255664296],[-121.030655593127,50.4696624101452],[-121.030590778093,50.4694599200124],[-121.030544421253,50.4692589577678],[-121.030590778093,50.468975130054],[-121.030717026507,50.4686265019026],[-121.030878782288,50.468377725743],[-121.03108323145,50.4681000095821],[-121.031682629613,50.4675387353347],[-121.032426593483,50.4668958538789],[-121.032782935268,50.4665583703243],[-121.033142095098,50.4662245716766],[-121.033478992373,50.4658728877486],[-121.033774041681,50.4660362819171],[-121.033581991917,50.4659954783128],[-121.032913833456,50.4666542677818],[-121.032549037536,50.4669934589762],[-121.032172969436,50.4673099115983],[-121.031768720886,50.4676705831043],[-121.031376308126,50.4680366471571],[-121.031141424078,50.468288568969],[-121.031003058071,50.4684720953122],[-121.030899354016,50.4686567001647],[-121.030822844095,50.4688552357632],[-121.030761974324,50.4691935281999],[-121.030770710263,50.469402848892],[-121.030867932815,50.4696325713862],[-121.031021938972,50.4699373401568],[-121.031324878805,50.4704060423506],[-121.031524959997,50.4707132377673],[-121.031744626602,50.4710851437458],[-121.032140421017,50.4717310809781],[-121.032375727771,50.472147385592],[-121.032460410022,50.4721474754678]]]}},{"type":"Feature","id":"883059532","properties":{"name":"iSP_22kph_%TR_Brake_CTRL_NOREMOVE","oid":"883059532","speedLimit":6.111111},"geometry":{"type":"Polygon","coordinates":[[[-121.02725618549,50.4773243204076],[-121.027023978585,50.4772121554339],[-121.027328468343,50.4769463927518],[-121.027710454338,50.4766347934219],[-121.028027202591,50.4763250814833],[-121.0281844495,50.4761711242718],[-121.028615328575,50.4756946927609],[-121.028901360138,50.4753280894535],[-121.029257983728,50.474889945025],[-121.02946680086,50.4746590541456],[-121.029685622051,50.4745427548861],[-121.029795666707,50.4744905370578],[-121.029946432112,50.4745949727144],[-121.029782844602,50.4745443726501],[-121.029550214991,50.474793867816],[-121.029246007037,50.4751753905029],[-121.029067061182,50.4754803390251],[-121.028847253675,50.4757771088514],[-121.028690147669,50.4759770824623],[-121.028402988887,50.4762729535308],[-121.028035656726,50.4765723297546],[-121.027237868198,50.4772217721424],[-121.02725618549,50.4773243204076]]]}},{"type":"Feature","id":"886231481","properties":{"name":"SP_15KPH_%TR_1200_SWITCHBACK_July_23_NS","oid":"886231481","speedLimit":4.1666665},"geometry":{"type":"Polygon","coordinates":[[[-121.036904185122,50.4452294995451],[-121.036963223163,50.4446825155468],[-121.036278720042,50.4447477653632],[-121.036034818251,50.4452772235844],[-121.036518676571,50.4453474165687],[-121.036613081077,50.4451040329559],[-121.036767087234,50.4451332425845],[-121.036904185122,50.4452294995451]]]}},{"type":"Feature","id":"899288147","properties":{"name":"SP_30KPH_%TR_1185_BENCH_JULY_24_DS","oid":"899288147","speedLimit":8.333333},"geometry":{"type":"Polygon","coordinates":[[[-121.039826638649,50.4507689033822],[-121.039538634454,50.4496339520298],[-121.040222996672,50.4495225959381],[-121.040482679516,50.4508712718958],[-121.039986985407,50.4518857897028],[-121.040020097435,50.4524276507816],[-121.039404213709,50.452807375953],[-121.039425349046,50.4516660434202],[-121.039826638649,50.4507689033822]]]}},{"type":"Feature","id":"902935346","properties":{"name":"SP_20KPH_%TRX_NEW LANES_July23_NS","oid":"902935346","speedLimit":5.5555553},"geometry":{"type":"Polygon","coordinates":[[[-121.039513835658,50.4480046838862],[-121.039303609504,50.4480202323962],[-121.038801011185,50.4477540203352],[-121.03924133071,50.4487278244138],[-121.039505663327,50.4492696854926],[-121.039623598509,50.4495857786116],[-121.040156913518,50.4494894317752],[-121.040029537886,50.4492395771062],[-121.039364479275,50.4480513294162],[-121.039513835658,50.4480046838862]]]}},{"type":"Feature","id":"908328496","properties":{"name":"SP_20KPH_%TR_9019_SOFT_GROUND_July 23_NS","oid":"908328496","speedLimit":5.5555553},"geometry":{"type":"Polygon","coordinates":[[[-121.03899503358,50.4644911375038],[-121.03931967236,50.4647047722333],[-121.039498759117,50.4648804793836],[-121.03938674183,50.465217693311],[-121.038206262796,50.4655629061827],[-121.037876410633,50.4651421077798],[-121.03851554323,50.4648165777039],[-121.03899503358,50.4644911375038]]]}},{"type":"Feature","id":"908575258","properties":{"name":"iSP_15km_permissions ","oid":"908575258","speedLimit":4.1666665},"geometry":{"type":"Polygon","coordinates":[[[-121.041865071471,50.4595525532573],[-121.041454905027,50.4599151121547],[-121.041079259634,50.4602081970739],[-121.040683887926,50.4604257863378],[-121.040342763583,50.4605865741086],[-121.039952323454,50.4607158154805],[-121.039512426635,50.4607819640548],[-121.039171443195,50.4607977821921],[-121.039117054927,50.4612139070544],[-121.039250489356,50.4609396061732],[-121.03979916271,50.4608482025048],[-121.040268649001,50.4607063785236],[-121.040935962048,50.460394239939],[-121.041538882767,50.4599876419093],[-121.041939326956,50.4596533938827],[-121.042087556121,50.4595304438154],[-121.041939326956,50.459492606112],[-121.041865071471,50.4595525532573]]]}},{"type":"Feature","id":"910445950","properties":{"name":"SP_30KPH_%TR_1635_FLATS_JULY23_NS","oid":"910445950","speedLimit":8.333333},"geometry":{"type":"Polygon","coordinates":[[[-121.020218963613,50.4571661715414],[-121.019037780067,50.4569633219054],[-121.018644099186,50.45692467532],[-121.017447698198,50.4572337581281],[-121.018083730946,50.4544710665204],[-121.018765134217,50.4539011641981],[-121.018931821577,50.453514788219],[-121.019552636882,50.4545194196901],[-121.020218963613,50.4571468482486],[-121.020203887072,50.4571468482486],[-121.020218963613,50.4571661715414]]]}}]}