{"type":"FeatureCollection","features":[{"type":"Feature","id":"702602533","properties":{"name":"iSP_4KPH_%TR_CR01_Slow Bump","oid":"702602533","speedLimit":1.1111112},"geometry":{"type":"Polygon","coordinates":[[[-121.033357074035,50.4648077872165],[-121.033651822449,50.464690769238],[-121.03369521753,50.4647314828664],[-121.033367359233,50.4648696216014],[-121.033357074035,50.4648077872165]]]}},{"type":"Feature","id":"707947583","properties":{"name":"iSP_25KPH_%TR_Permission Gate 1 From West Dump","oid":"707947583","speedLimit":6.9444447},"geometry":{"type":"Polygon","coordinates":[[[-121.038626758623,50.461977875473],[-121.038853455658,50.4617993826118],[-121.038138423059,50.461408154301],[-121.037990767066,50.4616708605616],[-121.038190271728,50.4615667846636],[-121.038665222446,50.4618459381516],[-121.038626758623,50.461977875473]]]}},{"type":"Feature","id":"742345972","properties":{"name":"iSP_4KPH_%TR_CR01_Pit Side_Slow Bump","oid":"742345972","speedLimit":1.1111112},"geometry":{"type":"Polygon","coordinates":[[[-121.033396946789,50.4648827434332],[-121.03370423469,50.4647442451959],[-121.033754392642,50.4647763307706],[-121.033472888182,50.4649182442792],[-121.033396946789,50.4648827434332]]]}},{"type":"Feature","id":"776427243","properties":{"name":"iSP_7KPH_%TR_CR1_PermissionBlocker","oid":"776427243","speedLimit":1.9444444},"geometry":{"type":"Polygon","coordinates":[[[-121.034098171862,50.4652127664878],[-121.034049704628,50.4652330783643],[-121.03402857066,50.4652745109972],[-121.034114233678,50.4652254389417],[-121.034098171862,50.4652127664878]]]}},{"type":"Feature","id":"794004438","properties":{"name":"iSP_11KPH_%TR_Lower_Fuel_Bay","oid":"794004438","speedLimit":3.0555556},"geometry":{"type":"Polygon","coordinates":[[[-121.036775000307,50.4606953512383],[-121.036777113704,50.460725189924],[-121.036747385255,50.460670725335],[-121.037123569893,50.4605990046384],[-121.037533568882,50.4605559542454],[-121.037541318003,50.4605812991532],[-121.036942804017,50.4606501438318],[-121.036775000307,50.4606953512383]]]}},{"type":"Feature","id":"801543391","properties":{"name":"iSP_4KPH_%TR_CR01_PermissionBlocker_2","oid":"801543391","speedLimit":1.1111112},"geometry":{"type":"Polygon","coordinates":[[[-121.033153624365,50.464523241195],[-121.033152779007,50.4644738096372],[-121.033174335655,50.4644317478753],[-121.033106284276,50.4644593396721],[-121.033153624365,50.464523241195]]]}},{"type":"Feature","id":"806473874","properties":{"name":"iSP_4KPH_%TR_CR04_PermissionBlocker","oid":"806473874","speedLimit":1.1111112},"geometry":{"type":"Polygon","coordinates":[[[-121.022717388955,50.4815452227955],[-121.022684279071,50.4815428860309],[-121.022676670843,50.4815715563344],[-121.022698791063,50.4815726348411],[-121.022702876964,50.4815485481912],[-121.022717388955,50.4815452227955]]]}},{"type":"Feature","id":"817097804","properties":{"name":"SP_25KPH_%TR_prevent shifting_OCT9TH","oid":"817097804","speedLimit":6.9444447},"geometry":{"type":"Polygon","coordinates":[[[-121.054616578264,50.4680342299287],[-121.054596853227,50.4683934625402],[-121.05457712819,50.468443702978],[-121.054546131703,50.4684976283137],[-121.05443637596,50.468608984132],[-121.054289847112,50.4686843897264],[-121.053943813602,50.468773456406],[-121.053728388017,50.4688208208258],[-121.053667381294,50.4686736046593],[-121.053732755704,50.4687361580488],[-121.05415938008,50.4686167134301],[-121.054316194126,50.4685403192045],[-121.054401011786,50.4684611388365],[-121.054444829547,50.4681832436064],[-121.05445891886,50.4674612732366],[-121.05433352398,50.4674320636797],[-121.054622213989,50.4674361080799],[-121.054616578264,50.4680342299287]]]}},{"type":"Feature","id":"824566967","properties":{"name":"iSP_3KPH_%TR_CR04","oid":"824566967","speedLimit":0.8333333},"geometry":{"type":"Polygon","coordinates":[[[-121.023300263805,50.4810683430765],[-121.023280116089,50.4810683430765],[-121.023277439119,50.4811864395618],[-121.023302518095,50.4811857205573],[-121.023300263805,50.4810683430765]]]}},{"type":"Feature","id":"826307302","properties":{"name":"iSP_4KPH_%TR_CR04_Pockets","oid":"826307302","speedLimit":1.1111112},"geometry":{"type":"Polygon","coordinates":[[[-121.023295473439,50.4813215225278],[-121.023334923514,50.4814771869969],[-121.023539641221,50.4814377316262],[-121.023458627676,50.4811888662019],[-121.023050319405,50.4811895852063],[-121.023055673344,50.4813602588939],[-121.023280538768,50.4813262859324],[-121.023295473439,50.4813215225278]]]}},{"type":"Feature","id":"883050998","properties":{"name":"iSP_22KPH_%TR_4CR_Brake_Temp_Ctrl","oid":"883050998","speedLimit":6.111111},"geometry":{"type":"Polygon","coordinates":[[[-121.03179724627,50.4745590158007],[-121.032186533969,50.4743123972653],[-121.032488186145,50.4745747440236],[-121.032789838322,50.4748021291893],[-121.032967645443,50.4748845450774],[-121.033176449051,50.4749346956396],[-121.033460348694,50.4749595012941],[-121.033664221043,50.4749219333102],[-121.033825402776,50.4748625255653],[-121.033916560627,50.4748104876163],[-121.034005886867,50.474747305098],[-121.034056326605,50.4746581485429],[-121.034050549987,50.4745479611069],[-121.034054354101,50.4744836102063],[-121.033992220234,50.4743796241839],[-121.03387387001,50.4742595504363],[-121.033506984318,50.473937616182],[-121.033058662401,50.4735599590808],[-121.03294538433,50.4734254153681],[-121.032820412129,50.4732208585946],[-121.032603577613,50.4728148906921],[-121.032250076767,50.4722089496697],[-121.032485086497,50.4721561028406],[-121.032428024782,50.472205624274],[-121.032900580316,50.4730488367736],[-121.033039782722,50.4733095657719],[-121.033247600079,50.4735469271246],[-121.033740585116,50.4739616129564],[-121.034095635786,50.4742711443835],[-121.034201023842,50.4743944536512],[-121.03425371787,50.4744616805697],[-121.034260762526,50.4745928090111],[-121.034235824444,50.4746788199216],[-121.034181298805,50.4747916137488],[-121.034083800764,50.4748758271481],[-121.033970945372,50.4749376615331],[-121.033788347885,50.4750161228966],[-121.033528822752,50.4750643860721],[-121.033260844032,50.47506807097],[-121.033069229385,50.4750262788348],[-121.032805477458,50.4749165407766],[-121.032654721817,50.4748351135196],[-121.032493117405,50.4747053332117],[-121.032142575314,50.474413057892],[-121.03179724627,50.4745590158007]]]}},{"type":"Feature","id":"883053336","properties":{"name":"iSP_22KPH_%TR_Brake_Temp_Ctrl","oid":"883053336","speedLimit":6.111111},"geometry":{"type":"Polygon","coordinates":[[[-121.032463811635,50.472145227898],[-121.032248949622,50.4722254867726],[-121.031486295147,50.4710083020697],[-121.030814375844,50.4699233243148],[-121.030659111622,50.4696601686765],[-121.030594300785,50.4694576790408],[-121.030547946948,50.4692567172896],[-121.030594300785,50.4689728902726],[-121.030720541024,50.4686242629771],[-121.030882286329,50.4683754874283],[-121.03108672225,50.4680977719493],[-121.031686081596,50.4675364990799],[-121.032429997285,50.4668936192025],[-121.032786315994,50.4665561364764],[-121.033145452564,50.4662223386482],[-121.033482328022,50.4658706555837],[-121.033777358221,50.466034049351],[-121.033585320894,50.4659932458469],[-121.032917205705,50.4666520336984],[-121.032552433409,50.4669912240601],[-121.032176389664,50.4673076759053],[-121.031772167294,50.4676683465258],[-121.031379779946,50.4680344096798],[-121.03114491111,50.4682863308732],[-121.031006554063,50.4684698567658],[-121.030902856725,50.4686544611651],[-121.030826351759,50.4688529962762],[-121.03076548593,50.4691912878823],[-121.030774221303,50.4694006080605],[-121.030871437558,50.4696303299907],[-121.031025433742,50.4699350980131],[-121.031328353956,50.4704037990562],[-121.031528422191,50.4707109937187],[-121.03174807457,50.4710828987841],[-121.032143843353,50.4717288344306],[-121.032379134868,50.4721451380224],[-121.032463811635,50.472145227898]]]}},{"type":"Feature","id":"883059532","properties":{"name":"iSP_22KPH_%TR_Brake_Ctrl","oid":"883059532","speedLimit":6.111111},"geometry":{"type":"Polygon","coordinates":[[[-121.027259924135,50.4773220601279],[-121.027027732269,50.4772098954296],[-121.027332202308,50.4769441334],[-121.027714163564,50.476632534835],[-121.028030891305,50.4763228236568],[-121.02818812803,50.4761688668233],[-121.0286189792,50.4756924364822],[-121.02890499224,50.4753258340748],[-121.029261592734,50.474887690722],[-121.029470396343,50.4746568004095],[-121.029689203363,50.4745405014354],[-121.029799240892,50.4744882837354],[-121.029949996534,50.4745927191356],[-121.029786419618,50.4745421191955],[-121.029553805072,50.4747916137488],[-121.029249616819,50.4751731354991],[-121.029070682553,50.4754780832726],[-121.028850889281,50.4757748523703],[-121.028693793449,50.4759748254903],[-121.028406653264,50.4762706958323],[-121.028039344892,50.4765700713212],[-121.027241608029,50.4772195121144],[-121.027259924135,50.4773220601279]]]}},{"type":"Feature","id":"884401102","properties":{"name":"iSP_30KPH_%TR_Maint_Limit_Policy","oid":"884401102","speedLimit":8.333333},"geometry":{"type":"Polygon","coordinates":[[[-121.037217404713,50.4610267224263],[-121.037674039325,50.4610799287576],[-121.037993021356,50.4608741137262],[-121.037906090299,50.4604833347933],[-121.037858891103,50.4606706354594],[-121.037199229501,50.4607816317754],[-121.036970841748,50.4606591313878],[-121.037217404713,50.4610267224263]]]}},{"type":"Feature","id":"910445950","properties":{"name":"SP_30KPH_%TR_1635_FLATS_OCT_8_DS","oid":"910445950","speedLimit":8.333333},"geometry":{"type":"Polygon","coordinates":[[[-121.01763326061,50.4550418190405],[-121.018000287196,50.454414038257],[-121.018145548006,50.4539983637941],[-121.018530186232,50.4537513857565],[-121.018946243624,50.4536879336115],[-121.018864102933,50.4543415086805],[-121.018733354115,50.4547410954182],[-121.018507361546,50.4552110547191],[-121.01763326061,50.4550418190405]]]}},{"type":"Feature","id":"915576987","properties":{"name":"iSP_15KPH_%TR_Preventing Shifting","oid":"915576987","speedLimit":4.1666665},"geometry":{"type":"Polygon","coordinates":[[[-121.036996061617,50.4448630524195],[-121.037510180623,50.4453129694706],[-121.037979495616,50.4457954214742],[-121.038523483964,50.4462187353597],[-121.039456196439,50.4468498415388],[-121.039913535516,50.4470996057188],[-121.04046949978,50.4471949636875],[-121.041222714415,50.4473226768576],[-121.041641166991,50.4475095281459],[-121.042319708271,50.4480949775408],[-121.042702373994,50.44852772836],[-121.042845803193,50.4487947486475],[-121.043007266712,50.4493915223628],[-121.043186482764,50.4501980656342],[-121.043323994452,50.4505012158966],[-121.043685667099,50.4511686318018],[-121.043856147778,50.451488948296],[-121.04412511275,50.4522535196811],[-121.0443822427,50.4529381018182],[-121.044696011685,50.4537980311719],[-121.044734898187,50.4541946520162],[-121.044570475912,50.4550717476018],[-121.044214861669,50.4568392403559],[-121.044050439395,50.4572072807722],[-121.043004167063,50.4583989408163],[-121.041904214451,50.4595373046535],[-121.041342332677,50.460000613163],[-121.040370874593,50.4605974767539],[-121.039922411783,50.4607309419598],[-121.039133269401,50.4608071564343],[-121.038495868912,50.4608387027557],[-121.038643665798,50.4611434707782],[-121.03875652119,50.4609495193207],[-121.03987760777,50.4608796860109],[-121.040705636654,50.4606318092177],[-121.041509713707,50.4600578638944],[-121.042872713779,50.4587002036919],[-121.044241631363,50.4571423906182],[-121.044427046713,50.456290100687],[-121.04481267119,50.4544214979285],[-121.044809571542,50.4537865271003],[-121.044259665683,50.4523012436032],[-121.043832195947,50.4511857980337],[-121.043344987528,50.450337282876],[-121.043049111969,50.4493095558525],[-121.042926534952,50.4486917512562],[-121.042238976512,50.4478870953716],[-121.04154550056,50.4473913417851],[-121.041091120238,50.4472216567287],[-121.040457523864,50.4471301634091],[-121.039916494272,50.4470195265953],[-121.038819500416,50.446333146947],[-121.038194780308,50.4458716359487],[-121.037151607625,50.444906821817],[-121.037375768584,50.4446971421366],[-121.036996061617,50.4448630524195]]]}},{"type":"Feature","id":"917773475","properties":{"name":"SP_15KPH_%TR_1200_CORNER_OCT_8_DS","oid":"917773475","speedLimit":4.1666665},"geometry":{"type":"Polygon","coordinates":[[[-121.037096941093,50.4446823126692],[-121.036922797193,50.4448618840372],[-121.036627203421,50.4448203615287],[-121.036412623195,50.4448697032109],[-121.036321042665,50.4449673979441],[-121.036252427714,50.445081899407],[-121.036240170012,50.4451447224231],[-121.03626130398,50.4452670430596],[-121.036313998008,50.445351256459],[-121.036182122045,50.4453950258564],[-121.036087019187,50.4451940641053],[-121.036160988077,50.4449314477203],[-121.036257781652,50.4447911519718],[-121.036514629816,50.4447148476218],[-121.036711739295,50.4447115222261],[-121.036921106476,50.4447698514642],[-121.037091728048,50.444683391176],[-121.037096941093,50.4446823126692]]]}},{"type":"Feature","id":"929009157","properties":{"name":"iSP_22KPH_%TR_Long_Single_Lane","oid":"929009157","speedLimit":6.111111},"geometry":{"type":"Polygon","coordinates":[[[-121.005677633761,50.4380556977882],[-121.004747880042,50.4382237650846],[-121.005172391022,50.4381972517945],[-121.007932769089,50.4431702462554],[-121.00852156145,50.4445346471249],[-121.008208637824,50.4465094827948],[-121.007830621574,50.4466799767313],[-121.00893212401,50.4466467227743],[-121.008821382016,50.446592707563],[-121.009401439003,50.4448173956352],[-121.00876248869,50.4430681476198],[-121.008260768279,50.4415399036052],[-121.007257186564,50.4401559098638],[-121.006437470374,50.4389837528161],[-121.005858399638,50.4383127418885],[-121.005677633761,50.4380556977882]]]}},{"type":"Feature","id":"934051091","properties":{"name":"iSP_17KPH_%TR_Ramp_Permission Blocker","oid":"934051091","speedLimit":4.7222223},"geometry":{"type":"Polygon","coordinates":[[[-121.039511144757,50.4610295984442],[-121.039463100202,50.4607715657128],[-121.039015623643,50.4607921472159],[-121.039074516968,50.4610448772893],[-121.039162011598,50.4608998181362],[-121.039378000755,50.4608866963045],[-121.039511144757,50.4610295984442]]]}},{"type":"Feature","id":"938065675","properties":{"name":"iSP_8KPH_CR01_YARD_RUTIING_OCT_4_NS","oid":"938065675","speedLimit":2.2222223},"geometry":{"type":"Polygon","coordinates":[[[-121.034287250433,50.4648011364251],[-121.034097044717,50.4648579377787],[-121.03393882174,50.4649069199587],[-121.03382737528,50.4650048843186],[-121.034042237292,50.4650687858414],[-121.033962209999,50.4650112654833],[-121.03424061481,50.4648880460912],[-121.034317260669,50.4649372978978],[-121.034287250433,50.4648011364251]]]}},{"type":"Feature","id":"938165680","properties":{"name":"SP_10KPH_%TR_22SH_OCT_8_DS","oid":"938165680","speedLimit":2.7777777},"geometry":{"type":"Polygon","coordinates":[[[-121.034078446825,50.4466112219282],[-121.035053286343,50.4472504169078],[-121.035495127177,50.4474471545076],[-121.035793257026,50.446912035426],[-121.034852936322,50.4461951879631],[-121.034078446825,50.4466112219282]]]}},{"type":"Feature","id":"948301528","properties":{"name":"SP_15KPH_%TR_24SH__LANES_OCT 9 DS","oid":"948301528","speedLimit":4.1666665},"geometry":{"type":"Polygon","coordinates":[[[-121.039030417421,50.4526157181861],[-121.039080575373,50.4528875917537],[-121.038936159921,50.454841126916],[-121.03975038128,50.4549416976672],[-121.039876339732,50.4528380703204],[-121.039860841488,50.4526212904708],[-121.03937955058,50.4526061913768],[-121.039030417421,50.4526157181861]]]}},{"type":"Feature","id":"950999947","properties":{"name":"SP_20KPH_%TR_23SH_HEADING_SOFT_OCT8_DS","oid":"950999947","speedLimit":5.5555553},"geometry":{"type":"Polygon","coordinates":[[[-121.038131519296,50.4653454228137],[-121.037616273145,50.4650446093159],[-121.03728446984,50.4652896999668],[-121.036830371304,50.4653900010912],[-121.037467771793,50.4659024715318],[-121.038131519296,50.4653509950984],[-121.038131519296,50.4653454228137]]]}},{"type":"Feature","id":"951141721","properties":{"name":"SP_8KPH_%TR_CR1_SHOPSIDE_OCT_8_DS","oid":"951141721","speedLimit":2.2222223},"geometry":{"type":"Polygon","coordinates":[[[-121.033771722496,50.4647083848476],[-121.033827797959,50.4646113192433],[-121.033599269314,50.4645575736587],[-121.033278455672,50.4644629346945],[-121.033366795661,50.4646853767044],[-121.033563200674,50.4646292044797],[-121.033735653857,50.4646343273866],[-121.033771722496,50.4647135077545],[-121.033771722496,50.4647083848476]]]}},{"type":"Feature","id":"954548484","properties":{"name":"SP_15KPH_Main Intersection_FuelBrute_October9_DS","oid":"954548484","speedLimit":4.1666665},"geometry":{"type":"Polygon","coordinates":[[[-121.038037684476,50.4606481665695],[-121.038519398063,50.461155963481],[-121.038181959034,50.4616399433691],[-121.037206978622,50.4612976972384],[-121.037348294425,50.4607383117557],[-121.038037684476,50.4606481665695]]]}},{"type":"Feature","id":"954559984","properties":{"name":"SP_15KPH_%TR_CR4_October9_DS","oid":"954559984","speedLimit":4.1666665},"geometry":{"type":"Polygon","coordinates":[[[-121.022811505561,50.4804496397246],[-121.022354025591,50.4802447234488],[-121.022000383852,50.4805986534023],[-121.022561702054,50.4807621370451],[-121.022811505561,50.4804496397246]]]}},{"type":"Feature","id":"954641224","properties":{"name":"Caution  Ditch Ahead","oid":"954641224","speedLimit":4.1666665},"geometry":{"type":"Polygon","coordinates":[[[-121.039578914349,50.4603358490001],[-121.039814064971,50.4610393050047],[-121.038089392252,50.4610826250244],[-121.037707853675,50.4606792635131],[-121.038173082767,50.4603558912499],[-121.039364615909,50.4603391743958],[-121.039578914349,50.4603358490001]]]}}]}