{"type":"FeatureCollection","features":[{"type":"Feature","id":"702602533","properties":{"name":"iSP_4KPH_%TR_CR01_SLOW BUMP","oid":"702602533","speedLimit":1.1111112},"geometry":{"type":"Polygon","coordinates":[[[-121.033359418009,50.4648077291538],[-121.03365416153,50.4646907124226],[-121.033697555892,50.4647314256171],[-121.033369703037,50.4648695628796],[-121.033359418009,50.4648077291538]]]}},{"type":"Feature","id":"707947583","properties":{"name":"iSP_22KPH_%TR_Permission Gate 1 from west dump_Jun","oid":"707947583","speedLimit":6.111111},"geometry":{"type":"Polygon","coordinates":[[[-121.038629015129,50.4619778475759],[-121.038855708401,50.4617993566173],[-121.037981481084,50.4613508823558],[-121.037744361894,50.4615421355078],[-121.037960488357,50.4614963893356],[-121.038667478313,50.4618459116609],[-121.038629015129,50.4619778475759]]]}},{"type":"Feature","id":"742345972","properties":{"name":"iSP_4KPH_%TR_CR01_PITSIDE_SLOW BUMP","oid":"742345972","speedLimit":1.1111112},"geometry":{"type":"Polygon","coordinates":[[[-121.033399290101,50.4648826845714],[-121.033706572902,50.4647441878105],[-121.033756730022,50.4647762730432],[-121.033475230234,50.464918185039],[-121.033399290101,50.4648826845714]]]}},{"type":"Feature","id":"776427243","properties":{"name":"iSP_7KPH_%TR_CR1_PermissionBlocker_DO_NOT_DELETE","oid":"776427243","speedLimit":1.9444444},"geometry":{"type":"Polygon","coordinates":[[[-121.034100503536,50.4652127041082],[-121.034052037106,50.4652330157681],[-121.034030903488,50.4652744479594],[-121.034116565085,50.465225376427],[-121.034100503536,50.4652127041082]]]}},{"type":"Feature","id":"794004438","properties":{"name":"iSP_11KPH_%TR_LOWER_FUEL_BAY","oid":"794004438","speedLimit":3.0555556},"geometry":{"type":"Polygon","coordinates":[[[-121.036777287549,50.4606953370123],[-121.036779400911,50.46072517538],[-121.036749672955,50.4606707113715],[-121.03712585135,50.4605989914395],[-121.037535843533,50.4605559415054],[-121.037543592526,50.460581286143],[-121.036945088473,50.4606501300878],[-121.036777287549,50.4606953370123]]]}},{"type":"Feature","id":"801543391","properties":{"name":"iSP_4KPH_%TR_CR1_PermissionBlocker_DO_NOT_DELETE_","oid":"801543391","speedLimit":1.1111112},"geometry":{"type":"Polygon","coordinates":[[[-121.033155971717,50.4645231861654],[-121.033155126372,50.4644737551346],[-121.033176682662,50.464431693821],[-121.033108632413,50.4644592853237],[-121.033155971717,50.4645231861654]]]}},{"type":"Feature","id":"806473874","properties":{"name":"iSP_4KPH_%TR_Permission Blocker - DO NOT DELETE","oid":"806473874","speedLimit":1.1111112},"geometry":{"type":"Polygon","coordinates":[[[-121.022719909532,50.4815449863189],[-121.022686800197,50.4815426495793],[-121.022679192095,50.4815713195772],[-121.022701311948,50.4815723980724],[-121.022705397781,50.4815483116792],[-121.022719909532,50.4815449863189]]]}},{"type":"Feature","id":"824566967","properties":{"name":"iSP_4Cr_3KPH","oid":"824566967","speedLimit":0.8333333},"geometry":{"type":"Polygon","coordinates":[[[-121.023302774707,50.4810681116833],[-121.023282627325,50.4810681116833],[-121.0232799504,50.4811862069097],[-121.023305028959,50.4811854879129],[-121.023302774707,50.4810681116833]]]}},{"type":"Feature","id":"826307302","properties":{"name":"iSP_4KPH_TR%_CRUSHER POCKETS","oid":"826307302","speedLimit":1.1111112},"geometry":{"type":"Polygon","coordinates":[[[-121.02329798442,50.4813212884358],[-121.02333743384,50.4814769512456],[-121.02354214815,50.4814374962955],[-121.023461135949,50.4811886335239],[-121.023052834455,50.4811893525208],[-121.023058188305,50.481360024389],[-121.023283049997,50.4813260517896],[-121.02329798442,50.4813212884358]]]}},{"type":"Feature","id":"835348611","properties":{"name":"iSP_35KPH_%TR_switchback to 1 gate_AUG_27_DS","oid":"835348611","speedLimit":9.722222},"geometry":{"type":"Polygon","coordinates":[[[-121.039920842732,50.4634032587559],[-121.039548609279,50.4634577227644],[-121.039801790019,50.4633740495104],[-121.039545509682,50.462922609387],[-121.03936559215,50.4625821643965],[-121.039179475424,50.4622610424453],[-121.038987300394,50.4620178417736],[-121.038746377153,50.4618368343262],[-121.038563360024,50.4617298835504],[-121.038026566135,50.4614321289956],[-121.037959361231,50.4614146034483],[-121.037840449409,50.4614574736332],[-121.037954993616,50.4613476468701],[-121.038145477957,50.4613854840774],[-121.038484038512,50.4615702662581],[-121.038867825009,50.461790638781],[-121.039055350643,50.4619260798055],[-121.03923991757,50.4621303647747],[-121.039454071563,50.4625354296037],[-121.039582141286,50.4627533755124],[-121.039759100111,50.4630608365242],[-121.039862795728,50.4632592796443],[-121.039944794165,50.4633237197336],[-121.039920842732,50.4634032587559]]]}},{"type":"Feature","id":"849417440","properties":{"name":"iSP_Permissions_35_KPH_June_19_NS","oid":"849417440","speedLimit":9.722222},"geometry":{"type":"Polygon","coordinates":[[[-121.032695963306,50.4660339782168],[-121.033010572427,50.4660146551775],[-121.03321754099,50.4658137854431],[-121.033806323578,50.4653793316194],[-121.033727142957,50.4652505413154],[-121.033963275912,50.4654000027778],[-121.033427045586,50.4658083030924],[-121.033024661506,50.4661878435346],[-121.032695963306,50.4660339782168]]]}},{"type":"Feature","id":"853029148","properties":{"name":"SP_15KPH_%TR_1635 Flats_AUG_27_DS","oid":"853029148","speedLimit":4.1666665},"geometry":{"type":"Polygon","coordinates":[[[-121.017602756241,50.4567738385245],[-121.016438998361,50.4570838160252],[-121.014801424774,50.4577459222145],[-121.013837309136,50.4588993728503],[-121.014982610323,50.4587964664316],[-121.019118600191,50.4574576044928],[-121.019253291781,50.4570346546181],[-121.018435561668,50.4568994832174],[-121.017981329779,50.4568028680208],[-121.017602756241,50.4567738385245]]]}},{"type":"Feature","id":"855316169","properties":{"name":"SP_25KPH_TR%_CRUSHER YARD EMPTY_AUG_27_DS","oid":"855316169","speedLimit":6.9444447},"geometry":{"type":"Polygon","coordinates":[[[-121.037912726381,50.4622347091871],[-121.037771272033,50.4621193101987],[-121.037596708351,50.4622031632019],[-121.037546269451,50.4622374054251],[-121.037609388522,50.4622263508491],[-121.037905822733,50.4624611033083],[-121.037720128679,50.4625136799502],[-121.038123358104,50.4625062203582],[-121.038121667414,50.4624939974124],[-121.037912726381,50.4622347091871]]]}},{"type":"Feature","id":"859339791","properties":{"name":"SP_15KPH_TR%_1230_to_1215_Ramp1_AUG 20_DS","oid":"859339791","speedLimit":4.1666665},"geometry":{"type":"Polygon","coordinates":[[[-121.040704195493,50.4473789768046],[-121.040682216531,50.4475607931234],[-121.040631073176,50.4474348788067],[-121.040163174881,50.4474146570214],[-121.039902386039,50.4473929073678],[-121.039488167133,50.4472141467854],[-121.039190887577,50.4470089630701],[-121.038966730339,50.4468504242731],[-121.038844859811,50.4468597712316],[-121.039047038087,50.4467556065685],[-121.039456466706,50.4470183100287],[-121.039719650691,50.4471737032147],[-121.040160779738,50.4472748121414],[-121.040553019681,50.44730896449],[-121.040689542852,50.4473276584071],[-121.040704195493,50.4473789768046]]]}},{"type":"Feature","id":"859384545","properties":{"name":"SP_20KPH_TR%_MAINT_CREW_L1590_DUST_AUG_27_DS","oid":"859384545","speedLimit":5.5555553},"geometry":{"type":"Polygon","coordinates":[[[-121.013533971277,50.4515902310077],[-121.013429712097,50.4510353452179],[-121.012756535928,50.4483267044775],[-121.012536182742,50.448817150178],[-121.013394207619,50.45177914742],[-121.013277409159,50.4521783704],[-121.013116793664,50.4521876274839],[-121.01344295583,50.4522148594882],[-121.013533971277,50.4515902310077]]]}},{"type":"Feature","id":"878230085","properties":{"name":"SP_30KPH_TR%_PUNCH_OUT_L1590_DMP_AUG_27_DS1","oid":"878230085","speedLimit":8.333333},"geometry":{"type":"Polygon","coordinates":[[[-121.013652883099,50.4533274171803],[-121.013645274997,50.4527795416095],[-121.01374108073,50.4524493423235],[-121.013097914299,50.4524616551439],[-121.013065509419,50.4528628553651],[-121.013204991295,50.4533673215034],[-121.013610334082,50.4545818868682],[-121.013328975186,50.4549545069661],[-121.01304423491,50.4549499233614],[-121.013783347965,50.4551888100522],[-121.014113032401,50.4546824565473],[-121.014059353012,50.4542959957608],[-121.013652883099,50.4533274171803]]]}},{"type":"Feature","id":"883050998","properties":{"name":"iSP_22kph_%TR_4CR_Brake_Temp_CTRL_NOREMOVE","oid":"883050998","speedLimit":6.111111},"geometry":{"type":"Polygon","coordinates":[[[-121.031799616135,50.4745588537941],[-121.032188897372,50.4743122378876],[-121.032490544542,50.4745745818494],[-121.032792191711,50.4748019645912],[-121.032969995881,50.4748843796008],[-121.033178796024,50.4749345296285],[-121.033462690954,50.4749593350185],[-121.03366655992,50.474921767435],[-121.033827738977,50.4748623603234],[-121.033918895314,50.4748103229292],[-121.034008220072,50.4747471410843],[-121.034058658973,50.4746579854796],[-121.03405288245,50.4745477992181],[-121.034056686502,50.4744834490035],[-121.033994553666,50.4743794640895],[-121.033876205407,50.4742593916219],[-121.033509325804,50.4739374607993],[-121.033061011328,50.4735598077237],[-121.032947735137,50.4734252654452],[-121.032822765012,50.4732207108522],[-121.032605934094,50.4728147472772],[-121.032252439116,50.4722088127138],[-121.032487444945,50.4721559664481],[-121.032430384177,50.4722054873535],[-121.032902931868,50.4730486908649],[-121.033042131963,50.4733094170839],[-121.03324994587,50.4735467759065],[-121.033742922725,50.4739614573179],[-121.034097967502,50.4742709854455],[-121.034203353808,50.4743942933988],[-121.034256046962,50.4744615196007],[-121.034263091501,50.4745926466443],[-121.034238153832,50.474678656638],[-121.034183629098,50.4747914492628],[-121.034086132676,50.4748756617645],[-121.033973279157,50.4749374954903],[-121.033790684701,50.4750159560174],[-121.033531163876,50.4750642186784],[-121.033263189604,50.4750679035371],[-121.033071578137,50.4750261118474],[-121.032807830588,50.474916374959],[-121.032657077449,50.47483494857],[-121.032495475719,50.4747051696454],[-121.032144939448,50.4744128974413],[-121.031799616135,50.4745588537941]]]}},{"type":"Feature","id":"883053336","properties":{"name":"iSP_22kph_%TR_Brake_Temp_CTRL_NOREMOVE","oid":"883053336","speedLimit":6.111111},"geometry":{"type":"Polygon","coordinates":[[[-121.032466170436,50.4721450916213],[-121.03225131199,50.4722253496404],[-121.031488670174,50.4710081779122],[-121.030816762023,50.4699232117227],[-121.030661500378,50.4696600588895],[-121.030596690617,50.4694575714123],[-121.030550337549,50.4692566118033],[-121.030596690617,50.4689727878117],[-121.03072292876,50.4686241642324],[-121.030884671381,50.4683753913354],[-121.031089103909,50.4680976788168],[-121.031688453306,50.4675364119303],[-121.032432356648,50.4668935389057],[-121.032788669442,50.466556059777],[-121.033147800051,50.466222265507],[-121.033484669917,50.4658705861913],[-121.033779695219,50.4660339782168],[-121.03358766108,50.4659931751477],[-121.03291955698,50.4666519559768],[-121.03255479074,50.4669911427229],[-121.032178753236,50.4673075911949],[-121.031774537575,50.4676682579707],[-121.031382156741,50.4680343172227],[-121.031147291803,50.4682862357307],[-121.031008937053,50.468469759667],[-121.030905241435,50.4686543620985],[-121.030828737739,50.4688528950933],[-121.03076787292,50.4691911830934],[-121.030776608149,50.4694005010403],[-121.03087382279,50.4696302205218],[-121.031027816418,50.4699349852955],[-121.031330731604,50.4704036813424],[-121.031530796518,50.4707108727304],[-121.031750445251,50.4710827738314],[-121.032146207465,50.4717287025925],[-121.032381495075,50.4721450017467],[-121.032466170436,50.4721450916213]]]}},{"type":"Feature","id":"883059532","properties":{"name":"iSP_22kph_%TR_Brake_CTRL_NOREMOVE","oid":"883059532","speedLimit":6.111111},"geometry":{"type":"Polygon","coordinates":[[[-121.027262369313,50.4773218686684],[-121.0270301813,50.4772097051658],[-121.027334646285,50.4769439459691],[-121.027716601202,50.4766323507256],[-121.028033323685,50.4763226428488],[-121.028190557801,50.4761686876564],[-121.02862140182,50.4756922623938],[-121.028907410112,50.4753256638942],[-121.029264004687,50.4748875252119],[-121.02947280483,50.4746566373606],[-121.029691608218,50.4745403396262],[-121.029801643921,50.4744881224827],[-121.02995239706,50.4745925567697],[-121.029788822859,50.474541957369],[-121.029556212174,50.4747914492628],[-121.029252028971,50.4751729669463],[-121.029073097674,50.4754779114692],[-121.028853308051,50.4757746774034],[-121.028696214826,50.4759746483918],[-121.028409079407,50.47627051558],[-121.028041777132,50.4765698878776],[-121.027244053511,50.4772193217481],[-121.027262369313,50.4773218686684]]]}},{"type":"Feature","id":"891249991","properties":{"name":"SP_30KPH_TR%_1590 #1_AUG_27_DS","oid":"891249991","speedLimit":8.333333},"geometry":{"type":"Polygon","coordinates":[[[-121.012957023515,50.4498605943016],[-121.013847594163,50.4497487004227],[-121.013378991414,50.4450040404596],[-121.01213887073,50.4430836898491],[-121.011299584327,50.4419101971771],[-121.01052975708,50.4421496231155],[-121.011008785748,50.4427015430434],[-121.011240832869,50.4430297650882],[-121.01145639577,50.4435198512902],[-121.01177438627,50.4445105390227],[-121.012957023515,50.4498605943016]]]}},{"type":"Feature","id":"893804793","properties":{"name":"SP_20KPH_%TR_1590Dynamic_AUG_27_DS","oid":"893804793","speedLimit":5.5555553},"geometry":{"type":"Polygon","coordinates":[[[-121.011186589917,50.4418407241101],[-121.010484249357,50.4421099884163],[-121.005981943449,50.4380481058009],[-121.006514510615,50.4376815971759],[-121.010067353526,50.4407332892703],[-121.011186589917,50.4418407241101]]]}},{"type":"Feature","id":"908328496","properties":{"name":"SP_15KPH_%TR_9019_SOFT_GROUND_AUG_27_DS","oid":"908328496","speedLimit":4.1666665},"geometry":{"type":"Polygon","coordinates":[[[-121.038886281701,50.4644514662334],[-121.038900652561,50.4647529056469],[-121.03937996301,50.4648988619997],[-121.038731301839,50.4665299961426],[-121.038275942823,50.4671546246231],[-121.037820583808,50.4675724516455],[-121.037502734198,50.4696995138395],[-121.035469680179,50.4697241394803],[-121.035228897828,50.4668157973754],[-121.037881730408,50.4651398158064],[-121.038520811007,50.4648142899997],[-121.038886281701,50.4644514662334]]]}},{"type":"Feature","id":"910445950","properties":{"name":"SP_25KPH_%TR_1635_FLATS_AUG_27_DS","oid":"910445950","speedLimit":6.9444447},"geometry":{"type":"Polygon","coordinates":[[[-121.020225719975,50.4571639841697],[-121.019044632529,50.4569611371941],[-121.018650983677,50.4569224911154],[-121.017842975028,50.4571468181208],[-121.018448946292,50.4564123628772],[-121.018505302606,50.4561072386051],[-121.019236103105,50.4561249439016],[-121.019236666668,50.4564587381716],[-121.019424474084,50.4568917540017],[-121.01975782168,50.4570617967478],[-121.020225719975,50.4571639841697]]]}},{"type":"Feature","id":"917291012","properties":{"name":"SP_20KPH_%TR_CORNER_RUTS_AUG_27_DS","oid":"917291012","speedLimit":5.5555553},"geometry":{"type":"Polygon","coordinates":[[[-121.040610644012,50.4662212768864],[-121.040684893456,50.4661071361424],[-121.040422977487,50.465926128695],[-121.040121189427,50.4658979979447],[-121.040017071137,50.4663104324911],[-121.039934086465,50.4664857778386],[-121.039995233066,50.466819931607],[-121.040667422998,50.4667391343403],[-121.040549497412,50.4666222074837],[-121.040532026955,50.46637720932],[-121.040610644012,50.4662212768864]]]}},{"type":"Feature","id":"917665392","properties":{"name":"SP_15KPH_%TR_22SH RUTS_AUG 27_DS","oid":"917665392","speedLimit":4.1666665},"geometry":{"type":"Polygon","coordinates":[[[-121.035647907021,50.4455195611739],[-121.035215654094,50.4452076963066],[-121.033734187496,50.4447558966848],[-121.033078200004,50.4452862467083],[-121.035586478639,50.445956621361],[-121.036390965018,50.4468444925494],[-121.03687267061,50.4466100995886],[-121.035647907021,50.4455195611739]]]}},{"type":"Feature","id":"920440343","properties":{"name":"iSP_17KPH_CAL_PAD_ROAD_LIMIT_AUG_23_NS","oid":"920440343","speedLimit":4.7222223},"geometry":{"type":"Polygon","coordinates":[[[-121.005955455982,50.4378306991398],[-121.005969122388,50.437613022855],[-121.00558688569,50.4375782413842],[-121.005286647428,50.4376826756711],[-121.005191123476,50.4378350131207],[-121.005286647428,50.438161527548],[-121.005989551552,50.4392586268087],[-121.007470454587,50.4413699609474],[-121.007675168897,50.4416485722121],[-121.007784359255,50.442153577598],[-121.007934548831,50.4426628969648],[-121.008118833977,50.4432331513114],[-121.008323548287,50.4436510682084],[-121.008685214931,50.4445609586741],[-121.008760309719,50.4449222545722],[-121.008760309719,50.4451791161833],[-121.008692118579,50.4456187827339],[-121.008494167027,50.4462282224068],[-121.008944594865,50.4462151905896],[-121.009135642768,50.4457320247318],[-121.009319927914,50.4449179405913],[-121.009217500314,50.4444521205317],[-121.008999119598,50.4437990916771],[-121.008773976125,50.4433768607992],[-121.008460071457,50.4427368637618],[-121.008296215475,50.4420752069455],[-121.008241690741,50.4417443785373],[-121.007920882425,50.4411957839697],[-121.006815312439,50.4398331951361],[-121.006603835372,50.4394936488916],[-121.006228502322,50.4387796850572],[-121.005989551552,50.4383879216692],[-121.005935026818,50.438057093261],[-121.005955455982,50.4378306991398]]]}},{"type":"Feature","id":"922262468","properties":{"name":"SP_20kph_HMT_DUMP_AUG_27_DS","oid":"922262468","speedLimit":5.5555553},"geometry":{"type":"Polygon","coordinates":[[[-121.012501664499,50.4364264084912],[-121.012481798899,50.4374170962237],[-121.016364185355,50.4384076940816],[-121.01718050656,50.4369598142512],[-121.016523532832,50.43590567505],[-121.014771415037,50.4353087279468],[-121.012899962747,50.4352071696471],[-121.012501664499,50.4364264084912]]]}},{"type":"Feature","id":"922385545","properties":{"name":"SP_27KPH_RUTS_AUG 27_DS","oid":"922385545","speedLimit":7.5},"geometry":{"type":"Polygon","coordinates":[[[-121.007511876478,50.4337191158698],[-121.006870400736,50.4335257057274],[-121.00651901912,50.4340722331792],[-121.007226290858,50.4343188490857],[-121.007511876478,50.4337191158698]]]}},{"type":"Feature","id":"923351007","properties":{"name":"iSP_17KPH_PERMISSIONS_AUG 18_NS","oid":"923351007","speedLimit":4.7222223},"geometry":{"type":"Polygon","coordinates":[[[-121.038854017712,50.4608771533312],[-121.03887346064,50.4611347339391],[-121.038784135883,50.4608894661516],[-121.03853940859,50.4608894661516],[-121.038535604539,50.46083005904],[-121.038881209633,50.4608225994481],[-121.038854017712,50.4608771533312]]]}},{"type":"Feature","id":"923607825","properties":{"name":"MRK_CROSS DITCH ","oid":"923607825","speedLimit":2.7777777},"geometry":{"type":"Polygon","coordinates":[[[-121.03518606703,50.4458452667298],[-121.035617474612,50.4454859480729],[-121.035587042202,50.4454712985129],[-121.035137741491,50.445826482938],[-121.03518606703,50.4458452667298]]]}},{"type":"Feature","id":"924222108","properties":{"name":"SP_11kph_rough ground_23SH _AUG_27_DS","oid":"924222108","speedLimit":3.0555556},"geometry":{"type":"Polygon","coordinates":[[[-121.040369438989,50.4714161187284],[-121.040870446619,50.4718387091047],[-121.041446267255,50.4722542892621],[-121.042123106583,50.4716710030983],[-121.040529209139,50.4711215996593],[-121.040455100586,50.4712672863883],[-121.040369438989,50.4714161187284]]]}},{"type":"Feature","id":"924266047","properties":{"name":"SP_12KPH_%TR_CROSS DITCH_AUG_27_DNS ","oid":"924266047","speedLimit":3.3333333},"geometry":{"type":"Polygon","coordinates":[[[-121.03761615128,50.4473121999756],[-121.037894128797,50.4474713678949],[-121.037657714061,50.4477506082818],[-121.037463002997,50.447691920167],[-121.037268151042,50.4475132494592],[-121.03761615128,50.4473121999756]]]}},{"type":"Feature","id":"926023128","properties":{"name":"SP_10KPH_TR%_4CR_1_AUG_27_DS","oid":"926023128","speedLimit":2.7777777},"geometry":{"type":"Polygon","coordinates":[[[-121.022862350115,50.4811966323635],[-121.022835862647,50.4815102048482],[-121.022151556107,50.4816161670033],[-121.021885836088,50.4812729359002],[-121.02189344419,50.4811095438746],[-121.02249321626,50.481027578238],[-121.022510264044,50.4812220668757],[-121.022822478023,50.4810185907779],[-121.022981966391,50.4812601737067],[-121.022862350115,50.4811966323635]]]}},{"type":"Feature","id":"926367691","properties":{"name":"SP_10KPH_%TR_AUG_27_DS","oid":"926367691","speedLimit":2.7777777},"geometry":{"type":"Polygon","coordinates":[[[-121.038765115627,50.4500237167033],[-121.037840026736,50.4500347712793],[-121.038207469902,50.4520285494392],[-121.038181545998,50.4523870592247],[-121.038951091462,50.4525304092141],[-121.03907648426,50.4524587791567],[-121.03882133105,50.4510164715516],[-121.038765115627,50.4500237167033]]]}},{"type":"Feature","id":"927557801","properties":{"name":"MSG_SINGLE LANE AHEADDDDDDDD","oid":"927557801","speedLimit":5.5555553},"geometry":{"type":"Polygon","coordinates":[[[-121.038814004729,50.4461193842644],[-121.038212401079,50.4464476961837],[-121.039014633206,50.4469473989681],[-121.0398433528,50.4475195406813],[-121.041270153774,50.4476837415783],[-121.04178482781,50.447393985863],[-121.040857625557,50.4470463509044],[-121.038950246118,50.446158030343],[-121.038814004729,50.4461193842644]]]}},{"type":"Feature","id":"927557887","properties":{"name":"SP_15KPH_04 AMT DOWN ","oid":"927557887","speedLimit":4.1666665},"geometry":{"type":"Polygon","coordinates":[[[-121.039813061282,50.4468049477247],[-121.039317407502,50.4470802336291],[-121.039888860524,50.4473264001627],[-121.040214318236,50.4470246911254],[-121.039813061282,50.4468049477247]]]}}]}