{"type":"FeatureCollection","features":[{"type":"Feature","id":"702602533","properties":{"name":"iSP_4KPH_%TR_CR01_Slow Bump","oid":"702602533","speedLimit":1.1111112},"geometry":{"type":"Polygon","coordinates":[[[-121.033357368608,50.464807716112],[-121.033652116987,50.4646906987037],[-121.033695512063,50.4647314121338],[-121.033367653804,50.4648695501956],[-121.033357368608,50.464807716112]]]}},{"type":"Feature","id":"707947583","properties":{"name":"iSP_25KPH_%TR_Permission Gate 1 From West Dump","oid":"707947583","speedLimit":6.9444447},"geometry":{"type":"Polygon","coordinates":[[[-121.038627052582,50.4619778181588],[-121.03885374959,50.4617993261673],[-121.038138717074,50.461408099763],[-121.037991061098,50.4616708047434],[-121.038190565737,50.4615667293526],[-121.0386655164,50.4618458814803],[-121.038627052582,50.4619778181588]]]}},{"type":"Feature","id":"742345972","properties":{"name":"iSP_4KPH_%TR_CR01_Pit Side_Slow Bump","oid":"742345972","speedLimit":1.1111112},"geometry":{"type":"Polygon","coordinates":[[[-121.033397241357,50.4648826719634],[-121.033704529222,50.464744174401],[-121.033754687168,50.4647762598194],[-121.033473182741,50.4649181726364],[-121.033397241357,50.4648826719634]]]}},{"type":"Feature","id":"776427243","properties":{"name":"iSP_7KPH_%TR_CR1_PermissionBlocker","oid":"776427243","speedLimit":1.9444444},"geometry":{"type":"Polygon","coordinates":[[[-121.034098466348,50.4652126934098],[-121.03404999912,50.4652330051873],[-121.034028865154,50.4652744376184],[-121.034114528163,50.465225365802],[-121.034098466348,50.4652126934098]]]}},{"type":"Feature","id":"794004438","properties":{"name":"iSP_11KPH_%TR_Lower_Fuel_Bay","oid":"794004438","speedLimit":3.0555556},"geometry":{"type":"Polygon","coordinates":[[[-121.036775294481,50.4606953001738],[-121.036777407878,50.4607251387142],[-121.036747679432,50.4606706743905],[-121.037123864027,50.4605989540435],[-121.037533862967,50.4605559038602],[-121.037541612088,50.4605812486445],[-121.036943098171,50.4606500929876],[-121.036775294481,50.4606953001738]]]}},{"type":"Feature","id":"801543391","properties":{"name":"iSP_4KPH_%TR_CR01_PermissionBlocker_2","oid":"801543391","speedLimit":1.1111112},"geometry":{"type":"Polygon","coordinates":[[[-121.033153918962,50.4645231714771],[-121.033153073603,50.4644737401602],[-121.033174630248,50.4644316786033],[-121.033106578878,50.4644592702656],[-121.033153918962,50.4645231714771]]]}},{"type":"Feature","id":"806473874","properties":{"name":"iSP_4KPH_%TR_CR04_PermissionBlocker","oid":"806473874","speedLimit":1.1111112},"geometry":{"type":"Polygon","coordinates":[[[-121.022717684768,50.4815450701289],[-121.022684574888,50.4815427333758],[-121.02267696666,50.4815714035396],[-121.022699086877,50.481572482041],[-121.022703172778,50.4815483955084],[-121.022717684768,50.4815450701289]]]}},{"type":"Feature","id":"824566967","properties":{"name":"iSP_3KPH_%TR_CR04","oid":"824566967","speedLimit":0.8333333},"geometry":{"type":"Polygon","coordinates":[[[-121.02330055955,50.4810681927338],[-121.023280411835,50.4810681927338],[-121.023277734866,50.4811862886436],[-121.023302813839,50.4811855696426],[-121.02330055955,50.4810681927338]]]}},{"type":"Feature","id":"826307302","properties":{"name":"iSP_4KPH_%TR_CR04_Pockets","oid":"826307302","speedLimit":1.1111112},"geometry":{"type":"Polygon","coordinates":[[[-121.023295769184,50.4813213709513],[-121.023335219254,50.4814770346619],[-121.023539936938,50.4814375794835],[-121.023458923402,50.4811887152719],[-121.023050615179,50.4811894342728],[-121.023055969117,50.4813601071287],[-121.023280834515,50.4813261343328],[-121.023295769184,50.4813213709513]]]}},{"type":"Feature","id":"883050998","properties":{"name":"iSP_22KPH_%TR_4CR_Brake_Temp_Ctrl","oid":"883050998","speedLimit":6.111111},"geometry":{"type":"Polygon","coordinates":[[[-121.031797541024,50.4745588971782],[-121.032186828678,50.4743122798446],[-121.032488480819,50.4745746253245],[-121.03279013296,50.474802009382],[-121.032967940061,50.4748844248686],[-121.033176743645,50.4749345751864],[-121.033460643255,50.4749593807199],[-121.03366451558,50.4749218129191],[-121.033825697294,50.4748624054638],[-121.033916855134,50.4748103677684],[-121.034006181364,50.4747471855579],[-121.034056621096,50.4746580294373],[-121.034050844478,50.4745478425382],[-121.034054648592,50.4744834919512],[-121.033992514732,50.4743795064355],[-121.033874164523,50.4742594332731],[-121.033507278873,50.4739375005876],[-121.033058957008,50.4735598453267],[-121.03294567895,50.4734253022697],[-121.032820706764,50.473220746493],[-121.032603872273,50.4728147805688],[-121.032250371469,50.4722088424991],[-121.032485381171,50.4721559959276],[-121.032428319462,50.4722055171196],[-121.032900874942,50.4730487255102],[-121.033040077331,50.473309453238],[-121.033247894664,50.4735468134341],[-121.033740879644,50.473961497245],[-121.034095930272,50.4742710271638],[-121.034201318316,50.4743943358306],[-121.034254012338,50.4744615624215],[-121.034261056993,50.4745926902239],[-121.034236118914,50.4746787007152],[-121.034181593281,50.4747914939928],[-121.034084095252,50.4748757069818],[-121.033971239873,50.4749375410654],[-121.033788642407,50.4750160020465],[-121.033529117305,50.4750642649868],[-121.033261138616,50.4750679498668],[-121.033069523991,50.4750261579353],[-121.032805772095,50.4749164204118],[-121.032655016471,50.4748349935517],[-121.032493412078,50.4747052138761],[-121.032142870028,50.4744129399807],[-121.031797541024,50.4745588971782]]]}},{"type":"Feature","id":"883053336","properties":{"name":"iSP_22KPH_%TR_Brake_Temp_Ctrl","oid":"883053336","speedLimit":6.111111},"geometry":{"type":"Polygon","coordinates":[[[-121.032464106312,50.4721451210379],[-121.032249244324,50.4722253795214],[-121.031486589938,50.4710082007499],[-121.030814670712,50.4699232282821],[-121.030659406509,50.4696600739262],[-121.03059459568,50.4694575852772],[-121.030548241848,50.4692566245054],[-121.03059459568,50.4689727988714],[-121.030720835903,50.4686241732748],[-121.03088258119,50.4683753989383],[-121.031087017087,50.4680976848126],[-121.031686376363,50.4675364146783],[-121.032430291966,50.4668935379336],[-121.032786610633,50.4665560568521],[-121.033145747161,50.4662222606505],[-121.033482622579,50.4658705792998],[-121.033777652745,50.4660339722708],[-121.03358561544,50.4659931689656],[-121.032917500329,50.4666519536068],[-121.032552728076,50.4669911423157],[-121.032176684374,50.4673075926188],[-121.031772462051,50.4676682614817],[-121.031380074749,50.4680343228519],[-121.03114520594,50.4682862428177],[-121.03100684891,50.4684697678159],[-121.030903151583,50.4686543713157],[-121.030826646626,50.4688529054592],[-121.030765780804,50.4691911954169],[-121.030774516177,50.469400514575],[-121.03087173242,50.4696302353858],[-121.031025728586,50.4699350019231],[-121.031328648765,50.4704037006821],[-121.031528716977,50.4707108938477],[-121.03174836933,50.4710827971008],[-121.032144138066,50.4717287295996],[-121.032379429554,50.4721450311628],[-121.032464106312,50.4721451210379]]]}},{"type":"Feature","id":"883059532","properties":{"name":"iSP_22KPH_%TR_Brake_Ctrl","oid":"883059532","speedLimit":6.111111},"geometry":{"type":"Polygon","coordinates":[[[-121.027260219418,50.477321928041],[-121.027028027579,50.4772097638892],[-121.027332497582,50.4769440031547],[-121.027714458794,50.4766324061082],[-121.028031186498,50.4763226964392],[-121.028188423205,50.4761687403559],[-121.028619274325,50.4756923123364],[-121.028905287331,50.4753257117155],[-121.029261887784,50.4748875704978],[-121.029470691368,50.4746566813105],[-121.029689498363,50.4745403829031],[-121.029799535879,50.4744881654575],[-121.029950291503,50.4745926003488],[-121.029786714606,50.4745420006553],[-121.029554100087,50.4747914939928],[-121.02924991187,50.4751730138839],[-121.029070977625,50.4754779601715],[-121.028851184378,50.4757747278229],[-121.028694088564,50.4759746999684],[-121.028406948413,50.4762705688687],[-121.028039640084,50.4765699428987],[-121.027241903314,50.4772193805272],[-121.027260219418,50.477321928041]]]}},{"type":"Feature","id":"884401102","properties":{"name":"iSP_30KPH_%TR_Maint_Limit_Policy","oid":"884401102","speedLimit":8.333333},"geometry":{"type":"Polygon","coordinates":[[[-121.037217698836,50.4610266697471],[-121.037674333395,50.461079875819],[-121.037993315388,50.4608740617906],[-121.037906384341,50.460483284762],[-121.03785918515,50.4606705845154],[-121.037199523625,50.4607815802905],[-121.036971135899,50.4606590804998],[-121.037217698836,50.4610266697471]]]}},{"type":"Feature","id":"910445950","properties":{"name":"SP_22KPH_%TR_1635_FLATS_OCT_5_NS","oid":"910445950","speedLimit":6.111111},"geometry":{"type":"Polygon","coordinates":[[[-121.017367409937,50.4554936876372],[-121.018000583558,50.4544140178016],[-121.018145844351,50.4539983453643],[-121.018530482532,50.4537513685302],[-121.018946539876,50.4536879166943],[-121.018864399194,50.4543414885785],[-121.018259545088,50.4560719441694],[-121.018273634398,50.4557006700422],[-121.017367409937,50.4554936876372]]]}},{"type":"Feature","id":"915576987","properties":{"name":"iSP_15KPH_%TR_Preventing Shifting","oid":"915576987","speedLimit":4.1666665},"geometry":{"type":"Polygon","coordinates":[[[-121.036996355765,50.4448630785063],[-121.037510474712,50.4453129933649],[-121.03797978965,50.4457954430176],[-121.038523777934,50.4462187548402],[-121.0394564903,50.446849857944],[-121.039913829324,50.4470996209068],[-121.040469793523,50.4471949784108],[-121.041223008071,50.4473226909586],[-121.041641460598,50.4475095413364],[-121.042320001799,50.4480949878783],[-121.042702667477,50.4485277365888],[-121.042846096659,50.448794755575],[-121.04300756016,50.4493915263823],[-121.043186776191,50.4501980657233],[-121.043324287863,50.4505012145084],[-121.043685960468,50.4511686271613],[-121.043856441127,50.4514889420946],[-121.044125406068,50.4522535097539],[-121.044382535987,50.452938088555],[-121.044696304936,50.4537980137183],[-121.044735191433,50.4541946326298],[-121.044570769178,50.4550717239413],[-121.044215154977,50.4568392080823],[-121.044050732721,50.4572072467052],[-121.043004460511,50.4583989009423],[-121.041904508028,50.4595372592322],[-121.041342626319,50.460000565484],[-121.040371168348,50.4605974261664],[-121.03992270559,50.4607308907219],[-121.0391335633,50.460807104825],[-121.038496162886,50.4608386509927],[-121.038643959754,50.46114341753],[-121.038756815133,50.4609494670176],[-121.039877901582,50.4608796340482],[-121.04070593037,50.4606317584628],[-121.041510007329,50.4600578159364],[-121.042873007243,50.4587001623498],[-121.044241924667,50.4571423568674],[-121.044427339995,50.4562900710895],[-121.044812964428,50.4544214774367],[-121.04480986478,50.4537865097027],[-121.044259958984,50.4523012334435],[-121.043832489299,50.4511857933095],[-121.043345280936,50.4503372822867],[-121.043049405412,50.4493095602714],[-121.04292682841,50.4486917586856],[-121.042239270049,50.4478871067221],[-121.041545794178,50.4473913555515],[-121.04109141391,50.4472216713219],[-121.040457817609,50.4471301784482],[-121.03991678808,50.4470195421735],[-121.038819794351,50.44633316587],[-121.038195074317,50.4458716571207],[-121.037151901755,50.4449068476905],[-121.037376062688,50.4446971690318],[-121.036996355765,50.4448630785063]]]}},{"type":"Feature","id":"917773475","properties":{"name":"SP_15KPH_%TR_1200_CORNER_OCT_5_DS","oid":"917773475","speedLimit":4.1666665},"geometry":{"type":"Polygon","coordinates":[[[-121.03709723523,50.4446823396368],[-121.03692309135,50.4448619101297],[-121.036627497612,50.4448203878235],[-121.036412917411,50.4448697292653],[-121.036321336892,50.4449674235224],[-121.036252721949,50.4450819244273],[-121.036240464248,50.4451447471373],[-121.036261598214,50.4452670671778],[-121.036314292236,50.4453512801667],[-121.036182416288,50.4453950493509],[-121.036087313442,50.4451940885791],[-121.036161282322,50.4449314734738],[-121.036258075887,50.444791178409],[-121.03651492402,50.4447148744308],[-121.036712033476,50.4447115490513],[-121.036921400633,50.4447698780052],[-121.037092022185,50.4446834181382],[-121.03709723523,50.4446823396368]]]}},{"type":"Feature","id":"929009157","properties":{"name":"iSP_22KPH_%TR_Long_Single_Lane","oid":"929009157","speedLimit":6.111111},"geometry":{"type":"Polygon","coordinates":[[[-121.005677931559,50.4380557570475],[-121.004748177948,50.4382238235248],[-121.005172688879,50.438197310364],[-121.007933066624,50.4431702805913],[-121.008521858916,50.444534674812],[-121.008208935327,50.4465095008585],[-121.007830919121,50.4466799939642],[-121.008932421429,50.4466467401692],[-121.008821679447,50.4465927252211],[-121.009401736367,50.4448174219445],[-121.008762786129,50.4430681824532],[-121.008261065776,50.4415399458858],[-121.007257484177,50.4401559588886],[-121.006437768083,50.4389838075529],[-121.005858697415,50.4383127998952],[-121.005677931559,50.4380557570475]]]}},{"type":"Feature","id":"933371104","properties":{"name":"SP_25KPH_%TR_1590_HMT_INTERSECT_OCT_5_DS","oid":"933371104","speedLimit":6.9444447},"geometry":{"type":"Polygon","coordinates":[[[-121.006197404443,50.43804649991],[-121.006349428105,50.4381867050996],[-121.006602894804,50.4383161252747],[-121.007160127041,50.4382765802212],[-121.006788591919,50.4381830202196],[-121.006649530422,50.4380653736855],[-121.006197404443,50.43804649991]]]}},{"type":"Feature","id":"934051091","properties":{"name":"iSP_17KPH_%TR_Ramp_Permission Blocker","oid":"934051091","speedLimit":4.7222223},"geometry":{"type":"Polygon","coordinates":[[[-121.039511438612,50.4610295457509],[-121.039463394062,50.4607715142769],[-121.039015917556,50.4607920956797],[-121.039074810874,50.4610448245216],[-121.039162305494,50.4608997660754],[-121.039378294626,50.4608866443076],[-121.039511438612,50.4610295457509]]]}},{"type":"Feature","id":"936513295","properties":{"name":"SP_30KPH_%TR_1635_FLATS_OCT_5_DS","oid":"936513295","speedLimit":8.333333},"geometry":{"type":"Polygon","coordinates":[[[-121.017283578538,50.4555550723452],[-121.018047782748,50.4557850627813],[-121.017431657193,50.4574536842886],[-121.015224566678,50.4585168171018],[-121.014495726637,50.4578795126146],[-121.016174890682,50.4566192836598],[-121.017283578538,50.4555550723452]]]}},{"type":"Feature","id":"938065675","properties":{"name":"iSP_8KPH_CR01_YARD_RUTIING_OCT_4_NS","oid":"938065675","speedLimit":2.2222223},"geometry":{"type":"Polygon","coordinates":[[[-121.034287544897,50.464801065353],[-121.034097339204,50.4648578664298],[-121.033939116245,50.4649068483711],[-121.033827669797,50.4650048122536],[-121.034042531785,50.465068713465],[-121.0339625045,50.4650111933872],[-121.034240909279,50.4648879745956],[-121.034317555129,50.4649372261622],[-121.034287544897,50.464801065353]]]}},{"type":"Feature","id":"938165680","properties":{"name":"SP_10KPH_%TR_22SH_OCT_5_DS","oid":"938165680","speedLimit":2.7777777},"geometry":{"type":"Polygon","coordinates":[[[-121.034078741313,50.4466112394962],[-121.035053580718,50.4472504313608],[-121.035495421501,50.447447168002],[-121.035793551314,50.4469120515281],[-121.034853230721,50.4461952075584],[-121.034078741313,50.4466112394962]]]}},{"type":"Feature","id":"948333262","properties":{"name":"SP_15KPH_%TR_19SH_LOADAREA_OCT_5_DS","oid":"948333262","speedLimit":4.1666665},"geometry":{"type":"Polygon","coordinates":[[[-121.002088679668,50.42570529759],[-121.001353781224,50.4259954144825],[-121.001487488782,50.4262928112598],[-121.001511863289,50.4266961708055],[-121.001608093281,50.4268352974937],[-121.001752086036,50.4269522250268],[-121.001945673165,50.4270054310988],[-121.002286916269,50.4266843072894],[-121.002088679668,50.42570529759]]]}},{"type":"Feature","id":"950375436","properties":{"name":"SP_22KPH_%TR_1445_RAC_OCT_5_DS","oid":"950375436","speedLimit":6.111111},"geometry":{"type":"Polygon","coordinates":[[[-121.039805200739,50.4640111529094],[-121.039745884741,50.4638809238582],[-121.039088900185,50.4641958462843],[-121.03824283708,50.4645745800466],[-121.037812267746,50.464837285027],[-121.037693494857,50.4647591835463],[-121.037838192078,50.4649249132705],[-121.038576753742,50.4645177789698],[-121.039010986297,50.4643259854603],[-121.03952313274,50.4641224183099],[-121.039797874298,50.4640017160216],[-121.039805200739,50.4640111529094]]]}},{"type":"Feature","id":"950380359","properties":{"name":"SP_20KPH_%TR_EMPTY_23SH_SOFT_OCT_5_DS","oid":"950380359","speedLimit":5.5555553},"geometry":{"type":"Polygon","coordinates":[[[-121.038899258064,50.4647303336323],[-121.038784852861,50.4646500751487],[-121.038307647909,50.4649202397642],[-121.038376403745,50.4649519656821],[-121.038780907854,50.4647035508461],[-121.038891649836,50.464727907004],[-121.038899258064,50.4647303336323]]]}},{"type":"Feature","id":"950427531","properties":{"name":"SP_15KPH_%TR_1590_DUMP_HEAD_OCT_5_DS","oid":"950427531","speedLimit":4.1666665},"geometry":{"type":"Polygon","coordinates":[[[-121.014467407123,50.4503497749286],[-121.014250572632,50.4491357417862],[-121.014359060324,50.4478525946754],[-121.014447682088,50.4473997139378],[-121.013688409136,50.4470536947197],[-121.013550474785,50.4483117666716],[-121.01394483459,50.4505322214254],[-121.01455616978,50.4504252700307],[-121.014467407123,50.4503497749286]]]}},{"type":"Feature","id":"950999947","properties":{"name":"SP_15KPH_%TR_23SH_HEADING_SOFT_OCT_5_DS","oid":"950999947","speedLimit":4.1666665},"geometry":{"type":"Polygon","coordinates":[[[-121.038045445837,50.4652780326232],[-121.037530199746,50.4649772205913],[-121.03719839648,50.4652223100478],[-121.036744297998,50.4653226106835],[-121.037381698412,50.4658350786268],[-121.038045445837,50.4652836048808],[-121.038045445837,50.4652780326232]]]}},{"type":"Feature","id":"951141721","properties":{"name":"SP_8KPH_%TR_CR1_SHOPSIDE_OCT_5_DS","oid":"951141721","speedLimit":2.2222223},"geometry":{"type":"Polygon","coordinates":[[[-121.03377201702,50.4647083142275],[-121.033828092477,50.4646112490962],[-121.033599563858,50.4645575037735],[-121.033278750254,50.4644628652705],[-121.033367090232,50.4646853061964],[-121.033563495223,50.4646291342454],[-121.033735948385,50.4646342571273],[-121.03377201702,50.4647134371094],[-121.03377201702,50.4647083142275]]]}},{"type":"Feature","id":"951524646","properties":{"name":"SP_15KPH_%TR_TEMP_NEWCULVERT_OCT_5_DS","oid":"951524646","speedLimit":4.1666665},"geometry":{"type":"Polygon","coordinates":[[[-121.039087209468,50.4509928314235],[-121.038260448718,50.4508244953208],[-121.03812857277,50.4514809432088],[-121.039051986191,50.4514809432088],[-121.039087209468,50.4509928314235]]]}},{"type":"Feature","id":"951556849","properties":{"name":"SP_12KPH_%TR_22SH_Oct_5_DS","oid":"951556849","speedLimit":3.3333333},"geometry":{"type":"Polygon","coordinates":[[[-121.03964514617,50.4531055259065],[-121.039861698875,50.4530146621586],[-121.038944343858,50.4531963896544],[-121.03891588345,50.4542504450803],[-121.039685018919,50.454395863027],[-121.039787589101,50.453697982708],[-121.039673606578,50.4534072366896],[-121.039667970853,50.4532291041987],[-121.03964514617,50.4531055259065]]]}},{"type":"Feature","id":"951577996","properties":{"name":"SP_15KPH_%TR_CALPAD_HMT_OCT_5_DS","oid":"951577996","speedLimit":4.1666665},"geometry":{"type":"Polygon","coordinates":[[[-121.001955958361,50.4387285622076],[-121.00194863192,50.4386451580948],[-121.001903546126,50.4381223545126],[-121.001889315922,50.4379566247884],[-121.002007384345,50.4374081169214],[-121.000551958554,50.4367848329532],[-121.000085038798,50.4370287540332],[-121.000607893117,50.4385989622823],[-121.001300241843,50.4386654698723],[-121.001369702145,50.4386722105064],[-121.001665154989,50.439008253586],[-121.001993013248,50.4395129922688],[-121.002258596754,50.439480637225],[-121.001989490921,50.438954328513],[-121.001955958361,50.4387285622076]]]}},{"type":"Feature","id":"952254247","properties":{"name":"SP_20KPH_roughroad_OCT_5_DS","oid":"952254247","speedLimit":5.5555553},"geometry":{"type":"Polygon","coordinates":[[[-121.039487064104,50.4684339076424],[-121.040351584207,50.4688991012717],[-121.041592148011,50.4676857871304],[-121.041013218235,50.4669904233147],[-121.040524600942,50.4665876030198],[-121.039817881119,50.4666355064596],[-121.040547143839,50.4674412369246],[-121.040509525379,50.4677769205037],[-121.039562301023,50.4684339076424],[-121.039487064104,50.4684339076424]]]}},{"type":"Feature","id":"952717701","properties":{"name":"SP_15KPH_SLIMY SECTION_OCT 6_DS","oid":"952717701","speedLimit":4.1666665},"geometry":{"type":"Polygon","coordinates":[[[-121.038292995026,50.4618265583291],[-121.037890322527,50.4619115801942],[-121.037967250163,50.4620457637507],[-121.038093490387,50.4622849214492],[-121.0382015554,50.4624298001452],[-121.038262843901,50.4626873822436],[-121.03827820125,50.462809612409],[-121.038744980112,50.4627671014765],[-121.038483059827,50.462664733713],[-121.038371049807,50.4623262640051],[-121.03813491296,50.4619257804634],[-121.038292995026,50.4618265583291]]]}}]}