{"type":"FeatureCollection","features":[{"type":"Feature","id":"702602533","properties":{"name":"iSP_4KPH_%TR_CR01_SLOW BUMP","oid":"702602533","speedLimit":1.1111112},"geometry":{"type":"Polygon","coordinates":[[[-121.033359943127,50.4648074735665],[-121.033654670005,50.4646904565549],[-121.033698061916,50.464731169847],[-121.033370227573,50.4648693074406],[-121.033359943127,50.4648074735665]]]}},{"type":"Feature","id":"707947583","properties":{"name":"iSP_25KPH_%TR_Permission Gate 1 from west dump_Jun","oid":"707947583","speedLimit":6.9444447},"geometry":{"type":"Polygon","coordinates":[[[-121.038629242696,50.4619775852066],[-121.038855923168,50.4617990938202],[-121.038140942811,50.4614078687422],[-121.037993297606,50.461670572832],[-121.038192787692,50.461566497794],[-121.038667703708,50.4618456489753],[-121.038629242696,50.4619775852066]]]}},{"type":"Feature","id":"742345972","properties":{"name":"iSP_4KPH_%TR_CR01_PITSIDE_SLOW BUMP","oid":"742345972","speedLimit":1.1111112},"geometry":{"type":"Polygon","coordinates":[[[-121.033399812968,50.4648824291638],[-121.033707078418,50.464743932071],[-121.033757232705,50.4647760173806],[-121.033475748812,50.4649179297165],[-121.033399812968,50.4648824291638]]]}},{"type":"Feature","id":"776427243","properties":{"name":"iSP_7KPH_%TR_CR1_PermissionBlocker_DO_NOT_DELETE","oid":"776427243","speedLimit":1.9444444},"geometry":{"type":"Polygon","coordinates":[[[-121.034100986807,50.4652124494915],[-121.034052523114,50.4652327612001],[-121.03403139069,50.4652741934907],[-121.03411704745,50.4652251218407],[-121.034100986807,50.4652124494915]]]}},{"type":"Feature","id":"794004438","properties":{"name":"iSP_11KPH_%TR_LOWER_FUEL_BAY","oid":"794004438","speedLimit":3.0555556},"geometry":{"type":"Polygon","coordinates":[[[-121.036777619675,50.4606950715693],[-121.036779732917,50.4607249100085],[-121.03675000664,50.4606704458695],[-121.037126163794,50.4605987257656],[-121.037536132826,50.4605556757283],[-121.037543881382,50.4605810204266],[-121.036945411124,50.4606498645364],[-121.036777619675,50.4606950715693]]]}},{"type":"Feature","id":"801543391","properties":{"name":"iSP_4KPH_%TR_CR1_PermissionBlocker_DO_NOT_DELETE_","oid":"801543391","speedLimit":1.1111112},"geometry":{"type":"Polygon","coordinates":[[[-121.033156508322,50.4645229298962],[-121.033155663025,50.4644734987469],[-121.033177218098,50.4644314373326],[-121.033109171691,50.4644590289014],[-121.033156508322,50.4645229298962]]]}},{"type":"Feature","id":"806473874","properties":{"name":"iSP_4KPH_%TR_Permission Blocker - DO NOT DELETE","oid":"806473874","speedLimit":1.1111112},"geometry":{"type":"Polygon","coordinates":[[[-121.022721035415,50.4815447708445],[-121.02268792795,50.4815424340992],[-121.022680320277,50.4815711041658],[-121.022702438881,50.4815721826636],[-121.022706524483,50.4815480962127],[-121.022721035415,50.4815447708445]]]}},{"type":"Feature","id":"824566967","properties":{"name":"iSP_4Cr_3KPH","oid":"824566967","speedLimit":0.8333333},"geometry":{"type":"Polygon","coordinates":[[[-121.023303867678,50.4810678950659],[-121.023283721434,50.4810678950659],[-121.02328104466,50.4811859905754],[-121.023306121803,50.4811852715768],[-121.023303867678,50.4810678950659]]]}},{"type":"Feature","id":"826307302","properties":{"name":"iSP_4KPH_TR%_CRUSHER POCKETS","oid":"826307302","speedLimit":1.1111112},"geometry":{"type":"Polygon","coordinates":[[[-121.023299077662,50.4813210724252],[-121.023338524854,50.4814767356081],[-121.023543227605,50.4814372805634],[-121.023462219978,50.4811884171954],[-121.02305394154,50.481189136194],[-121.023059295087,50.4813598084713],[-121.023284144082,50.4813258357905],[-121.023299077662,50.4813210724252]]]}},{"type":"Feature","id":"883050998","properties":{"name":"iSP_22kph_%TR_4CR_Brake_Temp_CTRL_NOREMOVE","oid":"883050998","speedLimit":6.111111},"geometry":{"type":"Polygon","coordinates":[[[-121.031800229327,50.4745586215766],[-121.032189488584,50.474312005079],[-121.032491118721,50.4745743496695],[-121.032792748858,50.4748017329563],[-121.032970542988,50.4748841481634],[-121.03317933134,50.4749342983113],[-121.033463210241,50.4749591037607],[-121.033667067694,50.4749215360872],[-121.03382823765,50.4748621288333],[-121.033919388841,50.4748100913143],[-121.034008708554,50.474746909318],[-121.034059144607,50.4746577534996],[-121.034053368411,50.4745475669741],[-121.034057172248,50.4744832166052],[-121.03399504292,50.474379231442],[-121.033876701344,50.4742591586866],[-121.033509842457,50.4739372270925],[-121.033061553295,50.4735595731118],[-121.032948283501,50.4734250305109],[-121.032823320431,50.4732204754276],[-121.032606501758,50.4728145108797],[-121.03225302674,50.4722085748641],[-121.032488019298,50.4721557284717],[-121.032430961753,50.4722052494958],[-121.032903482761,50.4730484550281],[-121.033042674996,50.4733091818719],[-121.033250477169,50.4735465412634],[-121.033743426187,50.4739612236686],[-121.034098450916,50.474270752538],[-121.034203831272,50.4743940607868],[-121.034256521451,50.4744612871499],[-121.034263565592,50.4745924145077],[-121.034238629331,50.4746784247075],[-121.034184107676,50.4747912176027],[-121.034086616759,50.4748754303062],[-121.033973769613,50.4749372641802],[-121.033791185466,50.4750157248954],[-121.033531679296,50.475063987672],[-121.033263720155,50.4750676725395],[-121.033072119507,50.4750258807497],[-121.032808386852,50.4749161435982],[-121.032657642225,50.4748347170141],[-121.03249604962,50.4747049377785],[-121.032145533141,50.4744126648739],[-121.031800229327,50.4745586215766]]]}},{"type":"Feature","id":"883053336","properties":{"name":"iSP_22kph_%TR_Brake_Temp_CTRL_NOREMOVE","oid":"883053336","speedLimit":6.111111},"geometry":{"type":"Polygon","coordinates":[[[-121.032466745991,50.4721448536189],[-121.032251899677,50.4722251118304],[-121.031489300924,50.471007937185],[-121.030817430713,50.4699229683953],[-121.030662177835,50.4696598149314],[-121.030597371734,50.4694573269689],[-121.030551021283,50.4692563668783],[-121.030597371734,50.4689725422065],[-121.030723602749,50.4686239177917],[-121.030885336236,50.4683751442985],[-121.031089757221,50.4680974311143],[-121.031689072775,50.4675361628827],[-121.032432934112,50.4668932883173],[-121.032789226787,50.4665558083798],[-121.033148337118,50.4662220133098],[-121.033485187962,50.4658703331513],[-121.033780196606,50.4660337255684],[-121.03358817331,50.4659929224016],[-121.032920106935,50.4666517048095],[-121.032555361291,50.4669908923685],[-121.03217934502,50.4673073415988],[-121.031775152184,50.4676680092391],[-121.031382793505,50.4680340693683],[-121.031147941829,50.4682859884801],[-121.031009594891,50.4684695128563],[-121.030905905129,50.4686541157302],[-121.030829405753,50.4688526492007],[-121.030768544371,50.4691909380116],[-121.030777279106,50.4694002564602],[-121.030874488258,50.4696299764922],[-121.03102847319,50.4699347419963],[-121.031331371273,50.4704034391665],[-121.03153142489,50.4707106312907],[-121.03175106122,50.471082533283],[-121.032146801087,50.4717284635922],[-121.032382075411,50.4721447637441],[-121.032466745991,50.4721448536189]]]}},{"type":"Feature","id":"883059532","properties":{"name":"iSP_22kph_%TR_Brake_CTRL_NOREMOVE","oid":"883059532","speedLimit":6.111111},"geometry":{"type":"Polygon","coordinates":[[[-121.027263238703,50.4773216430728],[-121.027031063801,50.4772094793013],[-121.027335511595,50.4769437194677],[-121.027717444944,50.4766321234775],[-121.028034149544,50.4763224148584],[-121.028191374781,50.476168459297],[-121.028622194472,50.4756920328926],[-121.028908186614,50.4753254335144],[-121.029264761055,50.474887293782],[-121.029473549407,50.4746564053774],[-121.02969234044,50.4745401073643],[-121.02980236993,50.4744878900957],[-121.029953114557,50.4745923246329],[-121.029789549592,50.474541725111],[-121.029556952042,50.4747912176027],[-121.029252786014,50.4751727362005],[-121.029073864821,50.4754776814543],[-121.028854087608,50.4757744480997],[-121.028697003254,50.4759744195673],[-121.028409884048,50.4762702874646],[-121.028042602513,50.4765696604797],[-121.027244923936,50.4772190959067],[-121.027263238703,50.4773216430728]]]}},{"type":"Feature","id":"884401102","properties":{"name":"iSP_30KPH_MAIN INT_LIMIT_POLICY_SEPT_8_NS","oid":"884401102","speedLimit":8.333333},"geometry":{"type":"Polygon","coordinates":[[[-121.036993170403,50.4611009462424],[-121.037109257854,50.4611074172293],[-121.038295491274,50.4609917483399],[-121.038279148866,50.4603975859253],[-121.038120655683,50.4605654720833],[-121.037033603775,50.4607081034177],[-121.036745921038,50.4605374311404],[-121.036993170403,50.4611009462424]]]}},{"type":"Feature","id":"910445950","properties":{"name":"SP_22KPH_%TR_1635_FLATS_SEP_11_DS","oid":"910445950","speedLimit":6.111111},"geometry":{"type":"Polygon","coordinates":[[[-121.018918185212,50.4576031082432],[-121.01525030076,50.4587001202584],[-121.014499677047,50.4578792935556],[-121.017482448302,50.4564154125378],[-121.017774780172,50.4542394533456],[-121.018181649783,50.4539927469732],[-121.018534138621,50.4537511634654],[-121.019043711813,50.4536548176616],[-121.01922136506,50.4539286662288],[-121.01924672397,50.4568504066516],[-121.019159376616,50.4570727569486],[-121.019197414979,50.4574047545223],[-121.018918185212,50.4576031082432]]]}},{"type":"Feature","id":"917773475","properties":{"name":"SP_15KPH_%TR_1200_CORNER_Sept_11_DS","oid":"917773475","speedLimit":4.1666665},"geometry":{"type":"Polygon","coordinates":[[[-121.037099536939,50.4446821653156],[-121.036925405762,50.4448617351998],[-121.036629833587,50.4448202130344],[-121.036415269039,50.4448695543089],[-121.0363236952,50.4449672482349],[-121.036255085262,50.4450817487516],[-121.036242828456,50.4451445712486],[-121.03626396088,50.4452668908744],[-121.036316651059,50.4453511035779],[-121.036184784731,50.4453948726137],[-121.036089688821,50.4451939125231],[-121.036163652306,50.4449312983081],[-121.03626043881,50.4447910037189],[-121.036517268207,50.4447146999994],[-121.036714363285,50.4447113746311],[-121.036923715169,50.4447697033873],[-121.037094324274,50.4446832438134],[-121.037099536939,50.4446821653156]]]}},{"type":"Feature","id":"926367691","properties":{"name":"SP_25KPH_%TR_24SH_SEP_11_DS","oid":"926367691","speedLimit":6.9444447},"geometry":{"type":"Polygon","coordinates":[[[-121.038554856562,50.4504032366607],[-121.038074727881,50.4496783962624],[-121.03754331785,50.449859224394],[-121.038245900518,50.4520110971352],[-121.038397490442,50.4531299487309],[-121.038777874081,50.453096515299],[-121.038843384596,50.4508305914151],[-121.038554856562,50.4504032366607]]]}},{"type":"Feature","id":"929009157","properties":{"name":"iSP_22kph_Long_Single_Lane_Aug30","oid":"929009157","speedLimit":6.111111},"geometry":{"type":"Polygon","coordinates":[[[-121.005682525197,50.4380556051902],[-121.004752839408,50.4382236710978],[-121.005177319372,50.4381971580268],[-121.007937495757,50.443170111396],[-121.008526245099,50.4445345009915],[-121.008213344336,50.4465093203434],[-121.007835355706,50.4466798128711],[-121.008936777663,50.4466465591888],[-121.008826043759,50.4465925444238],[-121.009406058366,50.4448172471654],[-121.008767154737,50.443068013604],[-121.008265470983,50.4415397822173],[-121.007261962592,50.4401557999117],[-121.006442306293,50.4389836525496],[-121.005863277866,50.4383126471666],[-121.005682525197,50.4380556051902]]]}},{"type":"Feature","id":"930116666","properties":{"name":"SP_25KPH_9023 Rough_SEP_11_DS","oid":"930116666","speedLimit":6.9444447},"geometry":{"type":"Polygon","coordinates":[[[-121.043598180074,50.4685539053093],[-121.043297958765,50.4689175388185],[-121.042549448295,50.4684622329961],[-121.042344886427,50.4680402707307],[-121.043036762,50.4679069863772],[-121.043598180074,50.4685539053093]]]}},{"type":"Feature","id":"933252378","properties":{"name":"SP_20KPH_%TR_1615_ROUGH_SECTION_SEP_11_DS","oid":"933252378","speedLimit":5.5555553},"geometry":{"type":"Polygon","coordinates":[[[-121.007364102643,50.4314115194755],[-121.007546545907,50.4321453473555],[-121.007055287482,50.4322073609792],[-121.007400591296,50.4321235976498],[-121.007259567584,50.431484407952],[-121.006911727879,50.4314549290121],[-121.007364102643,50.4314115194755]]]}},{"type":"Feature","id":"933252478","properties":{"name":"SP_30KPH_%TR_1605_PATCH_SEP_11_DS","oid":"933252478","speedLimit":8.333333},"geometry":{"type":"Polygon","coordinates":[[[-121.006595445928,50.4333405925456],[-121.007213498899,50.4334381067219],[-121.006982591942,50.4339624364038],[-121.006680398274,50.4343784669312],[-121.006276205438,50.4347749946234],[-121.00574296393,50.4345236147606],[-121.00621506229,50.4346037830972],[-121.006704066589,50.4339776252478],[-121.006897639596,50.4335508097423],[-121.006595445928,50.4333405925456]]]}},{"type":"Feature","id":"933252549","properties":{"name":"SP_35KPH_%TR_1590_ROUGH_SEP_11_DS","oid":"933252549","speedLimit":9.722222},"geometry":{"type":"Polygon","coordinates":[[[-121.004364848097,50.4363925615782],[-121.004781438622,50.4364497219617],[-121.004885691916,50.4362109245732],[-121.005083632291,50.4359566687162],[-121.004586175022,50.4358321022199],[-121.004800176039,50.4359805754174],[-121.004629003402,50.4363678460035],[-121.004364848097,50.4363925615782]]]}},{"type":"Feature","id":"933371104","properties":{"name":"SP_25KPH_1590_HMT_INTERSECT_SEPT_11_DS","oid":"933371104","speedLimit":6.9444447},"geometry":{"type":"Polygon","coordinates":[[[-121.006362284846,50.4374884950955],[-121.005864545812,50.4376809170785],[-121.006070516508,50.4377776223815],[-121.006390038764,50.4379881092027],[-121.006555857853,50.4382640248906],[-121.007089381127,50.438153388991],[-121.006747458501,50.4380707041595],[-121.006119121084,50.4376593471225],[-121.006362284846,50.4374884950955]]]}},{"type":"Feature","id":"934051091","properties":{"name":"iSP_17KPH_PERMISSIONS BLOCKER_SEPT 7_NS","oid":"934051091","speedLimit":4.7222223},"geometry":{"type":"Polygon","coordinates":[[[-121.039513564213,50.4610293160134],[-121.039465523169,50.460771285414],[-121.039018079304,50.4607918667471],[-121.039076968326,50.4610445947322],[-121.039164456563,50.4608995367778],[-121.03938042994,50.4608864150545],[-121.039513564213,50.4610293160134]]]}},{"type":"Feature","id":"934773555","properties":{"name":"SP_10KPH_NEW RAMP_SEPT 11_DS","oid":"934773555","speedLimit":2.7777777},"geometry":{"type":"Polygon","coordinates":[[[-121.035775942761,50.4443188014309],[-121.036277908281,50.4444732063663],[-121.035932886232,50.4447852517306],[-121.034509265246,50.4446686840931],[-121.034741017499,50.444151364647],[-121.035775942761,50.4443188014309]]]}},{"type":"Feature","id":"934888580","properties":{"name":"SP_12KPH_RUTS_SEPT 11_DS","oid":"934888580","speedLimit":3.3333333},"geometry":{"type":"Polygon","coordinates":[[[-121.038717294464,50.4531201523758],[-121.038178417643,50.4531790203809],[-121.038462719192,50.4532002308377],[-121.038508787877,50.453617339863],[-121.03830028129,50.4537111691718],[-121.038743216905,50.4536381908205],[-121.038717294464,50.4531201523758]]]}},{"type":"Feature","id":"935505135","properties":{"name":"SP_15KPH_%TR_1590_WATERHOLES_AUG_11_DS","oid":"935505135","speedLimit":4.1666665},"geometry":{"type":"Polygon","coordinates":[[[-121.013404876584,50.4441732941023],[-121.012721031332,50.4442016046696],[-121.012969689525,50.4452610490113],[-121.013111840299,50.4462071612089],[-121.013280477046,50.4469889822412],[-121.013706788486,50.4470966522719],[-121.013795685551,50.4467737320547],[-121.013440379056,50.443748365968],[-121.013387125347,50.4441619698754],[-121.013404876584,50.4441732941023]]]}}]}