{"type":"FeatureCollection","features":[{"type":"Feature","id":"702602533","properties":{"name":"iSP_4KPH_%TR_CR01_Slow Bump","oid":"702602533","speedLimit":1.1111112},"geometry":{"type":"Polygon","coordinates":[[[-121.033359051553,50.4648078470854],[-121.033653788586,50.4646908298043],[-121.033697181992,50.4647315431901],[-121.033369336354,50.4648696811019],[-121.033359051553,50.4648078470854]]]}},{"type":"Feature","id":"707947583","properties":{"name":"iSP_25KPH_%TR_Permission Gate 1 From West Dump","oid":"707947583","speedLimit":6.9444447},"geometry":{"type":"Polygon","coordinates":[[[-121.038628532666,50.4619779522062],[-121.038855220948,50.4617994604086],[-121.038140215958,50.4614082344293],[-121.037992565666,50.4616709391243],[-121.038192062625,50.4615668638466],[-121.038666995004,50.461846015671],[-121.038628532666,50.4619779522062]]]}},{"type":"Feature","id":"742345972","properties":{"name":"iSP_4KPH_%TR_CR01_Pit Side_Slow Bump","oid":"742345972","speedLimit":1.1111112},"geometry":{"type":"Polygon","coordinates":[[[-121.033398922768,50.4648828028554],[-121.033706198804,50.4647443054435],[-121.033756354819,50.4647763908271],[-121.033474861229,50.4649183034899],[-121.033398922768,50.4648828028554]]]}},{"type":"Feature","id":"776427243","properties":{"name":"iSP_7KPH_%TR_CR1_PermissionBlocker","oid":"776427243","speedLimit":1.9444444},"geometry":{"type":"Polygon","coordinates":[[[-121.034100120765,50.4652128239434],[-121.034051655402,50.4652331356988],[-121.03403052225,50.4652745680848],[-121.034116181961,50.4652254963218],[-121.034100120765,50.4652128239434]]]}},{"type":"Feature","id":"794004438","properties":{"name":"iSP_11KPH_%TR_Lower_Fuel_Bay","oid":"794004438","speedLimit":3.0555556},"geometry":{"type":"Polygon","coordinates":[[[-121.036776845851,50.4606954356143],[-121.036778959166,50.4607252741223],[-121.036749231865,50.4606708098578],[-121.037125401978,50.4605990895886],[-121.037535385135,50.4605560394522],[-121.037543133958,50.4605813842089],[-121.036944643081,50.4606502284773],[-121.036776845851,50.4606954356143]]]}},{"type":"Feature","id":"801543391","properties":{"name":"iSP_4KPH_%TR_CR01_PermissionBlocker_2","oid":"801543391","speedLimit":1.1111112},"geometry":{"type":"Polygon","coordinates":[[[-121.033155609739,50.4645233027596],[-121.033154764413,50.4644738714964],[-121.033176320229,50.4644318099852],[-121.033108271478,50.4644594016176],[-121.033155609739,50.4645233027596]]]}},{"type":"Feature","id":"806473874","properties":{"name":"iSP_4KPH_%TR_CR04_PermissionBlocker","oid":"806473874","speedLimit":1.1111112},"geometry":{"type":"Polygon","coordinates":[[[-121.022719777298,50.4815451829216],[-121.022686668692,50.481542846171],[-121.022679060757,50.4815715163037],[-121.022701180123,50.481572594804],[-121.022705265866,50.4815485082975],[-121.022719777298,50.4815451829216]]]}},{"type":"Feature","id":"824566967","properties":{"name":"iSP_3KPH_%TR_CR04","oid":"824566967","speedLimit":0.8333333},"geometry":{"type":"Polygon","coordinates":[[[-121.023302629641,50.4810683060445],[-121.023282482703,50.4810683060445],[-121.023279805837,50.481186401826],[-121.023304883844,50.4811856828258],[-121.023302629641,50.4810683060445]]]}},{"type":"Feature","id":"826307302","properties":{"name":"iSP_4KPH_%TR_CR04_Pockets","oid":"826307302","speedLimit":1.1111112},"geometry":{"type":"Polygon","coordinates":[[[-121.02329783946,50.481321483987],[-121.023337288011,50.4814771475285],[-121.023541997814,50.481437692393],[-121.023460987397,50.4811888284517],[-121.023052694892,50.4811895474518],[-121.023058048624,50.4813602201223],[-121.023282905366,50.4813262473633],[-121.02329783946,50.481321483987]]]}},{"type":"Feature","id":"875953603","properties":{"name":"SP_30KPH_%TR_CR01_YARD_LOADED_Sept_27_DS","oid":"875953603","speedLimit":8.333333},"geometry":{"type":"Polygon","coordinates":[[[-121.03811091132,50.4622576432807],[-121.038364790924,50.4628959357008],[-121.038315762011,50.4633432436951],[-121.038101612733,50.4637139781689],[-121.037625553252,50.4639749752385],[-121.037928320883,50.4642049654248],[-121.037828995066,50.4640212608758],[-121.03827504547,50.4637269201723],[-121.038556398173,50.4631643923974],[-121.038355915,50.4621660606313],[-121.03811091132,50.4622576432807]]]}},{"type":"Feature","id":"883050998","properties":{"name":"iSP_22KPH_%TR_4CR_Brake_Temp_Ctrl","oid":"883050998","speedLimit":6.111111},"geometry":{"type":"Polygon","coordinates":[[[-121.031799284017,50.4745590175595],[-121.032188556685,50.4743124004938],[-121.032490197214,50.4745747456887],[-121.032791837742,50.4748021294993],[-121.032969637998,50.4748845448963],[-121.033178433544,50.4749346951597],[-121.033462322225,50.4749595006663],[-121.033666186702,50.4749219329063],[-121.033827362211,50.4748625255154],[-121.033918516542,50.4748104878766],[-121.034007839333,50.4747473057347],[-121.034058277123,50.474658149711],[-121.034052500728,50.4745479629316],[-121.034056304696,50.4744836124144],[-121.033994173228,50.4743796270117],[-121.033875827574,50.4742595539797],[-121.033508956048,50.4739376216439],[-121.033060651441,50.4735599667933],[-121.032947377744,50.4734254238824],[-121.03282241037,50.4732208683279],[-121.032605584226,50.4728149028447],[-121.03225209703,50.4722089654332],[-121.032487097684,50.4721561189191],[-121.032430038173,50.4722056400573],[-121.032902575461,50.473048847532],[-121.033041772492,50.4733095749765],[-121.033249581824,50.4735469349148],[-121.033742547826,50.4739616182753],[-121.034097584787,50.4742711478578],[-121.034202968774,50.4743944563907],[-121.034255660767,50.4744616829086],[-121.034262705151,50.4745928105685],[-121.034237768031,50.4746788209665],[-121.034183244498,50.4747916141215],[-121.034085750221,50.474875827019],[-121.033972899188,50.4749376610355],[-121.033790308751,50.4750161219314],[-121.033530793639,50.4750643848192],[-121.033262825266,50.4750680696952],[-121.033071218017,50.4750262778091],[-121.032807476275,50.4749165404048],[-121.032656726455,50.4748351136331],[-121.032495128282,50.4747053340985],[-121.032144599728,50.4744130605206],[-121.031799284017,50.4745590175595]]]}},{"type":"Feature","id":"883053336","properties":{"name":"iSP_22KPH_%TR_Brake_Temp_Ctrl","oid":"883053336","speedLimit":6.111111},"geometry":{"type":"Polygon","coordinates":[[[-121.032465823644,50.4721452440412],[-121.032250969928,50.4722255024376],[-121.031488344901,50.4710083249881],[-121.030816451542,50.4699233536989],[-121.030661193315,50.4696601996288],[-121.030596384981,50.4694577111998],[-121.030550032933,50.4692567506463],[-121.030596384981,50.4689729253206],[-121.030722620345,50.4686243001027],[-121.030884359405,50.4683755260364],[-121.031088787432,50.4680978122124],[-121.031688123635,50.4675365426878],[-121.032432010601,50.4668936666414],[-121.03278831555,50.4665561859265],[-121.033147438254,50.4662223900875],[-121.033484300704,50.4658707091187],[-121.033779319511,50.4660341019123],[-121.0335872896,50.4659932986514],[-121.032919200208,50.466652082577],[-121.032554441997,50.4669912709174],[-121.032178412771,50.4673077208768],[-121.031774206009,50.4676683893479],[-121.031381833813,50.4680344503205],[-121.031146974046,50.4682863700126],[-121.031008622341,50.4684698948115],[-121.030904929006,50.4686544981107],[-121.030828426995,50.4688530320387],[-121.030767563516,50.4691913216288],[-121.030776298552,50.4694006405596],[-121.030873511053,50.4696303611208],[-121.03102750129,50.4699351273271],[-121.031330409809,50.470403825577],[-121.031530470318,50.4707110184089],[-121.031750114216,50.471082921258],[-121.032145867717,50.4717288530552],[-121.032381150147,50.4721451541662],[-121.032465823644,50.4721452440412]]]}},{"type":"Feature","id":"883059532","properties":{"name":"iSP_22KPH_%TR_Brake_Ctrl","oid":"883059532","speedLimit":6.111111},"geometry":{"type":"Polygon","coordinates":[[[-121.027262137079,50.477322045421],[-121.027029954178,50.4772098813911],[-121.027334412461,50.4769441209453],[-121.027716358969,50.4766325242372],[-121.02803307448,50.4763228149047],[-121.028190305134,50.4761688589886],[-121.028621139668,50.4756924314866],[-121.028907141664,50.4753258312639],[-121.029263728389,50.4748876905221],[-121.029472523935,50.4746568015856],[-121.029691322507,50.4745405033046],[-121.029801355787,50.4744882859157],[-121.029952105607,50.4745927206935],[-121.029788535008,50.474542121055],[-121.029555929443,50.4747916141215],[-121.029251752936,50.4751731335982],[-121.029072825579,50.4754780795545],[-121.028853040794,50.4757748468836],[-121.028695951027,50.4759748188119],[-121.02840882193,50.4762706873908],[-121.028041527741,50.4765700610956],[-121.027243821681,50.4772194980187],[-121.027262137079,50.477322045421]]]}},{"type":"Feature","id":"884401102","properties":{"name":"iSP_30KPH_%TR_Maint_Limit_Policy","oid":"884401102","speedLimit":8.333333},"geometry":{"type":"Polygon","coordinates":[[[-121.036992404006,50.4611013112225],[-121.037108495456,50.4611077822242],[-121.038294769746,50.4609921130684],[-121.038278426775,50.460397949285],[-121.038119928131,50.4605658358298],[-121.037032838771,50.4607084674928],[-121.036745146122,50.4605377948223],[-121.036992404006,50.4611013112225]]]}},{"type":"Feature","id":"910445950","properties":{"name":"SP_22KPH_%TR_1635_FLATS_SEP_26_NS","oid":"910445950","speedLimit":6.111111},"geometry":{"type":"Polygon","coordinates":[[[-121.01736970843,50.4554938287279],[-121.018002857677,50.4544141600651],[-121.018148112878,50.4539984880793],[-121.018532736252,50.4537515115135],[-121.018948777579,50.4536880597466],[-121.01886664006,50.4543416309208],[-121.018261809238,50.456072084632],[-121.018275898006,50.455700810908],[-121.01736970843,50.4554938287279]]]}},{"type":"Feature","id":"915576987","properties":{"name":"iSP_15KPH_%TR_Preventing Shifting","oid":"915576987","speedLimit":4.1666665},"geometry":{"type":"Polygon","coordinates":[[[-121.036997898625,50.4448632311444],[-121.03751199778,50.4453131455143],[-121.037981294652,50.4457955946429],[-121.038525261995,50.4462189060057],[-121.039457938455,50.4468500084239],[-121.039915259874,50.4470997711155],[-121.04047120267,50.4471951285159],[-121.041224388222,50.447322840925],[-121.04164282464,50.4475096910998],[-121.042321339721,50.4480951370058],[-121.042703990667,50.4485278852462],[-121.042847414328,50.4487949039423],[-121.043008871613,50.4493916741014],[-121.043188080746,50.4501982125664],[-121.043325587124,50.4505013610222],[-121.043687245806,50.4511687729501],[-121.043857719902,50.4514890875354],[-121.044126674488,50.4522536543642],[-121.04438379451,50.4529382324217],[-121.044697551379,50.4537981566509],[-121.04473643638,50.4541947751316],[-121.044572020454,50.4550718654904],[-121.044216419942,50.4568393477115],[-121.044052004017,50.4572073859346],[-121.043005772084,50.4583990388772],[-121.041905861944,50.4595373959307],[-121.041344001865,50.4600007016792],[-121.040372581292,50.4605975617132],[-121.039924135798,50.4607310261238],[-121.039135023886,50.4608072401441],[-121.038497648009,50.4608387862775],[-121.038645439188,50.4611435524838],[-121.038758290222,50.4609496021821],[-121.039879333514,50.4608797692885],[-121.040707330426,50.4606318939724],[-121.041511376432,50.4600579520694],[-121.042874323876,50.4587002999575],[-121.044243188602,50.4571424961673],[-121.044428596793,50.4562902113152],[-121.044814206381,50.4544216196921],[-121.044811106852,50.4537866526478],[-121.044261222226,50.452301378002],[-121.043833768996,50.4511859390796],[-121.043346579389,50.4503374289785],[-121.043050715255,50.4493097080796],[-121.042928142971,50.4486919071649],[-121.042240611079,50.4478872560754],[-121.041547161904,50.4473915054433],[-121.041092799127,50.447221821398],[-121.040459227217,50.4471303286237],[-121.039918218515,50.4470196924692],[-121.038821267016,50.4463333169112],[-121.038196571031,50.4458718086632],[-121.037153438627,50.444907000281],[-121.037377590931,50.4446973218502],[-121.036997898625,50.4448632311444]]]}},{"type":"Feature","id":"917773475","properties":{"name":"SP_15KPH_%TR_1200_CORNER_Sept_26_NS","oid":"917773475","speedLimit":4.1666665},"geometry":{"type":"Polygon","coordinates":[[[-121.037098774206,50.4446824924712],[-121.03692463703,50.4448620627691],[-121.036629054672,50.444820540508],[-121.036414482731,50.4448698818962],[-121.036322905737,50.4449675760472],[-121.036254293435,50.4450820768277],[-121.036242036207,50.4451448994695],[-121.036263169359,50.4452672193771],[-121.036315861353,50.4453514322745],[-121.036183990482,50.4453952014112],[-121.036088891296,50.4451942408576],[-121.036162857329,50.4449316260376],[-121.036259647167,50.4447913311252],[-121.036516485413,50.4447150272299],[-121.036713587281,50.444711701854],[-121.036922946378,50.4447700307445],[-121.037093561362,50.4446835709715],[-121.037098774206,50.4446824924712]]]}},{"type":"Feature","id":"926367691","properties":{"name":"SP_30KPH_%TR_24SH_EMPTY_LANE_SEP_26_NS","oid":"926367691","speedLimit":8.333333},"geometry":{"type":"Polygon","coordinates":[[[-121.038923410587,50.4549415467057],[-121.039203354412,50.4546234789959],[-121.039438918618,50.4538306914096],[-121.039920895381,50.4514268940189],[-121.039502458963,50.4515917248128],[-121.039433142223,50.4530470710757],[-121.039204199738,50.4540991481061],[-121.038923410587,50.4549415467057]]]}},{"type":"Feature","id":"927549571","properties":{"name":"SP_30KPH_TR70%_CRUSHER YARD EMPTY_SEPT_27_DS","oid":"927549571","speedLimit":8.333333},"geometry":{"type":"Polygon","coordinates":[[[-121.037754888145,50.4619282513179],[-121.037448457435,50.461260749515],[-121.036778536503,50.4614645860693],[-121.037246988049,50.4615092539562],[-121.037728401261,50.4623115682951],[-121.037507066711,50.4624617494601],[-121.038037508837,50.4623441030538],[-121.037754888145,50.4619282513179]]]}},{"type":"Feature","id":"929009157","properties":{"name":"iSP_22KPH_%TR_Long_Single_Lane","oid":"929009157","speedLimit":6.111111},"geometry":{"type":"Polygon","coordinates":[[[-121.005680680049,50.43805591708],[-121.00475096223,50.4382239833748],[-121.005175456819,50.4381974702427],[-121.007935728301,50.4431704350682],[-121.008524497927,50.4445348278069],[-121.008211586384,50.4465096517082],[-121.007833584731,50.4466801446287],[-121.008935044635,50.4466468908698],[-121.008824306916,50.4465928759804],[-121.009404341506,50.4448175746322],[-121.008765415865,50.443068337041],[-121.008263714826,50.4415401021336],[-121.007260171861,50.4401561166398],[-121.006440487323,50.4389839665773],[-121.005861438946,50.4383129596485],[-121.005680680049,50.43805591708]]]}},{"type":"Feature","id":"932268643","properties":{"name":"SP_35KPH_%traction_1185_1170_SEP_27_DS","oid":"932268643","speedLimit":9.722222},"geometry":{"type":"Polygon","coordinates":[[[-121.038728985584,50.4481974147831],[-121.03846721627,50.4482556537986],[-121.038947079717,50.449829275593],[-121.03950626293,50.4497913483329],[-121.039105719248,50.4497305928167],[-121.038621910945,50.4483441806972],[-121.038851980531,50.448159487523],[-121.038728985584,50.4481974147831]]]}},{"type":"Feature","id":"932654885","properties":{"name":"SP_11KPH_%TR_LOTS OF MUD_SEPT_26_NS","oid":"932654885","speedLimit":3.0555556},"geometry":{"type":"Polygon","coordinates":[[[-121.03636531293,50.4453590716515],[-121.036057755118,50.4454651241798],[-121.036262746696,50.4454606304286],[-121.038009472188,50.4473914155683],[-121.038175719654,50.4473146622978],[-121.03636531293,50.4453590716515]]]}},{"type":"Feature","id":"934051091","properties":{"name":"iSP_17KPH_%TR_Ramp_Permission Blocker","oid":"934051091","speedLimit":4.7222223},"geometry":{"type":"Polygon","coordinates":[[[-121.039512884651,50.4610296808284],[-121.039464841952,50.4607716496346],[-121.039017382671,50.4607922310151],[-121.039076273722,50.4610449595825],[-121.039163764973,50.4608999012938],[-121.039379745791,50.4608867795403],[-121.039512884651,50.4610296808284]]]}},{"type":"Feature","id":"934181442","properties":{"name":"SP_30KPH_TR%_1590_3_SEPT 27_DS_Rough_section ","oid":"934181442","speedLimit":8.333333},"geometry":{"type":"Polygon","coordinates":[[[-121.01106216687,50.4415091851254],[-121.010401121862,50.4418073005799],[-121.01160697954,50.4432053065775],[-121.012272532953,50.4429312776294],[-121.011824369234,50.4429214812518],[-121.010901273136,50.4417730581957],[-121.01106216687,50.4415091851254]]]}},{"type":"Feature","id":"934181877","properties":{"name":"SP_30KPH_TR%_1590_7_SEPT 27_DS","oid":"934181877","speedLimit":8.333333},"geometry":{"type":"Polygon","coordinates":[[[-121.013995448426,50.4497858659565],[-121.013325245719,50.4498807739818],[-121.013673801847,50.4515053549148],[-121.014402754717,50.4513828552571],[-121.0139843183,50.4512795888546],[-121.01370705134,50.4500005773887],[-121.013995448426,50.4497858659565]]]}},{"type":"Feature","id":"934182273","properties":{"name":"SP_30KPH_TR%_1590_17_SEPT 27_DS","oid":"934182273","speedLimit":8.333333},"geometry":{"type":"Polygon","coordinates":[[[-121.008849525811,50.4413696990882],[-121.009440549641,50.4411107691442],[-121.007219596209,50.4391735130028],[-121.006130534421,50.4382650562607],[-121.005749151463,50.4379788941844],[-121.004975396309,50.43754965107],[-121.0045156798,50.4371633682171],[-121.00358483488,50.4374710104241],[-121.004111895701,50.4376569618486],[-121.005053870748,50.4380647248323],[-121.006107992391,50.4386441491117],[-121.007075749885,50.4394768412087],[-121.008913629707,50.4411152628954],[-121.008849525811,50.4413696990882]]]}},{"type":"Feature","id":"934860743","properties":{"name":"SP_30KPH_TR70%_CRUSHER YARD EMPTY1_SEPT_27_DS","oid":"934860743","speedLimit":8.333333},"geometry":{"type":"Polygon","coordinates":[[[-121.037495795696,50.4624816118404],[-121.037861681009,50.462468939462],[-121.037920008509,50.4626184016269],[-121.037907046843,50.4632760171772],[-121.037748266424,50.4634696079788],[-121.037563844447,50.4634605306013],[-121.037937196807,50.4636154751426],[-121.037979885775,50.4635589437526],[-121.038210237136,50.4632687373002],[-121.038183891139,50.4627772107942],[-121.038038072388,50.4623455410541],[-121.037495795696,50.4624816118404]]]}},{"type":"Feature","id":"934860935","properties":{"name":"SP_30KPH_TR%_CRUSHER YARD EMPTY2_SEPT_27_DS","oid":"934860935","speedLimit":8.333333},"geometry":{"type":"Polygon","coordinates":[[[-121.037546797038,50.4634732029797],[-121.037682894539,50.4636378540236],[-121.037077500166,50.4639813563652],[-121.036451817967,50.4642045160496],[-121.036236259812,50.4641030471476],[-121.036398844198,50.4643262967071],[-121.036720490778,50.4642315684318],[-121.037430846475,50.4639641902356],[-121.037846887802,50.4637351886745],[-121.037937196807,50.4636154751426],[-121.037546797038,50.4634732029797]]]}},{"type":"Feature","id":"936169885","properties":{"name":"SP_15KPH_%TR_24shl_loadplan_Sept_26_NS","oid":"936169885","speedLimit":4.1666665},"geometry":{"type":"Polygon","coordinates":[[[-121.03916883693,50.4546366906244],[-121.038618952304,50.4545682058562],[-121.038154445614,50.4553922699508],[-121.038669953645,50.4555193532347],[-121.038841977506,50.4552446052864],[-121.039002025914,50.4549473885822],[-121.039087403849,50.4547917250407],[-121.03916883693,50.4546366906244]]]}},{"type":"Feature","id":"936513295","properties":{"name":"SP_30KPH_%TR_1635_FLATS_SEP_26_NS","oid":"936513295","speedLimit":8.333333},"geometry":{"type":"Polygon","coordinates":[[[-121.017285880259,50.4555552133692],[-121.01805005505,50.4557852035555],[-121.017433953213,50.4574538232503],[-121.015226947662,50.4585169549087],[-121.014498135679,50.4578796511138],[-121.016177235083,50.4566194235279],[-121.017285880259,50.4555552133692]]]}},{"type":"Feature","id":"937786749","properties":{"name":"SP_32KPH_%TR_24SH_Loaded_LANE_SEP_26_NS","oid":"937786749","speedLimit":8.888889},"geometry":{"type":"Polygon","coordinates":[[[-121.038280117427,50.4554283997104],[-121.038456367918,50.4555011984798],[-121.038969621746,50.4539575050684],[-121.039257032619,50.4521234254545],[-121.038991882,50.4522688432433],[-121.038490603625,50.4548540983074],[-121.038280117427,50.4554283997104]]]}},{"type":"Feature","id":"938065675","properties":{"name":"SP_8KPH_CR01_YARD_RUTIING_SEP_26_NS","oid":"938065675","speedLimit":2.2222223},"geometry":{"type":"Polygon","coordinates":[[[-121.034289192035,50.4648011963337],[-121.034098993664,50.4648579973488],[-121.033940776796,50.4649069792369],[-121.033829334639,50.465004943013],[-121.034044188355,50.465068844155],[-121.033964164151,50.4650113241397],[-121.034242558212,50.4648881054818],[-121.034319201112,50.464937356995],[-121.034289192035,50.4648011963337]]]}},{"type":"Feature","id":"938165680","properties":{"name":"SP_10KPH_%TR_22SH_Sept_26_NS","oid":"938165680","speedLimit":2.7777777},"geometry":{"type":"Polygon","coordinates":[[[-121.03408039649,50.4466113902353],[-121.035055198367,50.4472505814057],[-121.03549702214,50.4474473178332],[-121.035795140477,50.4469122019405],[-121.034854856082,50.4461953587495],[-121.03408039649,50.4466113902353]]]}},{"type":"Feature","id":"940771585","properties":{"name":"SP_20KPH_%TR_1660_HMT_SEPT26_DS","oid":"940771585","speedLimit":5.5555553},"geometry":{"type":"Polygon","coordinates":[[[-121.002708795268,50.4281184356812],[-121.002603552169,50.4277113018227],[-121.002231890462,50.4276979104441],[-121.002505353454,50.4277963235954],[-121.002533390103,50.42811394193],[-121.002673714235,50.4280825755466],[-121.002708795268,50.4281184356812]]]}},{"type":"Feature","id":"940778315","properties":{"name":"SP_20KPH_%TR_HMT_SPILLING_ROCK_IN_CORNER_SEPT26_NS","oid":"940778315","speedLimit":5.5555553},"geometry":{"type":"Polygon","coordinates":[[[-121.004784634387,50.4367079714707],[-121.004770545618,50.4370435648101],[-121.004987935313,50.4372761613721],[-121.005121215061,50.4371687607185],[-121.004889877486,50.4369361641565],[-121.004882833102,50.4367572229838],[-121.005198421511,50.4367974869945],[-121.004798582267,50.4366990738433],[-121.004784634387,50.4367079714707]]]}},{"type":"Feature","id":"944724443","properties":{"name":"SP_12KPH_%TR_21SH_EMPTY_SEPT 26_NS","oid":"944724443","speedLimit":3.3333333},"geometry":{"type":"Polygon","coordinates":[[[-121.039134601223,50.4501831135624],[-121.038912703123,50.4501672955581],[-121.038927778105,50.4505369515317],[-121.03926548588,50.4511709299506],[-121.039344805646,50.4515559545533],[-121.039732387661,50.4514983446629],[-121.039710831846,50.4511095453093],[-121.039407218889,50.4509586451441],[-121.039104451259,50.4503565723586],[-121.039084586096,50.4502969852177],[-121.039134601223,50.4501831135624]]]}},{"type":"Feature","id":"944724972","properties":{"name":"SP_20KPH_%TR_21SH_LOADED_SEPT 26_NS","oid":"944724972","speedLimit":5.5555553},"geometry":{"type":"Polygon","coordinates":[[[-121.038848035676,50.4522167157294],[-121.039181657709,50.4521684528415],[-121.039250833561,50.4519691999134],[-121.039327617349,50.4516355838245],[-121.039213357438,50.4512646696006],[-121.038912984898,50.4506402179342],[-121.038818449263,50.4509653857709],[-121.038885934463,50.4509782378993],[-121.039058099211,50.4512926207331],[-121.039101915281,50.4515746485583],[-121.039046828197,50.4519345081542],[-121.038997094845,50.4521382548335],[-121.038848035676,50.4522167157294]]]}},{"type":"Feature","id":"945606742","properties":{"name":"SP_20KPH_19SH_SEPT 26_NS","oid":"945606742","speedLimit":5.5555553},"geometry":{"type":"Polygon","coordinates":[[[-121.002893780795,50.427119744415],[-121.002444489975,50.4275246313979],[-121.001789925801,50.4273168403426],[-121.002101710243,50.4269692037499],[-121.002893780795,50.427119744415]]]}},{"type":"Feature","id":"947290154","properties":{"name":"Sp_30KPH__DRAGGING_CENTER_SLIME_SEPT_27_DS","oid":"947290154","speedLimit":8.333333},"geometry":{"type":"Polygon","coordinates":[[[-121.042355575428,50.4500107332664],[-121.042952093877,50.4498495873484],[-121.043015211559,50.4500331121474],[-121.043127499042,50.4504203836256],[-121.043373207161,50.4508905198759],[-121.043460839299,50.4510471720427],[-121.042885454003,50.4511814453284],[-121.043145110002,50.4510449251671],[-121.042906446268,50.4505323679054],[-121.042762599943,50.4499883543854],[-121.042355575428,50.4500107332664]]]}},{"type":"Feature","id":"947418386","properties":{"name":"SP_30KPH_TR%_HMT_LOADED_DOWN_RAMP1_SEPT_27_DS","oid":"947418386","speedLimit":8.333333},"geometry":{"type":"Polygon","coordinates":[[[-121.00387421818,50.428267897846],[-121.003307427032,50.4286848280822],[-121.003640908177,50.4288634996298],[-121.004201077604,50.4290634715581],[-121.004621204675,50.4292676676125],[-121.005288026077,50.4296547593407],[-121.00616829232,50.430173787604],[-121.006641815822,50.4305056061925],[-121.00700854646,50.4307736135139],[-121.007268625122,50.4309778095684],[-121.007475307353,50.4312628032693],[-121.008188903467,50.4309607333138],[-121.007675367863,50.4310755935944],[-121.006094889837,50.4299014662815],[-121.00469446627,50.4291484933308],[-121.003614139518,50.4286295549424],[-121.00387421818,50.428267897846]]]}},{"type":"Feature","id":"947419674","properties":{"name":"SP_30KPH_TR%_HMT_LOADED_DOWN_RAMP2_SEPT_27_DS","oid":"947419674","speedLimit":8.333333},"geometry":{"type":"Polygon","coordinates":[[[-121.008213981474,50.4310790987203],[-121.007514755904,50.4313131332827],[-121.007638737065,50.4316642750013],[-121.007728059856,50.4320881256143],[-121.007747925019,50.4322969052949],[-121.00768832953,50.4325594302399],[-121.007579282463,50.4328631179459],[-121.007489959672,50.4331066792608],[-121.007281727677,50.433625437899],[-121.00713802224,50.433929125605],[-121.00704869945,50.4341410509115],[-121.006557846763,50.434634464793],[-121.005734640032,50.4354853116448],[-121.00528844874,50.4358997253802],[-121.004931439352,50.4363331027458],[-121.004797596053,50.436649372955],[-121.005293379809,50.4367190260986],[-121.005050489444,50.4366588997076],[-121.005516545899,50.4361274686909],[-121.007326389072,50.4341789781716],[-121.007658602228,50.4335811295122],[-121.008005749479,50.4322873785424],[-121.007861903155,50.4313669684221],[-121.008213981474,50.4310790987203]]]}},{"type":"Feature","id":"947527865","properties":{"name":"SP_15KPH_TR%","oid":"947527865","speedLimit":4.1666665},"geometry":{"type":"Polygon","coordinates":[[[-121.039106705462,50.461643257617],[-121.038707429769,50.4618726186781],[-121.039173627111,50.4623345763012],[-121.039637429363,50.4621510515023],[-121.039625031247,50.4621510515023],[-121.039106705462,50.461643257617]]]}}]}