{"type":"FeatureCollection","features":[{"type":"Feature","id":"702602533","properties":{"name":"iSP_4KPH_%TR_CR01_Slow Bump","oid":"702602533","speedLimit":1.1111112},"geometry":{"type":"Polygon","coordinates":[[[-121.033355995915,50.4648076835963],[-121.033650732203,50.4646906662836],[-121.0336941255,50.4647313796805],[-121.03336628069,50.4648695176295],[-121.033355995915,50.4648076835963]]]}},{"type":"Feature","id":"707947583","properties":{"name":"iSP_25KPH_%TR_Permission Gate 1 From West Dump","oid":"707947583","speedLimit":6.9444447},"geometry":{"type":"Polygon","coordinates":[[[-121.038625463722,50.4619777879554],[-121.038852151431,50.4617992961097],[-121.038137148246,50.4614080700252],[-121.037989498327,50.4616707747909],[-121.038188994782,50.4615666994851],[-121.038663925962,50.4618458513847],[-121.038625463722,50.4619777879554]]]}},{"type":"Feature","id":"742345972","properties":{"name":"iSP_4KPH_%TR_CR01_Pit Side_Slow Bump","oid":"742345972","speedLimit":1.1111112},"geometry":{"type":"Polygon","coordinates":[[[-121.033395867028,50.4648826393865],[-121.033703142289,50.4647441419373],[-121.033753298177,50.4647762273295],[-121.033471805298,50.4649181400305],[-121.033395867028,50.4648826393865]]]}},{"type":"Feature","id":"776427243","properties":{"name":"iSP_7KPH_%TR_CR1_PermissionBlocker","oid":"776427243","speedLimit":1.9444444},"geometry":{"type":"Polygon","coordinates":[[[-121.034097063255,50.4652126605633],[-121.034048598015,50.4652329723242],[-121.034027464916,50.4652744047214],[-121.034113124411,50.4652253329451],[-121.034097063255,50.4652126605633]]]}},{"type":"Feature","id":"794004438","properties":{"name":"iSP_11KPH_%TR_Lower_Fuel_Bay","oid":"794004438","speedLimit":3.0555556},"geometry":{"type":"Polygon","coordinates":[[[-121.036773781582,50.4606952710183],[-121.036775894892,50.4607251095343],[-121.036746167666,50.4606706452551],[-121.037122336829,50.4605989249667],[-121.037532318951,50.4605558748186],[-121.037540067754,50.4605812195822],[-121.036941578389,50.4606500638691],[-121.036773781582,50.4606952710183]]]}},{"type":"Feature","id":"801543391","properties":{"name":"iSP_4KPH_%TR_CR01_PermissionBlocker_2","oid":"801543391","speedLimit":1.1111112},"geometry":{"type":"Polygon","coordinates":[[[-121.033152554615,50.4645231391939],[-121.033151709291,50.4644737079174],[-121.033173265052,50.4644316463949],[-121.033105216473,50.4644592380347],[-121.033152554615,50.4645231391939]]]}},{"type":"Feature","id":"806473874","properties":{"name":"iSP_4KPH_%TR_CR04_PermissionBlocker","oid":"806473874","speedLimit":1.1111112},"geometry":{"type":"Polygon","coordinates":[[[-121.022716748524,50.4815450239376],[-121.022683640003,50.4815426871863],[-121.022676032087,50.4815713573267],[-121.022698151397,50.4815724358273],[-121.02270223713,50.4815483493144],[-121.022716748524,50.4815450239376]]]}},{"type":"Feature","id":"824566967","properties":{"name":"iSP_3KPH_%TR_CR04","oid":"824566967","speedLimit":0.8333333},"geometry":{"type":"Polygon","coordinates":[[[-121.023299599397,50.4810681469321],[-121.023279452509,50.4810681469321],[-121.02327677565,50.4811862427454],[-121.023301853594,50.481185523745],[-121.023299599397,50.4810681469321]]]}},{"type":"Feature","id":"826307302","properties":{"name":"iSP_4KPH_%TR_CR04_Pockets","oid":"826307302","speedLimit":1.1111112},"geometry":{"type":"Polygon","coordinates":[[[-121.023294809227,50.4813213249428],[-121.023334257679,50.4814769885261],[-121.023538966965,50.48143753338],[-121.023457956752,50.4811886693717],[-121.023049665278,50.4811893883721],[-121.023055018997,50.4813600610885],[-121.023279875171,50.4813260883203],[-121.023294809227,50.4813213249428]]]}},{"type":"Feature","id":"883050998","properties":{"name":"iSP_22KPH_%TR_4CR_Brake_Temp_Ctrl","oid":"883050998","speedLimit":6.111111},"geometry":{"type":"Polygon","coordinates":[[[-121.031796232317,50.4745588566951],[-121.032185504002,50.474312239563],[-121.032487143769,50.4745745848285],[-121.032788783536,50.4748019687003],[-121.032966583343,50.4748843841195],[-121.033175378362,50.4749345343963],[-121.033459266326,50.4749593399096],[-121.033663130288,50.4749217721395],[-121.03382430539,50.4748623647327],[-121.033915459491,50.4748103270798],[-121.034004782056,50.4747471449209],[-121.034055219719,50.4746579888732],[-121.034049443339,50.4745478020642],[-121.034053247297,50.4744834515297],[-121.033991115985,50.474379466099],[-121.033872770631,50.4742593930346],[-121.033505900031,50.4739374606122],[-121.033057596556,50.4735598056599],[-121.032944323145,50.4734252627128],[-121.032819356086,50.4732207071032],[-121.03260253049,50.4728147415107],[-121.032249044186,50.4722088039361],[-121.032484044248,50.4721559574078],[-121.03242698488,50.4722054785594],[-121.032899520975,50.4730486862611],[-121.033038717654,50.4733094137757],[-121.033246526462,50.4735467737779],[-121.033739491219,50.47396145725],[-121.034094527283,50.4742709869159],[-121.034199911004,50.4743942954819],[-121.034252602864,50.4744615220179],[-121.034259647231,50.4745926497132],[-121.034234710174,50.4746786601342],[-121.034180186778,50.4747914533197],[-121.034082692748,50.4748756662398],[-121.033969841999,50.4749375002729],[-121.033787252023,50.4750159611899],[-121.033527737567,50.4750642240908],[-121.033259769871,50.4750679089678],[-121.033068163106,50.4750261170704],[-121.032804422029,50.4749163796366],[-121.03265367259,50.474834952843],[-121.032492074825,50.4747051732735],[-121.032141547156,50.4744128996169],[-121.031796232317,50.4745588566951]]]}},{"type":"Feature","id":"883053336","properties":{"name":"iSP_22KPH_%TR_Brake_Temp_Ctrl","oid":"883053336","speedLimit":6.111111},"geometry":{"type":"Polygon","coordinates":[[[-121.032462770261,50.472145082527],[-121.032247917088,50.472225340945],[-121.031485293986,50.471008163168],[-121.030813402323,50.4699231915867],[-121.030658144489,50.4696600374458],[-121.030593336319,50.4694575489623],[-121.030546984388,50.4692565883546],[-121.030593336319,50.4689727629526],[-121.030719571364,50.4686241376408],[-121.030881310015,50.4683753635076],[-121.031085737527,50.4680976496088],[-121.031685072216,50.4675363799331],[-121.032428957303,50.4668935037137],[-121.032785261353,50.4665560229079],[-121.03314438315,50.4662222269791],[-121.033481244749,50.4658705459157],[-121.033776262812,50.4660339387532],[-121.033584233385,50.4659931354814],[-121.03291614568,50.4666519195843],[-121.03255138839,50.466991108016],[-121.032175360114,50.4673075580605],[-121.031771154373,50.4676682266287],[-121.031378783167,50.4680342876998],[-121.031143923993,50.4682862074598],[-121.031005572638,50.4684697323081],[-121.030901879565,50.468654335657],[-121.030825377746,50.4688528696384],[-121.030764514421,50.4691911593196],[-121.030773249435,50.4694004783067],[-121.030870461691,50.4696301989298],[-121.031024451539,50.469934965218],[-121.031327359293,50.4704036635941],[-121.031527419297,50.4707108565087],[-121.03174706264,50.4710827594579],[-121.032142815142,50.4717286914289],[-121.032378096978,50.472144992652],[-121.032462770261,50.472145082527]]]}},{"type":"Feature","id":"883059532","properties":{"name":"iSP_22KPH_%TR_Brake_Ctrl","oid":"883059532","speedLimit":6.111111},"geometry":{"type":"Polygon","coordinates":[[[-121.027259096836,50.4773218853002],[-121.027026914521,50.4772097212402],[-121.027331372035,50.4769439607228],[-121.027713317579,50.4766323639309],[-121.02803003229,50.4763226545149],[-121.028187262547,50.4761686985575],[-121.028618095993,50.4756922709272],[-121.028904097267,50.4753256706059],[-121.029260683092,50.4748875297461],[-121.029469478111,50.4746566407475],[-121.02968827613,50.4745403424352],[-121.029798309132,50.4744881250322],[-121.029949058572,50.4745925598381],[-121.029785488385,50.474541960186],[-121.029552883408,50.4747914533197],[-121.029248707669,50.4751729728991],[-121.029069780764,50.4754779189374],[-121.028849996534,50.4757746863464],[-121.028692907164,50.4759746583285],[-121.028405778791,50.476270526987],[-121.02803848553,50.4765699007724],[-121.027240781484,50.4772193378703],[-121.027259096836,50.4773218853002]]]}},{"type":"Feature","id":"884401102","properties":{"name":"iSP_30KPH_%TR_Maint_Limit_Policy","oid":"884401102","speedLimit":8.333333},"geometry":{"type":"Polygon","coordinates":[[[-121.037216167789,50.4610266403208],[-121.037672783616,50.4610798463493],[-121.037991752525,50.4608740324891],[-121.037904825044,50.4604832557797],[-121.037857627789,50.4606705553801],[-121.037197993324,50.4607815510645],[-121.036969614967,50.4606590513739],[-121.037216167789,50.4610266403208]]]}},{"type":"Feature","id":"910445950","properties":{"name":"SP_22KPH_%TR_1635_FLATS_OCT_5_NS","oid":"910445950","speedLimit":6.111111},"geometry":{"type":"Polygon","coordinates":[[[-121.017366693167,50.4554936627318],[-121.017999840814,50.4544139937784],[-121.018145095649,50.4539983216807],[-121.018529718052,50.4537513450484],[-121.018945758328,50.4536878932644],[-121.018863621017,50.4543414646146],[-121.018258791722,50.4560719187916],[-121.018272880454,50.4557006449677],[-121.017366693167,50.4554936627318]]]}},{"type":"Feature","id":"915576987","properties":{"name":"iSP_15KPH_%TR_Preventing Shifting","oid":"915576987","speedLimit":4.1666665},"geometry":{"type":"Polygon","coordinates":[[[-121.036994833798,50.4448630622869],[-121.037508931655,50.445312976778],[-121.037978227341,50.4457954260364],[-121.038522193311,50.4462187375132],[-121.039454867416,50.4468498401013],[-121.03991218768,50.4470996028601],[-121.040468129072,50.4471949602862],[-121.041221312723,50.4473226727296],[-121.041639748084,50.4475095229547],[-121.042318261451,50.4480949690183],[-121.042700911432,50.4485277173751],[-121.042844334731,50.4487947361432],[-121.043005791607,50.4493915064628],[-121.043185000287,50.4501980451449],[-121.043322506319,50.4505011936823],[-121.043684164087,50.4511686057898],[-121.043854637753,50.4514889204614],[-121.04412359166,50.452253487496],[-121.044380711032,50.4529380657378],[-121.04469446711,50.4537979901984],[-121.044733352012,50.4541946087859],[-121.044568936501,50.4550716993807],[-121.044213336888,50.4568391820776],[-121.044048921377,50.4572072203997],[-121.043002692086,50.4583988736631],[-121.041902784724,50.4595372310229],[-121.041340926064,50.4600005368961],[-121.040369507943,50.4605973970909],[-121.039921063581,50.4607308615374],[-121.039131953662,50.4608070755782],[-121.038494579395,50.4608386217201],[-121.038642370201,50.4611433880084],[-121.03875522095,50.4609494376545],[-121.039876261411,50.4608796047421],[-121.040704256233,50.4606317293593],[-121.041508300208,50.4600577873018],[-121.04287124421,50.4587001348245],[-121.04424010548,50.457142330615],[-121.044425513202,50.4562900455334],[-121.044811121816,50.4544214534074],[-121.044808022295,50.4537864861922],[-121.044258139058,50.4523012111466],[-121.043830686907,50.451185771924],[-121.04334349853,50.4503372615945],[-121.043047635144,50.4493095404189],[-121.042925063169,50.448691739338],[-121.042237533013,50.4478870880319],[-121.041544085589,50.4473913372663],[-121.041089723959,50.4472216531754],[-121.04045615365,50.4471301603764],[-121.039915146314,50.4470195241922],[-121.038818197585,50.4463331484495],[-121.038193503177,50.4458716400772],[-121.037150373407,50.4449068314354],[-121.037374525145,50.4446971529481],[-121.036994833798,50.4448630622869]]]}},{"type":"Feature","id":"917773475","properties":{"name":"SP_15KPH_%TR_1200_CORNER_OCT_5_DS","oid":"917773475","speedLimit":4.1666665},"geometry":{"type":"Polygon","coordinates":[[[-121.037095709124,50.4446823235651],[-121.036921572388,50.4448618939113],[-121.036625990776,50.4448203716391],[-121.036411419377,50.4448697130405],[-121.036319842614,50.4449674072178],[-121.036251230486,50.4450819080292],[-121.036238973289,50.4451447306878],[-121.036260106388,50.4452670506284],[-121.036312798248,50.4453512635485],[-121.03618092771,50.4453950326969],[-121.036085828764,50.4451940720893],[-121.036159794611,50.4449314571986],[-121.036256584204,50.4447911622484],[-121.036513421802,50.4447148583325],[-121.036710523172,50.4447115329558],[-121.03691988174,50.444769861862],[-121.037090496293,50.4446834020657],[-121.037095709124,50.4446823235651]]]}},{"type":"Feature","id":"929009157","properties":{"name":"iSP_22KPH_%TR_Long_Single_Lane","oid":"929009157","speedLimit":6.111111},"geometry":{"type":"Polygon","coordinates":[[[-121.005677694302,50.4380557463902],[-121.004747978831,50.4382238127303],[-121.005172472347,50.4381972995911],[-121.007932736859,50.4431702657551],[-121.008521504999,50.444534658861],[-121.008208594246,50.4465094832939],[-121.007830593547,50.4466799762603],[-121.00893205067,50.4466467224924],[-121.008821313231,50.4465927075885],[-121.009401346356,50.4448174057625],[-121.008762422328,50.4430681677004],[-121.008260722557,50.4415399323817],[-121.007257182126,50.4401559465153],[-121.006437499657,50.4389837961374],[-121.005858452743,50.4383127890279],[-121.005677694302,50.4380557463902]]]}},{"type":"Feature","id":"933371104","properties":{"name":"SP_25KPH_%TR_1590_HMT_INTERSECT_OCT_5_DS","oid":"933371104","speedLimit":6.9444447},"geometry":{"type":"Polygon","coordinates":[[[-121.006197145877,50.4380464892603],[-121.006349163303,50.4381866943354],[-121.006602619604,50.4383161144047],[-121.007159828983,50.4382765693835],[-121.006788309101,50.4381830094584],[-121.00664925331,50.4380653630204],[-121.006197145877,50.4380464892603]]]}},{"type":"Feature","id":"934051091","properties":{"name":"iSP_17KPH_%TR_Ramp_Permission Blocker","oid":"934051091","speedLimit":4.7222223},"geometry":{"type":"Polygon","coordinates":[[[-121.039509813474,50.4610295163224],[-121.039461770895,50.4607714850591],[-121.039014312744,50.4607920664452],[-121.039073203647,50.4610447950805],[-121.039160694677,50.4608997367528],[-121.03937667495,50.4608866149958],[-121.039509813474,50.4610295163224]]]}},{"type":"Feature","id":"936513295","properties":{"name":"SP_30KPH_%TR_1635_FLATS_OCT_5_DS","oid":"936513295","speedLimit":8.333333},"geometry":{"type":"Polygon","coordinates":[[[-121.017282865207,50.4555550473897],[-121.018047038069,50.4557850376379],[-121.017430937788,50.4574536577818],[-121.015223937809,50.4585167897263],[-121.014495127666,50.4578794857599],[-121.01617422283,50.4566192578348],[-121.017282865207,50.4555550473897]]]}},{"type":"Feature","id":"938065675","properties":{"name":"iSP_8KPH_CR01_YARD_RUTIING_OCT_4_NS","oid":"938065675","speedLimit":2.2222223},"geometry":{"type":"Polygon","coordinates":[[[-121.034286134048,50.4648010328428],[-121.034095936157,50.4648578338732],[-121.033937719688,50.4649068157744],[-121.033826277813,50.4650047795769],[-121.034041130986,50.4650686807362],[-121.033961106985,50.4650111607053],[-121.034239500343,50.4648879420143],[-121.034316143049,50.4649371935407],[-121.034286134048,50.4648010328428]]]}},{"type":"Feature","id":"938165680","properties":{"name":"SP_10KPH_%TR_22SH_OCT_5_DS","oid":"938165680","speedLimit":2.7777777},"geometry":{"type":"Polygon","coordinates":[[[-121.03407733903,50.4466112218484],[-121.035052138445,50.4472504131908],[-121.035493961103,50.4474471496712],[-121.035792078687,50.4469120336346],[-121.034851796666,50.4461951902506],[-121.03407733903,50.4466112218484]]]}},{"type":"Feature","id":"948333262","properties":{"name":"SP_15KPH_%TR_19SH_LOADAREA_OCT_5_DS","oid":"948333262","speedLimit":4.1666665},"geometry":{"type":"Polygon","coordinates":[[[-121.002088589645,50.4257052970241],[-121.001353721347,50.4259954136795],[-121.001487423421,50.4262928102138],[-121.001511796928,50.4266961694299],[-121.001608022973,50.4268352960044],[-121.001752009821,50.426952223442],[-121.001945589008,50.4270054294706],[-121.002286818114,50.4266843059235],[-121.002088589645,50.4257052970241]]]}},{"type":"Feature","id":"950375436","properties":{"name":"SP_22KPH_%TR_1445_RAC_OCT_5_DS","oid":"950375436","speedLimit":6.111111},"geometry":{"type":"Polygon","coordinates":[[[-121.039803563551,50.4640111210446],[-121.039744249986,50.4638808920998],[-121.03908729238,50.4641958142686],[-121.038241263981,50.4645745477214],[-121.037810712309,50.4648372524872],[-121.037691944293,50.4647591510703],[-121.037836635577,50.4649248806591],[-121.038575166946,50.464517746691],[-121.039009381688,50.4643259533383],[-121.039521507122,50.4641223863542],[-121.03979623741,50.4640016841646],[-121.039803563551,50.4640111210446]]]}},{"type":"Feature","id":"950380359","properties":{"name":"SP_20KPH_%TR_EMPTY_23SH_SOFT_OCT_5_DS","oid":"950380359","speedLimit":5.5555553},"geometry":{"type":"Polygon","coordinates":[[[-121.038897658038,50.4647303011799],[-121.038783257528,50.4646500427619],[-121.038306072151,50.4649202071566],[-121.038374825167,50.4649519330486],[-121.038779312683,50.4647035184155],[-121.038890050122,50.4647278745536],[-121.038897658038,50.4647303011799]]]}},{"type":"Feature","id":"950427531","properties":{"name":"SP_15KPH_%TR_1590_DUMP_HEAD_OCT_5_DS","oid":"950427531","speedLimit":4.1666665},"geometry":{"type":"Polygon","coordinates":[[[-121.014466809314,50.4503497542262],[-121.014249983717,50.4491357220758],[-121.014358466959,50.4478525760134],[-121.014447085088,50.4473996956458],[-121.013687843282,50.4470536767105],[-121.013549914589,50.4483117476344],[-121.013944258218,50.4505322005739],[-121.01455556833,50.4504252492666],[-121.014466809314,50.4503497542262]]]}},{"type":"Feature","id":"950999947","properties":{"name":"SP_15KPH_%TR_23SH_HEADING_SOFT_OCT_5_DS","oid":"950999947","speedLimit":4.1666665},"geometry":{"type":"Polygon","coordinates":[[[-121.038043880836,50.4652779997233],[-121.037528655881,50.4649771879371],[-121.037196866225,50.4652222771934],[-121.03674278637,50.4653225777472],[-121.037380160638,50.4658350452717],[-121.038043880836,50.4652835719763],[-121.038043880836,50.4652779997233]]]}},{"type":"Feature","id":"951141721","properties":{"name":"SP_8KPH_%TR_CR1_SHOPSIDE_OCT_5_DS","oid":"951141721","speedLimit":2.2222223},"geometry":{"type":"Polygon","coordinates":[[[-121.033770627318,50.4647082817931],[-121.033826700475,50.4646112167411],[-121.03359818123,50.4645574714623],[-121.033277380786,50.4644628330366],[-121.03336571714,50.4646852737808],[-121.033562114074,50.4646291018757],[-121.033734560163,50.4646342247534],[-121.033770627318,50.4647134046708],[-121.033770627318,50.4647082817931]]]}},{"type":"Feature","id":"951524646","properties":{"name":"SP_15KPH_%TR_TEMP_NEWCULVERT_OCT_5_DS","oid":"951524646","speedLimit":4.1666665},"geometry":{"type":"Polygon","coordinates":[[[-121.039085601732,50.4509928101957],[-121.038258874897,50.4508244742305],[-121.038127004359,50.4514809215821],[-121.0390503799,50.4514809215821],[-121.039085601732,50.4509928101957]]]}},{"type":"Feature","id":"951556849","properties":{"name":"SP_12KPH_%TR_22SH_Oct_5_DS","oid":"951556849","speedLimit":3.3333333},"geometry":{"type":"Polygon","coordinates":[[[-121.039643515547,50.4531055029524],[-121.039860059369,50.4530146392788],[-121.038942741982,50.4531963666261],[-121.038914282742,50.4542504211908],[-121.039683386661,50.4543958390187],[-121.039785952635,50.4536979592698],[-121.039671974787,50.4534072134891],[-121.039666339294,50.4532290811436],[-121.039643515547,50.4531055029524]]]}},{"type":"Feature","id":"951577996","properties":{"name":"SP_15KPH_%TR_CALPAD_HMT_OCT_5_DS","oid":"951577996","speedLimit":4.1666665},"geometry":{"type":"Polygon","coordinates":[[[-121.001955873783,50.4387285510007],[-121.001948547642,50.438645146956],[-121.001903463698,50.4381223438009],[-121.001889234078,50.4379566142121],[-121.002007297658,50.4374081067933],[-121.000551931569,50.4367848233344],[-121.000085030967,50.4370287442151],[-121.000607863838,50.4385989511812],[-121.001300184163,50.4386654587169],[-121.001369641615,50.4386721993455],[-121.00166508234,50.4390082421505],[-121.00199292715,50.4395129804209],[-121.002258499762,50.4394806254036],[-121.001989404967,50.4389543171216],[-121.001955873783,50.4387285510007]]]}}]}