{"type":"FeatureCollection","features":[{"type":"Feature","id":"702602533","properties":{"name":"iSP_4KPH_%TR_CR01_Slow Bump","oid":"702602533","speedLimit":1.1111112},"geometry":{"type":"Polygon","coordinates":[[[-121.033345783855,50.4648077169172],[-121.033640430454,50.4646906996657],[-121.033683810546,50.4647314130412],[-121.0333560655,50.464869550918],[-121.033345783855,50.4648077169172]]]}},{"type":"Feature","id":"707947583","properties":{"name":"iSP_25KPH_%TR_Permission Gate 1 From West Dump","oid":"707947583","speedLimit":6.9444447},"geometry":{"type":"Polygon","coordinates":[[[-121.038613648152,50.4619778227562],[-121.038840266879,50.4617993310039],[-121.038125481272,50.461408105124],[-121.037977876283,50.4616708097523],[-121.038177312031,50.461566734501],[-121.038652098688,50.4618458862545],[-121.038613648152,50.4619778227562]]]}},{"type":"Feature","id":"742345972","properties":{"name":"iSP_4KPH_%TR_CR01_Pit Side_Slow Bump","oid":"742345972","speedLimit":1.1111112},"geometry":{"type":"Polygon","coordinates":[[[-121.033385642835,50.4648826726681],[-121.033692824591,50.4647441752914],[-121.033742965217,50.4647762606668],[-121.033461557996,50.4649181732936],[-121.033385642835,50.4648826726681]]]}},{"type":"Feature","id":"776427243","properties":{"name":"iSP_7KPH_%TR_CR1_PermissionBlocker","oid":"776427243","speedLimit":1.9444444},"geometry":{"type":"Polygon","coordinates":[[[-121.034086625687,50.4652126936723],[-121.034038175194,50.4652330054226],[-121.034017048526,50.4652744377981],[-121.034102681954,50.4652253660475],[-121.034086625687,50.4652126936723]]]}},{"type":"Feature","id":"794004438","properties":{"name":"iSP_11KPH_%TR_Lower_Fuel_Bay","oid":"794004438","speedLimit":3.0555556},"geometry":{"type":"Polygon","coordinates":[[[-121.036762529483,50.4606953064899],[-121.03676464215,50.4607251449903],[-121.03673492397,50.4606706807396],[-121.037110978664,50.4605989604887],[-121.037520836027,50.4605559103631],[-121.037528582472,50.4605812551134],[-121.036930275228,50.4606500993643],[-121.036762529483,50.4606953064899]]]}},{"type":"Feature","id":"801543391","properties":{"name":"iSP_4KPH_%TR_CR01_PermissionBlocker_2","oid":"801543391","speedLimit":1.1111112},"geometry":{"type":"Polygon","coordinates":[[[-121.033142404462,50.4645231726636],[-121.033141559395,50.4644737414129],[-121.033163108597,50.4644316799124],[-121.033095080725,50.4644592715378],[-121.033142404462,50.4645231726636]]]}},{"type":"Feature","id":"806473874","properties":{"name":"iSP_4KPH_%TR_CR04_PermissionBlocker","oid":"806473874","speedLimit":1.1111112},"geometry":{"type":"Polygon","coordinates":[[[-121.022709774008,50.481545048505],[-121.022676675561,50.4815427117549],[-121.022669069961,50.4815713818803],[-121.02269118254,50.4815724603803],[-121.022695267029,50.48154837388],[-121.022709774008,50.481545048505]]]}},{"type":"Feature","id":"824566967","properties":{"name":"iSP_3KPH_%TR_CR04","oid":"824566967","speedLimit":0.8333333},"geometry":{"type":"Polygon","coordinates":[[[-121.023292447518,50.4810681717489],[-121.023272306761,50.4810681717489],[-121.023269630716,50.4811862675004],[-121.023294701029,50.4811855485004],[-121.023292447518,50.4810681717489]]]}},{"type":"Feature","id":"826307302","properties":{"name":"iSP_4KPH_%TR_CR04_Pockets","oid":"826307302","speedLimit":1.1111112},"geometry":{"type":"Polygon","coordinates":[[[-121.023287658806,50.4813213496271],[-121.023327095254,50.4814770131291],[-121.023531742246,50.4814375580036],[-121.023450756685,50.4811886941254],[-121.023042589455,50.4811894131254],[-121.023047941544,50.4813600857526],[-121.023272729294,50.4813261130022],[-121.023287658806,50.4813213496271]]]}},{"type":"Feature","id":"883050998","properties":{"name":"iSP_22KPH_%TR_4CR_Brake_Temp_Ctrl","oid":"883050998","speedLimit":6.111111},"geometry":{"type":"Polygon","coordinates":[[[-121.031786494896,50.4745588849161],[-121.032175648124,50.474312267913],[-121.032477196102,50.4745746130413],[-121.03277874408,50.4748019967942],[-121.032956489782,50.4748844121703],[-121.033165221264,50.4749345624209],[-121.03344902284,50.4749593679212],[-121.033652824766,50.4749218001708],[-121.033813950822,50.474862392795],[-121.033905077184,50.4748103551693],[-121.033994372569,50.4747471730435],[-121.034044794884,50.4746580170424],[-121.034039020261,50.474547830291],[-121.034042823061,50.4744834797902],[-121.033980710657,50.4743794944139],[-121.033862401315,50.4742594214123],[-121.033495642354,50.4739374891582],[-121.033047475299,50.4735598344034],[-121.032934236358,50.4734252915267],[-121.032809307326,50.4732207360241],[-121.03259254771,50.472814770644],[-121.032239168973,50.4722088333863],[-121.032474097524,50.4721559868856],[-121.03241705552,50.4722055080112],[-121.032889447821,50.4730487152719],[-121.033028602142,50.4733094426503],[-121.033236347713,50.4735468025283],[-121.03372916246,50.4739614857836],[-121.034084090486,50.4742710152875],[-121.034189442139,50.474394323789],[-121.034242117965,50.4744615502899],[-121.034249160187,50.4745926779166],[-121.034224230719,50.4746786882927],[-121.034169723915,50.4747914814191],[-121.034072259552,50.4748756942952],[-121.033959443144,50.474937528296],[-121.033776908731,50.475015989172],[-121.033517473245,50.4750642520476],[-121.033249587092,50.4750679369226],[-121.033058038633,50.4750261450471],[-121.032794377814,50.4749164076707],[-121.032643674248,50.4748349809196],[-121.032482125658,50.474705201418],[-121.032131704654,50.4744129279143],[-121.031786494896,50.4745588849161]]]}},{"type":"Feature","id":"883053336","properties":{"name":"iSP_22KPH_%TR_Brake_Temp_Ctrl","oid":"883053336","speedLimit":6.111111},"geometry":{"type":"Polygon","coordinates":[[[-121.032452830011,50.4721451120105],[-121.032238042218,50.4722253703865],[-121.031475651184,50.471008193246],[-121.030803963979,50.4699232222322],[-121.03064875339,50.4696600682289],[-121.030583964941,50.4694575798513],[-121.030537627115,50.4692566193487],[-121.030583964941,50.4689727940951],[-121.030710161572,50.4686241689657],[-121.030871851007,50.4683753949625],[-121.03107621631,50.468097681209],[-121.031675368621,50.4675364118269],[-121.032419027342,50.4668935359437],[-121.032775222968,50.4665560553144],[-121.033134235483,50.4662222595602],[-121.033470994575,50.4658705786807],[-121.033765922863,50.4660339714328],[-121.033573951871,50.4659931681822],[-121.032906067467,50.4666519519406],[-121.032541421173,50.4669911401949],[-121.032165507324,50.467307590074],[-121.031761424583,50.4676682584535],[-121.031369172776,50.4680343193332],[-121.03113438507,50.4682862389614],[-121.030996075816,50.4684697637137],[-121.030892414297,50.4686543669661],[-121.030815935758,50.4688529008436],[-121.030755090954,50.4691911903479],[-121.03076382331,50.4694005092256],[-121.030861005984,50.4696302297285],[-121.031014948973,50.4699349958574],[-121.03131776455,50.4704036939883],[-121.031517763676,50.4707108867422],[-121.031737340181,50.471082789497],[-121.032132972255,50.4717287211302],[-121.032368182494,50.4721450221355],[-121.032452830011,50.4721451120105]]]}},{"type":"Feature","id":"883059532","properties":{"name":"iSP_22KPH_%TR_Brake_Ctrl","oid":"883059532","speedLimit":6.111111},"geometry":{"type":"Polygon","coordinates":[[[-121.027250740074,50.4773219120763],[-121.027018628413,50.4772097480748],[-121.02732299328,50.4769439876965],[-121.027704822597,50.4766323910675],[-121.028021440931,50.4763226818136],[-121.028178623342,50.4761687259366],[-121.028609325685,50.4756922985556],[-121.028895239928,50.4753256984259],[-121.029251717243,50.4748875577953],[-121.029460448725,50.4746566689174],[-121.029679180164,50.4745403706659],[-121.029789179683,50.4744881532902],[-121.029939883249,50.4745925880416],[-121.029776362837,50.4745419884159],[-121.029543828643,50.4747914814191],[-121.029239745465,50.475173000799],[-121.029060873007,50.4754779466778],[-121.028841155658,50.4757747139316],[-121.028684114091,50.4759746858091],[-121.028397073092,50.4762705543129],[-121.028029891598,50.4765699279417],[-121.027232430295,50.4772193647],[-121.027250740074,50.4773219120763]]]}},{"type":"Feature","id":"884401102","properties":{"name":"iSP_30KPH_%TR_Maint_Limit_Policy","oid":"884401102","speedLimit":8.333333},"geometry":{"type":"Polygon","coordinates":[[[-121.036978021499,50.4611011819951],[-121.037094077329,50.4611076529951],[-121.038279987638,50.4609919838687],[-121.038263649682,50.4603978202361],[-121.03810519967,50.4605657067382],[-121.037018443857,50.4607083383651],[-121.03673083948,50.4605376657379],[-121.036978021499,50.4611011819951]]]}},{"type":"Feature","id":"910445950","properties":{"name":"SP_22KPH_%TR_1635_FLATS_OCT_2_NS","oid":"910445950","speedLimit":6.111111},"geometry":{"type":"Polygon","coordinates":[[[-121.017361346683,50.4554937009238],[-121.017994301663,50.454414032535],[-121.018139512295,50.4539983606548],[-121.018524017657,50.4537513841516],[-121.018939931332,50.4536879324008],[-121.018857819015,50.4543415034091],[-121.01825317377,50.4560719566811],[-121.018267258216,50.4557006830514],[-121.017361346683,50.4554937009238]]]}},{"type":"Feature","id":"915576987","properties":{"name":"iSP_15KPH_%TR_Preventing Shifting","oid":"915576987","speedLimit":4.1666665},"geometry":{"type":"Polygon","coordinates":[[[-121.036983514432,50.4448631060386],[-121.037497455848,50.4453130202943],[-121.037966608727,50.4457954693005],[-121.038510409166,50.4462187805558],[-121.039442799457,50.4468498828139],[-121.039899980557,50.447099645442],[-121.040455752776,50.4471950028183],[-121.041208707231,50.4473227151949],[-121.041627015262,50.4475095653223],[-121.042305322156,50.4480950110797],[-121.042687855695,50.4485277592102],[-121.04283123535,50.4487947778386],[-121.042992643095,50.4493915478462],[-121.043171797241,50.4501980861064],[-121.043309261429,50.4505012344853],[-121.043670809145,50.4511686462438],[-121.043841230935,50.4514889607478],[-121.044110102999,50.4522535273826],[-121.044367144129,50.4529381052663],[-121.04468080473,50.4537980292772],[-121.044719677799,50.4541946476572],[-121.044555312321,50.4550717377934],[-121.044199820917,50.4568392195659],[-121.044035455438,50.4572072576956],[-121.042989544517,50.4583989103357],[-121.041889971859,50.4595372671002],[-121.041328284173,50.4600005727311],[-121.040357161657,50.4605974326136],[-121.039908853758,50.4607308969904],[-121.039119983967,50.4608071109913],[-121.038482803653,50.4608386571167],[-121.038630549486,50.4611434232456],[-121.038743365895,50.4609494729931],[-121.039864065221,50.4608796401172],[-121.040691808082,50.4606317648641],[-121.041495607385,50.4600578231068],[-121.042858136641,50.4587001713395],[-121.044226581363,50.4571423679447],[-121.044411932666,50.4562900833089],[-121.044797423938,50.4544214921601],[-121.04479432536,50.4537865252771],[-121.044244609453,50.4523012510082],[-121.043817287378,50.451185812369],[-121.043330247253,50.4503373024832],[-121.043034473898,50.4493095818451],[-121.042911939222,50.4486917810873],[-121.042224618283,50.4478871302021],[-121.041531381877,50.4473913796958],[-121.04107715851,50.4472216956936],[-121.040443780997,50.4471302029424],[-121.039902938291,50.447019566816],[-121.038806323366,50.4463331914323],[-121.038181819053,50.4458716833014],[-121.03713900671,50.4449068751642],[-121.037363090238,50.4446971967865],[-121.036983514432,50.4448631060386]]]}},{"type":"Feature","id":"917773475","properties":{"name":"SP_15KPH_%TR_1200_CORNER_OCT_2_NS","oid":"917773475","speedLimit":4.1666665},"geometry":{"type":"Polygon","coordinates":[[[-121.037084359062,50.4446823674113],[-121.036910275316,50.4448619376636],[-121.03661478365,50.4448204154131],[-121.036400277545,50.4448697567887],[-121.036308728649,50.4449674509149],[-121.0362401374,50.4450819516664],[-121.036227883932,50.4451447742922],[-121.036249010601,50.4452670941688],[-121.036301686427,50.4453513070448],[-121.036169856017,50.4453950761704],[-121.03607478601,50.4451941156678],[-121.036148729349,50.4449315009145],[-121.036245489489,50.4447912060377],[-121.03650224893,50.4447149021617],[-121.036699290323,50.4447115767867],[-121.036908585182,50.4447699056624],[-121.037079147817,50.4446834459113],[-121.037084359062,50.4446823674113]]]}},{"type":"Feature","id":"929009157","properties":{"name":"iSP_22KPH_%TR_Long_Single_Lane","oid":"929009157","speedLimit":6.111111},"geometry":{"type":"Polygon","coordinates":[[[-121.005675904804,50.4380557937021],[-121.004746472247,50.4382238599542],[-121.005170836589,50.4381973468289],[-121.007930261147,50.4431703103921],[-121.008518850124,50.4445347027844],[-121.00820603459,50.4465095261846],[-121.007828148917,50.4466800190617],[-121.008929270865,50.4466467653113],[-121.008818567123,50.4465927504356],[-121.009398423744,50.444817449538],[-121.008759694141,50.4430682123908],[-121.008258147038,50.4415399778714],[-121.007254911987,50.4401559927288],[-121.006435478949,50.4389838429639],[-121.00585660824,50.4383128362053],[-121.005675904804,50.4380557937021]]]}},{"type":"Feature","id":"932268643","properties":{"name":"SP_35KPH_%traction_1185_1170_OCT_2_NS","oid":"932268643","speedLimit":9.722222},"geometry":{"type":"Polygon","coordinates":[[[-121.038714070248,50.448197288831],[-121.038452381251,50.4482555278317],[-121.038932097464,50.4498291492268],[-121.039491109105,50.4497912219763],[-121.03909068832,50.4497304664755],[-121.038607028462,50.4483440547079],[-121.038837027457,50.4481593615805],[-121.038714070248,50.448197288831]]]}},{"type":"Feature","id":"933371104","properties":{"name":"SP_17KPH_%TR_1590_HMT_INTERSECT_OCT_2_NS","oid":"933371104","speedLimit":4.7222223},"geometry":{"type":"Polygon","coordinates":[[[-121.006355479298,50.4374886824449],[-121.00585787584,50.4376811048223],[-121.005939002246,50.437815108449],[-121.006248578357,50.4380937209526],[-121.00660054865,50.4383161615804],[-121.007157588468,50.4382766165799],[-121.006786181641,50.4381830567037],[-121.00611238177,50.437659534822],[-121.006355479298,50.4374886824449]]]}},{"type":"Feature","id":"934051091","properties":{"name":"iSP_17KPH_%TR_Ramp_Permission Blocker","oid":"934051091","speedLimit":4.7222223},"geometry":{"type":"Polygon","coordinates":[[[-121.039497728794,50.4610295516191],[-121.039449700835,50.4607715204909],[-121.039002378847,50.4607921018661],[-121.039061251829,50.4610448303693],[-121.039148716235,50.4608997721175],[-121.039364630785,50.4608866503673],[-121.039497728794,50.4610295516191]]]}},{"type":"Feature","id":"936169885","properties":{"name":"SP_10KPH_%TR_24shl_loadplan_OCT_2_NS","oid":"936169885","speedLimit":2.7777777},"geometry":{"type":"Polygon","coordinates":[[[-121.039006181647,50.4546053764125],[-121.038142523451,50.4544776640358],[-121.037799285514,50.4553099065464],[-121.038016608508,50.4554559534233],[-121.038594352461,50.4554924426738],[-121.039080547519,50.4554887577987],[-121.039166462637,50.4553135914215],[-121.039006181647,50.4546053764125]]]}},{"type":"Feature","id":"936513295","properties":{"name":"SP_30KPH_%TR_1635_FLATS_OCT_2_NS","oid":"936513295","speedLimit":8.333333},"geometry":{"type":"Polygon","coordinates":[[[-121.017277544232,50.4555550855496],[-121.018041484555,50.4557850756775],[-121.017425571754,50.4574536949487],[-121.01521924337,50.4585168263372],[-121.014490655006,50.4578795227041],[-121.016169239218,50.4566192954381],[-121.017277544232,50.4555550855496]]]}},{"type":"Feature","id":"938065675","properties":{"name":"iSP_8KPH_CR01_YARD_RUTIING_OCT_2_NS","oid":"938065675","speedLimit":2.2222223},"geometry":{"type":"Polygon","coordinates":[[[-121.034275638945,50.4648010661671],[-121.034085498931,50.4648578671678],[-121.033927330608,50.4649068490434],[-121.033815922645,50.4650048127947],[-121.034030710438,50.4650687139205],[-121.033950710788,50.4650111939198],[-121.03422901943,50.4648879752932],[-121.034305638814,50.4649372267938],[-121.034275638945,50.4648010661671]]]}},{"type":"Feature","id":"938165680","properties":{"name":"SP_10KPH_%TR_22SH_OCT_2_NS","oid":"938165680","speedLimit":2.7777777},"geometry":{"type":"Polygon","coordinates":[[[-121.034066907463,50.4466112646858],[-121.035041410245,50.447250455694],[-121.035483098456,50.4474471920715],[-121.035781125322,50.4469120763147],[-121.034841129431,50.4461952333056],[-121.034066907463,50.4466112646858]]]}},{"type":"Feature","id":"944724443","properties":{"name":"SP_10KPH_%TR_21SH_EMPTY_OCT_2_NS","oid":"944724443","speedLimit":2.7777777},"geometry":{"type":"Polygon","coordinates":[[[-121.039119561433,50.4501829871062],[-121.039025899871,50.4503427848583],[-121.038936181953,50.4506116009867],[-121.038936463642,50.4512094494943],[-121.039422095322,50.4515125978732],[-121.039927022692,50.4513548672461],[-121.039695615253,50.451109418618],[-121.039490404883,50.4509151987406],[-121.03908942072,50.4503564458585],[-121.039069561652,50.4502968587327],[-121.039119561433,50.4501829871062]]]}},{"type":"Feature","id":"948333262","properties":{"name":"SP_15KPH_%TR_19SH_LOADAREA_OCT_2_NS","oid":"948333262","speedLimit":4.1666665},"geometry":{"type":"Polygon","coordinates":[[[-121.001825076566,50.4258158970465],[-121.001353247643,50.4259954672988],[-121.00148690903,50.4262928636775],[-121.001511275121,50.4266962226827],[-121.001607471884,50.4268353491844],[-121.001751414917,50.4269522765609],[-121.001944935197,50.4270054825616],[-121.002353384116,50.4268576381847],[-121.001825076566,50.4258158970465]]]}},{"type":"Feature","id":"949509237","properties":{"name":"SP_20KPH_%TR_24SH__LANE_OCT_2_NS","oid":"949509237","speedLimit":5.5555553},"geometry":{"type":"Polygon","coordinates":[[[-121.038486043076,50.453546019774],[-121.038387733646,50.453704739026],[-121.038153931851,50.4544229301602],[-121.039017730892,50.454568887162],[-121.039303645136,50.4537390712765],[-121.038486043076,50.453546019774]]]}},{"type":"Feature","id":"950380359","properties":{"name":"SP_20KPH_%TR_EMPTY_23SH_SOFT_OCT_2_NS","oid":"950380359","speedLimit":5.5555553},"geometry":{"type":"Polygon","coordinates":[[[-121.038885759638,50.4647303345412],[-121.038771393941,50.4646500761652],[-121.038294353773,50.4649202404186],[-121.038363085867,50.464951966294],[-121.038767450296,50.4647035517908],[-121.038878154038,50.4647279079162],[-121.038885759638,50.4647303345412]]]}},{"type":"Feature","id":"950427531","properties":{"name":"SP_15KPH_%TR_1590_DUMP_HEAD_OCT_2_NS","oid":"950427531","speedLimit":4.1666665},"geometry":{"type":"Polygon","coordinates":[[[-121.01446234527,50.4503497951084],[-121.014245585655,50.4491357635929],[-121.014354035885,50.4478526182016],[-121.014442627047,50.4473997380709],[-121.01368361628,50.4470537193165],[-121.013545729559,50.4483117895825],[-121.013939953188,50.4505322413607],[-121.014551077277,50.4504252901093],[-121.01446234527,50.4503497951084]]]}}]}