{"type":"FeatureCollection","features":[{"type":"Feature","id":"702602533","properties":{"name":"iSP_4KPH_%TR_CR01_SLOW BUMP","oid":"702602533","speedLimit":1.1111112},"geometry":{"type":"Polygon","coordinates":[[[-121.033337481671,50.4648103344378],[-121.033632194351,50.4646933164362],[-121.033675584172,50.4647340300727],[-121.033347765622,50.464872168835],[-121.033337481671,50.4648103344378]]]}},{"type":"Feature","id":"707947583","properties":{"name":"iSP_22KPH_%TR_Permission Gate 1 from west dump_Jun","oid":"707947583","speedLimit":6.111111},"geometry":{"type":"Polygon","coordinates":[[[-121.038606527393,50.4619804221362],[-121.038833196945,50.4618019292397],[-121.037959061104,50.4613534501091],[-121.037721966726,50.4615447053375],[-121.037938070574,50.4614989586687],[-121.038644986553,50.4618484847887],[-121.038606527393,50.4619804221362]]]}},{"type":"Feature","id":"742345972","properties":{"name":"iSP_4KPH_%TR_CR01_PITSIDE_SLOW BUMP","oid":"742345972","speedLimit":1.1111112},"geometry":{"type":"Polygon","coordinates":[[[-121.033377349591,50.4648852906692],[-121.033684600239,50.4647467924047],[-121.03373475211,50.4647788779857],[-121.033453281778,50.4649207915223],[-121.033377349591,50.4648852906692]]]}},{"type":"Feature","id":"776427243","properties":{"name":"iSP_7KPH_%TR_CR1_PermissionBlocker_DO_NOT_DELETE","oid":"776427243","speedLimit":1.9444444},"geometry":{"type":"Polygon","coordinates":[[[-121.034078489652,50.465215313789],[-121.034030028294,50.4652356256694],[-121.034008896887,50.4652770583106],[-121.034094549521,50.4652279862454],[-121.034078489652,50.465215313789]]]}},{"type":"Feature","id":"794004438","properties":{"name":"iSP_11KPH_%TR_LOWER_FUEL_BAY","oid":"794004438","speedLimit":3.0555556},"geometry":{"type":"Polygon","coordinates":[[[-121.036754993573,50.4606978976484],[-121.036757106714,50.4607277363401],[-121.036727381869,50.4606732717403],[-121.037103520901,50.4606015510296],[-121.037513470183,50.4605585006281],[-121.037521218366,50.4605838455409],[-121.036922776939,50.4606526902331],[-121.036754993573,50.4606978976484]]]}},{"type":"Feature","id":"801543391","properties":{"name":"iSP_4KPH_%TR_CR1_PermissionBlocker_DO_NOT_DELETE_","oid":"801543391","speedLimit":1.1111112},"geometry":{"type":"Polygon","coordinates":[[[-121.033134056667,50.4645257883601],[-121.033133211411,50.4644763567926],[-121.033154765445,50.4644342950225],[-121.033086722317,50.4644618868247],[-121.033134056667,50.4645257883601]]]}},{"type":"Feature","id":"806473874","properties":{"name":"iSP_4KPH_%TR_Permission Blocker - DO NOT DELETE","oid":"806473874","speedLimit":1.1111112},"geometry":{"type":"Polygon","coordinates":[[[-121.022699086486,50.481547773318],[-121.022665980616,50.481545436553],[-121.02265837331,50.4815741068622],[-121.022680490849,50.4815751853691],[-121.022684576254,50.4815510987144],[-121.022699086486,50.481547773318]]]}},{"type":"Feature","id":"824566967","properties":{"name":"iSP_4Cr_3KPH","oid":"824566967","speedLimit":0.8333333},"geometry":{"type":"Polygon","coordinates":[[[-121.023281890672,50.481070893505],[-121.023261745398,50.481070893505],[-121.023259068753,50.4811889900136],[-121.023284144688,50.4811882710089],[-121.023281890672,50.481070893505]]]}},{"type":"Feature","id":"826307302","properties":{"name":"iSP_4KPH_TR%_CRUSHER POCKETS","oid":"826307302","speedLimit":1.1111112},"geometry":{"type":"Polygon","coordinates":[[[-121.023277100886,50.4813240730062],[-121.023316546178,50.481479737506],[-121.023521239067,50.4814402821276],[-121.023440235343,50.4811914166542],[-121.023031976573,50.4811921356588],[-121.023037329863,50.48136280938],[-121.023262168026,50.4813288364118],[-121.023277100886,50.4813240730062]]]}},{"type":"Feature","id":"849417440","properties":{"name":"iSP_Permissions_35_KPH_June_19_NS","oid":"849417440","speedLimit":9.722222},"geometry":{"type":"Polygon","coordinates":[[[-121.03267409639,50.4660365968141],[-121.032988672591,50.466017273565],[-121.033195619497,50.4658164016498],[-121.033784340476,50.4653819431093],[-121.033705168141,50.465253151407],[-121.033941276387,50.465402614492],[-121.033405102172,50.4658109192396],[-121.033002760196,50.4661904638024],[-121.03267409639,50.4660365968141]]]}},{"type":"Feature","id":"853029148","properties":{"name":"SP_30KPH_%TR_1635 Flats_July_27_DS","oid":"853029148","speedLimit":8.333333},"geometry":{"type":"Polygon","coordinates":[[[-121.018570009696,50.456973273975],[-121.01738890496,50.4572920626476],[-121.016410520849,50.4584599058987],[-121.018329111664,50.4588954429462],[-121.020672021118,50.4589895426756],[-121.020220372528,50.4572340929003],[-121.01940272798,50.4570989200321],[-121.018948543621,50.4570023037865],[-121.018570009696,50.456973273975]]]}},{"type":"Feature","id":"883050998","properties":{"name":"iSP_22kph_%TR_4CR_Brake_Temp_CTRL_NOREMOVE","oid":"883050998","speedLimit":6.111111},"geometry":{"type":"Polygon","coordinates":[[[-121.031777843011,50.4745615649454],[-121.032167083515,50.4743149463613],[-121.032468699121,50.4745772931714],[-121.032770314726,50.4748046783819],[-121.032948100291,50.4748870942862],[-121.033156878586,50.4749372448584],[-121.03344074381,50.4749620505177],[-121.033644591443,50.4749244825264],[-121.033805753635,50.4748650747698],[-121.033896900434,50.4748130368106],[-121.033986215845,50.4747498542797],[-121.034036649468,50.4746606977071],[-121.03403087355,50.4745505102493],[-121.034034677203,50.474486159336],[-121.033972550869,50.4743821732931],[-121.033854214993,50.4742620995219],[-121.03348737378,50.4739401652041],[-121.033039106214,50.4735625080284],[-121.032925841877,50.4734279642892],[-121.032800884828,50.4732234074753],[-121.032584076599,50.4728174394928],[-121.03223061861,50.4722114983508],[-121.032465599848,50.4721586515113],[-121.032408545051,50.4722081729544],[-121.032881043295,50.4730513856204],[-121.033020228825,50.4733121146701],[-121.033228020987,50.4735494760697],[-121.033720946258,50.4739641619832],[-121.034075953883,50.4742736934713],[-121.034181329163,50.4743970027634],[-121.034234016802,50.4744642296952],[-121.034241060605,50.4745953581624],[-121.034216125545,50.4746813690898],[-121.034161606517,50.4747941629393],[-121.034064120296,50.4748783763552],[-121.033951278586,50.4749402107524],[-121.033768703236,50.4750186721314],[-121.033509209567,50.4750669353164],[-121.033241263335,50.475070620215],[-121.033049671918,50.4750288280716],[-121.032785951967,50.4749190899917],[-121.032635214602,50.4748376627187],[-121.032473629782,50.4747078823851],[-121.03212313019,50.4744156070078],[-121.031777843011,50.4745615649454]]]}},{"type":"Feature","id":"883053336","properties":{"name":"iSP_22kph_%TR_Brake_Temp_CTRL_NOREMOVE","oid":"883053336","speedLimit":6.111111},"geometry":{"type":"Polygon","coordinates":[[[-121.032444327565,50.4721477765665],[-121.032229491601,50.472228035457],[-121.031466929586,50.471010850514],[-121.030795091742,50.4699258725451],[-121.030639846344,50.4696627168548],[-121.030575043364,50.4694602271792],[-121.030528695147,50.4692592653885],[-121.030575043364,50.4689754383154],[-121.030701268298,50.4686268109512],[-121.030862993994,50.4683780353533],[-121.031067405131,50.4681003198195],[-121.031666691814,50.4675390468394],[-121.032410517315,50.4668961668352],[-121.032766792825,50.4665586840425],[-121.033125885856,50.4662248861485],[-121.033462720473,50.4658732030146],[-121.033757714905,50.4660365968141],[-121.033565700859,50.465995793302],[-121.032897666668,50.4666545812835],[-121.032532938596,50.4669937717121],[-121.03215694044,50.4673102236197],[-121.031752767075,50.4676708943113],[-121.031360427298,50.4680369575375],[-121.031125586936,50.4682888787806],[-121.030987246663,50.4684724047094],[-121.030883561896,50.4686570091451],[-121.030807066206,50.4688555442953],[-121.030746207755,50.4691938359682],[-121.03075494207,50.4694031561877],[-121.030852146539,50.4696328781632],[-121.031006124053,50.4699376462457],[-121.031309007543,50.4704063473812],[-121.031509051523,50.4707135421043],[-121.031728677272,50.4710854472431],[-121.032124398074,50.471731383017],[-121.032359661064,50.4721476866909],[-121.032444327565,50.4721477765665]]]}},{"type":"Feature","id":"883059532","properties":{"name":"iSP_22kph_%TR_Brake_CTRL_NOREMOVE","oid":"883059532","speedLimit":6.111111},"geometry":{"type":"Polygon","coordinates":[[[-121.027241070955,50.4773246098175],[-121.027008907238,50.4772124450971],[-121.027313340365,50.4769466830151],[-121.027695255314,50.4766350843886],[-121.028011944657,50.4763253731494],[-121.02816916232,50.4761714162855],[-121.028599961256,50.4756949858504],[-121.028885939621,50.4753283833706],[-121.029242496883,50.4748902399314],[-121.029451275178,50.4746593495734],[-121.029670055671,50.4745430505764],[-121.02978007986,50.474490832866],[-121.029930817224,50.4745952682868],[-121.02976726014,50.4745446683368],[-121.029534673794,50.4747941629393],[-121.02923052242,50.4751756847649],[-121.029051609847,50.4754806325986],[-121.028831843221,50.4757774017547],[-121.028674766434,50.4759773749142],[-121.028387661061,50.4762732453145],[-121.028020397219,50.4765726208624],[-121.02722275707,50.4772220617838],[-121.027241070955,50.4773246098175]]]}},{"type":"Feature","id":"886231481","properties":{"name":"SP_15KPH_%TR_1200_SWITCHBACK_July_27_DS","oid":"886231481","speedLimit":4.1666665},"geometry":{"type":"Polygon","coordinates":[[[-121.036887276177,50.4452298614216],[-121.036946303238,50.4446828786583],[-121.036261927427,50.4447481283274],[-121.036018070998,50.4452775853531],[-121.036501839326,50.445347778179],[-121.036596226274,50.4451043951157],[-121.036750203788,50.4451336046783],[-121.036887276177,50.4452298614216]]]}},{"type":"Feature","id":"899288147","properties":{"name":"SP_30KPH_%TR_1185_BENCH_JULY_27_DS","oid":"899288147","speedLimit":8.333333},"geometry":{"type":"Polygon","coordinates":[[[-121.03973776201,50.4500585166863],[-121.039521235534,50.4496343039615],[-121.03981749785,50.4495917029379],[-121.04012855215,50.4505456423151],[-121.040312113633,50.4509558344498],[-121.040177999641,50.4511955326144],[-121.039995424291,50.450603072809],[-121.03973776201,50.4500585166863]]]}},{"type":"Feature","id":"902669831","properties":{"name":"SP_15KPH_%TR_22 shovel loaded_Jul_27_DS","oid":"902669831","speedLimit":4.1666665},"geometry":{"type":"Polygon","coordinates":[[[-121.035341302492,50.4461879350754],[-121.035486686568,50.4460789160001],[-121.035357080609,50.446300908676],[-121.035208456385,50.4462545328781],[-121.034175130617,50.4459484166619],[-121.034426735228,50.4457290303778],[-121.034361791373,50.4458907165413],[-121.035341302492,50.4461879350754]]]}},{"type":"Feature","id":"902935346","properties":{"name":"SP_20KPH_%TRX_NEW LANES_July27_DS","oid":"902935346","speedLimit":5.5555553},"geometry":{"type":"Polygon","coordinates":[[[-121.039130163641,50.4482820360258],[-121.039099030036,50.4482930907219],[-121.039054090578,50.4483261649343],[-121.039223987085,50.4487281783914],[-121.03948827054,50.4492700382468],[-121.039606183787,50.4495861306521],[-121.039807918279,50.4495443385087],[-121.039686764883,50.4493158747912],[-121.039204687067,50.4483001010169],[-121.039130163641,50.4482820360258]]]}},{"type":"Feature","id":"908328496","properties":{"name":"SP_15KPH_%TR_9019_SOFT_GROUND_July 27_DS","oid":"908328496","speedLimit":4.1666665},"geometry":{"type":"Polygon","coordinates":[[[-121.038977735764,50.4644914558896],[-121.039302314164,50.4647050901368],[-121.039481367614,50.4648807968904],[-121.03936937116,50.4652180100563],[-121.038512985701,50.4663473865603],[-121.038083032021,50.4666005660615],[-121.038006677206,50.4662289305495],[-121.037859320866,50.4651424246958],[-121.038498334593,50.4648168953549],[-121.038977735764,50.4644914558896]]]}},{"type":"Feature","id":"908575258","properties":{"name":"iSP_15km_permissions ","oid":"908575258","speedLimit":4.1666665},"geometry":{"type":"Polygon","coordinates":[[[-121.041847239863,50.459552882794],[-121.041437149704,50.4599154408727],[-121.041061574176,50.4602085251302],[-121.040666276003,50.4604261139028],[-121.040325215105,50.4605869013105],[-121.039934847593,50.4607161423906],[-121.03949503259,50.4607822908155],[-121.039154112568,50.4607981089171],[-121.039099734416,50.4612142328399],[-121.039233144028,50.460939932578],[-121.039781715335,50.460848529116],[-121.040251114307,50.460706705455],[-121.040918303242,50.4603945675751],[-121.041521111825,50.4599879704636],[-121.041921481537,50.4596537231917],[-121.042069683133,50.459530773402],[-121.041921481537,50.4594929357839],[-121.041847239863,50.459552882794]]]}},{"type":"Feature","id":"910445950","properties":{"name":"SP_30KPH_%TR_1635_FLATS_JULY27_DS","oid":"910445950","speedLimit":8.333333},"geometry":{"type":"Polygon","coordinates":[[[-121.020205157915,50.4571665064662],[-121.019024194055,50.4569636572883],[-121.018630586394,50.45692501079],[-121.017434407922,50.4572340929003],[-121.018070322375,50.4544714075304],[-121.018751598914,50.4539015064949],[-121.018918255272,50.4535151313882],[-121.019538955113,50.454519760591],[-121.020205157915,50.457147183217],[-121.020190084179,50.457147183217],[-121.020205157915,50.4571665064662]]]}},{"type":"Feature","id":"911981461","properties":{"name":"SP_20KPH_%TR_NEWLANES_21SH_1185_JULY_27_DS","oid":"911981461","speedLimit":5.5555553},"geometry":{"type":"Polygon","coordinates":[[[-121.04055709707,50.4504001337555],[-121.040405091821,50.4504235014056],[-121.040431294765,50.4507110133773],[-121.040394666994,50.4509015496011],[-121.040216458801,50.4512393020205],[-121.040436507178,50.4518777781214],[-121.040944928814,50.4517875430419],[-121.040468063412,50.450476977374],[-121.0405780876,50.4504001337555],[-121.04055709707,50.4504001337555]]]}},{"type":"Feature","id":"912904239","properties":{"name":"SP_30KPH_%TR_1445_BENCH_JULY_27_DS","oid":"912904239","speedLimit":4.1666665},"geometry":{"type":"Polygon","coordinates":[[[-121.039438259545,50.465306088122],[-121.039001262063,50.4653019538455],[-121.038544964563,50.4663802810216],[-121.03891772257,50.4664335772389],[-121.039438259545,50.465306088122]]]}}]}