{"type":"FeatureCollection","features":[{"type":"Feature","id":"702602533","properties":{"name":"iSP_4KPH_%TR_CR01_SLOW BUMP","oid":"702602533","speedLimit":1.1111112},"geometry":{"type":"Polygon","coordinates":[[[-121.033358353882,50.4648078058698],[-121.033653107639,50.4646907888424],[-121.033696503508,50.46473150214],[-121.033368639266,50.4648696397522],[-121.033358353882,50.4648078058698]]]}},{"type":"Feature","id":"707947583","properties":{"name":"iSP_22KPH_%TR_Permission Gate 1 from west dump_Jun","oid":"707947583","speedLimit":6.111111},"geometry":{"type":"Polygon","coordinates":[[[-121.038628134012,50.461977917128],[-121.038854835157,50.4617994257175],[-121.037980577478,50.4613509503206],[-121.037743450053,50.4615422039568],[-121.037959584022,50.4614964576688],[-121.038666598532,50.4618459808789],[-121.038628134012,50.461977917128]]]}},{"type":"Feature","id":"742345972","properties":{"name":"iSP_4KPH_%TR_CR01_PITSIDE_SLOW BUMP","oid":"742345972","speedLimit":1.1111112},"geometry":{"type":"Polygon","coordinates":[[[-121.033398227358,50.4648827614772],[-121.033705520831,50.4647442643657],[-121.033755679692,50.4647763496796],[-121.033474170129,50.4649182620347],[-121.033398227358,50.4648827614772]]]}},{"type":"Feature","id":"776427243","properties":{"name":"iSP_7KPH_%TR_CR1_PermissionBlocker_DO_NOT_DELETE","oid":"776427243","speedLimit":1.9444444},"geometry":{"type":"Polygon","coordinates":[[[-121.034099465145,50.4652127818494],[-121.034050997032,50.4652330935608],[-121.034029862681,50.465274525857],[-121.034115527253,50.4652254542003],[-121.034099465145,50.4652127818494]]]}},{"type":"Feature","id":"794004438","properties":{"name":"iSP_11KPH_%TR_LOWER_FUEL_BAY","oid":"794004438","speedLimit":3.0555556},"geometry":{"type":"Polygon","coordinates":[[[-121.036776342122,50.4606954033176],[-121.036778455558,50.4607252417609],[-121.03674872657,50.4606707776145],[-121.037124918028,50.4605990575009],[-121.03753492445,50.4605560074578],[-121.037542673712,50.4605813521596],[-121.036944148874,50.4606501962786],[-121.036776342122,50.4606954033176]]]}},{"type":"Feature","id":"801543391","properties":{"name":"iSP_4KPH_%TR_CR1_PermissionBlocker_DO_NOT_DELETE_","oid":"801543391","speedLimit":1.1111112},"geometry":{"type":"Polygon","coordinates":[[[-121.033154900523,50.4645232621611],[-121.033154055149,50.4644738310051],[-121.033175612188,50.4644317695851],[-121.033107559576,50.4644593611576],[-121.033154900523,50.4645232621611]]]}},{"type":"Feature","id":"806473874","properties":{"name":"iSP_4KPH_%TR_Permission Blocker - DO NOT DELETE","oid":"806473874","speedLimit":1.1111112},"geometry":{"type":"Polygon","coordinates":[[[-121.022718475899,50.4815451054063],[-121.022685365415,50.4815427686607],[-121.022677757048,50.4815714387312],[-121.022699877669,50.4815725172291],[-121.022703963644,50.481548430775],[-121.022718475899,50.4815451054063]]]}},{"type":"Feature","id":"824566967","properties":{"name":"iSP_4Cr_3KPH","oid":"824566967","speedLimit":0.8333333},"geometry":{"type":"Polygon","coordinates":[[[-121.023301361317,50.4810682295634],[-121.023281213235,50.4810682295634],[-121.023278536217,50.4811863250888],[-121.023303615648,50.4811856060901],[-121.023301361317,50.4810682295634]]]}},{"type":"Feature","id":"826307302","properties":{"name":"iSP_4KPH_TR%_CRUSHER POCKETS","oid":"826307302","speedLimit":1.1111112},"geometry":{"type":"Polygon","coordinates":[[[-121.023296570864,50.4813214069568],[-121.023336021653,50.4814770701607],[-121.023540743073,50.4814376151108],[-121.023459728058,50.4811887517092],[-121.023051412385,50.4811894707078],[-121.023056766421,50.4813601430081],[-121.023281635922,50.4813261703227],[-121.023296570864,50.4813214069568]]]}},{"type":"Feature","id":"849417440","properties":{"name":"iSP_Permissions_35_KPH_June_19_NS","oid":"849417440","speedLimit":9.722222},"geometry":{"type":"Polygon","coordinates":[[[-121.032694876136,50.4660340580372],[-121.033009496184,50.4660147349489],[-121.033216471934,50.465813864706],[-121.033805274971,50.4653794097825],[-121.0337260916,50.4652506191525],[-121.033962232755,50.4654000809932],[-121.033425983807,50.4658083823415],[-121.033023585752,50.4661879237445],[-121.032694876136,50.4660340580372]]]}},{"type":"Feature","id":"853029148","properties":{"name":"SP_30KPH_%TR_1635 Flats_AUG_8_NS","oid":"853029148","speedLimit":8.333333},"geometry":{"type":"Polygon","coordinates":[[[-121.018588823591,50.4569708106527],[-121.017407554231,50.4572895966713],[-121.016429033751,50.4584574301998],[-121.018347891983,50.4588929636213],[-121.020691127995,50.4589870625673],[-121.020239416453,50.4572316274066],[-121.019421657941,50.4570964556637],[-121.018967410277,50.4569998402225],[-121.018588823591,50.4569708106527]]]}},{"type":"Feature","id":"883050998","properties":{"name":"iSP_22kph_%TR_4CR_Brake_Temp_CTRL_NOREMOVE","oid":"883050998","speedLimit":6.111111},"geometry":{"type":"Polygon","coordinates":[[[-121.031798497836,50.4745589551957],[-121.032187792593,50.4743123386648],[-121.032489450238,50.4745746832908],[-121.032791107884,50.4748020666082],[-121.032968918229,50.4748844818264],[-121.033177725623,50.474934631981],[-121.033461630413,50.4749594374339],[-121.033665506459,50.4749218697553],[-121.033826691114,50.4748624624933],[-121.033917850617,50.4748104249673],[-121.034007178477,50.4747472429625],[-121.034057619129,50.4746580871321],[-121.034051842406,50.4745479005917],[-121.03405564659,50.4744835502141],[-121.033993511596,50.4743795650369],[-121.033875159227,50.4742594922653],[-121.033508266882,50.4739375606277],[-121.033059936837,50.4735599065961],[-121.032946656712,50.4734253639771],[-121.032821682246,50.4732208088662],[-121.032604843798,50.4728148442634],[-121.032251336543,50.4722089081661],[-121.032486350534,50.4721560617666],[-121.032429287784,50.4722055827974],[-121.032901851886,50.4730487884434],[-121.033041056816,50.4733095153224],[-121.03324887794,50.4735468747459],[-121.033741871916,50.4739615572071],[-121.034096929023,50.4742710861183],[-121.03420231899,50.4743943943837],[-121.034255013973,50.4744616207558],[-121.034262058757,50.4745927481314],[-121.034237120222,50.4746787583428],[-121.034182593595,50.4747915512532],[-121.034085093786,50.474875763968],[-121.033972236349,50.4749375978504],[-121.03378963555,50.4750160585762],[-121.033530105713,50.4750643213594],[-121.033262122134,50.4750680062273],[-121.033070504012,50.4750262144318],[-121.032806747304,50.4749164772656],[-121.032655988929,50.4748350506705],[-121.032494381587,50.4747052714174],[-121.032143833142,50.4744129984733],[-121.031798497836,50.4745589551957]]]}},{"type":"Feature","id":"883053336","properties":{"name":"iSP_22kph_%TR_Brake_Temp_CTRL_NOREMOVE","oid":"883053336","speedLimit":6.111111},"geometry":{"type":"Polygon","coordinates":[[[-121.032465075286,50.4721451869123],[-121.032250209378,50.4722254451346],[-121.031487541076,50.471008270325],[-121.03081560959,50.4699233013888],[-121.030660342553,50.4696601478894],[-121.030595530541,50.4694576598996],[-121.030549175863,50.4692566997819],[-121.030595530541,50.4689728750718],[-121.030721773068,50.46862425061],[-121.030883521306,50.4683754770832],[-121.031087960934,50.4680977638615],[-121.031687331146,50.4675364955542],[-121.032431260324,50.4668936209021],[-121.032787585492,50.466556140919],[-121.033146728574,50.466222345804],[-121.033483610139,50.465870665598],[-121.033778645688,50.4660340580372],[-121.033586604879,50.4659932548648],[-121.032918477576,50.4666520373616],[-121.032553698667,50.4669912249664],[-121.032177648104,50.4673076742394],[-121.031773418405,50.4676683419284],[-121.031381023943,50.468034402107],[-121.031146150849,50.4682863212528],[-121.031007791294,50.4684698456537],[-121.030904092075,50.4686544485525],[-121.030827585722,50.4688529820499],[-121.03076671879,50.4691912709064],[-121.030775454322,50.4694005893832],[-121.030872672339,50.4696303094462],[-121.031026671315,50.4699350749915],[-121.031329597021,50.4704037722249],[-121.031529668883,50.4707109643905],[-121.031749325244,50.4710828664331],[-121.032145101203,50.4717287968294],[-121.032380396984,50.4721450970374],[-121.032465075286,50.4721451869123]]]}},{"type":"Feature","id":"883059532","properties":{"name":"iSP_22kph_%TR_Brake_CTRL_NOREMOVE","oid":"883059532","speedLimit":6.111111},"geometry":{"type":"Polygon","coordinates":[[[-121.027261093437,50.4773219770647],[-121.027028897361,50.4772098132781],[-121.02733337292,50.4769440534086],[-121.027715341102,50.4766324573764],[-121.028032074585,50.4763227487155],[-121.028189314161,50.4761687931334],[-121.028620173143,50.4756923666646],[-121.028906191368,50.475325767237],[-121.029262798328,50.4748876274455],[-121.029471605722,50.4746567390097],[-121.029690416709,50.4745404409809],[-121.029800456233,50.4744882237052],[-121.029951214608,50.4745926582566],[-121.029787634727,50.4745420587278],[-121.029555015963,50.4747915512532],[-121.029250822195,50.4751730699025],[-121.029071884685,50.4754780151974],[-121.028852087428,50.4757747818829],[-121.028694988747,50.4759747533775],[-121.028407843357,50.4762706213147],[-121.028040528325,50.4765699943702],[-121.027242776999,50.4772194298848],[-121.027261093437,50.4773219770647]]]}},{"type":"Feature","id":"903864124","properties":{"name":"SP_20KPH_%TR_OLD_GARBAGEDUMP_AUG_8_NS","oid":"903864124","speedLimit":5.5555553},"geometry":{"type":"Polygon","coordinates":[[[-121.042584484636,50.4670020998207],[-121.042131645929,50.4673287049494],[-121.040893313819,50.4666613843438],[-121.040722970945,50.4661229442431],[-121.042263665179,50.4668262147803],[-121.042584484636,50.4670020998207]]]}},{"type":"Feature","id":"908328496","properties":{"name":"SP_12KPH_%TR_9019_SOFT_GROUND_AUG_8_NS","oid":"908328496","speedLimit":3.3333333},"geometry":{"type":"Polygon","coordinates":[[[-121.038999394122,50.4644889299764],[-121.039303869681,50.4646769481187],[-121.039203411063,50.4648766499888],[-121.039034899833,50.4652632915034],[-121.038205587875,50.4663105130113],[-121.039018555934,50.4665830134929],[-121.038804394504,50.4672577038345],[-121.038343102056,50.4677601041288],[-121.036112582586,50.4667428109389],[-121.037880823338,50.4651398933631],[-121.038519926132,50.4648143667323],[-121.038999394122,50.4644889299764]]]}},{"type":"Feature","id":"910445950","properties":{"name":"SP_30KPH_%TR_1635_FLATS_AUG_8_NS","oid":"910445950","speedLimit":8.333333},"geometry":{"type":"Polygon","coordinates":[[[-121.02022419972,50.4571640415352],[-121.019043071255,50.456961194046],[-121.018649408732,50.4569225478695],[-121.017453063535,50.4572316274066],[-121.018089066623,50.4544689650369],[-121.018770438119,50.453899068746],[-121.018937117706,50.4535126968559],[-121.019557904061,50.4545173176949],[-121.02022419972,50.4571447184469],[-121.020209123882,50.4571447184469],[-121.02022419972,50.4571640415352]]]}},{"type":"Feature","id":"917291012","properties":{"name":"SP_15KPH_%TR_CORNER_RUTS_AUG_8_NS","oid":"917291012","speedLimit":4.1666665},"geometry":{"type":"Polygon","coordinates":[[[-121.040554459715,50.466442089761],[-121.040363405176,50.4663129396317],[-121.040273372838,50.4660942741726],[-121.040329590213,50.4660009841001],[-121.039806726354,50.4659759090228],[-121.040087813231,50.4660440341432],[-121.040093449058,50.4663094345133],[-121.040228427117,50.4665138098746],[-121.040537552233,50.4666464651222],[-121.040711840186,50.4667253752221],[-121.04081863911,50.466581934995],[-121.040543188061,50.4664384947678],[-121.040554459715,50.466442089761]]]}},{"type":"Feature","id":"917665392","properties":{"name":"SP_15KPH_22SH RUTS_AUG 8_NS","oid":"917665392","speedLimit":4.1666665},"geometry":{"type":"Polygon","coordinates":[[[-121.035646922371,50.4455195890608],[-121.035214654433,50.4452077234041],[-121.034706021037,50.4452031397878],[-121.035036421401,50.4456322022216],[-121.035585491856,50.4459566503544],[-121.036005783662,50.4464644431385],[-121.036508358544,50.4462080302512],[-121.035646922371,50.4455195890608]]]}},{"type":"Feature","id":"917773475","properties":{"name":"SP_15KPH_%TR_1200_CORNER_AUG_8_NS","oid":"917773475","speedLimit":4.1666665},"geometry":{"type":"Polygon","coordinates":[[[-121.037098288745,50.4446824949032],[-121.036924141688,50.4448620648116],[-121.036628542557,50.4448205426406],[-121.03641395844,50.4448698839217],[-121.036322376249,50.4449675778609],[-121.036253760054,50.4450820783931],[-121.036241502131,50.4451449008986],[-121.036262636482,50.4452672205409],[-121.036315331466,50.4453514332557],[-121.036183453111,50.4453952022974],[-121.036088348529,50.4451942421797],[-121.03616231876,50.4449316279293],[-121.03625911409,50.4447913333211],[-121.03651596691,50.4447150295913],[-121.036713079963,50.4447117042226],[-121.03692245094,50.4447700329867],[-121.037093075605,50.4446835734011],[-121.037098288745,50.4446824949032]]]}},{"type":"Feature","id":"918675861","properties":{"name":"SP_15KPH_SINGLE_LANE_24AMT","oid":"918675861","speedLimit":4.1666665},"geometry":{"type":"Polygon","coordinates":[[[-121.053873891692,50.4687443233816],[-121.053217740522,50.4689553494801],[-121.053595200042,50.4699849555216],[-121.053403581921,50.4691035530732],[-121.053891221861,50.4689701788269],[-121.053885445138,50.46871097982],[-121.053873891692,50.4687443233816]]]}},{"type":"Feature","id":"918844387","properties":{"name":"New Zone2775","oid":"918844387","speedLimit":4.1666665},"geometry":{"type":"Polygon","coordinates":[[[-121.038012279005,50.4614718319657],[-121.037569725682,50.4615465179486],[-121.037729501381,50.4619043995178],[-121.038087939984,50.4618333984029],[-121.038012279005,50.4614718319657]]]}}]}