{"type":"FeatureCollection","features":[{"type":"Feature","id":"702602533","properties":{"name":"iSP_4KPH_%TR_CR01_Slow Bump","oid":"702602533","speedLimit":1.1111112},"geometry":{"type":"Polygon","coordinates":[[[-121.033359051553,50.4648078957272],[-121.033653788586,50.4646908784459],[-121.033697181992,50.4647315918318],[-121.033369336354,50.4648697297438],[-121.033359051553,50.4648078957272]]]}},{"type":"Feature","id":"707947583","properties":{"name":"iSP_25KPH_%TR_Permission Gate 1 From West Dump","oid":"707947583","speedLimit":6.9444447},"geometry":{"type":"Polygon","coordinates":[[[-121.038628532666,50.4619780008434],[-121.038855220948,50.4617995090455],[-121.038140215958,50.4614082830656],[-121.037992565666,50.461670987761],[-121.038192062625,50.4615669124831],[-121.038666995004,50.461846064308],[-121.038628532666,50.4619780008434]]]}},{"type":"Feature","id":"742345972","properties":{"name":"iSP_4KPH_%TR_CR01_Pit Side_Slow Bump","oid":"742345972","speedLimit":1.1111112},"geometry":{"type":"Polygon","coordinates":[[[-121.033398922768,50.4648828514973],[-121.033706198804,50.4647443540852],[-121.033756354819,50.4647764394688],[-121.033474861229,50.4649183521319],[-121.033398922768,50.4648828514973]]]}},{"type":"Feature","id":"776427243","properties":{"name":"iSP_7KPH_%TR_CR1_PermissionBlocker","oid":"776427243","speedLimit":1.9444444},"geometry":{"type":"Polygon","coordinates":[[[-121.034100120765,50.4652128725858],[-121.034051655402,50.4652331843413],[-121.03403052225,50.4652746167274],[-121.034116181961,50.4652255449642],[-121.034100120765,50.4652128725858]]]}},{"type":"Feature","id":"794004438","properties":{"name":"iSP_11KPH_%TR_Lower_Fuel_Bay","oid":"794004438","speedLimit":3.0555556},"geometry":{"type":"Polygon","coordinates":[[[-121.036776845851,50.4606954842495],[-121.036778959166,50.4607253227575],[-121.036749231865,50.4606708584928],[-121.037125401978,50.4605991382236],[-121.037535385135,50.4605560880871],[-121.037543133958,50.4605814328439],[-121.036944643081,50.4606502771123],[-121.036776845851,50.4606954842495]]]}},{"type":"Feature","id":"801543391","properties":{"name":"iSP_4KPH_%TR_CR01_PermissionBlocker_2","oid":"801543391","speedLimit":1.1111112},"geometry":{"type":"Polygon","coordinates":[[[-121.033155609739,50.4645233514009],[-121.033154764413,50.4644739201377],[-121.033176320229,50.4644318586264],[-121.033108271478,50.4644594502588],[-121.033155609739,50.4645233514009]]]}},{"type":"Feature","id":"806473874","properties":{"name":"iSP_4KPH_%TR_CR04_PermissionBlocker","oid":"806473874","speedLimit":1.1111112},"geometry":{"type":"Polygon","coordinates":[[[-121.022719777298,50.4815452315906],[-121.022686668692,50.4815428948399],[-121.022679060757,50.4815715649726],[-121.022701180123,50.4815726434729],[-121.022705265866,50.4815485569665],[-121.022719777298,50.4815452315906]]]}},{"type":"Feature","id":"824566967","properties":{"name":"iSP_3KPH_%TR_CR04","oid":"824566967","speedLimit":0.8333333},"geometry":{"type":"Polygon","coordinates":[[[-121.023302629641,50.4810683547127],[-121.023282482703,50.4810683547127],[-121.023279805837,50.4811864504944],[-121.023304883844,50.4811857314942],[-121.023302629641,50.4810683547127]]]}},{"type":"Feature","id":"826307302","properties":{"name":"iSP_4KPH_%TR_CR04_Pockets","oid":"826307302","speedLimit":1.1111112},"geometry":{"type":"Polygon","coordinates":[[[-121.02329783946,50.4813215326556],[-121.023337288011,50.4814771961973],[-121.023541997814,50.4814377410617],[-121.023460987397,50.48118887712],[-121.023052694892,50.4811895961202],[-121.023058048624,50.481360268791],[-121.023282905366,50.4813262960318],[-121.02329783946,50.4813215326556]]]}},{"type":"Feature","id":"875953603","properties":{"name":"SP_30KPH_%TR_CR01_YARD_LOADED_Sept_27_DS","oid":"875953603","speedLimit":8.333333},"geometry":{"type":"Polygon","coordinates":[[[-121.03811091132,50.4622576919184],[-121.038364790924,50.4628959843395],[-121.038315762011,50.4633432923345],[-121.038101612733,50.4637140268089],[-121.037625553252,50.4639750238789],[-121.037928320883,50.4642050140656],[-121.037828995066,50.4640213095163],[-121.03827504547,50.4637269688124],[-121.038556398173,50.4631644410365],[-121.038355915,50.4621661092688],[-121.03811091132,50.4622576919184]]]}},{"type":"Feature","id":"883050998","properties":{"name":"iSP_22KPH_%TR_4CR_Brake_Temp_Ctrl","oid":"883050998","speedLimit":6.111111},"geometry":{"type":"Polygon","coordinates":[[[-121.031799284017,50.4745590662171],[-121.032188556685,50.474312449151],[-121.032490197214,50.4745747943464],[-121.032791837742,50.4748021781573],[-121.032969637998,50.4748845935544],[-121.033178433544,50.4749347438179],[-121.033462322225,50.4749595493245],[-121.033666186702,50.4749219815645],[-121.033827362211,50.4748625741735],[-121.033918516542,50.4748105365346],[-121.034007839333,50.4747473543926],[-121.034058277123,50.4746581983687],[-121.034052500728,50.4745480115892],[-121.034056304696,50.4744836610719],[-121.033994173228,50.474379675669],[-121.033875827574,50.4742596026368],[-121.033508956048,50.4739376703005],[-121.033060651441,50.4735600154492],[-121.032947377744,50.4734254725382],[-121.03282241037,50.4732209169833],[-121.032605584226,50.4728149514994],[-121.03225209703,50.4722090140869],[-121.032487097684,50.4721561675728],[-121.032430038173,50.4722056887111],[-121.032902575461,50.4730488961872],[-121.033041772492,50.4733096236321],[-121.033249581824,50.4735469835707],[-121.033742547826,50.4739616669319],[-121.034097584787,50.4742711965149],[-121.034202968774,50.474394505048],[-121.034255660767,50.474461731566],[-121.034262705151,50.4745928592262],[-121.034237768031,50.4746788696243],[-121.034183244498,50.4747916627795],[-121.034085750221,50.4748758756771],[-121.033972899188,50.4749377096937],[-121.033790308751,50.4750161705897],[-121.033530793639,50.4750644334777],[-121.033262825266,50.4750681183536],[-121.033071218017,50.4750263264674],[-121.032807476275,50.474916589063],[-121.032656726455,50.4748351622912],[-121.032495128282,50.4747053827564],[-121.032144599728,50.474413109178],[-121.031799284017,50.4745590662171]]]}},{"type":"Feature","id":"883053336","properties":{"name":"iSP_22KPH_%TR_Brake_Temp_Ctrl","oid":"883053336","speedLimit":6.111111},"geometry":{"type":"Polygon","coordinates":[[[-121.032465823644,50.4721452926949],[-121.032250969928,50.4722255510914],[-121.031488344901,50.47100837364],[-121.030816451542,50.469923402349],[-121.030661193315,50.4696602482785],[-121.030596384981,50.4694577598492],[-121.030550032933,50.4692567992953],[-121.030596384981,50.4689729739692],[-121.030722620345,50.4686243487507],[-121.030884359405,50.468375574684],[-121.031088787432,50.4680978608595],[-121.031688123635,50.467536591334],[-121.032432010601,50.4668937152866],[-121.03278831555,50.4665562345711],[-121.033147438254,50.4662224387316],[-121.033484300704,50.4658707577623],[-121.033779319511,50.4660341505561],[-121.0335872896,50.4659933472951],[-121.032919200208,50.4666521312218],[-121.032554441997,50.4669913195628],[-121.032178412771,50.4673077695226],[-121.031774206009,50.4676684379943],[-121.031381833813,50.4680344989675],[-121.031146974046,50.4682864186601],[-121.031008622341,50.4684699434593],[-121.030904929006,50.4686545467588],[-121.030828426995,50.468853080687],[-121.030767563516,50.4691913702777],[-121.030776298552,50.4694006892089],[-121.030873511053,50.4696304097705],[-121.03102750129,50.4699351759772],[-121.031330409809,50.4704038742279],[-121.031530470318,50.4707110670602],[-121.031750114216,50.47108296991],[-121.032145867717,50.4717289017082],[-121.032381150147,50.4721452028198],[-121.032465823644,50.4721452926949]]]}},{"type":"Feature","id":"883059532","properties":{"name":"iSP_22KPH_%TR_Brake_Ctrl","oid":"883059532","speedLimit":6.111111},"geometry":{"type":"Polygon","coordinates":[[[-121.027262137079,50.4773220940831],[-121.027029954178,50.477209930053],[-121.027334412461,50.4769441696067],[-121.027716358969,50.4766325728982],[-121.02803307448,50.4763228635651],[-121.028190305134,50.4761689076488],[-121.028621139668,50.4756924801461],[-121.028907141664,50.4753258799228],[-121.029263728389,50.4748877391803],[-121.029472523935,50.4746568502434],[-121.029691322507,50.4745405519622],[-121.029801355787,50.4744883345732],[-121.029952105607,50.4745927693512],[-121.029788535008,50.4745421697126],[-121.029555929443,50.4747916627795],[-121.029251752936,50.4751731822568],[-121.029072825579,50.4754781282136],[-121.028853040794,50.4757748955432],[-121.028695951027,50.4759748674718],[-121.02840882193,50.4762707360512],[-121.028041527741,50.4765701097564],[-121.027243821681,50.4772195466806],[-121.027262137079,50.4773220940831]]]}},{"type":"Feature","id":"884401102","properties":{"name":"iSP_30KPH_%TR_Maint_Limit_Policy","oid":"884401102","speedLimit":8.333333},"geometry":{"type":"Polygon","coordinates":[[[-121.036992404006,50.4611013598583],[-121.037108495456,50.46110783086],[-121.038294769746,50.460992161704],[-121.038278426775,50.4603979979197],[-121.038119928131,50.4605658844647],[-121.037032838771,50.4607085161279],[-121.036745146122,50.4605378434572],[-121.036992404006,50.4611013598583]]]}},{"type":"Feature","id":"910445950","properties":{"name":"SP_22KPH_%TR_1635_FLATS_SEP_26_NS","oid":"910445950","speedLimit":6.111111},"geometry":{"type":"Polygon","coordinates":[[[-121.01736970843,50.4554938773546],[-121.018002857677,50.4544142086901],[-121.018148112878,50.4539985367036],[-121.018532736252,50.4537515601374],[-121.018948777579,50.4536881083703],[-121.01886664006,50.4543416795456],[-121.018261809238,50.4560721332596],[-121.018275898006,50.4557008595351],[-121.01736970843,50.4554938773546]]]}},{"type":"Feature","id":"915576987","properties":{"name":"iSP_15KPH_%TR_Preventing Shifting","oid":"915576987","speedLimit":4.1666665},"geometry":{"type":"Polygon","coordinates":[[[-121.036997898625,50.4448632797539],[-121.03751199778,50.4453131941245],[-121.037981294652,50.4457956432539],[-121.038525261995,50.4462189546174],[-121.039457938455,50.4468500570366],[-121.039915259874,50.4470998197286],[-121.04047120267,50.4471951771292],[-121.041224388222,50.4473228895384],[-121.04164282464,50.4475097397135],[-121.042321339721,50.4480951856205],[-121.042703990667,50.4485279338616],[-121.042847414328,50.4487949525582],[-121.043008871613,50.4493917227182],[-121.043188080746,50.4501982611845],[-121.043325587124,50.4505014096408],[-121.043687245806,50.4511688215698],[-121.043857719902,50.4514891361557],[-121.044126674488,50.4522537029857],[-121.04438379451,50.4529382810443],[-121.044697551379,50.4537982052749],[-121.04473643638,50.4541948237562],[-121.044572020454,50.4550719141164],[-121.044216419942,50.4568393963404],[-121.044052004017,50.4572074345641],[-121.043005772084,50.4583990875086],[-121.041905861944,50.4595374445639],[-121.041344001865,50.4600007503132],[-121.040372581292,50.4605976103482],[-121.039924135798,50.460731074759],[-121.039135023886,50.4608072887794],[-121.038497648009,50.4608388349129],[-121.038645439188,50.4611436011196],[-121.038758290222,50.4609496508176],[-121.039879333514,50.4608798179239],[-121.040707330426,50.4606319426074],[-121.041511376432,50.4600580007035],[-121.042874323876,50.4587003485894],[-121.044243188602,50.4571425447967],[-121.044428596793,50.4562902599431],[-121.044814206381,50.4544216683171],[-121.044811106852,50.4537867012718],[-121.044261222226,50.4523014266235],[-121.043833768996,50.4511859876994],[-121.043346579389,50.4503374775968],[-121.043050715255,50.4493097566962],[-121.042928142971,50.4486919557806],[-121.042240611079,50.4478873046898],[-121.041547161904,50.4473915540568],[-121.041092799127,50.4472218700113],[-121.040459227217,50.4471303772368],[-121.039918218515,50.4470197410821],[-121.038821267016,50.4463333655231],[-121.038196571031,50.4458718572743],[-121.037153438627,50.4449070488906],[-121.037377590931,50.4446973704594],[-121.036997898625,50.4448632797539]]]}},{"type":"Feature","id":"917773475","properties":{"name":"SP_15KPH_%TR_1200_CORNER_Sept_26_NS","oid":"917773475","speedLimit":4.1666665},"geometry":{"type":"Polygon","coordinates":[[[-121.037098774206,50.4446825410804],[-121.03692463703,50.4448621113785],[-121.036629054672,50.4448205891174],[-121.036414482731,50.4448699305056],[-121.036322905737,50.4449676246568],[-121.036254293435,50.4450821254375],[-121.036242036207,50.4451449480794],[-121.036263169359,50.4452672679872],[-121.036315861353,50.4453514808848],[-121.036183990482,50.4453952500215],[-121.036088891296,50.4451942894676],[-121.036162857329,50.4449316746472],[-121.036259647167,50.4447913797346],[-121.036516485413,50.4447150758391],[-121.036713587281,50.4447117504632],[-121.036922946378,50.4447700793539],[-121.037093561362,50.4446836195807],[-121.037098774206,50.4446825410804]]]}},{"type":"Feature","id":"926367691","properties":{"name":"SP_30KPH_%TR_24SH_EMPTY_LANE_SEP_26_NS","oid":"926367691","speedLimit":8.333333},"geometry":{"type":"Polygon","coordinates":[[[-121.038923410587,50.4549415953315],[-121.039203354412,50.4546235276212],[-121.039438918618,50.4538307400336],[-121.039920895381,50.451426942639],[-121.039502458963,50.4515917734332],[-121.039433142223,50.4530471196985],[-121.039204199738,50.4540991967306],[-121.038923410587,50.4549415953315]]]}},{"type":"Feature","id":"927549571","properties":{"name":"SP_30KPH_TR70%_CRUSHER YARD EMPTY_SEPT_27_DS","oid":"927549571","speedLimit":8.333333},"geometry":{"type":"Polygon","coordinates":[[[-121.037754888145,50.461928299955],[-121.037448457435,50.461260798151],[-121.036778536503,50.4614646347057],[-121.037246988049,50.4615093025927],[-121.037728401261,50.4623116169328],[-121.037507066711,50.4624617980981],[-121.038037508837,50.4623441516916],[-121.037754888145,50.461928299955]]]}},{"type":"Feature","id":"929009157","properties":{"name":"iSP_22KPH_%TR_Long_Single_Lane","oid":"929009157","speedLimit":6.111111},"geometry":{"type":"Polygon","coordinates":[[[-121.005680680049,50.4380559656784],[-121.00475096223,50.4382240319735],[-121.005175456819,50.4381975188414],[-121.007935728301,50.4431704836749],[-121.008524497927,50.4445348764158],[-121.008211586384,50.4465097003204],[-121.007833584731,50.4466801932411],[-121.008935044635,50.4466469394822],[-121.008824306916,50.4465929245927],[-121.009404341506,50.4448176232416],[-121.008765415865,50.4430683856475],[-121.008263714826,50.4415401507377],[-121.007260171861,50.4401561652416],[-121.006440487323,50.4389840151773],[-121.005861438946,50.4383130082473],[-121.005680680049,50.4380559656784]]]}},{"type":"Feature","id":"932268643","properties":{"name":"SP_35KPH_%traction_1185_1170_SEP_27_DS","oid":"932268643","speedLimit":9.722222},"geometry":{"type":"Polygon","coordinates":[[[-121.038728985584,50.448197463398],[-121.03846721627,50.4482557024136],[-121.038947079717,50.4498293242106],[-121.03950626293,50.4497913969504],[-121.039105719248,50.4497306414341],[-121.038621910945,50.4483442293123],[-121.038851980531,50.4481595361378],[-121.038728985584,50.448197463398]]]}},{"type":"Feature","id":"932654885","properties":{"name":"SP_11KPH_%TR_LOTS OF MUD_SEPT_26_NS","oid":"932654885","speedLimit":3.0555556},"geometry":{"type":"Polygon","coordinates":[[[-121.03636531293,50.4453591202618],[-121.036057755118,50.4454651727903],[-121.036262746696,50.4454606790391],[-121.038009472188,50.4473914641818],[-121.038175719654,50.4473147109112],[-121.03636531293,50.4453591202618]]]}},{"type":"Feature","id":"934051091","properties":{"name":"iSP_17KPH_%TR_Ramp_Permission Blocker","oid":"934051091","speedLimit":4.7222223},"geometry":{"type":"Polygon","coordinates":[[[-121.039512884651,50.4610297294641],[-121.039464841952,50.4607716982699],[-121.039017382671,50.4607922796504],[-121.039076273722,50.4610450082182],[-121.039163764973,50.4608999499293],[-121.039379745791,50.4608868281758],[-121.039512884651,50.4610297294641]]]}},{"type":"Feature","id":"934181442","properties":{"name":"SP_30KPH_TR%_1590_3_SEPT 27_DS_Rough_section ","oid":"934181442","speedLimit":8.333333},"geometry":{"type":"Polygon","coordinates":[[[-121.01106216687,50.4415092337294],[-121.010401121862,50.4418073491844],[-121.01160697954,50.4432053551843],[-121.012272532953,50.4429313262358],[-121.011824369234,50.4429215298582],[-121.010901273136,50.4417731068002],[-121.01106216687,50.4415092337294]]]}},{"type":"Feature","id":"934181877","properties":{"name":"SP_30KPH_TR%_1590_7_SEPT 27_DS","oid":"934181877","speedLimit":8.333333},"geometry":{"type":"Polygon","coordinates":[[[-121.013995448426,50.4497859145739],[-121.013325245719,50.4498808225994],[-121.013673801847,50.451505403535],[-121.014402754717,50.4513829038772],[-121.0139843183,50.4512796374745],[-121.01370705134,50.4500006260065],[-121.013995448426,50.4497859145739]]]}},{"type":"Feature","id":"934182273","properties":{"name":"SP_30KPH_TR%_1590_17_SEPT 27_DS","oid":"934182273","speedLimit":8.333333},"geometry":{"type":"Polygon","coordinates":[[[-121.008849525811,50.441369747692],[-121.009440549641,50.4411108177476],[-121.007219596209,50.4391735616031],[-121.006130534421,50.4382651048595],[-121.005749151463,50.4379789427827],[-121.004975396309,50.4375496996676],[-121.0045156798,50.437163416814],[-121.00358483488,50.4374710590215],[-121.004111895701,50.4376570104464],[-121.005053870748,50.4380647734308],[-121.006107992391,50.4386441977111],[-121.007075749885,50.4394768898094],[-121.008913629707,50.4411153114988],[-121.008849525811,50.441369747692]]]}},{"type":"Feature","id":"934860743","properties":{"name":"SP_30KPH_TR70%_CRUSHER YARD EMPTY1_SEPT_27_DS","oid":"934860743","speedLimit":8.333333},"geometry":{"type":"Polygon","coordinates":[[[-121.037495795696,50.4624816604784],[-121.037861681009,50.4624689881],[-121.037920008509,50.4626184502651],[-121.037907046843,50.4632760658165],[-121.037748266424,50.4634696566184],[-121.037563844447,50.4634605792409],[-121.037937196807,50.4636155237825],[-121.037979885775,50.4635589923923],[-121.038210237136,50.4632687859395],[-121.038183891139,50.4627772594327],[-121.038038072388,50.462345589692],[-121.037495795696,50.4624816604784]]]}},{"type":"Feature","id":"934860935","properties":{"name":"SP_30KPH_TR%_CRUSHER YARD EMPTY2_SEPT_27_DS","oid":"934860935","speedLimit":8.333333},"geometry":{"type":"Polygon","coordinates":[[[-121.037546797038,50.4634732516194],[-121.037682894539,50.4636379026635],[-121.037077500166,50.4639814050056],[-121.036451817967,50.4642045646905],[-121.036236259812,50.4641030957882],[-121.036398844198,50.4643263453481],[-121.036720490778,50.4642316170727],[-121.037430846475,50.463964238876],[-121.037846887802,50.4637352373146],[-121.037937196807,50.4636155237825],[-121.037546797038,50.4634732516194]]]}},{"type":"Feature","id":"936169885","properties":{"name":"SP_15KPH_%TR_24shl_loadplan_Sept_26_NS","oid":"936169885","speedLimit":4.1666665},"geometry":{"type":"Polygon","coordinates":[[[-121.03916883693,50.4546367392497],[-121.038618952304,50.4545682544814],[-121.038154445614,50.4553923185773],[-121.038669953645,50.4555194018614],[-121.038841977506,50.4552446539128],[-121.039002025914,50.454947437208],[-121.039087403849,50.4547917736663],[-121.03916883693,50.4546367392497]]]}},{"type":"Feature","id":"936513295","properties":{"name":"SP_30KPH_%TR_1635_FLATS_SEP_26_NS","oid":"936513295","speedLimit":8.333333},"geometry":{"type":"Polygon","coordinates":[[[-121.017285880259,50.455555261996],[-121.01805005505,50.4557852521827],[-121.017433953213,50.4574538718802],[-121.015226947662,50.4585170035403],[-121.014498135679,50.4578796997444],[-121.016177235083,50.4566194721564],[-121.017285880259,50.455555261996]]]}},{"type":"Feature","id":"937786749","properties":{"name":"SP_32KPH_%TR_24SH_Loaded_LANE_SEP_26_NS","oid":"937786749","speedLimit":8.888889},"geometry":{"type":"Polygon","coordinates":[[[-121.038280117427,50.455428448337],[-121.038456367918,50.4555012471066],[-121.038969621746,50.4539575536926],[-121.039257032619,50.4521234740758],[-121.038991882,50.4522688918648],[-121.038490603625,50.454854146933],[-121.038280117427,50.455428448337]]]}},{"type":"Feature","id":"938065675","properties":{"name":"SP_8KPH_CR01_YARD_RUTIING_SEP_26_NS","oid":"938065675","speedLimit":2.2222223},"geometry":{"type":"Polygon","coordinates":[[[-121.034289192035,50.4648012449755],[-121.034098993664,50.4648580459907],[-121.033940776796,50.4649070278788],[-121.033829334639,50.4650049916551],[-121.034044188355,50.4650688927972],[-121.033964164151,50.4650113727818],[-121.034242558212,50.4648881541238],[-121.034319201112,50.464937405637],[-121.034289192035,50.4648012449755]]]}},{"type":"Feature","id":"938165680","properties":{"name":"SP_10KPH_%TR_22SH_Sept_26_NS","oid":"938165680","speedLimit":2.7777777},"geometry":{"type":"Polygon","coordinates":[[[-121.03408039649,50.4466114388476],[-121.035055198367,50.4472506300191],[-121.03549702214,50.4474473664468],[-121.035795140477,50.4469122505533],[-121.034854856082,50.4461954073611],[-121.03408039649,50.4466114388476]]]}},{"type":"Feature","id":"940771585","properties":{"name":"SP_20KPH_%TR_1660_HMT_SEPT26_DS","oid":"940771585","speedLimit":5.5555553},"geometry":{"type":"Polygon","coordinates":[[[-121.002708795268,50.4281184842635],[-121.002603552169,50.4277113504044],[-121.002231890462,50.4276979590258],[-121.002505353454,50.4277963721772],[-121.002533390103,50.4281139905123],[-121.002673714235,50.4280826241289],[-121.002708795268,50.4281184842635]]]}},{"type":"Feature","id":"940778315","properties":{"name":"SP_20KPH_%TR_HMT_SPILLING_ROCK_IN_CORNER_SEPT26_NS","oid":"940778315","speedLimit":5.5555553},"geometry":{"type":"Polygon","coordinates":[[[-121.004784634387,50.4367080200669],[-121.004770545618,50.4370436134069],[-121.004987935313,50.4372762099693],[-121.005121215061,50.4371688093155],[-121.004889877486,50.4369362127531],[-121.004882833102,50.4367572715801],[-121.005198421511,50.4367975355909],[-121.004798582267,50.4366991224395],[-121.004784634387,50.4367080200669]]]}},{"type":"Feature","id":"944724443","properties":{"name":"SP_12KPH_%TR_21SH_EMPTY_SEPT 26_NS","oid":"944724443","speedLimit":3.3333333},"geometry":{"type":"Polygon","coordinates":[[[-121.039134601223,50.4501831621804],[-121.038912703123,50.4501673441762],[-121.038927778105,50.4505370001503],[-121.03926548588,50.4511709785703],[-121.039344805646,50.4515560031736],[-121.039732387661,50.4514983932831],[-121.039710831846,50.4511095939289],[-121.039407218889,50.4509586937634],[-121.039104451259,50.450356620977],[-121.039084586096,50.450297033836],[-121.039134601223,50.4501831621804]]]}},{"type":"Feature","id":"944724972","properties":{"name":"SP_20KPH_%TR_21SH_LOADED_SEPT 26_NS","oid":"944724972","speedLimit":5.5555553},"geometry":{"type":"Polygon","coordinates":[[[-121.038848035676,50.4522167643508],[-121.039181657709,50.4521685014628],[-121.039250833561,50.4519692485344],[-121.039327617349,50.451635632445],[-121.039213357438,50.4512647182205],[-121.038912984898,50.450640266553],[-121.038818449263,50.4509654343902],[-121.038885934463,50.4509782865187],[-121.039058099211,50.451292669353],[-121.039101915281,50.4515746971786],[-121.039046828197,50.4519345567751],[-121.038997094845,50.4521383034547],[-121.038848035676,50.4522167643508]]]}},{"type":"Feature","id":"945606742","properties":{"name":"SP_20KPH_19SH_SEPT 26_NS","oid":"945606742","speedLimit":5.5555553},"geometry":{"type":"Polygon","coordinates":[[[-121.002893780795,50.4271197929957],[-121.002444489975,50.4275246799793],[-121.001789925801,50.4273168889236],[-121.002101710243,50.4269692523304],[-121.002893780795,50.4271197929957]]]}},{"type":"Feature","id":"947290154","properties":{"name":"Sp_30KPH__DRAGGING_CENTER_SLIME_SEPT_27_DS","oid":"947290154","speedLimit":8.333333},"geometry":{"type":"Polygon","coordinates":[[[-121.042355575428,50.4500107818842],[-121.042952093877,50.449849635966],[-121.043015211559,50.4500331607652],[-121.043127499042,50.4504204322441],[-121.043373207161,50.4508905684952],[-121.043460839299,50.4510472206622],[-121.042885454003,50.4511814939482],[-121.043145110002,50.4510449737866],[-121.042906446268,50.4505324165241],[-121.042762599943,50.4499884030032],[-121.042355575428,50.4500107818842]]]}},{"type":"Feature","id":"947418386","properties":{"name":"SP_30KPH_TR%_HMT_LOADED_DOWN_RAMP1_SEPT_27_DS","oid":"947418386","speedLimit":8.333333},"geometry":{"type":"Polygon","coordinates":[[[-121.00387421818,50.4282679464286],[-121.003307427032,50.4286848766654],[-121.003640908177,50.4288635482133],[-121.004201077604,50.429063520142],[-121.004621204675,50.4292677161967],[-121.005288026077,50.4296548079255],[-121.00616829232,50.4301738361897],[-121.006641815822,50.4305056547787],[-121.00700854646,50.4307736621006],[-121.007268625122,50.4309778581553],[-121.007475307353,50.4312628518567],[-121.008188903467,50.4309607819007],[-121.007675367863,50.4310756421815],[-121.006094889837,50.4299015148667],[-121.00469446627,50.4291485419148],[-121.003614139518,50.4286296035256],[-121.00387421818,50.4282679464286]]]}},{"type":"Feature","id":"947419674","properties":{"name":"SP_30KPH_TR%_HMT_LOADED_DOWN_RAMP2_SEPT_27_DS","oid":"947419674","speedLimit":8.333333},"geometry":{"type":"Polygon","coordinates":[[[-121.008213981474,50.4310791473075],[-121.007514755904,50.4313131818702],[-121.007638737065,50.4316643235894],[-121.007728059856,50.4320881742031],[-121.007747925019,50.432296953884],[-121.00768832953,50.4325594788294],[-121.007579282463,50.4328631665359],[-121.007489959672,50.4331067278512],[-121.007281727677,50.4336254864903],[-121.00713802224,50.4339291741967],[-121.00704869945,50.4341410995036],[-121.006557846763,50.4346345133859],[-121.005734640032,50.4354853602391],[-121.00528844874,50.4358997739752],[-121.004931439352,50.4363331513414],[-121.004797596053,50.4366494215512],[-121.005293379809,50.4367190746949],[-121.005050489444,50.4366589483038],[-121.005516545899,50.4361275172863],[-121.007326389072,50.4341790267637],[-121.007658602228,50.4335811781034],[-121.008005749479,50.4322874271315],[-121.007861903155,50.4313670170097],[-121.008213981474,50.4310791473075]]]}},{"type":"Feature","id":"947527865","properties":{"name":"SP_15KPH_TR%","oid":"947527865","speedLimit":4.1666665},"geometry":{"type":"Polygon","coordinates":[[[-121.039106705462,50.4616433062536],[-121.038707429769,50.4618726673151],[-121.039173627111,50.462334624939],[-121.039637429363,50.4621511001398],[-121.039625031247,50.4621511001398],[-121.039106705462,50.4616433062536]]]}}]}