{"type":"FeatureCollection","features":[{"type":"Feature","id":"702602533","properties":{"name":"iSP_4KPH_%TR_CR01_Slow Bump","oid":"702602533","speedLimit":1.1111112},"geometry":{"type":"Polygon","coordinates":[[[-121.033345797399,50.4648076880136],[-121.033640443896,50.4646906708304],[-121.033683823973,50.4647313841822],[-121.033356079041,50.4648695219782],[-121.033345797399,50.4648076880136]]]}},{"type":"Feature","id":"707947583","properties":{"name":"iSP_25KPH_%TR_Permission Gate 1 From West Dump","oid":"707947583","speedLimit":6.9444447},"geometry":{"type":"Polygon","coordinates":[[[-121.038613659871,50.4619777955051],[-121.038840278521,50.4617993038571],[-121.03812549316,50.4614080782056],[-121.037977888223,50.4616707826805],[-121.038177323902,50.46156670749],[-121.038652110394,50.4618458590805],[-121.038613659871,50.4619777955051]]]}},{"type":"Feature","id":"742345972","properties":{"name":"iSP_4KPH_%TR_CR01_Pit Side_Slow Bump","oid":"742345972","speedLimit":1.1111112},"geometry":{"type":"Polygon","coordinates":[[[-121.033385656366,50.4648826437208],[-121.033692838015,50.4647441464249],[-121.033742978624,50.4647762317815],[-121.033461571501,50.4649181443255],[-121.033385656366,50.4648826437208]]]}},{"type":"Feature","id":"776427243","properties":{"name":"iSP_7KPH_%TR_CR1_PermissionBlocker","oid":"776427243","speedLimit":1.9444444},"geometry":{"type":"Polygon","coordinates":[[[-121.034086638975,50.4652126645322],[-121.034038188499,50.4652329762706],[-121.034017061838,50.465274408622],[-121.034102695237,50.4652253369],[-121.034086638975,50.4652126645322]]]}},{"type":"Feature","id":"794004438","properties":{"name":"iSP_11KPH_%TR_Lower_Fuel_Bay","oid":"794004438","speedLimit":3.0555556},"geometry":{"type":"Polygon","coordinates":[[[-121.036762541844,50.4606952799878],[-121.03676465451,50.4607251184707],[-121.03673493634,50.4606706542518],[-121.037110990904,50.4605989340428],[-121.037520848126,50.4605558839424],[-121.037528594568,50.4605812286779],[-121.036930287531,50.4606500728886],[-121.036762541844,50.4606952799878]]]}},{"type":"Feature","id":"801543391","properties":{"name":"iSP_4KPH_%TR_CR01_PermissionBlocker_2","oid":"801543391","speedLimit":1.1111112},"geometry":{"type":"Polygon","coordinates":[[[-121.033142418077,50.4645231439261],[-121.03314157301,50.4644737127044],[-121.033163122205,50.4644316512284],[-121.033095094356,50.4644592428376],[-121.033142418077,50.4645231439261]]]}},{"type":"Feature","id":"806473874","properties":{"name":"iSP_4KPH_%TR_CR04_PermissionBlocker","oid":"806473874","speedLimit":1.1111112},"geometry":{"type":"Polygon","coordinates":[[[-121.022709791237,50.4815450098275],[-121.022676692802,50.4815426730789],[-121.022669087204,50.4815713431875],[-121.022691199776,50.4815724216869],[-121.022695284263,50.4815483352006],[-121.022709791237,50.4815450098275]]]}},{"type":"Feature","id":"824566967","properties":{"name":"iSP_3KPH_%TR_CR04","oid":"824566967","speedLimit":0.8333333},"geometry":{"type":"Polygon","coordinates":[[[-121.023292464545,50.4810681333499],[-121.023272323795,50.4810681333499],[-121.023269647751,50.4811862290325],[-121.023294718055,50.4811855100329],[-121.023292464545,50.4810681333499]]]}},{"type":"Feature","id":"826307302","properties":{"name":"iSP_4KPH_%TR_CR04_Pockets","oid":"826307302","speedLimit":1.1111112},"geometry":{"type":"Polygon","coordinates":[[[-121.023287675835,50.4813213110803],[-121.023327112269,50.4814769744914],[-121.02353175919,50.4814375193889],[-121.023450773657,50.4811886556561],[-121.023042606569,50.4811893746557],[-121.023047958656,50.4813600471832],[-121.023272746328,50.4813260744526],[-121.023287675835,50.4813213110803]]]}},{"type":"Feature","id":"883050998","properties":{"name":"iSP_22KPH_%TR_4CR_Brake_Temp_Ctrl","oid":"883050998","speedLimit":6.111111},"geometry":{"type":"Polygon","coordinates":[[[-121.03178650898,50.4745588503183],[-121.032175662074,50.4743122334592],[-121.032477209947,50.4745745784343],[-121.032778757821,50.4748019620544],[-121.032956503461,50.4748843773824],[-121.033165234871,50.4749345276037],[-121.033449036349,50.4749593330895],[-121.033652838204,50.474921765361],[-121.033813964205,50.4748623580199],[-121.033905090535,50.4748103204247],[-121.033994385889,50.4747471383358],[-121.034044808186,50.4746579823867],[-121.034039033565,50.4745477956996],[-121.034042836364,50.4744834452364],[-121.033980723981,50.4743794599208],[-121.03386241468,50.4742593869894],[-121.033495655847,50.4739374549233],[-121.033047488947,50.473559800389],[-121.032934250045,50.4734252575909],[-121.032809321057,50.4732207022077],[-121.032592561516,50.4728147370646],[-121.032239182901,50.4722088001608],[-121.03247411137,50.4721559536909],[-121.032417069386,50.4722054747877],[-121.032889461524,50.473048681556],[-121.033028615797,50.473309408782],[-121.033236361296,50.4735467685214],[-121.033729175872,50.4739614515346],[-121.034084103775,50.4742709808578],[-121.034189455391,50.4743942892873],[-121.034242131199,50.4744615157489],[-121.034249173419,50.474592643299],[-121.034224243959,50.4746786536249],[-121.034169737174,50.4747914466854],[-121.034072272845,50.4748756595123],[-121.033959456476,50.474937493477],[-121.033776922126,50.4750159543072],[-121.03351748673,50.4750642171546],[-121.03324960067,50.4750679020275],[-121.033058052278,50.4750261101764],[-121.03279439155,50.4749163728641],[-121.032643688035,50.4748349461606],[-121.032482139502,50.4747051667347],[-121.03213171862,50.4744128934017],[-121.03178650898,50.4745588503183]]]}},{"type":"Feature","id":"883053336","properties":{"name":"iSP_22KPH_%TR_Brake_Temp_Ctrl","oid":"883053336","speedLimit":6.111111},"geometry":{"type":"Polygon","coordinates":[[[-121.032452843865,50.4721450788222],[-121.032238056146,50.4722253371513],[-121.031475665376,50.4710081607216],[-121.030803978404,50.4699231903414],[-121.030648767869,50.4696600364917],[-121.030583979442,50.4694575482324],[-121.030537641633,50.4692565878472],[-121.030583979442,50.4689727627593],[-121.03071017603,50.4686241378335],[-121.030871865408,50.4683753639756],[-121.031076230641,50.4680976503842],[-121.031675382744,50.4675363813298],[-121.032419041208,50.4668935058221],[-121.03277523671,50.4665560253898],[-121.033134249101,50.4662222298305],[-121.033471008076,50.4658705491564],[-121.033765936262,50.4660339418131],[-121.033573965337,50.4659931385864],[-121.032906081164,50.4666519219601],[-121.032541434997,50.4669911100163],[-121.032165521277,50.4673075597106],[-121.031761438676,50.4676682278795],[-121.031369187006,50.4680342885454],[-121.031134399381,50.4682862080265],[-121.030996090174,50.4684697326717],[-121.030892428691,50.4686543358162],[-121.030815950179,50.4688528695778],[-121.030755105396,50.4691911588846],[-121.030763837749,50.46940047764],[-121.030861020389,50.4696301980088],[-121.031014963325,50.4699349639597],[-121.031317778797,50.4704036618169],[-121.031517777854,50.4707108543914],[-121.031737354283,50.471082756929],[-121.032132986219,50.471728688185],[-121.032368196377,50.4721449889472],[-121.032452843865,50.4721450788222]]]}},{"type":"Feature","id":"883059532","properties":{"name":"iSP_22KPH_%TR_Brake_Ctrl","oid":"883059532","speedLimit":6.111111},"geometry":{"type":"Polygon","coordinates":[[[-121.02725075573,50.477321875865],[-121.027018644149,50.477209711929],[-121.027323008911,50.4769439517058],[-121.027704838095,50.4766323552588],[-121.02802145632,50.4763226461858],[-121.028178638677,50.4761686903987],[-121.02860934087,50.4756922632959],[-121.028895255015,50.4753256633803],[-121.029251732206,50.4748875230056],[-121.029460463616,50.4746566342624],[-121.029679194978,50.4745403360789],[-121.029789194459,50.4744881187337],[-121.029939897974,50.4745925534241],[-121.029776377618,50.474541953828],[-121.029543843504,50.4747914466854],[-121.029239760432,50.4751729658425],[-121.029060888036,50.4754779115433],[-121.028841170763,50.4757746786238],[-121.02868412925,50.4759746503845],[-121.028397088351,50.4762705187155],[-121.028029906984,50.4765698921695],[-121.027232445958,50.4772193285485],[-121.02725075573,50.477321875865]]]}},{"type":"Feature","id":"884401102","properties":{"name":"iSP_30KPH_%TR_Maint_Limit_Policy","oid":"884401102","speedLimit":8.333333},"geometry":{"type":"Polygon","coordinates":[[[-121.036978033785,50.4611011552559],[-121.037094089575,50.4611076262522],[-121.038279999474,50.4609919571933],[-121.038263661523,50.4603977939077],[-121.038105211566,50.4605656803118],[-121.037018456129,50.4607083118553],[-121.036730851852,50.4605376393278],[-121.036978033785,50.4611011552559]]]}},{"type":"Feature","id":"910445950","properties":{"name":"SP_22KPH_%TR_1635_FLATS_OCT_2_NS","oid":"910445950","speedLimit":6.111111},"geometry":{"type":"Polygon","coordinates":[[[-121.017361365765,50.4554936774591],[-121.017994320525,50.4544140097009],[-121.018139531108,50.4539983380633],[-121.018524036336,50.4537513617044],[-121.018939949867,50.4536879099906],[-121.018857837578,50.4543414806173],[-121.018253192543,50.4560719328788],[-121.018267276984,50.4557006594659],[-121.017361365765,50.4554936774591]]]}},{"type":"Feature","id":"915576987","properties":{"name":"iSP_15KPH_%TR_Preventing Shifting","oid":"915576987","speedLimit":4.1666665},"geometry":{"type":"Polygon","coordinates":[[[-121.036983526717,50.4448630887818],[-121.037497467954,50.4453130027747],[-121.03796662067,50.4457954514991],[-121.038510420922,50.4462187625073],[-121.039442810889,50.4468498643968],[-121.039899991831,50.4470996268792],[-121.040455763857,50.4471949841997],[-121.041208718052,50.4473226965017],[-121.041627025937,50.44750954652],[-121.042305332597,50.4480949919356],[-121.042687866003,50.4485277398134],[-121.042831245609,50.4487947582858],[-121.042992653298,50.4493915279449],[-121.043171807382,50.4501980657342],[-121.043309271522,50.450501213936],[-121.043670819113,50.4511686253048],[-121.043841240844,50.4514889396218],[-121.044110112815,50.45225350581],[-121.044367153856,50.452938083294],[-121.044680814348,50.4537980068028],[-121.044719687404,50.4541946249512],[-121.044555321982,50.4550717145752],[-121.044199830701,50.4568391953155],[-121.04403546528,50.4572072332303],[-121.042989554721,50.4583988851745],[-121.041889982443,50.4595372412743],[-121.041328294952,50.4600005466346],[-121.040357172773,50.4605974061687],[-121.039908865029,50.4607308704674],[-121.039119995511,50.4608070844239],[-121.038482815418,50.4608386305309],[-121.0386305612,50.4611433964818],[-121.038743377569,50.4609494463426],[-121.039864076508,50.4608796135074],[-121.040691819082,50.460631738399],[-121.041495618107,50.4600577969769],[-121.04285814689,50.4587001460025],[-121.044226591139,50.4571423435173],[-121.044411942377,50.4562900593792],[-121.044797433516,50.4544214693216],[-121.044794334939,50.4537865028093],[-121.044244619223,50.4523012294078],[-121.043817297295,50.45118579142],[-121.043330257339,50.4503372820297],[-121.043034484086,50.4493095619917],[-121.042911949453,50.4486917615946],[-121.042224628752,50.4478871111793],[-121.041531392586,50.4473913609625],[-121.041077169376,50.4472216770594],[-121.040443792083,50.4471301843617],[-121.039902949564,50.4470195482999],[-121.038806335019,50.446333173317],[-121.038181830923,50.4458716654556],[-121.037139018941,50.4449068578818],[-121.037363102391,50.4446971796265],[-121.036983526717,50.4448630887818]]]}},{"type":"Feature","id":"917773475","properties":{"name":"SP_15KPH_%TR_1200_CORNER_OCT_2_NS","oid":"917773475","speedLimit":4.1666665},"geometry":{"type":"Polygon","coordinates":[[[-121.037084371311,50.44468235026],[-121.036910287626,50.4448619204074],[-121.036614796062,50.4448203981811],[-121.036400290032,50.444869739528],[-121.036308741168,50.4449674335971],[-121.036240149942,50.4450819342817],[-121.036227896479,50.4451447568708],[-121.03624902314,50.445267076676],[-121.036301698947,50.4453512895029],[-121.036169868583,50.4453950586029],[-121.036074798609,50.4451940982177],[-121.036148741922,50.4449314836177],[-121.036245502029,50.4447911888228],[-121.036502261381,50.4447148849914],[-121.036699302705,50.4447115596183],[-121.036908597493,50.44476988846],[-121.037079160068,50.4446834287594],[-121.037084371311,50.44468235026]]]}},{"type":"Feature","id":"929009157","properties":{"name":"iSP_22KPH_%TR_Long_Single_Lane","oid":"929009157","speedLimit":6.111111},"geometry":{"type":"Polygon","coordinates":[[[-121.005675927934,50.4380557804204],[-121.004746495699,50.4382238465744],[-121.005170859894,50.4381973334645],[-121.007930283496,50.4431702941237],[-121.008518872268,50.4445346857194],[-121.008206056843,50.4465095079662],[-121.007828171302,50.4466800007439],[-121.008929292867,50.4466467470128],[-121.008818589164,50.4465927321687],[-121.009398445584,50.4448174323078],[-121.008759716203,50.4430681961821],[-121.008258169273,50.4415399625551],[-121.007254934569,50.4401559782206],[-121.006435501815,50.4389838291402],[-121.005856631307,50.4383128227735],[-121.005675927934,50.4380557804204]]]}},{"type":"Feature","id":"932268643","properties":{"name":"SP_35KPH_%traction_1185_1170_OCT_2_NS","oid":"932268643","speedLimit":9.722222},"geometry":{"type":"Polygon","coordinates":[[[-121.038714081933,50.4481972696271],[-121.038452393027,50.4482555085939],[-121.038932109073,50.44982912907],[-121.039491120521,50.4497912018416],[-121.039090699875,50.4497304463763],[-121.038607040184,50.4483440354183],[-121.038837039099,50.4481593423988],[-121.038714081933,50.4481972696271]]]}},{"type":"Feature","id":"933371104","properties":{"name":"SP_17KPH_%TR_1590_HMT_INTERSECT_OCT_2_NS","oid":"933371104","speedLimit":4.7222223},"geometry":{"type":"Polygon","coordinates":[[[-121.006355502193,50.4374886694943],[-121.005857898906,50.4376810917594],[-121.005939025284,50.4378150953079],[-121.006248601288,50.4380937076487],[-121.006600571459,50.4383161481466],[-121.007157611085,50.4382766031692],[-121.006786204386,50.4381830433477],[-121.006112404748,50.4376595217717],[-121.006355502193,50.4374886694943]]]}},{"type":"Feature","id":"934051091","properties":{"name":"iSP_17KPH_%TR_Ramp_Permission Blocker","oid":"934051091","speedLimit":4.7222223},"geometry":{"type":"Polygon","coordinates":[[[-121.039497740208,50.4610295249218],[-121.039449712265,50.4607714939442],[-121.039002390432,50.4607920753075],[-121.039061263394,50.4610448036631],[-121.03914872777,50.460899745496],[-121.039364642244,50.4608866237534],[-121.039497740208,50.4610295249218]]]}},{"type":"Feature","id":"936169885","properties":{"name":"SP_10KPH_%TR_24shl_loadplan_OCT_2_NS","oid":"936169885","speedLimit":2.7777777},"geometry":{"type":"Polygon","coordinates":[[[-121.039006193231,50.4546053534666],[-121.038142535333,50.4544776411645],[-121.037799297516,50.4553098831891],[-121.038016620435,50.4554559299807],[-121.038594364188,50.4554924192098],[-121.039080559077,50.4554887343369],[-121.039166474165,50.455313568062],[-121.039006193231,50.4546053534666]]]}},{"type":"Feature","id":"936513295","properties":{"name":"SP_30KPH_%TR_1635_FLATS_OCT_2_NS","oid":"936513295","speedLimit":8.333333},"geometry":{"type":"Polygon","coordinates":[[[-121.017277563343,50.4555550620491],[-121.018041503401,50.4557850520427],[-121.017425590814,50.4574536703395],[-121.015219263194,50.4585168011072],[-121.014490675082,50.4578794978462],[-121.016169258712,50.4566192713161],[-121.017277563343,50.4555550620491]]]}},{"type":"Feature","id":"938065675","properties":{"name":"iSP_8KPH_CR01_YARD_RUTIING_OCT_2_NS","oid":"938065675","speedLimit":2.2222223},"geometry":{"type":"Polygon","coordinates":[[[-121.034275652167,50.4648010372674],[-121.034085512219,50.4648578382349],[-121.033927343951,50.4649068200819],[-121.033815936026,50.465004783776],[-121.034030723745,50.4650686848645],[-121.033950724123,50.4650111648973],[-121.034229032669,50.4648879463427],[-121.034305652026,50.4649371978146],[-121.034275652167,50.4648010372674]]]}},{"type":"Feature","id":"938165680","properties":{"name":"SP_10KPH_%TR_22SH_OCT_2_NS","oid":"938165680","speedLimit":2.7777777},"geometry":{"type":"Polygon","coordinates":[[[-121.034066920758,50.4466112464081],[-121.035041423203,50.447250437043],[-121.03548311126,50.4474471733056],[-121.035781138023,50.4469120578613],[-121.034841142457,50.4461952152708],[-121.034066920758,50.4466112464081]]]}},{"type":"Feature","id":"944724443","properties":{"name":"SP_10KPH_%TR_21SH_EMPTY_OCT_2_NS","oid":"944724443","speedLimit":2.7777777},"geometry":{"type":"Polygon","coordinates":[[[-121.039119572978,50.4501829667428],[-121.039025911448,50.4503427644015],[-121.038936193561,50.450611580373],[-121.03893647525,50.4512094285315],[-121.039422106762,50.4515125767333],[-121.039927033957,50.4513548461984],[-121.039695626598,50.4511093977136],[-121.039490416299,50.4509151779495],[-121.039089432275,50.4503564253937],[-121.039069573214,50.4502968383028],[-121.039119572978,50.4501829667428]]]}},{"type":"Feature","id":"948333262","properties":{"name":"SP_15KPH_%TR_19SH_LOADAREA_OCT_2_NS","oid":"948333262","speedLimit":4.1666665},"geometry":{"type":"Polygon","coordinates":[[[-121.00182510103,50.4258158909123],[-121.00135327227,50.4259954610597],[-121.001486933611,50.4262928572648],[-121.001511299693,50.4266962160344],[-121.001607496423,50.4268353424549],[-121.001751439406,50.4269522697632],[-121.001944959619,50.4270054757328],[-121.002353408397,50.4268576314422],[-121.00182510103,50.4258158909123]]]}},{"type":"Feature","id":"949509237","properties":{"name":"SP_20KPH_%TR_24SH__LANE_OCT_2_NS","oid":"949509237","speedLimit":5.5555553},"geometry":{"type":"Polygon","coordinates":[[[-121.03848605484,50.4535459974467],[-121.038387745444,50.453704716606],[-121.03815394373,50.4544229073208],[-121.039017742472,50.4545688642374],[-121.039303656616,50.4537390488364],[-121.03848605484,50.4535459974467]]]}},{"type":"Feature","id":"950380359","properties":{"name":"SP_20KPH_%TR_EMPTY_23SH_SOFT_OCT_2_NS","oid":"950380359","speedLimit":5.5555553},"geometry":{"type":"Polygon","coordinates":[[[-121.038885771264,50.4647303056828],[-121.038771405606,50.4646500473536],[-121.038294365603,50.4649202114493],[-121.038363097673,50.4649519373062],[-121.038767461963,50.4647035229481],[-121.038878165666,50.4647278790592],[-121.038885771264,50.4647303056828]]]}},{"type":"Feature","id":"950427531","properties":{"name":"SP_15KPH_%TR_1590_DUMP_HEAD_OCT_2_NS","oid":"950427531","speedLimit":4.1666665},"geometry":{"type":"Polygon","coordinates":[[[-121.014462365356,50.4503497746475],[-121.014245605816,50.449135743841],[-121.014354056008,50.447852599199],[-121.014442647139,50.4473997193327],[-121.013683636636,50.4470537007804],[-121.013545749962,50.4483117703117],[-121.013939973455,50.4505322207933],[-121.014551097332,50.4504252696044],[-121.014462365356,50.4503497746475]]]}}]}