{"type":"FeatureCollection","features":[{"type":"Feature","id":"702602533","properties":{"name":"iSP_4KPH_%TR_CR01_SLOW BUMP","oid":"702602533","speedLimit":1.1111112},"geometry":{"type":"Polygon","coordinates":[[[-121.033349720561,50.4648093690511],[-121.033644526713,50.4646923564722],[-121.033687930296,50.464733068222],[-121.033360007774,50.4648712005828],[-121.033349720561,50.4648093690511]]]}},{"type":"Feature","id":"707947583","properties":{"name":"iSP_22KPH_%TR_Permission Gate 1 from west dump_Jun","oid":"707947583","speedLimit":6.111111},"geometry":{"type":"Polygon","coordinates":[[[-121.038620437442,50.461979587891],[-121.038847178885,50.4618011032661],[-121.037972765799,50.4613526449186],[-121.037735596222,50.461543891284],[-121.037951768611,50.4614981467351],[-121.038658908799,50.4618476566577],[-121.038620437442,50.461979587891]]]}},{"type":"Feature","id":"742345972","properties":{"name":"iSP_4KPH_%TR_CR01_PITSIDE_SLOW BUMP","oid":"742345972","speedLimit":1.1111112},"geometry":{"type":"Polygon","coordinates":[[[-121.033389601126,50.464884321809],[-121.033696949222,50.4647458299625],[-121.033747117,50.4647779140568],[-121.033465557395,50.4649198210168],[-121.033389601126,50.464884321809]]]}},{"type":"Feature","id":"776427243","properties":{"name":"iSP_7KPH_%TR_CR1_PermissionBlocker_DO_NOT_DELETE","oid":"776427243","speedLimit":1.9444444},"geometry":{"type":"Polygon","coordinates":[[[-121.034090963564,50.465214329635],[-121.034042486835,50.4652346405742],[-121.034021348727,50.4652760712953],[-121.034107028526,50.4652270015042],[-121.034090963564,50.465214329635]]]}},{"type":"Feature","id":"794004438","properties":{"name":"iSP_11KPH_%TR_LOWER_FUEL_BAY","oid":"794004438","speedLimit":3.0555556},"geometry":{"type":"Polygon","coordinates":[[[-121.03676831638,50.460697122837],[-121.036770430191,50.4607269601459],[-121.036740695918,50.46067249807],[-121.037116954248,50.460600780683],[-121.037527033552,50.4605577322765],[-121.037534784192,50.4605830760148],[-121.036936152961,50.4606519175166],[-121.03676831638,50.460697122837]]]}},{"type":"Feature","id":"801543391","properties":{"name":"iSP_4KPH_%TR_CR1_PermissionBlocker_DO_NOT_DELETE_","oid":"801543391","speedLimit":1.1111112},"geometry":{"type":"Polygon","coordinates":[[[-121.033146231037,50.4645248361596],[-121.033145385513,50.4644754068828],[-121.033166946383,50.4644333470619],[-121.033098881674,50.4644609375855],[-121.033146231037,50.4645248361596]]]}},{"type":"Feature","id":"806473874","properties":{"name":"iSP_4KPH_%TR_Permission Blocker - DO NOT DELETE","oid":"806473874","speedLimit":1.1111112},"geometry":{"type":"Polygon","coordinates":[[[-121.022707951244,50.4815460322982],[-121.022674834874,50.4815436956415],[-121.022667225155,50.481572364622],[-121.022689349709,50.481573443079],[-121.02269343641,50.4815493575405],[-121.022707951244,50.4815460322982]]]}},{"type":"Feature","id":"824566967","properties":{"name":"iSP_4Cr_3KPH","oid":"824566967","speedLimit":0.8333333},"geometry":{"type":"Polygon","coordinates":[[[-121.023290940275,50.4810691745844],[-121.023270788612,50.4810691745844],[-121.023268111118,50.4811872656202],[-121.023293195007,50.4811865466489],[-121.023290940275,50.4810691745844]]]}},{"type":"Feature","id":"826307302","properties":{"name":"iSP_4KPH_TR%_CRUSHER POCKETS","oid":"826307302","speedLimit":1.1111112},"geometry":{"type":"Polygon","coordinates":[[[-121.023286148971,50.4813223423529],[-121.023325606773,50.4814779996391],[-121.023530364584,50.4814385460891],[-121.023449335168,50.4811896921483],[-121.023040946913,50.4811904111196],[-121.0230463019,50.4813610769316],[-121.023271211374,50.4813271055378],[-121.023286148971,50.4813223423529]]]}},{"type":"Feature","id":"849417440","properties":{"name":"iSP_Permissions_35_KPH_June_19_NS","oid":"849417440","speedLimit":9.722222},"geometry":{"type":"Polygon","coordinates":[[[-121.032686124876,50.4660355746009],[-121.033000800851,50.4660162522473],[-121.033207813393,50.4658153896407],[-121.033796721094,50.4653809512335],[-121.033717523648,50.4652521654996],[-121.03395370678,50.4654016216583],[-121.033417362508,50.4658099074846],[-121.033014892923,50.4661894344588],[-121.032686124876,50.4660355746009]]]}},{"type":"Feature","id":"853029148","properties":{"name":"SP_30KPH_%TR_1635 Flats_AUG_2_DS","oid":"853029148","speedLimit":8.333333},"geometry":{"type":"Polygon","coordinates":[[[-121.018577564854,50.4569726717672],[-121.017396085512,50.4572914456667],[-121.016417391091,50.4584592347985],[-121.018336590417,50.4588947516627],[-121.020680242961,50.4589888470314],[-121.020228451123,50.4572334786057],[-121.019410547247,50.4570983120016],[-121.018956218836,50.4570017002333],[-121.018577564854,50.4569726717672]]]}},{"type":"Feature","id":"883050998","properties":{"name":"iSP_22kph_%TR_4CR_Brake_Temp_CTRL_NOREMOVE","oid":"883050998","speedLimit":6.111111},"geometry":{"type":"Polygon","coordinates":[[[-121.031789587237,50.4745601476748],[-121.032178951194,50.4743135405194],[-121.032480662462,50.474575875172],[-121.03278237373,50.4748032498452],[-121.032960215683,50.4748856619303],[-121.033169060194,50.4749358101784],[-121.033453015451,50.4749606146882],[-121.033656927737,50.4749230484378],[-121.033818141044,50.4748636434343],[-121.033909316752,50.4748116078865],[-121.03399866049,50.4747484282837],[-121.034049110109,50.4746592758426],[-121.034043332359,50.4745490934911],[-121.034047137219,50.4744847455599],[-121.03398499118,50.4743807643358],[-121.033866617773,50.4742606961289],[-121.03349966021,50.47393877673],[-121.03305125047,50.4735611370554],[-121.032937950208,50.4734265995511],[-121.032812953527,50.4732220522166],[-121.032596076534,50.4728161030471],[-121.03224250644,50.4722101899852],[-121.032477562206,50.4721573455947],[-121.032420489314,50.4722068647429],[-121.032893137419,50.4730500383334],[-121.033032367093,50.4733107553006],[-121.033240225159,50.4735481057006],[-121.033733306769,50.4739627723971],[-121.034088426991,50.4742722895411],[-121.034193835692,50.4743955931188],[-121.034246540042,50.4744628169353],[-121.034253586078,50.4745939393259],[-121.03422864311,50.4746799462675],[-121.03417410679,50.4747927348899],[-121.03407658965,50.4748769444033],[-121.033963712151,50.474938775935],[-121.033781078894,50.475017233678],[-121.033521502922,50.4750654946264],[-121.033253471707,50.4750691793543],[-121.033061819524,50.4750273891476],[-121.03279801593,50.4749176561531],[-121.032647230757,50.4748362326535],[-121.032485594688,50.4747064583341],[-121.032134983929,50.4744141965012],[-121.031789587237,50.4745601476748]]]}},{"type":"Feature","id":"883053336","properties":{"name":"iSP_22kph_%TR_Brake_Temp_CTRL_NOREMOVE","oid":"883053336","speedLimit":6.111111},"geometry":{"type":"Polygon","coordinates":[[[-121.032456283177,50.4721464711538],[-121.032241379075,50.472226726325],[-121.031478575201,50.4710095977878],[-121.030806524273,50.4699246700982],[-121.030651229637,50.4696615266029],[-121.030586406104,50.4694590463109],[-121.030540043186,50.4692580938329],[-121.030586406104,50.4689742799128],[-121.030712671072,50.4686256687043],[-121.030874448062,50.468376904635],[-121.031078924031,50.4680992019709],[-121.031678400786,50.4675379550009],[-121.032422462204,50.4668951047885],[-121.032778850712,50.4665576376352],[-121.033138057635,50.4662238552098],[-121.033474999084,50.4658721883733],[-121.033770087078,50.4660355746009],[-121.033578012132,50.4659947729797],[-121.032909766064,50.4666535304321],[-121.032544922312,50.4669927051423],[-121.032168804902,50.4673091423851],[-121.031764503348,50.4676697963628],[-121.031372039135,50.4680358426252],[-121.031137124289,50.468287752194],[-121.030998740139,50.4684712696179],[-121.030895022487,50.4686558654989],[-121.030818502535,50.4688543914487],[-121.030757624782,50.4691926674447],[-121.030766361867,50.469401977964],[-121.030863597166,50.469631689294],[-121.031017623516,50.4699364432532],[-121.031320603071,50.4704051226685],[-121.031520710497,50.4707123031558],[-121.031740405905,50.4710841910601],[-121.032136252215,50.4717300969005],[-121.032371589823,50.4721463812824],[-121.032456283177,50.4721464711538]]]}},{"type":"Feature","id":"883059532","properties":{"name":"iSP_22kph_%TR_Brake_CTRL_NOREMOVE","oid":"883059532","speedLimit":6.111111},"geometry":{"type":"Polygon","coordinates":[[[-121.027251376274,50.4773230645042],[-121.027019138922,50.4772109049816],[-121.027323668605,50.4769451552153],[-121.027705704685,50.4766335710287],[-121.02802249447,50.4763238741418],[-121.028179761997,50.4761699244125],[-121.028610697568,50.4756935160558],[-121.028896766635,50.4753269305648],[-121.029253436985,50.4748888074297],[-121.029462281497,50.4746579277714],[-121.02968113138,50.4745416341639],[-121.029791190464,50.4744894188733],[-121.029941975638,50.4745938494545],[-121.029778366678,50.4745432518493],[-121.029545706565,50.4747927348899],[-121.029241458724,50.4751742390353],[-121.029062489406,50.4754791727373],[-121.028842653078,50.4757759281409],[-121.028685526472,50.4759758920333],[-121.028398330038,50.4762717487227],[-121.028030949714,50.4765711103972],[-121.02723305658,50.4772205212227],[-121.027251376274,50.4773230645042]]]}},{"type":"Feature","id":"886231481","properties":{"name":"SP_15KPH_%TR_1200_SWITCHBACK_AUG_2_DS","oid":"886231481","speedLimit":4.1666665},"geometry":{"type":"Polygon","coordinates":[[[-121.036900640939,50.4452298034176],[-121.036959686722,50.4446828460022],[-121.036275093849,50.4447480926475],[-121.036031160078,50.4452775251376],[-121.036515081841,50.4453477147106],[-121.036609498725,50.445104342926],[-121.036763525075,50.445133551135],[-121.036900640939,50.4452298034176]]]}},{"type":"Feature","id":"908328496","properties":{"name":"SP_12KPH_%TR_9019_SOFT_GROUND_AUG_2_DS","oid":"908328496","speedLimit":3.3333333},"geometry":{"type":"Polygon","coordinates":[[[-121.038991763547,50.4644905052801],[-121.039316444893,50.4647041296272],[-121.039495555132,50.4648798282383],[-121.039383523157,50.4652170257774],[-121.039343783513,50.466149801166],[-121.038096776035,50.4665995177133],[-121.036659666502,50.4659705975698],[-121.037872993927,50.4651414439196],[-121.038512210327,50.4648159296642],[-121.038991763547,50.4644905052801]]]}},{"type":"Feature","id":"910445950","properties":{"name":"SP_30KPH_%TR_1635_FLATS_AUG_2_DS","oid":"910445950","speedLimit":8.333333},"geometry":{"type":"Polygon","coordinates":[[[-121.020213231685,50.4571658953037],[-121.019031893265,50.456963055526],[-121.018638160765,50.4569244108187],[-121.017441602906,50.4572334786057],[-121.018077719049,50.4544709212621],[-121.018759211666,50.4539010466365],[-121.018925920881,50.4535146894349],[-121.019546817586,50.4545192720819],[-121.020213231685,50.45714657295],[-121.020198153168,50.45714657295],[-121.020213231685,50.4571658953037]]]}},{"type":"Feature","id":"913788494","properties":{"name":"SP_20KPH_%TR_ROUGH GROUND_21SH_AUG_2_DS","oid":"913788494","speedLimit":5.5555553},"geometry":{"type":"Polygon","coordinates":[[[-121.040482282034,50.4520549979558],[-121.041012566714,50.4519662948718],[-121.041249313529,50.4530991240242],[-121.040662378718,50.4531582594136],[-121.040569793803,50.4525639397638],[-121.040482282034,50.4520549979558]]]}},{"type":"Feature","id":"913898324","properties":{"name":"SP_20KPH_%TR_SOFT_24SH_AUG 2_DS","oid":"913898324","speedLimit":5.5555553},"geometry":{"type":"Polygon","coordinates":[[[-121.038070001098,50.4505184664191],[-121.037876235104,50.4500056601404],[-121.037769699037,50.4494804516067],[-121.037769699037,50.4492642209886],[-121.036888098994,50.4492457074777],[-121.037488703116,50.4493877941806],[-121.037498426646,50.4499006004593],[-121.037876939707,50.4510842968312],[-121.038264330775,50.4510798032606],[-121.038070001098,50.4505184664191]]]}},{"type":"Feature","id":"915576987","properties":{"name":"iSP_15kph_prevent shifting","oid":"915576987","speedLimit":4.1666665},"geometry":{"type":"Polygon","coordinates":[[[-121.036989420994,50.4448655545834],[-121.037503640712,50.4453154508736],[-121.037973047641,50.445797880615],[-121.038517142552,50.4462211749671],[-121.039450037738,50.4468522520245],[-121.039907466405,50.4471020046793],[-121.040463539578,50.4471973582478],[-121.041216901763,50.4473250655247],[-121.04163543631,50.447511908191],[-121.042314110512,50.4480973305709],[-121.042696851196,50.4485300614213],[-121.042840308492,50.4487970693873],[-121.04300180364,50.4493938155652],[-121.0431810548,50.4502003216195],[-121.043318593425,50.4505034578933],[-121.043680336921,50.4511708430012],[-121.043850850996,50.4514911447148],[-121.044119868656,50.4522556808195],[-121.044377048976,50.4529402313672],[-121.044690879426,50.4538001210404],[-121.044729773545,50.454196723583],[-121.044565319062,50.455073778696],[-121.044209635157,50.4568411898909],[-121.044045180673,50.4572092133244],[-121.042998703384,50.4584008183805],[-121.0418985353,50.4595391296891],[-121.041336543457,50.4600024168197],[-121.040364895072,50.460599252869],[-121.03991634441,50.4607327119163],[-121.039127047441,50.4608089228739],[-121.03893581802,50.4608070355743],[-121.038992609071,50.4612951272147],[-121.039052359458,50.4609290809522],[-121.039871531621,50.4608814491037],[-121.040699722709,50.4606335837485],[-121.041503957276,50.4600596649093],[-121.04286722435,50.4587020673546],[-121.044236410094,50.4571443261647],[-121.044421861766,50.4562920755616],[-121.044807561784,50.4544235590278],[-121.044804461528,50.4537886174996],[-121.044254447947,50.4523034025394],[-121.043826894473,50.451188008441],[-121.043339590613,50.4503395324372],[-121.043043657095,50.4493118528372],[-121.042921056066,50.4486940767488],[-121.042233362938,50.4478894579942],[-121.041539751139,50.4473937272838],[-121.041085281808,50.4472240500573],[-121.040451561316,50.4471325609595],[-121.03991042574,50.4470219292509],[-121.038813216991,50.446335581275],[-121.038188374505,50.4458740915726],[-121.037144997472,50.4449093219613],[-121.037369202343,50.4446996519563],[-121.036989420994,50.4448655545834]]]}}]}