{"type":"FeatureCollection","features":[{"type":"Feature","id":"702602533","properties":{"name":"iSP_4KPH_%TR_CR01_Slow Bump","oid":"702602533","speedLimit":1.1111112},"geometry":{"type":"Polygon","coordinates":[[[-121.033359221768,50.464807984655],[-121.033653960045,50.4646909667355],[-121.033697353634,50.4647316803434],[-121.033369506612,50.4648698190087],[-121.033359221768,50.464807984655]]]}},{"type":"Feature","id":"707947583","properties":{"name":"iSP_25KPH_%TR_Permission Gate 1 From West Dump","oid":"707947583","speedLimit":6.9444447},"geometry":{"type":"Polygon","coordinates":[[[-121.038628725122,50.4619780743402],[-121.038855414361,50.461799581569],[-121.038140406353,50.4614083534558],[-121.037992755438,50.4616710595838],[-121.038192253239,50.4615669837384],[-121.038667187622,50.4618461370854],[-121.038628725122,50.4619780743402]]]}},{"type":"Feature","id":"742345972","properties":{"name":"iSP_4KPH_%TR_CR01_Pit Side_Slow Bump","oid":"742345972","speedLimit":1.1111112},"geometry":{"type":"Polygon","coordinates":[[[-121.033399093151,50.4648829408338],[-121.033706370484,50.4647444426664],[-121.033756526711,50.464776528225],[-121.033475031932,50.4649184416619],[-121.033399093151,50.4648829408338]]]}},{"type":"Feature","id":"776427243","properties":{"name":"iSP_7KPH_%TR_CR1_PermissionBlocker","oid":"776427243","speedLimit":1.9444444},"geometry":{"type":"Polygon","coordinates":[[[-121.034100294108,50.4652129637218],[-121.03405182854,50.465233275588],[-121.034030695298,50.4652747082001],[-121.034116355371,50.4652256361693],[-121.034100294108,50.4652129637218]]]}},{"type":"Feature","id":"794004438","properties":{"name":"iSP_11KPH_%TR_Lower_Fuel_Bay","oid":"794004438","speedLimit":3.0555556},"geometry":{"type":"Polygon","coordinates":[[[-121.036777030491,50.4606955507529],[-121.036779143816,50.4607253894236],[-121.036749416389,50.4606709248621],[-121.03712558809,50.4605992042018],[-121.037535572977,50.4605561538305],[-121.037543321833,50.4605814987255],[-121.03694482843,50.4606503433693],[-121.036777030491,50.4606955507529]]]}},{"type":"Feature","id":"801543391","properties":{"name":"iSP_4KPH_%TR_CR01_PermissionBlocker_2","oid":"801543391","speedLimit":1.1111112},"geometry":{"type":"Polygon","coordinates":[[[-121.033155779095,50.4645234387771],[-121.033154933766,50.4644740072443],[-121.033176489672,50.4644319455037],[-121.033108440634,50.4644595372865],[-121.033155779095,50.4645234387771]]]}},{"type":"Feature","id":"806473874","properties":{"name":"iSP_4KPH_%TR_CR04_PermissionBlocker","oid":"806473874","speedLimit":1.1111112},"geometry":{"type":"Polygon","coordinates":[[[-121.022719902606,50.481545411784],[-121.022686793861,50.4815430750206],[-121.022679185894,50.4815717453096],[-121.022701305353,50.4815728238158],[-121.022705391113,50.481548737178],[-121.022719902606,50.481545411784]]]}},{"type":"Feature","id":"824566967","properties":{"name":"iSP_3KPH_%TR_CR04","oid":"824566967","speedLimit":0.8333333},"geometry":{"type":"Polygon","coordinates":[[[-121.02330275741,50.4810685323058],[-121.023282610386,50.4810685323058],[-121.023279933509,50.4811866287314],[-121.023305011622,50.4811859097273],[-121.02330275741,50.4810685323058]]]}},{"type":"Feature","id":"826307302","properties":{"name":"iSP_4KPH_%TR_CR04_Pockets","oid":"826307302","speedLimit":1.1111112},"geometry":{"type":"Polygon","coordinates":[[[-121.023297967208,50.4813217116292],[-121.023337415926,50.4814773760197],[-121.023542126593,50.481437920669],[-121.023461115834,50.4811890553703],[-121.023052821606,50.4811897743744],[-121.02305817536,50.4813604479758],[-121.023283033051,50.4813264750314],[-121.023297967208,50.4813217116292]]]}},{"type":"Feature","id":"883050998","properties":{"name":"iSP_22KPH_%TR_4CR_Brake_Temp_Ctrl","oid":"883050998","speedLimit":6.111111},"geometry":{"type":"Polygon","coordinates":[[[-121.031799447648,50.4745592083162],[-121.032188721959,50.4743125899054],[-121.032490363761,50.4745749365312],[-121.032792005563,50.4748023215821],[-121.032969806569,50.4748847374286],[-121.033178602996,50.4749348879655],[-121.033462492875,50.4749596936074],[-121.033666358213,50.4749221256425],[-121.033827534402,50.4748627179276],[-121.033918689118,50.4748106800049],[-121.034008012286,50.4747474975184],[-121.034058450289,50.4746583410084],[-121.03405267387,50.474548153628],[-121.034056477853,50.4744838027599],[-121.033994346123,50.47437981679],[-121.03387599997,50.474259743103],[-121.033509126895,50.4739378090113],[-121.033060820396,50.4735601521007],[-121.032947546221,50.473425608456],[-121.032822578319,50.4732210517857],[-121.03260575126,50.4728150840882],[-121.032252262572,50.4722091433716],[-121.032487264219,50.4721562965693],[-121.032430204466,50.4722058179776],[-121.032902743749,50.4730490300516],[-121.033041941367,50.4733097589182],[-121.033249751576,50.4735471201511],[-121.033742719659,50.4739618057735],[-121.034097758119,50.4742713370444],[-121.03420314255,50.4743946462498],[-121.034255834766,50.4744618731344],[-121.03426287918,50.4745930015096],[-121.034237941955,50.4746790123766],[-121.034183418191,50.4747918061469],[-121.034085923503,50.4748760195037],[-121.033973071993,50.4749378538575],[-121.033790480785,50.4750163151813],[-121.033530964578,50.4750645783324],[-121.033262995075,50.4750682632285],[-121.033071387017,50.4750264711144],[-121.032807644162,50.4749167331116],[-121.032656893705,50.4748353058958],[-121.032495294851,50.4747055256533],[-121.032144764816,50.4744132504812],[-121.031799447648,50.4745592083162]]]}},{"type":"Feature","id":"883053336","properties":{"name":"iSP_22KPH_%TR_Brake_Temp_Ctrl","oid":"883053336","speedLimit":6.111111},"geometry":{"type":"Polygon","coordinates":[[[-121.032465990089,50.4721454216321],[-121.032251135466,50.4722256804662],[-121.03148850722,50.4710084963778],[-121.030816611024,50.4699235191707],[-121.030661352143,50.4696603636652],[-121.030596543535,50.4694578741318],[-121.030550191292,50.4692569124821],[-121.030596543535,50.4689730856083],[-121.030722779432,50.4686244584888],[-121.030884519174,50.4683756830656],[-121.031088948065,50.4680979677268],[-121.031688286797,50.4675366951408],[-121.032432176902,50.4668938155879],[-121.032788483356,50.4665563330322],[-121.033147607575,50.4662225353726],[-121.033484471447,50.4658708524856],[-121.0337794915,50.4660342461704],[-121.033587460778,50.4659934426869],[-121.032919368566,50.4666522302058],[-121.032554608815,50.4669914203963],[-121.032178578003,50.4673078720817],[-121.031774369535,50.4676685425201],[-121.031381995682,50.4680346054893],[-121.031147134923,50.4682865265555],[-121.031008782635,50.4684700523555],[-121.030905088863,50.4686546566616],[-121.030828586528,50.4688531916724],[-121.030767722792,50.4691914831078],[-121.030776457865,50.4694008031803],[-121.030873670777,50.4696305249945],[-121.031027661664,50.4699352928631],[-121.031330571461,50.4704039936695],[-121.031530632815,50.4707111881769],[-121.031750277639,50.4710830930546],[-121.032146032811,50.4717290283749],[-121.032381316234,50.4721453317566],[-121.032465990089,50.4721454216321]]]}},{"type":"Feature","id":"883059532","properties":{"name":"iSP_22KPH_%TR_Brake_Ctrl","oid":"883059532","speedLimit":6.111111},"geometry":{"type":"Polygon","coordinates":[[[-121.02726228156,50.4773222512485],[-121.027030097679,50.4772100866068],[-121.027334557246,50.4769443247114],[-121.027716505367,50.4766327263037],[-121.028033222214,50.4763230152819],[-121.028190453532,50.4761690585261],[-121.028621289885,50.4756926284255],[-121.028907293088,50.4753260262032],[-121.029263881318,50.4748878830716],[-121.029472677746,50.4746569928757],[-121.02969147724,50.4745406939603],[-121.029801510985,50.4744884762866],[-121.029952261442,50.4745929116341],[-121.029788690152,50.4745423117196],[-121.029556083606,50.4747918061469],[-121.029251905815,50.4751733277046],[-121.029072977702,50.4754782753242],[-121.028853191989,50.475775044272],[-121.02869610156,50.475975017291],[-121.028408971251,50.4762708874837],[-121.028041675511,50.4765702628214],[-121.027243966084,50.4772197032868],[-121.02726228156,50.4773222512485]]]}},{"type":"Feature","id":"884401102","properties":{"name":"iSP_30KPH_%TR_Maint_Limit_Policy","oid":"884401102","speedLimit":8.333333},"geometry":{"type":"Polygon","coordinates":[[[-121.036992589556,50.461101428575],[-121.037108681497,50.461107899612],[-121.038294960793,50.4609922298252],[-121.038278617753,50.460398062801],[-121.038120118441,50.4605659502615],[-121.037033024492,50.4607085827025],[-121.036745330629,50.4605379091011],[-121.036992589556,50.461101428575]]]}},{"type":"Feature","id":"910445950","properties":{"name":"SP_22KPH_%TR_1635_FLATS_SEP_24_NS","oid":"910445950","speedLimit":6.111111},"geometry":{"type":"Polygon","coordinates":[[[-121.017369811157,50.4554939154946],[-121.018002963076,50.4544142409429],[-121.01814821889,50.4539985666898],[-121.018532843888,50.4537515887769],[-121.018948886971,50.4536881366639],[-121.018866749105,50.4543417114029],[-121.01826191573,50.4560721745528],[-121.018276004558,50.4557008988038],[-121.017369811157,50.4554939154946]]]}},{"type":"Feature","id":"915576987","properties":{"name":"iSP_15KPH_%TR_Preventing Shifting","oid":"915576987","speedLimit":4.1666665},"geometry":{"type":"Polygon","coordinates":[[[-121.036998084199,50.4448632599272],[-121.037512185523,50.4453131767511],[-121.037981484376,50.4457956285112],[-121.038525454015,50.446218942183],[-121.039458134412,50.4468500480435],[-121.03991545776,50.4470998120974],[-121.040471402903,50.4471951700179],[-121.041224591635,50.4473228831236],[-121.041643029819,50.4475097343175],[-121.042321547763,50.4480951834169],[-121.042704200325,50.4485279340176],[-121.042847624591,50.4487949541702],[-121.043009082557,50.4493917275843],[-121.043188292446,50.4501982704485],[-121.043325799405,50.4505014205578],[-121.043687459613,50.4511688361261],[-121.043857934429,50.4514891524586],[-121.044126890151,50.4522537234577],[-121.044384011257,50.4529383052491],[-121.044697769451,50.4537982341687],[-121.044736654616,50.4541948548128],[-121.044572237996,50.4550719499556],[-121.044216635984,50.4568394418173],[-121.044052219364,50.4572074820479],[-121.043005983015,50.4583991414903],[-121.041906068233,50.4595375047528],[-121.041344205782,50.4600008130284],[-121.040372781109,50.460597676318],[-121.039924333722,50.4607311414566],[-121.03913521848,50.4608073558926],[-121.038497839913,50.460838902198],[-121.038645631716,50.4611436700666],[-121.038758483226,50.460949718707],[-121.03987953125,50.4608798854325],[-121.040707531656,50.4606320087644],[-121.041511581056,50.4600580637309],[-121.042874534252,50.4587004042138],[-121.044243404756,50.4571425919266],[-121.04442881373,50.4562903024257],[-121.044814424945,50.4544217006106],[-121.044811325403,50.4537867301029],[-121.044261438456,50.4523014473557],[-121.043833983422,50.4511860023493],[-121.043346791758,50.45033748762],[-121.043050926376,50.4493097611154],[-121.042928353574,50.448691956831],[-121.04224081878,50.4478873013526],[-121.041547366679,50.4473915480164],[-121.041093001984,50.4472218630456],[-121.0404594274,50.4471303697722],[-121.039918416414,50.4470197330143],[-121.038821460286,50.4463333537125],[-121.038196761664,50.4458718429472],[-121.037153624857,50.4449070293026],[-121.037377778107,50.444697349728],[-121.036998084199,50.4448632599272]]]}},{"type":"Feature","id":"917773475","properties":{"name":"SP_15KPH_%TR_1200_CORNER_Sept_24_NS","oid":"917773475","speedLimit":4.1666665},"geometry":{"type":"Polygon","coordinates":[[[-121.037098960205,50.4446825202682],[-121.036924822294,50.4448620915455],[-121.036629238688,50.4448205690579],[-121.036414665842,50.4448699107152],[-121.036323088461,50.4449676053991],[-121.03625447587,50.4450821068042],[-121.03624221859,50.4451449297886],[-121.036263351832,50.4452672503634],[-121.036316044047,50.4453514637202],[-121.03618417262,50.4453952330956],[-121.036089073032,50.4451942714459],[-121.036163039378,50.4449316551935],[-121.036259829625,50.4447913595158],[-121.036516668955,50.4447150552043],[-121.036713771655,50.4447117298103],[-121.036923131635,50.444770059019],[-121.037093747339,50.4446835987744],[-121.037098960205,50.4446825202682]]]}},{"type":"Feature","id":"926367691","properties":{"name":"SP_30KPH_%TR_24SH_EMPTY_LANE_SEP_24_NS","oid":"926367691","speedLimit":8.333333},"geometry":{"type":"Polygon","coordinates":[[[-121.038784265781,50.450857507345],[-121.038613086523,50.4512055952114],[-121.038639009967,50.4520121380756],[-121.038945019305,50.45442772227],[-121.039193405338,50.4544999821834],[-121.038782293345,50.4517186945218],[-121.038784265781,50.450857507345]]]}},{"type":"Feature","id":"929009157","properties":{"name":"iSP_22KPH_%TR_Long_Single_Lane","oid":"929009157","speedLimit":6.111111},"geometry":{"type":"Polygon","coordinates":[[[-121.005680733439,50.4380559087327],[-121.004751011696,50.4382239759442],[-121.005175508076,50.4381974626675],[-121.007935791209,50.4431704546177],[-121.00852456332,50.4445348547984],[-121.008211650456,50.4465096894713],[-121.007833647208,50.4466801833217],[-121.008935111761,50.4466469293815],[-121.008824373575,50.4465929141974],[-121.009404410613,50.444817603166],[-121.008765482275,50.4430683560336],[-121.008263779119,50.4415401127906],[-121.007260231918,50.4401561197479],[-121.00644054392,50.438983963292],[-121.005861493099,50.4383129527032],[-121.005680733439,50.4380559087327]]]}},{"type":"Feature","id":"934051091","properties":{"name":"iSP_17KPH_%TR_Ramp_Permission Blocker","oid":"934051091","speedLimit":4.7222223},"geometry":{"type":"Polygon","coordinates":[[[-121.03951308084,50.4610297977902],[-121.039465037937,50.460771765189],[-121.039017576768,50.4607923466817],[-121.039076468068,50.4610450766276],[-121.039163959688,50.4609000175477],[-121.039379941418,50.4608868957226],[-121.03951308084,50.4610297977902]]]}},{"type":"Feature","id":"936169885","properties":{"name":"SP_15KPH_%TR_24shl_loadplan_Sept_24_NS","oid":"936169885","speedLimit":4.1666665},"geometry":{"type":"Polygon","coordinates":[[[-121.039169031666,50.454636772716],[-121.038619144719,50.4545682875742],[-121.038154636069,50.4553923561636],[-121.038670146276,50.4555194401407],[-121.038842170863,50.4552446906938],[-121.039002219946,50.4549474723685],[-121.039087598242,50.4547918079779],[-121.039169031666,50.454636772716]]]}},{"type":"Feature","id":"936513295","properties":{"name":"SP_30KPH_%TR_1635_FLATS_SEP_24_NS","oid":"936513295","speedLimit":8.333333},"geometry":{"type":"Polygon","coordinates":[[[-121.017285982632,50.4555553004708],[-121.018050160649,50.4557852919116],[-121.017434056212,50.4574539207077],[-121.015227041345,50.4585170581649],[-121.014498226285,50.4578797508939],[-121.016177332776,50.4566195164341],[-121.017285982632,50.4555553004708]]]}},{"type":"Feature","id":"937786749","properties":{"name":"SP_32KPH_%TR_24SH_Loaded_LANE_SEP_24_NS","oid":"937786749","speedLimit":8.888889},"geometry":{"type":"Polygon","coordinates":[[[-121.038410348292,50.4510853417734],[-121.038213245592,50.4510392356346],[-121.038253821416,50.4516608146907],[-121.038601533685,50.4544464163769],[-121.038809766559,50.4542670248507],[-121.038403867431,50.4516752846484],[-121.038410348292,50.4510853417734]]]}},{"type":"Feature","id":"938065675","properties":{"name":"SP_8KPH_CR01_YARD_RUTIING_SEP_24_NS","oid":"938065675","speedLimit":2.2222223},"geometry":{"type":"Polygon","coordinates":[[[-121.034289366176,50.4648013338669],[-121.034099167001,50.4648581351919],[-121.033940949466,50.4649071173471],[-121.033829506838,50.4650050816576],[-121.034044361461,50.4650689831481],[-121.03396433692,50.4650114628191],[-121.034242732156,50.4648882434891],[-121.034319375379,50.4649374952709],[-121.034289366176,50.4648013338669]]]}},{"type":"Feature","id":"938165680","properties":{"name":"SP_10KPH_%TR_22SH_Sept_24_NS","oid":"938165680","speedLimit":2.7777777},"geometry":{"type":"Polygon","coordinates":[[[-121.034080569749,50.4466114285534],[-121.035055375741,50.4472506232102],[-121.035497201379,50.4474473607107],[-121.035795320974,50.4469122418993],[-121.03485503261,50.4461953947983],[-121.034080569749,50.4466114285534]]]}},{"type":"Feature","id":"940771585","properties":{"name":"SP_20KPH_%TR_1660_HMT_SEPT24_DS","oid":"940771585","speedLimit":5.5555553},"geometry":{"type":"Polygon","coordinates":[[[-121.002708836114,50.4281183731305],[-121.002603592571,50.4277112370513],[-121.002231929295,50.4276978455997],[-121.002505393442,50.4277962592877],[-121.002533430209,50.4281138793548],[-121.002673754933,50.4280825128003],[-121.002708836114,50.4281183731305]]]}},{"type":"Feature","id":"940778315","properties":{"name":"SP_20KPH_%TR_HMT_SPILLING_ROCK_IN_CORNER_SEPT24_NS","oid":"940778315","speedLimit":5.5555553},"geometry":{"type":"Polygon","coordinates":[[[-121.004784683995,50.4367079557711],[-121.004770595167,50.437043550941],[-121.004987985779,50.4372761487717],[-121.00512126609,50.4371687475322],[-121.004889927538,50.4369361497016],[-121.004882883124,50.4367572075528],[-121.005198472866,50.4367974717832],[-121.004798631934,50.4366990580952],[-121.004784683995,50.4367079557711]]]}},{"type":"Feature","id":"944724972","properties":{"name":"SP_20KPH_%TR_21SH_LOADED_SEPT 24_NS","oid":"944724972","speedLimit":5.5555553},"geometry":{"type":"Polygon","coordinates":[[[-121.038848229059,50.4522167846213],[-121.0391818525,50.4521685214702],[-121.039251028644,50.4519692674553],[-121.039327812755,50.4516356495467],[-121.039213552362,50.4512647332997],[-121.038913178555,50.4506402782272],[-121.03881864252,50.4509654478375],[-121.038886128005,50.450978300036],[-121.03905829348,50.4512926845846],[-121.039102109735,50.4515747139481],[-121.039047022418,50.4519345755068],[-121.038997288856,50.4521383232975],[-121.038848229059,50.4522167846213]]]}},{"type":"Feature","id":"945133230","properties":{"name":"SP_10KPH_%TR_21SH_SEPT_24_NS","oid":"945133230","speedLimit":2.7777777},"geometry":{"type":"Polygon","coordinates":[[[-121.040087341459,50.452699685759],[-121.039651714905,50.453168835943],[-121.039099291969,50.4529223074076],[-121.038927549159,50.452261992005],[-121.039713987524,50.4522160656172],[-121.039764848192,50.4525625357244],[-121.04009297699,50.452699685759],[-121.040087341459,50.452699685759]]]}},{"type":"Feature","id":"945606742","properties":{"name":"SP_20KPH_19SH_SEPT 24_NS","oid":"945606742","speedLimit":5.5555553},"geometry":{"type":"Polygon","coordinates":[[[-121.002893822423,50.427119676417],[-121.002444529706,50.4275245656084],[-121.001789962769,50.4273167734196],[-121.002101748527,50.4269691349308],[-121.002893822423,50.427119676417]]]}}]}