{"type":"FeatureCollection","features":[{"type":"Feature","id":"702602533","properties":{"name":"iSP_4KPH_%TR_CR01_Slow Bump","oid":"702602533","speedLimit":1.1111112},"geometry":{"type":"Polygon","coordinates":[[[-121.033348861238,50.4648080636671],[-121.033643491129,50.4646910462782],[-121.033686868762,50.4647317597015],[-121.0333591423,50.4648698977405],[-121.033348861238,50.4648080636671]]]}},{"type":"Feature","id":"707947583","properties":{"name":"iSP_25KPH_%TR_Permission Gate 1 From West Dump","oid":"707947583","speedLimit":6.9444447},"geometry":{"type":"Polygon","coordinates":[[[-121.038616426815,50.4619781661838],[-121.038843032692,50.4617996742219],[-121.038128287617,50.4614084478827],[-121.037980690999,50.4616711528194],[-121.038180115437,50.4615670774459],[-121.038654875171,50.4618462295272],[-121.038616426815,50.4619781661838]]]}},{"type":"Feature","id":"742345972","properties":{"name":"iSP_4KPH_%TR_CR01_Pit Side_Slow Bump","oid":"742345972","speedLimit":1.1111112},"geometry":{"type":"Polygon","coordinates":[[[-121.033388717959,50.464883019506],[-121.033695882296,50.4647445219667],[-121.033746020078,50.4647766073798],[-121.033464628815,50.4649185201732],[-121.033388717959,50.464883019506]]]}},{"type":"Feature","id":"776427243","properties":{"name":"iSP_7KPH_%TR_CR1_PermissionBlocker","oid":"776427243","speedLimit":1.9444444},"geometry":{"type":"Polygon","coordinates":[[[-121.03408966106,50.4652130408977],[-121.034041213315,50.4652333526718],[-121.034020087845,50.465274785096],[-121.034105716417,50.4652257132877],[-121.03408966106,50.4652130408977]]]}},{"type":"Feature","id":"794004438","properties":{"name":"iSP_11KPH_%TR_Lower_Fuel_Bay","oid":"794004438","speedLimit":3.0555556},"geometry":{"type":"Polygon","coordinates":[[[-121.036765413116,50.4606956484118],[-121.036767525663,50.4607254869472],[-121.036737809168,50.4606710226325],[-121.037113842538,50.4605993022974],[-121.03752367666,50.4605562521213],[-121.037531422666,50.4605815969014],[-121.036933149349,50.4606504412331],[-121.036765413116,50.4606956484118]]]}},{"type":"Feature","id":"801543391","properties":{"name":"iSP_4KPH_%TR_CR01_PermissionBlocker_2","oid":"801543391","speedLimit":1.1111112},"geometry":{"type":"Polygon","coordinates":[[[-121.033145493378,50.4645235190794],[-121.03314464836,50.4644740877707],[-121.033166196339,50.4644320262208],[-121.033098172325,50.4644596178786],[-121.033145493378,50.4645235190794]]]}},{"type":"Feature","id":"806473874","properties":{"name":"iSP_4KPH_%TR_CR04_PermissionBlocker","oid":"806473874","speedLimit":1.1111112},"geometry":{"type":"Polygon","coordinates":[[[-121.022713454519,50.4815454149048],[-121.022680357949,50.481543078152],[-121.02267275278,50.481571748311],[-121.022694864105,50.4815728268123],[-121.022698948363,50.4815487402837],[-121.022713454519,50.4815454149048]]]}},{"type":"Feature","id":"824566967","properties":{"name":"iSP_3KPH_%TR_CR04","oid":"824566967","speedLimit":0.8333333},"geometry":{"type":"Polygon","coordinates":[[[-121.023296094987,50.4810685375889],[-121.023275955372,50.4810685375889],[-121.023273279479,50.481186633479],[-121.023298348371,50.4811859144781],[-121.023296094987,50.4810685375889]]]}},{"type":"Feature","id":"826307302","properties":{"name":"iSP_4KPH_%TR_CR04_Pockets","oid":"826307302","speedLimit":1.1111112},"geometry":{"type":"Polygon","coordinates":[[[-121.023291306547,50.4813217157643],[-121.023330740758,50.481477379449],[-121.023535376146,50.4814379242772],[-121.023454395177,50.4811890601069],[-121.023046251093,50.4811897791077],[-121.023051602879,50.4813604519353],[-121.023276377882,50.481326479145],[-121.023291306547,50.4813217157643]]]}},{"type":"Feature","id":"883050998","properties":{"name":"iSP_22KPH_%TR_4CR_Brake_Temp_Ctrl","oid":"883050998","speedLimit":6.111111},"geometry":{"type":"Polygon","coordinates":[[[-121.031789660701,50.4745592431141],[-121.032178791862,50.4743126258214],[-121.03248032274,50.4745749712578],[-121.032781853618,50.4748023552776],[-121.032959589241,50.4748847707504],[-121.033168308886,50.4749349210599],[-121.033452094369,50.4749597265894],[-121.033655884739,50.4749221587948],[-121.033817001658,50.4748627513493],[-121.033908122853,50.4748107136625],[-121.033997413174,50.4747475314625],[-121.034047832629,50.4746583753567],[-121.034042058334,50.474548188476],[-121.034045860919,50.4744838378996],[-121.033983752036,50.4743798524012],[-121.033865449403,50.4742597792587],[-121.03349871124,50.4739378466267],[-121.033050569599,50.4735601914285],[-121.032937337079,50.4734256483938],[-121.032812415132,50.4732210926511],[-121.032595667807,50.4728151267943],[-121.032242309109,50.4722091888252],[-121.032477224338,50.4721563422625],[-121.032420185568,50.4722058634463],[-121.032892551082,50.4730490716969],[-121.033031697512,50.4733097993813],[-121.033239431303,50.473547159538],[-121.033732218104,50.4739618432801],[-121.034087126004,50.4742713731475],[-121.034192471682,50.4743946817938],[-121.034245144521,50.4744619083736],[-121.034252186344,50.4745930361542],[-121.034227258289,50.4746790466313],[-121.034172754576,50.4747918398901],[-121.03407529574,50.474876052865],[-121.033962485729,50.4749378869384],[-121.033779961667,50.4750163479065],[-121.033520540893,50.4750646108388],[-121.033252669931,50.4750682957182],[-121.033061132334,50.4750265037936],[-121.032797486466,50.4749167662884],[-121.032646791445,50.4748353394417],[-121.032485252016,50.4747055597877],[-121.032134850884,50.4744132859409],[-121.031789660701,50.4745592431141]]]}},{"type":"Feature","id":"883053336","properties":{"name":"iSP_22KPH_%TR_Brake_Temp_Ctrl","oid":"883053336","speedLimit":6.111111},"geometry":{"type":"Polygon","coordinates":[[[-121.032455958031,50.4721454673746],[-121.032241182417,50.4722257258448],[-121.031478834616,50.4710085472754],[-121.0308071855,50.4699235749878],[-121.030651983712,50.4696604206755],[-121.030587198937,50.4694579320602],[-121.030540863739,50.4692569713217],[-121.030587198937,50.4689731457349],[-121.030713388412,50.4686245201962],[-121.030875068677,50.468375745901],[-121.031079422393,50.4680980318214],[-121.031678540728,50.4675367617803],[-121.032422157279,50.4668938851424],[-121.032778332706,50.4665564041169],[-121.033137324863,50.4662226079708],[-121.033474064858,50.4658709266784],[-121.033768976422,50.4660343196223],[-121.033577016316,50.4659935163239],[-121.032909169785,50.4666523008557],[-121.032544544169,50.4669914895082],[-121.032168651636,50.4673079397588],[-121.03176459181,50.4676686085618],[-121.031372362246,50.4680346698712],[-121.031137587854,50.4682865897951],[-121.030999286442,50.4684701147629],[-121.030895630802,50.468654718232],[-121.0308191566,50.4688532523426],[-121.030758315245,50.4691915422441],[-121.030767047107,50.4694008613675],[-121.030864224269,50.4696305821401],[-121.031018158529,50.4699353486268],[-121.031320956935,50.470404047308],[-121.03152094472,50.4707112404225],[-121.031740508773,50.4710831436139],[-121.032136118412,50.4717290760054],[-121.032371315314,50.4721453774995],[-121.032455958031,50.4721454673746]]]}},{"type":"Feature","id":"883059532","properties":{"name":"iSP_22KPH_%TR_Brake_Ctrl","oid":"883059532","speedLimit":6.111111},"geometry":{"type":"Polygon","coordinates":[[[-121.027254163085,50.477322273518],[-121.027022064585,50.4772101093849],[-121.027326412193,50.4769443486946],[-121.027708219858,50.4766327516998],[-121.028024820238,50.4763230420822],[-121.028181993736,50.4761690860245],[-121.028612671655,50.4756926580841],[-121.028898569685,50.4753260575241],[-121.029255026786,50.4748879163791],[-121.029463746431,50.4746570272301],[-121.029682465466,50.4745407288421],[-121.029792458748,50.4744885114051],[-121.029943153769,50.4745929462791],[-121.029779642629,50.474542346594],[-121.02954712162,50.4747918398901],[-121.029243055686,50.4751733597179],[-121.029064193372,50.4754783059548],[-121.028844488482,50.4757750735569],[-121.02868745582,50.4759750456693],[-121.028400431098,50.4762709145204],[-121.028033270426,50.4765702885006],[-121.027235854344,50.4772197260214],[-121.027254163085,50.477322273518]]]}},{"type":"Feature","id":"884401102","properties":{"name":"iSP_30KPH_%TR_Maint_Limit_Policy","oid":"884401102","speedLimit":8.333333},"geometry":{"type":"Polygon","coordinates":[[[-121.036980892912,50.4611015243934],[-121.037096942162,50.4611079954011],[-121.038282785223,50.4609923261388],[-121.038266448192,50.4603981618087],[-121.038108007166,50.460566048508],[-121.037021312978,50.4607086803022],[-121.036733724911,50.4605380074747],[-121.036980892912,50.4611015243934]]]}},{"type":"Feature","id":"908328496","properties":{"name":"SP_25KPH_%TR_1445_SOFT_GROUND_SEPT_21_DS","oid":"908328496","speedLimit":6.9444447},"geometry":{"type":"Polygon","coordinates":[[[-121.039319200791,50.4644970059229],[-121.039928036842,50.4647092909249],[-121.039176533449,50.4666749493826],[-121.038814442889,50.4674280129012],[-121.038439817884,50.4678944647048],[-121.037903090105,50.4682381471127],[-121.037168346251,50.4680260418609],[-121.038300953127,50.4667054170437],[-121.038781487156,50.4655661601917],[-121.039319200791,50.4644970059229]]]}},{"type":"Feature","id":"910445950","properties":{"name":"SP_22KPH_%TR_1635_FLATS_SEP_21_DS","oid":"910445950","speedLimit":6.111111},"geometry":{"type":"Polygon","coordinates":[[[-121.017365330482,50.4554940367389],[-121.01799824957,50.4544143670826],[-121.018143451968,50.4539986947143],[-121.018527935526,50.4537517179212],[-121.018943825616,50.4536882660959],[-121.018861717955,50.4543418378715],[-121.018257106998,50.4560722931751],[-121.018271190645,50.4557010191095],[-121.017365330482,50.4554940367389]]]}},{"type":"Feature","id":"915576987","properties":{"name":"iSP_15KPH_%TR_Preventing Shifting","oid":"915576987","speedLimit":4.1666665},"geometry":{"type":"Polygon","coordinates":[[[-121.036986385534,50.4448634293732],[-121.037500297806,50.4453133441571],[-121.037969424081,50.4457957937297],[-121.038513193684,50.446219105482],[-121.039445531103,50.446850208481],[-121.039902686278,50.4470999714024],[-121.040458426981,50.4471953288905],[-121.041211338739,50.4473230414171],[-121.041629623049,50.4475098917638],[-121.042307891479,50.4480953382086],[-121.042690403326,50.4485280868472],[-121.04283377485,50.448795105789],[-121.042995173443,50.4493918764972],[-121.04317431743,50.4501984157044],[-121.043311773823,50.4505015644391],[-121.043673301036,50.4511689769812],[-121.043843713162,50.4514892918613],[-121.04411256998,50.4522538593936],[-121.044369596534,50.452938438081],[-121.044683239348,50.4537983631016],[-121.044722110213,50.4541949819472],[-121.044557754055,50.4550720731131],[-121.04420228281,50.4568395569606],[-121.044037926652,50.4572075955224],[-121.04299207504,50.4583992495616],[-121.041892564734,50.4595376076625],[-121.0413309089,50.4600009138373],[-121.040359841453,50.4605977744206],[-121.039911558975,50.460731238954],[-121.039122733918,50.4608074530444],[-121.038485589736,50.4608389992069],[-121.038633327191,50.4611437656936],[-121.038746137202,50.4609498152134],[-121.039866772978,50.4608799822555],[-121.040694468901,50.4606321067114],[-121.041498222624,50.4600581642802],[-121.042860674616,50.4587005109191],[-121.044229041739,50.4571427056954],[-121.044414382531,50.4562904200589],[-121.044799851944,50.4544218267164],[-121.044796753542,50.4537868590879],[-121.044247068807,50.4523015830753],[-121.043819770963,50.4511861431266],[-121.043332758456,50.4503376322446],[-121.043037001874,50.4493099104],[-121.042914474146,50.4486921089168],[-121.042227192182,50.4478874570869],[-121.041533995087,50.4473917059986],[-121.041079797477,50.4472220217972],[-121.040446455881,50.4471305289386],[-121.039905643844,50.4470198926823],[-121.038809091104,50.4463335164928],[-121.038184622204,50.4458720078201],[-121.037141868995,50.4449071985502],[-121.037365939816,50.4446975199263],[-121.036986385534,50.4448634293732]]]}},{"type":"Feature","id":"917773475","properties":{"name":"SP_15KPH_%TR_1200_CORNER_Sept_21_DS","oid":"917773475","speedLimit":4.1666665},"geometry":{"type":"Polygon","coordinates":[[[-121.037087224445,50.4446826905337],[-121.036913150571,50.4448622609968],[-121.036617675661,50.4448207386975],[-121.03640318172,50.4448700801311],[-121.036311638016,50.444967774372],[-121.036243050656,50.4450822752579],[-121.036230797883,50.4451450979575],[-121.036251923354,50.4452674179776],[-121.036304596193,50.4453516309526],[-121.036172773259,50.4453954001295],[-121.036077708643,50.445194439391],[-121.036151647788,50.4449318243294],[-121.036248402442,50.4447915292879],[-121.036505147323,50.4447152253223],[-121.036702177542,50.4447118999434],[-121.036911460533,50.4447702288876],[-121.037082013496,50.444683769035],[-121.037087224445,50.4446826905337]]]}},{"type":"Feature","id":"921770139","properties":{"name":"SP_20KPH_%TR_HIGHMONT_SEPT 21_DS","oid":"921770139","speedLimit":5.5555553},"geometry":{"type":"Polygon","coordinates":[[[-121.002080489444,50.4283004358424],[-121.001584885913,50.4284274293681],[-121.001000273735,50.4285434581308],[-121.001188712929,50.4289621862527],[-121.001582350857,50.4287565520087],[-121.001924442638,50.4286886064281],[-121.002547362336,50.428567185159],[-121.002406807541,50.4282229635005],[-121.002080489444,50.4283004358424]]]}},{"type":"Feature","id":"926078125","properties":{"name":"EX_NewLandfill_SEP15_DS","oid":"926078125","speedLimit":4.1666665},"geometry":{"type":"Polygon","coordinates":[[[-121.011161765739,50.4603919604264],[-121.010845728705,50.4601116399687],[-121.010387024328,50.4596574111796],[-121.010040003271,50.4593951556184],[-121.009788891849,50.4591368545619],[-121.009540878828,50.458833615952],[-121.009338919333,50.4588744192504],[-121.009482009185,50.4595404836659],[-121.009689883812,50.4600623884102],[-121.010011554305,50.4603632902673],[-121.010297734008,50.4606072113068],[-121.010569407554,50.4606653605008],[-121.010851925509,50.4605664978835],[-121.011161765739,50.4603919604264]]]}},{"type":"Feature","id":"926367691","properties":{"name":"SP_30KPH_%TR_24SH_EMPTY_LANE_SEP_21_DS","oid":"926367691","speedLimit":8.333333},"geometry":{"type":"Polygon","coordinates":[[[-121.038771910276,50.4508576496117],[-121.038600793967,50.4512057358998],[-121.038626707877,50.4520122751069],[-121.038853595427,50.4535986606146],[-121.039032739415,50.4535757424624],[-121.038769938565,50.4517188328837],[-121.038771910276,50.4508576496117]]]}},{"type":"Feature","id":"929009157","properties":{"name":"iSP_22KPH_%TR_Long_Single_Lane","oid":"929009157","speedLimit":6.111111},"geometry":{"type":"Polygon","coordinates":[[[-121.00568055124,50.4380561090448],[-121.004751171387,50.4382241754942],[-121.005175511666,50.4381976623377],[-121.007934779747,50.4431706317393],[-121.008523335347,50.4445350257335],[-121.008210537552,50.4465098514521],[-121.007832673308,50.4466803445294],[-121.008933732815,50.4466470907399],[-121.008823035351,50.4465930758008],[-121.00940285909,50.444817772819],[-121.008764165707,50.4430685336181],[-121.008262647045,50.4415402973046],[-121.007259468883,50.4401563105371],[-121.006440082312,50.4389841593961],[-121.005861244428,50.4383131518498],[-121.00568055124,50.4380561090448]]]}},{"type":"Feature","id":"929572873","properties":{"name":"SP_11KPH_%TR_1665_FLATS_WATERHOLE_SEPT 20_NS","oid":"929572873","speedLimit":3.0555556},"geometry":{"type":"Polygon","coordinates":[[[-121.053553542614,50.4666493349772],[-121.053345104641,50.4670038922729],[-121.053244829076,50.467127021169],[-121.052990196742,50.4671860691141],[-121.052766407594,50.467127021169],[-121.052257142926,50.4664179065775],[-121.052241791751,50.465428201903],[-121.052720213232,50.4650983602616],[-121.053545796608,50.4651130997791],[-121.053607482981,50.4653297886612],[-121.053345104641,50.4654233486473],[-121.053352850647,50.466344119115],[-121.053538050602,50.4666345954597],[-121.053553542614,50.4666493349772]]]}},{"type":"Feature","id":"934051091","properties":{"name":"iSP_17KPH_%TR_Ramp_Permission Blocker","oid":"934051091","speedLimit":4.7222223},"geometry":{"type":"Polygon","coordinates":[[[-121.039500457325,50.4610298939334],[-121.039452432089,50.4607718625022],[-121.039005135467,50.4607924439016],[-121.039064005111,50.4610451727015],[-121.039151464557,50.4609001142794],[-121.039367366863,50.4608869925138],[-121.039500457325,50.4610298939334]]]}},{"type":"Feature","id":"934773555","properties":{"name":"SP_10KPH_NEW RAMP_SEPT 20_NS","oid":"934773555","speedLimit":2.7777777},"geometry":{"type":"Polygon","coordinates":[[[-121.033892630841,50.4443403562525],[-121.034404008057,50.444204285341],[-121.035764065828,50.4443193254775],[-121.036265866164,50.4444737309107],[-121.035920957654,50.444785777281],[-121.034612164356,50.4446109701986],[-121.034334575678,50.444601173812],[-121.033892630841,50.4443403562525]]]}},{"type":"Feature","id":"936169885","properties":{"name":"SP_20KPH_%TR_24shl_loadplan_Sept_21_DS","oid":"936169885","speedLimit":5.5555553},"geometry":{"type":"Polygon","coordinates":[[[-121.03904048542,50.453593987109],[-121.038495589126,50.4536749645801],[-121.038600089785,50.4545481911164],[-121.039151464557,50.4545296768444],[-121.039132169961,50.4542341674937],[-121.03908794731,50.4539212223724],[-121.039065413475,50.4537568408023],[-121.03904048542,50.453593987109]]]}},{"type":"Feature","id":"936513295","properties":{"name":"SP_30KPH_%TR_1635_FLATS_SEP_21_DS","oid":"936513295","speedLimit":8.333333},"geometry":{"type":"Polygon","coordinates":[[[-121.017281532784,50.4555554214367],[-121.018045429786,50.4557854118346],[-121.017429551912,50.4574540330648],[-121.01522334864,50.4585171657015],[-121.014494801591,50.4578798613202],[-121.016173290617,50.4566196325746],[-121.017281532784,50.4555554214367]]]}},{"type":"Feature","id":"937786749","properties":{"name":"SP_30KPH_%TR_24SH_Loaded_LANE_SEP_21_DS","oid":"937786749","speedLimit":8.333333},"geometry":{"type":"Polygon","coordinates":[[[-121.03839813029,50.4510854830071],[-121.038201100071,50.4510393770774],[-121.038241660974,50.451660953315],[-121.038467280996,50.4536764924569],[-121.038634453883,50.4536488109241],[-121.038391651812,50.4516754232072],[-121.03839813029,50.4510854830071]]]}},{"type":"Feature","id":"938065675","properties":{"name":"SP_8KPH_CR01_YARD_RUTIING_SEP_20_NS","oid":"938065675","speedLimit":2.2222223},"geometry":{"type":"Polygon","coordinates":[[[-121.0342786636,50.4648014129092],[-121.034088534368,50.4648582139766],[-121.033930375015,50.4649071959097],[-121.033818973369,50.465005159776],[-121.034033748982,50.4650690609768],[-121.033953753868,50.4650115409086],[-121.034232046729,50.4648883221373],[-121.034308661768,50.4649375736958],[-121.0342786636,50.4648014129092]]]}},{"type":"Feature","id":"938165680","properties":{"name":"SP_10KPH_%TR_22SH_Sept20_NS","oid":"938165680","speedLimit":2.7777777},"geometry":{"type":"Polygon","coordinates":[[[-121.034620614545,50.4470559326001],[-121.035044391477,50.4472507818313],[-121.035486054641,50.4474475184398],[-121.035784064607,50.4469124020548],[-121.034860740723,50.4467192604506],[-121.034620614545,50.4470559326001]]]}},{"type":"Feature","id":"939481274","properties":{"name":"SP_10KPH_%TR_LRNX_PIT_BOTTOM_SEP_20_NS","oid":"939481274","speedLimit":2.7777777},"geometry":{"type":"Polygon","coordinates":[[[-121.034044875063,50.4452365009409],[-121.034051916887,50.444996354656],[-121.033292667488,50.4447665440082],[-121.03345885452,50.4448877855271],[-121.033347734547,50.4469939187765],[-121.033805171395,50.4469742361282],[-121.033653490519,50.446920131314],[-121.034044875063,50.4452365009409]]]}},{"type":"Feature","id":"939584863","properties":{"name":"SP_40KPH_%TR_HMT EMPTY2_ROUGH_SECTION_SEPT 21_DS","oid":"939584863","speedLimit":11.111111},"geometry":{"type":"Polygon","coordinates":[[[-121.005959548283,50.4301701975613],[-121.005668157631,50.4303974917061],[-121.005920677418,50.4302831705704],[-121.006319948805,50.4305571997706],[-121.006712600878,50.4308739196464],[-121.007135673628,50.4312430367095],[-121.007262989795,50.4315322548027],[-121.007409741394,50.4321905000839],[-121.007316930162,50.4325926013111],[-121.00705145342,50.4326146207122],[-121.007545648586,50.4326903854271],[-121.007642825749,50.4323020350912],[-121.007584519451,50.4319288736484],[-121.007416219872,50.4313517855885],[-121.007303973207,50.4311741923778],[-121.007116238195,50.4309841065272],[-121.006682461873,50.4306467153768],[-121.005959548283,50.4301701975613]]]}},{"type":"Feature","id":"939585115","properties":{"name":"SP_40KPH_%TR_HMT EMPTY22_ROUGH_SECTION_SEPT 21_DS","oid":"939585115","speedLimit":11.111111},"geometry":{"type":"Polygon","coordinates":[[[-121.007517622129,50.4327114162021],[-121.00704427076,50.4338272156512],[-121.006947656943,50.434018290128],[-121.006751330906,50.434299778962],[-121.005788572811,50.4352902026374],[-121.005289448368,50.4350888823985],[-121.005659707443,50.435166893991],[-121.00660964942,50.4341292858847],[-121.006754429309,50.4339278757707],[-121.006960613898,50.4334120825336],[-121.007224541439,50.4327833162874],[-121.007028215402,50.4326538961338],[-121.007517622129,50.4327114162021]]]}},{"type":"Feature","id":"940771585","properties":{"name":"SP_15KPH_%TR_1660_HMT_SEPT20_NS","oid":"940771585","speedLimit":4.1666665},"geometry":{"type":"Polygon","coordinates":[[[-121.002709746783,50.4281186185016],[-121.002604541942,50.4277114842685],[-121.002233015339,50.4276980928776],[-121.002506378924,50.4277965061194],[-121.002534405381,50.4281141247463],[-121.002674678503,50.4280827583341],[-121.002709746783,50.4281186185016]]]}},{"type":"Feature","id":"940778315","properties":{"name":"SP_25KPH_%TR_HMT_SPILLING_ROCK_IN_CORNER_SEPT21_DS","oid":"940778315","speedLimit":6.9444447},"geometry":{"type":"Polygon","coordinates":[[[-121.004784831303,50.4367081621951],[-121.004770747657,50.4370437558434],[-121.004988058327,50.4372763526194],[-121.005121289625,50.4371689518669],[-121.004890036145,50.4369363550909],[-121.004882994322,50.4367574137536],[-121.00519846801,50.4367976778013],[-121.004798774114,50.4366992645596],[-121.004784831303,50.4367081621951]]]}},{"type":"Feature","id":"941544052","properties":{"name":"SP_11KPH_%TR_TEMP_LOADED_SPILL_SEPT20_NS","oid":"941544052","speedLimit":3.0555556},"geometry":{"type":"Polygon","coordinates":[[[-121.012790398655,50.4562998569451],[-121.012423378819,50.4565455754867],[-121.012320568198,50.4564645081405],[-121.012552525861,50.4564002474393],[-121.012774202461,50.4563101027073],[-121.012790398655,50.4562998569451]]]}},{"type":"Feature","id":"943619660","properties":{"name":"SP_10KPH_SWAIL_SEPT 22_DS","oid":"943619660","speedLimit":2.7777777},"geometry":{"type":"Polygon","coordinates":[[[-121.039432714984,50.4510121449201],[-121.038959645288,50.4510773043724],[-121.039032598578,50.4514496569393],[-121.039526512072,50.4513498955709],[-121.039432714984,50.4510121449201]]]}}]}