{"type":"FeatureCollection","features":[{"type":"Feature","id":"702602533","properties":{"name":"iSP_4KPH_%TR_CR01_SLOW BUMP","oid":"702602533","speedLimit":1.1111112},"geometry":{"type":"Polygon","coordinates":[[[-121.033360332589,50.4648078880139],[-121.033655071034,50.4646908706434],[-121.033698464648,50.4647315840603],[-121.033370617439,50.4648697220776],[-121.033360332589,50.4648078880139]]]}},{"type":"Feature","id":"707947583","properties":{"name":"iSP_22KPH_%TR_Permission Gate 1 from west dump_Jun","oid":"707947583","speedLimit":6.111111},"geometry":{"type":"Polygon","coordinates":[[[-121.038629838959,50.4619779909741],[-121.038856528327,50.4617994990403],[-121.037982316065,50.4613510223283],[-121.037745200958,50.4615422765253],[-121.0379613237,50.4614965301032],[-121.038668301481,50.4618460543382],[-121.038629838959,50.4619779909741]]]}},{"type":"Feature","id":"742345972","properties":{"name":"iSP_4KPH_%TR_CR01_PITSIDE_SLOW BUMP","oid":"742345972","speedLimit":1.1111112},"geometry":{"type":"Polygon","coordinates":[[[-121.033400203994,50.4648828438411],[-121.033707481503,50.4647443463234],[-121.033757637759,50.4647764317315],[-121.033476142819,50.4649183445027],[-121.033400203994,50.4648828438411]]]}},{"type":"Feature","id":"776427243","properties":{"name":"iSP_7KPH_%TR_CR1_PermissionBlocker_DO_NOT_DELETE","oid":"776427243","speedLimit":1.9444444},"geometry":{"type":"Polygon","coordinates":[[[-121.034101405352,50.465212865181],[-121.034052939757,50.4652331769519],[-121.034031806504,50.4652746093696],[-121.034117466625,50.4652255375691],[-121.034101405352,50.465212865181]]]}},{"type":"Feature","id":"794004438","properties":{"name":"iSP_11KPH_%TR_LOWER_FUEL_BAY","oid":"794004438","speedLimit":3.0555556},"geometry":{"type":"Polygon","coordinates":[[[-121.036778143268,50.4606954734031],[-121.036780256594,50.4607253119339],[-121.03675052915,50.4606708476278],[-121.037126701066,50.4605991273039],[-121.037536686188,50.4605560771345],[-121.037544435048,50.4605814219106],[-121.036945941303,50.4606502662316],[-121.036778143268,50.4606954734031]]]}},{"type":"Feature","id":"801543391","properties":{"name":"iSP_4KPH_%TR_CR1_PermissionBlocker_DO_NOT_DELETE_","oid":"801543391","speedLimit":1.1111112},"geometry":{"type":"Polygon","coordinates":[[[-121.0331568898,50.4645233434708],[-121.03315604447,50.4644739121699],[-121.033177600388,50.4644318506266],[-121.033109551311,50.46445944228],[-121.0331568898,50.4645233434708]]]}},{"type":"Feature","id":"806473874","properties":{"name":"iSP_4KPH_%TR_Permission Blocker - DO NOT DELETE","oid":"806473874","speedLimit":1.1111112},"geometry":{"type":"Polygon","coordinates":[[[-121.022721007338,50.4815452366283],[-121.022687898574,50.4815428998759],[-121.022680290602,50.4815715700304],[-121.022702410075,50.4815726485315],[-121.022706495837,50.4815485620067],[-121.022721007338,50.4815452366283]]]}},{"type":"Feature","id":"824566967","properties":{"name":"iSP_4Cr_3KPH","oid":"824566967","speedLimit":0.8333333},"geometry":{"type":"Polygon","coordinates":[[[-121.023303862475,50.4810683593871],[-121.02328371544,50.4810683593871],[-121.023281038561,50.4811864552588],[-121.023306116689,50.481185736258],[-121.023303862475,50.4810683593871]]]}},{"type":"Feature","id":"826307302","properties":{"name":"iSP_4KPH_TR%_CRUSHER POCKETS","oid":"826307302","speedLimit":1.1111112},"geometry":{"type":"Polygon","coordinates":[[[-121.023299072271,50.4813215375229],[-121.023338521011,50.4814772011832],[-121.023543231796,50.4814377460176],[-121.02346222099,50.4811888818863],[-121.023053926528,50.481189600887],[-121.023059280286,50.4813602736878],[-121.023284138105,50.4813263009028],[-121.023299072271,50.4813215375229]]]}},{"type":"Feature","id":"849417440","properties":{"name":"iSP_Permissions_35_KPH_June_19_NS","oid":"849417440","speedLimit":9.722222},"geometry":{"type":"Polygon","coordinates":[[[-121.03269688931,50.4660341437769],[-121.033011493014,50.466014820632],[-121.033218458012,50.4658139498001],[-121.033807230461,50.4653794936026],[-121.033728051204,50.465250702595],[-121.033964180092,50.4654001648739],[-121.033427959001,50.4658084674195],[-121.03302558185,50.4661880099354],[-121.03269688931,50.4660341437769]]]}},{"type":"Feature","id":"883050998","properties":{"name":"iSP_22kph_%TR_4CR_Brake_Temp_CTRL_NOREMOVE","oid":"883050998","speedLimit":6.111111},"geometry":{"type":"Polygon","coordinates":[[[-121.031800557576,50.4745590659326],[-121.03218983211,50.4743124486786],[-121.032491474084,50.4745747940738],[-121.032793116059,50.474802178058],[-121.032970917167,50.4748845935179],[-121.033179713714,50.4749347438195],[-121.033463603755,50.4749595493451],[-121.03366746921,50.4749219815564],[-121.033828645491,50.4748625741202],[-121.033919800259,50.4748105364416],[-121.034009123478,50.4747473542515],[-121.03405956151,50.4746581981597],[-121.034053785087,50.4745480112962],[-121.034057589073,50.4744836607299],[-121.033995457307,50.4743796752478],[-121.033877111086,50.4742596021241],[-121.033510237802,50.4739376695425],[-121.033061931046,50.4735600144035],[-121.032948656806,50.47342547139],[-121.032823688833,50.4732209156793],[-121.03260686165,50.4728149498861],[-121.032253372759,50.472209012012],[-121.03248837454,50.4721561654576],[-121.032431314755,50.4722056866336],[-121.032903854309,50.4730488947521],[-121.033043052006,50.4733096223956],[-121.033250862335,50.4735469825151],[-121.0337438307,50.4739616661922],[-121.034098869362,50.4742711960111],[-121.034204253854,50.4743945046381],[-121.0342569461,50.4744617312073],[-121.034263990518,50.4745928589674],[-121.034239053278,50.474678869431],[-121.034184529484,50.4747916626721],[-121.03408703474,50.4748758756339],[-121.033974183165,50.4749377096976],[-121.033791591853,50.4750161706534],[-121.033532075497,50.4750644335781],[-121.03326410584,50.4750681184569],[-121.033072497673,50.4750263265388],[-121.032808754667,50.4749165890508],[-121.032658004124,50.474835162217],[-121.032496405177,50.4747053825833],[-121.032145874942,50.4744131087822],[-121.031800557576,50.4745590659326]]]}},{"type":"Feature","id":"883053336","properties":{"name":"iSP_22kph_%TR_Brake_Temp_CTRL_NOREMOVE","oid":"883053336","speedLimit":6.111111},"geometry":{"type":"Polygon","coordinates":[[[-121.032467100398,50.4721452905714],[-121.032252245652,50.4722255490291],[-121.03148961697,50.4710083706504],[-121.03081772039,50.4699233985328],[-121.030662461419,50.4696602442618],[-121.030597652775,50.4694577556782],[-121.030551300505,50.4692567949712],[-121.030597652775,50.4689729694289],[-121.030723888744,50.4686243439448],[-121.030885628579,50.4683755696886],[-121.031090057586,50.4680978556525],[-121.031689396662,50.4675365856994],[-121.032433287192,50.4668937091623],[-121.03278959385,50.4665562281897],[-121.033148718275,50.4662224320959],[-121.033485582339,50.4658707508586],[-121.033780602561,50.4660341437769],[-121.033588571729,50.4659933404849],[-121.032920479135,50.4666521249134],[-121.032555719176,50.4669913135128],[-121.032179688148,50.4673077637138],[-121.031775479448,50.4676684324602],[-121.031383105371,50.4680344937123],[-121.031148244478,50.4682864135968],[-121.03100989211,50.4684699385358],[-121.030906198279,50.4686545419759],[-121.0308296959,50.4688530760554],[-121.03076883213,50.4691913659039],[-121.030777567208,50.4694006849945],[-121.030874780175,50.4696304057311],[-121.03102877115,50.46993517217],[-121.03133168112,50.4704038707777],[-121.031531742589,50.4707110638441],[-121.031751387539,50.4710829669772],[-121.032147142937,50.4717288992675],[-121.032382426495,50.4721452006963],[-121.032467100398,50.4721452905714]]]}},{"type":"Feature","id":"883059532","properties":{"name":"iSP_22kph_%TR_Brake_CTRL_NOREMOVE","oid":"883059532","speedLimit":6.111111},"geometry":{"type":"Polygon","coordinates":[[[-121.027263388892,50.4773220959035],[-121.027031204877,50.4772099317879],[-121.027335664619,50.4769441711392],[-121.027717612958,50.4766325741933],[-121.028034329987,50.4763228646243],[-121.028191561395,50.4761689085907],[-121.028622397994,50.475692480725],[-121.028908401361,50.4753258802224],[-121.029264989795,50.4748877391461],[-121.029473786342,50.4746568500333],[-121.029692585962,50.4745405516635],[-121.02980261977,50.4744883342347],[-121.029953370313,50.4745927690923],[-121.029789798929,50.4745421694152],[-121.02955719225,50.4747916626721],[-121.029253014285,50.4751731824401],[-121.02907408607,50.4754781286292],[-121.028854300231,50.4757748961849],[-121.028697209712,50.4759748682658],[-121.028410079238,50.4762707370706],[-121.028042783289,50.4765701110039],[-121.027245073405,50.4772195484228],[-121.027263388892,50.4773220959035]]]}},{"type":"Feature","id":"884401102","properties":{"name":"SP_25KPH_MAIN INT. DUST_AUG_ 7_DS","oid":"884401102","speedLimit":6.9444447},"geometry":{"type":"Polygon","coordinates":[[[-121.035773891052,50.4609091064982],[-121.035955777922,50.4612026385505],[-121.038296074438,50.4609921510837],[-121.038279731389,50.4603979868467],[-121.038121231986,50.4605658735196],[-121.035904635448,50.4608511370634],[-121.035711477509,50.4607569479664],[-121.035773891052,50.4609091064982]]]}},{"type":"Feature","id":"903864124","properties":{"name":"SP_20KPH_%TR_OLD_GARBAGEDUMP_AUG_7_DS","oid":"903864124","speedLimit":5.5555553},"geometry":{"type":"Polygon","coordinates":[[[-121.042585984055,50.467002188399],[-121.042133168872,50.4673287944854],[-121.040894901092,50.4666614719231],[-121.040724567067,50.4661230302435],[-121.042265181263,50.4668263028429],[-121.042585984055,50.467002188399]]]}},{"type":"Feature","id":"908328496","properties":{"name":"SP_12KPH_%TR_9019_SOFT_GROUND_AUG_7_DS","oid":"908328496","speedLimit":3.3333333},"geometry":{"type":"Polygon","coordinates":[[[-121.039001079782,50.4644890111854],[-121.039305539524,50.4646770298791],[-121.039205086125,50.4648767323348],[-121.039036583649,50.465263374983],[-121.038207314773,50.4663105995617],[-121.039219879403,50.4663026006784],[-121.03922607849,50.4665697094536],[-121.038258598135,50.4670763353504],[-121.036114418213,50.466742898757],[-121.037882567107,50.4651399764809],[-121.0385216367,50.4648144488956],[-121.039001079782,50.4644890111854]]]}},{"type":"Feature","id":"915576987","properties":{"name":"iSP_15kph_prevent shifting","oid":"915576987","speedLimit":4.1666665},"geometry":{"type":"Polygon","coordinates":[[[-121.036999197102,50.444863256846],[-121.037513298721,50.4453131715594],[-121.037982597842,50.4457956210563],[-121.038526567792,50.4462189327423],[-121.039459248723,50.4468500356424],[-121.039916572333,50.4470997985246],[-121.040472517795,50.4471951559978],[-121.041225706957,50.4473228685044],[-121.041644145381,50.4475097188218],[-121.042322663713,50.4480951651748],[-121.042705316494,50.4485279137456],[-121.042848740842,50.4487949326456],[-121.043010198901,50.4493917032603],[-121.043189408892,50.450198242341],[-121.04332691593,50.4505013910283],[-121.043688576345,50.4511688034657],[-121.043859051258,50.4514891182956],[-121.044128007134,50.4522536857081],[-121.044385128388,50.4529382642882],[-121.044698886761,50.4537981891739],[-121.044737771948,50.4541948079575],[-121.044573355234,50.4550718989859],[-121.044217753018,50.4568393825564],[-121.044053336304,50.4572074210604],[-121.043007099357,50.4583990749128],[-121.041907183945,50.4595374328353],[-121.041345321173,50.4600007389375],[-121.040373895944,50.4605975994273],[-121.0399254483,50.4607310639398],[-121.039136332606,50.4608072780183],[-121.038945147104,50.4608053906413],[-121.039001925113,50.4612935022691],[-121.039061661776,50.460927441017],[-121.039880645802,50.460879807218],[-121.040708646683,50.4606319317127],[-121.041512696542,50.4600579893715],[-121.042875650519,50.4587003362231],[-121.044244521806,50.4571425312436],[-121.044429930886,50.4562902457408],[-121.044815542322,50.4544216526911],[-121.044812442778,50.4537866851621],[-121.044262555516,50.4523014093823],[-121.043835100238,50.4511859696084],[-121.043347908295,50.4503374588594],[-121.043052042743,50.4493097371759],[-121.042929469872,50.4486919357895],[-121.042241934684,50.4478872840857],[-121.041548482185,50.4473915330751],[-121.041094117231,50.4472218489003],[-121.040460542284,50.4471303560561],[-121.039919530989,50.4470197198172],[-121.038822574233,50.4463333437352],[-121.038197875253,50.4458718351348],[-121.037154737849,50.4449070260161],[-121.037378891227,50.4446973474251],[-121.036999197102,50.444863256846]]]}},{"type":"Feature","id":"917291012","properties":{"name":"SP_15KPH_%TR_CORNER_RUTS_AUG_7_DS","oid":"917291012","speedLimit":4.1666665},"geometry":{"type":"Polygon","coordinates":[[[-121.040556064591,50.4664421766972],[-121.040365019977,50.4663130261892],[-121.040274992317,50.466094360089],[-121.040331206771,50.4660010697429],[-121.039808370074,50.465975994592],[-121.040089442349,50.4660441199122],[-121.040095077883,50.4663095210606],[-121.04023004893,50.4665138970211],[-121.040539157988,50.4666465526577],[-121.040713436887,50.466725462989],[-121.040820230262,50.4665820223412],[-121.040544793522,50.4664385816935],[-121.040556064591,50.4664421766972]]]}},{"type":"Feature","id":"917665392","properties":{"name":"SP_15KPH_22SH RUTS_AUG 6_NS","oid":"917665392","speedLimit":4.1666665},"geometry":{"type":"Polygon","coordinates":[[[-121.03564878219,50.445519614647],[-121.035216536707,50.4452077480758],[-121.034707929734,50.4452031644461],[-121.035038312934,50.445632228138],[-121.035587354865,50.4459566772222],[-121.036007624838,50.4464644714952],[-121.036510173611,50.4462080578561],[-121.03564878219,50.445519614647]]]}},{"type":"Feature","id":"917773475","properties":{"name":"SP_15KPH_%TR_1200_CORNER_AUG_7_DS","oid":"917773475","speedLimit":4.1666665},"geometry":{"type":"Polygon","coordinates":[[[-121.037100073166,50.4446825180348],[-121.036925935156,50.4448620884698],[-121.036630351381,50.444820566177],[-121.036415778411,50.4448699076028],[-121.036324200978,50.4449676018285],[-121.036255588348,50.4450821026964],[-121.036243331061,50.4451449253861],[-121.036264464315,50.4452672453871],[-121.03631715656,50.4453514583488],[-121.036185285057,50.4453952275189],[-121.036090185416,50.4451942668119],[-121.036164151804,50.4449316517914],[-121.036260942106,50.4447913567719],[-121.036517781582,50.4447150528183],[-121.036714884395,50.4447117274399],[-121.036924244496,50.444770056375],[-121.037094860297,50.4446835965359],[-121.037100073166,50.4446825180348]]]}},{"type":"Feature","id":"917865154","properties":{"name":"SP_15KPH_SINGLE_LANE_25AMT","oid":"917865154","speedLimit":4.1666665},"geometry":{"type":"Polygon","coordinates":[[[-121.042569641005,50.4671023092521],[-121.041965934391,50.4671927235953],[-121.041867453428,50.4676977317404],[-121.042840710206,50.4680435710966],[-121.042409450942,50.4677664861862],[-121.042572740549,50.4671062637562],[-121.042569641005,50.4671023092521]]]}}]}