{"type":"FeatureCollection","features":[{"type":"Feature","id":"702602533","properties":{"name":"iSP_4KPH_%TR_CR01_Slow Bump","oid":"702602533","speedLimit":1.1111112},"geometry":{"type":"Polygon","coordinates":[[[-121.033359153188,50.4648078381981],[-121.033653889531,50.4646908208981],[-121.033697282836,50.4647315342905],[-121.033369437965,50.4648696722246],[-121.033359153188,50.4648078381981]]]}},{"type":"Feature","id":"707947583","properties":{"name":"iSP_25KPH_%TR_Permission Gate 1 From West Dump","oid":"707947583","speedLimit":6.9444447},"geometry":{"type":"Polygon","coordinates":[[[-121.038628621975,50.4619779428627],[-121.038855309726,50.4617994510364],[-121.038140306409,50.461408224994],[-121.037992656462,50.4616709297314],[-121.038192152955,50.4615668544369],[-121.038667084222,50.4618460063063],[-121.038628621975,50.4619779428627]]]}},{"type":"Feature","id":"742345972","properties":{"name":"iSP_4KPH_%TR_CR01_Pit Side_Slow Bump","oid":"742345972","speedLimit":1.1111112},"geometry":{"type":"Polygon","coordinates":[[[-121.033399024309,50.4648827939802],[-121.033706299627,50.4647442965459],[-121.033756455524,50.4647763819347],[-121.033474962593,50.4649182946204],[-121.033399024309,50.4648827939802]]]}},{"type":"Feature","id":"776427243","properties":{"name":"iSP_7KPH_%TR_CR1_PermissionBlocker","oid":"776427243","speedLimit":1.9444444},"geometry":{"type":"Polygon","coordinates":[[[-121.034100220666,50.4652128151213],[-121.034051755417,50.46523312688],[-121.034030622314,50.4652745592728],[-121.034116281825,50.4652254875018],[-121.034100220666,50.4652128151213]]]}},{"type":"Feature","id":"794004438","properties":{"name":"iSP_11KPH_%TR_Lower_Fuel_Bay","oid":"794004438","speedLimit":3.0555556},"geometry":{"type":"Polygon","coordinates":[[[-121.036776939491,50.4606954260641],[-121.036779052801,50.4607252645769],[-121.03674932557,50.4606708003036],[-121.037125494803,50.4605990800229],[-121.037535477001,50.4605560298795],[-121.037543225805,50.4605813746404],[-121.036944736329,50.4606502189198],[-121.036776939491,50.4606954260641]]]}},{"type":"Feature","id":"801543391","properties":{"name":"iSP_4KPH_%TR_CR01_PermissionBlocker_2","oid":"801543391","speedLimit":1.1111112},"geometry":{"type":"Polygon","coordinates":[[[-121.03315571185,50.4645232938264],[-121.033154866526,50.4644738625553],[-121.033176422291,50.4644318010373],[-121.033108373699,50.4644593926741],[-121.03315571185,50.4645232938264]]]}},{"type":"Feature","id":"806473874","properties":{"name":"iSP_4KPH_%TR_CR04_PermissionBlocker","oid":"806473874","speedLimit":1.1111112},"geometry":{"type":"Polygon","coordinates":[[[-121.022719903819,50.4815451767321],[-121.022686795291,50.4815428399811],[-121.022679187374,50.4815715101184],[-121.022701306689,50.4815725886188],[-121.022705392422,50.4815485021085],[-121.022719903819,50.4815451767321]]]}},{"type":"Feature","id":"824566967","properties":{"name":"iSP_3KPH_%TR_CR04","oid":"824566967","speedLimit":0.8333333},"geometry":{"type":"Polygon","coordinates":[[[-121.0233027548,50.4810682997781],[-121.023282607908,50.4810682997781],[-121.023279931048,50.4811863955786],[-121.023305008997,50.4811856765783],[-121.0233027548,50.4810682997781]]]}},{"type":"Feature","id":"826307302","properties":{"name":"iSP_4KPH_%TR_CR04_Pockets","oid":"826307302","speedLimit":1.1111112},"geometry":{"type":"Polygon","coordinates":[[[-121.02329796463,50.4813214777614],[-121.023337413089,50.481477141328],[-121.023542122413,50.4814376861861],[-121.023461112185,50.4811888222047],[-121.023052820635,50.481189541205],[-121.023058174354,50.481360213903],[-121.02328303057,50.4813262411384],[-121.02329796463,50.4813214777614]]]}},{"type":"Feature","id":"883050998","properties":{"name":"iSP_22KPH_%TR_4CR_Brake_Temp_Ctrl","oid":"883050998","speedLimit":6.111111},"geometry":{"type":"Polygon","coordinates":[[[-121.0317993893,50.4745590102439],[-121.032188661057,50.4743123931385],[-121.032490300881,50.4745747383757],[-121.032791940704,50.4748021222229],[-121.032969740544,50.4748845376332],[-121.033178535601,50.4749346879046],[-121.033462423618,50.4749594934152],[-121.033666287618,50.4749219256492],[-121.033827462751,50.4748625182488],[-121.033918616868,50.4748104806015],[-121.03400793945,50.4747472984495],[-121.034058377122,50.4746581424113],[-121.034052600741,50.4745479556142],[-121.0340564047,50.4744836050867],[-121.033994273377,50.4743796196672],[-121.033875928,50.4742595466158],[-121.033509057332,50.4739376142282],[-121.033060753774,50.4735599593166],[-121.032947480342,50.4734254163841],[-121.03282251326,50.4732208607966],[-121.032605687623,50.4728148952479],[-121.032252201254,50.4722089577388],[-121.032487201359,50.4721561112162],[-121.032430141981,50.4722056323623],[-121.032902678164,50.473048839973],[-121.033041874869,50.4733095674595],[-121.033249683715,50.473546927436],[-121.033742648564,50.4739616108634],[-121.034097684694,50.4742711404958],[-121.034203068434,50.4743944490486],[-121.034255760304,50.4744616755773],[-121.034262804672,50.4745928032584],[-121.034237867611,50.4746788136702],[-121.034183344205,50.4747916068434],[-121.034085850156,50.4748758197544],[-121.033972999386,50.4749376537809],[-121.033790409377,50.4750161146894],[-121.033530894872,50.4750643775851],[-121.033262927126,50.4750680624617],[-121.033071320326,50.4750262705688],[-121.0328075792,50.4749165331469],[-121.032656829732,50.474835106362],[-121.032495231938,50.4747053268065],[-121.032144704203,50.4744130531815],[-121.0317993893,50.4745590102439]]]}},{"type":"Feature","id":"883053336","properties":{"name":"iSP_22KPH_%TR_Brake_Temp_Ctrl","oid":"883053336","speedLimit":6.111111},"geometry":{"type":"Polygon","coordinates":[[[-121.032465927369,50.4721452363365],[-121.032251074155,50.4722254947458],[-121.031488450912,50.4710083171002],[-121.030816559124,50.4699233456362],[-121.030661301261,50.4696601915236],[-121.030596493078,50.469457703062],[-121.030550141139,50.469256742476],[-121.030596493078,50.4689729171046],[-121.030722728147,50.4686242918305],[-121.030884466828,50.4683755177241],[-121.031088894378,50.4680978038553],[-121.031688229179,50.4675365342402],[-121.032432114404,50.4668936580903],[-121.03278841852,50.4665561773209],[-121.033147540384,50.4662223814282],[-121.033484402045,50.4658707004027],[-121.033779420163,50.4660340932226],[-121.033587390701,50.4659932899552],[-121.032919302871,50.4666520739869],[-121.032554545514,50.466991262382],[-121.032178517168,50.4673077123924],[-121.031774311351,50.4676683809216],[-121.031381940073,50.4680344419532],[-121.031147080855,50.468286361686],[-121.031008729474,50.4684698865145],[-121.030905036382,50.4686544898434],[-121.030828534549,50.4688530238034],[-121.030767671212,50.469191313448],[-121.030776406228,50.4694006324126],[-121.030873618502,50.4696303530108],[-121.031027608379,50.4699351192662],[-121.031330516189,50.4704038175917],[-121.03153057623,50.4707110104731],[-121.031750219614,50.4710829133821],[-121.032145972189,50.4717288452834],[-121.032381254069,50.4721451464615],[-121.032465927369,50.4721452363365]]]}},{"type":"Feature","id":"883059532","properties":{"name":"iSP_22KPH_%TR_Brake_Ctrl","oid":"883059532","speedLimit":6.111111},"geometry":{"type":"Polygon","coordinates":[[[-121.027262252976,50.4773220385508],[-121.027030070618,50.4772098745028],[-121.027334528188,50.4769441140141],[-121.027716473803,50.4766325172558],[-121.028033188573,50.4763228078734],[-121.028190418859,50.4761688519325],[-121.028621252385,50.4756924243537],[-121.028907253713,50.4753258240719],[-121.029263839604,50.4748876832595],[-121.029472634661,50.4746567942858],[-121.029691432721,50.474540495986],[-121.029801465744,50.4744882785887],[-121.029952215212,50.4745927133834],[-121.029788644995,50.4745421137367],[-121.029556039974,50.4747916068434],[-121.029251864179,50.4751731263816],[-121.02907293724,50.475478072387],[-121.028853152969,50.475774839764],[-121.02869606357,50.4759748117245],[-121.028408935144,50.4762706803511],[-121.028041641814,50.4765700541041],[-121.02724393762,50.4772194911319],[-121.027262252976,50.4773220385508]]]}},{"type":"Feature","id":"884401102","properties":{"name":"iSP_30KPH_%TR_Maint_Limit_Policy","oid":"884401102","speedLimit":8.333333},"geometry":{"type":"Polygon","coordinates":[[[-121.036992497142,50.4611013017377],[-121.037108588321,50.4611077727405],[-121.038294859835,50.460992103566],[-121.038278516902,50.4603979396869],[-121.03812001863,50.4605658262587],[-121.037032931812,50.4607084579447],[-121.036745239837,50.4605377852467],[-121.036992497142,50.4611013017377]]]}},{"type":"Feature","id":"910445950","properties":{"name":"SP_22KPH_%TR_1635_FLATS_SEP_28_DS","oid":"910445950","speedLimit":6.111111},"geometry":{"type":"Polygon","coordinates":[[[-121.017369847466,50.4554938183393],[-121.018002995232,50.4544141495025],[-121.018148250093,50.4539984774497],[-121.018532872568,50.453751500844],[-121.018948912922,50.4536880490669],[-121.018866775595,50.4543416203465],[-121.018261946187,50.4560720743366],[-121.018276034923,50.4557008005528],[-121.017369847466,50.4554938183393]]]}},{"type":"Feature","id":"915576987","properties":{"name":"iSP_15KPH_%TR_Preventing Shifting","oid":"915576987","speedLimit":4.1666665},"geometry":{"type":"Polygon","coordinates":[[[-121.036997991748,50.4448632190423],[-121.0375120897,50.4453131334848],[-121.037981385474,50.4457955826911],[-121.038525351545,50.4462188941222],[-121.039458025824,50.4468499966421],[-121.039915346172,50.4470997593739],[-121.040471287668,50.4471951167897],[-121.041224471459,50.4473228292193],[-121.041642906898,50.4475096794243],[-121.042321420391,50.4480951254247],[-121.042704070443,50.4485278737348],[-121.042847493768,50.448794892474],[-121.043008950675,50.4493916627292],[-121.043188159389,50.4501982013242],[-121.043325665445,50.4505013498289],[-121.043687323281,50.4511687618644],[-121.043857796979,50.4514890765014],[-121.044126750936,50.4522536434534],[-121.044383870356,50.4529382216212],[-121.044697626491,50.453798145989],[-121.044736511401,50.4541947645336],[-121.04457209586,50.4550718550338],[-121.04421649618,50.4568393375398],[-121.044052080639,50.4572073758222],[-121.043005851154,50.4583990289569],[-121.041905943587,50.4595373861938],[-121.041344084822,50.460000692017],[-121.040372666521,50.4605975521473],[-121.039924222076,50.4607310165794],[-121.03913511201,50.460807230612],[-121.038497737624,50.4608387767505],[-121.038645528457,50.4611435430058],[-121.038758379227,50.4609495926729],[-121.039879419897,50.460879759768],[-121.040707414872,50.460631884412],[-121.041511458997,50.4600579424165],[-121.042874403253,50.4587002900858],[-121.044243264777,50.4571424860445],[-121.044428672534,50.4562902010549],[-121.04481428122,50.4544216091307],[-121.044811181698,50.4537866419841],[-121.044261298358,50.4523013670988],[-121.043833846129,50.4511859279967],[-121.043346657661,50.4503374177588],[-121.043050794219,50.4493096966942],[-121.042928222222,50.4486918956799],[-121.042240691938,50.4478872444608],[-121.041547244385,50.4473914937487],[-121.041092882671,50.4472218096761],[-121.040459312243,50.447130316887],[-121.039918304807,50.4470196807147],[-121.038821355874,50.4463333050461],[-121.03819666135,50.4458717967237],[-121.037153531386,50.444906988186],[-121.037377683165,50.4446973097214],[-121.036997991748,50.4448632190423]]]}},{"type":"Feature","id":"917773475","properties":{"name":"SP_15KPH_%TR_1200_CORNER_Sept_28_DS","oid":"917773475","speedLimit":4.1666665},"geometry":{"type":"Polygon","coordinates":[[[-121.037098867093,50.44468248034],[-121.036924730325,50.4448620506668],[-121.036629148657,50.444820528399],[-121.036414577218,50.4448698697952],[-121.036323000439,50.4449675639619],[-121.036254388298,50.4450820647609],[-121.036242131098,50.4451448874128],[-121.036263264201,50.4452672073401],[-121.036315956071,50.4453514202511],[-121.036184085509,50.4453951893948],[-121.036088986545,50.4451942288089],[-121.036162952406,50.4449316139466],[-121.036259742017,50.4447913190116],[-121.036516579662,50.4447150151039],[-121.036713681069,50.4447116897275],[-121.036923039676,50.4447700186274],[-121.037093654261,50.4446835588405],[-121.037098867093,50.44468248034]]]}},{"type":"Feature","id":"926367691","properties":{"name":"SP_30KPH_%TR_24SH_EMPTY_LANE_SEP_28_DS","oid":"926367691","speedLimit":6.9444447},"geometry":{"type":"Polygon","coordinates":[[[-121.038923499205,50.4549415362281],[-121.039203442376,50.454623468467],[-121.039439006031,50.4538306807529],[-121.039920981666,50.4514268829748],[-121.039502546227,50.4515917137952],[-121.039433229649,50.4530470602927],[-121.0392042877,50.4540991374927],[-121.038923499205,50.4549415362281]]]}},{"type":"Feature","id":"929009157","properties":{"name":"iSP_22KPH_%TR_Long_Single_Lane","oid":"929009157","speedLimit":6.111111},"geometry":{"type":"Polygon","coordinates":[[[-121.005680846428,50.4380559038806],[-121.004751130784,50.4382239702025],[-121.00517562438,50.4381974570662],[-121.007935889405,50.4431704226933],[-121.008524657654,50.4445348156518],[-121.008211746842,50.4465096398715],[-121.007833746074,50.4466801328194],[-121.008935203401,50.4466468790552],[-121.008824465942,50.4465928641571],[-121.009404499175,50.4448175625228],[-121.008765575028,50.4430683246496],[-121.008263875163,50.4415400894959],[-121.007260334546,50.440156103779],[-121.006440651925,50.4389839535276],[-121.005861604903,50.4383129464906],[-121.005680846428,50.4380559038806]]]}},{"type":"Feature","id":"932268643","properties":{"name":"SP_35KPH_%traction_1185_1170_SEP_28_DS","oid":"932268643","speedLimit":9.722222},"geometry":{"type":"Polygon","coordinates":[[[-121.038729074658,50.4481974032184],[-121.038467305956,50.4482556422433],[-121.038947168281,50.4498292642914],[-121.039506350186,50.4497913370252],[-121.03910580744,50.4497305814992],[-121.038622000269,50.4483441691562],[-121.038852069317,50.4481594759522],[-121.038729074658,50.4481974032184]]]}},{"type":"Feature","id":"934051091","properties":{"name":"iSP_17KPH_%TR_Ramp_Permission Blocker","oid":"934051091","speedLimit":4.7222223},"geometry":{"type":"Polygon","coordinates":[[[-121.039512971891,50.4610296713321],[-121.039464929304,50.4607716400967],[-121.03901747107,50.4607922214805],[-121.039076361984,50.4610449500886],[-121.03916385303,50.4608998917766],[-121.039379833343,50.460886770021],[-121.039512971891,50.4610296713321]]]}},{"type":"Feature","id":"934181442","properties":{"name":"SP_30KPH_TR%_1590_3_SEPT 28_DS_Rough_section ","oid":"934181442","speedLimit":8.333333},"geometry":{"type":"Polygon","coordinates":[[[-121.011062320661,50.4415091724827],[-121.010401277199,50.4418072879852],[-121.011607132056,50.4432052942082],[-121.012272683913,50.442931265216],[-121.011824521242,50.4429214688368],[-121.010901427304,50.4417730455956],[-121.011062320661,50.4415091724827]]]}},{"type":"Feature","id":"934181877","properties":{"name":"SP_30KPH_TR%_1590_7_SEPT 28_DS","oid":"934181877","speedLimit":8.333333},"geometry":{"type":"Polygon","coordinates":[[[-121.013995595356,50.4497858546478],[-121.013325394216,50.4498807626884],[-121.013673949528,50.4515053438833],[-121.014402900694,50.4513828442059],[-121.013984465255,50.4512795777868],[-121.013707198944,50.4500005661147],[-121.013995595356,50.4497858546478]]]}},{"type":"Feature","id":"934182273","properties":{"name":"SP_30KPH_TR%_1590_17_SEPT 28_DS","oid":"934182273","speedLimit":8.333333},"geometry":{"type":"Polygon","coordinates":[[[-121.008849684778,50.441369686423],[-121.009440707225,50.4411107564373],[-121.007219758988,50.4391734999837],[-121.00629821481,50.4396569378155],[-121.007075913,50.4394768282384],[-121.008913788524,50.4411152501892],[-121.008849684778,50.441369686423]]]}},{"type":"Feature","id":"936169885","properties":{"name":"SP_15KPH_%TR_24shl_loadplan_Sept_28_DS","oid":"936169885","speedLimit":4.1666665},"geometry":{"type":"Polygon","coordinates":[[[-121.039168924975,50.4546366800977],[-121.038619041635,50.4545681953184],[-121.038154536031,50.4553922595458],[-121.038670042857,50.4555193428502],[-121.038842066315,50.4552445948577],[-121.039002114348,50.4549473781056],[-121.039087492085,50.454791714539],[-121.039168924975,50.4546366800977]]]}},{"type":"Feature","id":"936513295","properties":{"name":"SP_30KPH_%TR_1635_FLATS_SEP_28_DS","oid":"936513295","speedLimit":8.333333},"geometry":{"type":"Polygon","coordinates":[[[-121.017286019491,50.4555552029905],[-121.018050192495,50.4557851932139],[-121.0174340921,50.4574538131776],[-121.015227091711,50.4585169450073],[-121.014498281432,50.4578796411098],[-121.016177376908,50.4566194133207],[-121.017286019491,50.4555552029905]]]}},{"type":"Feature","id":"937786749","properties":{"name":"SP_15KPH_%TR_24SH_Loaded_LANE_SEP_28_DS","oid":"937786749","speedLimit":4.1666665},"geometry":{"type":"Polygon","coordinates":[[[-121.03828020755,50.4554283893113],[-121.038456457629,50.4555011880924],[-121.038969710257,50.4539574944322],[-121.039134266686,50.4529388507465],[-121.038910819344,50.4529279758668],[-121.038490693256,50.4548540878157],[-121.03828020755,50.4554283893113]]]}},{"type":"Feature","id":"938065675","properties":{"name":"iSP_8KPH_CR01_YARD_RUTIING_SEP_28_DS","oid":"938065675","speedLimit":2.2222223},"geometry":{"type":"Polygon","coordinates":[[[-121.034289291494,50.4648011874453],[-121.034099093568,50.4648579884696],[-121.03394087707,50.4649069703655],[-121.033829435173,50.4650049341574],[-121.034044288387,50.4650688353098],[-121.033964264371,50.4650113152852],[-121.034242657781,50.4648880966074],[-121.034319300501,50.4649373481285],[-121.034289291494,50.4648011874453]]]}},{"type":"Feature","id":"938165680","properties":{"name":"SP_10KPH_%TR_22SH_Sept_28_DS","oid":"938165680","speedLimit":2.7777777},"geometry":{"type":"Polygon","coordinates":[[[-121.034080496437,50.446611378415],[-121.035055296034,50.4472505696884],[-121.035497118774,50.4474473061476],[-121.035795236414,50.4469121901687],[-121.034854954218,50.4461953468621],[-121.034080496437,50.446611378415]]]}},{"type":"Feature","id":"944724443","properties":{"name":"SP_12KPH_%TR_21SH_EMPTY_SEPT 28_DS","oid":"944724443","speedLimit":3.3333333},"geometry":{"type":"Polygon","coordinates":[[[-121.039134689348,50.4501831023178],[-121.038912791767,50.450167284311],[-121.038927866713,50.4505369403441],[-121.039265573699,50.4511709188653],[-121.039344893279,50.45155594353],[-121.039732474388,50.4514983336303],[-121.039710918623,50.451109534214],[-121.039407306376,50.4509586340245],[-121.039104539454,50.450356561142],[-121.039084674337,50.4502969739915],[-121.039134689348,50.4501831023178]]]}},{"type":"Feature","id":"944724972","properties":{"name":"SP_20KPH_%TR_21SH_LOADED_SEPT 28_DS","oid":"944724972","speedLimit":5.5555553},"geometry":{"type":"Polygon","coordinates":[[[-121.038746685577,50.452862996214],[-121.039145678561,50.4529207858637],[-121.039173996919,50.4521842599237],[-121.039258811106,50.451635482939],[-121.039213445378,50.4512646585304],[-121.038913073541,50.4506402067633],[-121.038818538127,50.4509653746524],[-121.038886023169,50.4509782267828],[-121.039058187515,50.4512926096673],[-121.039102003482,50.451574637538],[-121.039046916527,50.4519344971919],[-121.038989998036,50.4528594012125],[-121.038746685577,50.452862996214]]]}},{"type":"Feature","id":"945606742","properties":{"name":"SP_20KPH_19SH_SEPT 28_DS","oid":"945606742","speedLimit":5.5555553},"geometry":{"type":"Polygon","coordinates":[[[-121.003173333315,50.4271972017361],[-121.002724043545,50.4276020887843],[-121.002069480902,50.4273942976954],[-121.002381264615,50.4270466610467],[-121.003173333315,50.4271972017361]]]}},{"type":"Feature","id":"947937278","properties":{"name":"SP_20KM_HDH_RAMP_SEPT_28_DS","oid":"947937278","speedLimit":5.5555553},"geometry":{"type":"Polygon","coordinates":[[[-121.035683935404,50.4530870546848],[-121.034802825897,50.4533740256826],[-121.033880577283,50.452290132719],[-121.033033562515,50.450445447555],[-121.032908877207,50.4481652279547],[-121.033815487325,50.44820099822],[-121.033429596865,50.4497292333736],[-121.034151221888,50.451855317283],[-121.03525887826,50.4531885236032],[-121.035683935404,50.4530870546848]]]}},{"type":"Feature","id":"948238095","properties":{"name":"SP_30KPH_CRUSHER YARD_sep28 ds","oid":"948238095","speedLimit":8.333333},"geometry":{"type":"Polygon","coordinates":[[[-121.035558968322,50.4644268579102],[-121.035668296908,50.4645727250976],[-121.036764964066,50.4642007323134],[-121.036576034125,50.4640971962692],[-121.035956552433,50.4643169407382],[-121.035558968322,50.4644268579102]]]}},{"type":"Feature","id":"948301528","properties":{"name":"SP_25KPH_%TR_24SH__LANE_SEP_28_DS","oid":"948301528","speedLimit":6.9444447},"geometry":{"type":"Polygon","coordinates":[[[-121.038886586719,50.4508956316225],[-121.038355018735,50.4507935335788],[-121.038184685925,50.4515244872665],[-121.038308525908,50.4527591905446],[-121.038334308294,50.4539972191992],[-121.03814340593,50.4547939614149],[-121.038721466741,50.4548071730456],[-121.039005354758,50.4538325681287],[-121.03884023478,50.4523640998756],[-121.038767959567,50.4514783813718],[-121.03887108911,50.4509811926591],[-121.038886586719,50.4508956316225]]]}},{"type":"Feature","id":"948333262","properties":{"name":"SP_15KPH_19SH_SEP 28 DS","oid":"948333262","speedLimit":4.1666665},"geometry":{"type":"Polygon","coordinates":[[[-121.001735718762,50.4276537669314],[-121.002115973729,50.4274006788232],[-121.001864771578,50.4271371652104],[-121.001669924368,50.4267522304208],[-121.002057223702,50.426243088328],[-121.00173797296,50.4261427877851],[-121.001735718762,50.4276537669314]]]}}]}