{"type":"FeatureCollection","features":[{"type":"Feature","id":"702602533","properties":{"name":"iSP_4KPH_%TR_CR01_SLOW BUMP","oid":"702602533","speedLimit":1.1111112},"geometry":{"type":"Polygon","coordinates":[[[-121.033354467421,50.4648083132592],[-121.033649238172,50.4646912980568],[-121.033692636542,50.4647320107194],[-121.033364753398,50.4648701461772],[-121.033354467421,50.4648083132592]]]}},{"type":"Feature","id":"707947583","properties":{"name":"iSP_22KPH_%TR_Permission Gate 1 from west dump_Jun","oid":"707947583","speedLimit":6.111111},"geometry":{"type":"Polygon","coordinates":[[[-121.038624551371,50.4619784686528],[-121.038851265586,50.4617999800261],[-121.038136178798,50.4614087609969],[-121.037988511615,50.461671461025],[-121.038188031397,50.4615673875962],[-121.038663018108,50.4618465344615],[-121.038624551371,50.4619784686528]]]}},{"type":"Feature","id":"742345972","properties":{"name":"iSP_4KPH_%TR_CR01_PITSIDE_SLOW BUMP","oid":"742345972","speedLimit":1.1111112},"geometry":{"type":"Polygon","coordinates":[[[-121.033394343196,50.4648832676976],[-121.033701654386,50.4647447727461],[-121.033751816139,50.4647768575596],[-121.033470290345,50.4649187677014],[-121.033394343196,50.4648832676976]]]}},{"type":"Feature","id":"776427243","properties":{"name":"iSP_7KPH_%TR_CR1_PermissionBlocker_DO_NOT_DELETE","oid":"776427243","speedLimit":1.9444444},"geometry":{"type":"Polygon","coordinates":[[[-121.034095621412,50.4652132829228],[-121.034047150505,50.4652335943173],[-121.034026014935,50.4652750259673],[-121.034111684445,50.465225955076],[-121.034095621412,50.4652132829228]]]}},{"type":"Feature","id":"794004438","properties":{"name":"iSP_11KPH_%TR_LOWER_FUEL_BAY","oid":"794004438","speedLimit":3.0555556},"geometry":{"type":"Polygon","coordinates":[[[-121.03677265272,50.4606959748448],[-121.036774766277,50.4607258128226],[-121.036745035575,50.4606713495257],[-121.037121248722,50.4605996305307],[-121.037531278782,50.460556581159],[-121.037539028491,50.4605819254655],[-121.036940469146,50.4606507685108],[-121.03677265272,50.4606959748448]]]}},{"type":"Feature","id":"801543391","properties":{"name":"iSP_4KPH_%TR_CR1_PermissionBlocker_DO_NOT_DELETE_","oid":"801543391","speedLimit":1.1111112},"geometry":{"type":"Polygon","coordinates":[[[-121.033151002333,50.4645237739883],[-121.03315015691,50.4644743436032],[-121.033171715192,50.4644322828392],[-121.033103658656,50.4644598739814],[-121.033151002333,50.4645237739883]]]}},{"type":"Feature","id":"806473874","properties":{"name":"iSP_4KPH_%TR_Permission Blocker - DO NOT DELETE","oid":"806473874","speedLimit":1.1111112},"geometry":{"type":"Polygon","coordinates":[[[-121.022713976015,50.4815453517579],[-121.022680863622,50.4815430150488],[-121.022673254817,50.4815716846721],[-121.022695376713,50.4815727631532],[-121.022699462923,50.4815486770747],[-121.022713976015,50.4815453517579]]]}},{"type":"Feature","id":"824566967","properties":{"name":"iSP_4Cr_3KPH","oid":"824566967","speedLimit":0.8333333},"geometry":{"type":"Polygon","coordinates":[[[-121.023296895038,50.4810684833524],[-121.023276745794,50.4810684833524],[-121.023274068622,50.481186577036],[-121.023299149499,50.4811858580485],[-121.023296895038,50.4810684833524]]]}},{"type":"Feature","id":"826307302","properties":{"name":"iSP_4KPH_TR%_CRUSHER POCKETS","oid":"826307302","speedLimit":1.1111112},"geometry":{"type":"Polygon","coordinates":[[[-121.023292104309,50.4813216567972],[-121.023331557373,50.4814773175734],[-121.023536290595,50.4814378631388],[-121.02345527091,50.4811890036185],[-121.023046931696,50.4811897226059],[-121.02305228604,50.4813603922444],[-121.023277168506,50.4813264200889],[-121.023292104309,50.4813216567972]]]}},{"type":"Feature","id":"855316169","properties":{"name":"SP_30KPH_TR%_CRUSHER YARD EMPTY_SEP_1_NS","oid":"855316169","speedLimit":8.333333},"geometry":{"type":"Polygon","coordinates":[[[-121.037908196449,50.4622353269081],[-121.037766729033,50.4621199294274],[-121.037592149224,50.4622037813351],[-121.037541705663,50.4622380231109],[-121.037604830566,50.4622269686794],[-121.037901292162,50.4624617180716],[-121.037715580953,50.4625142940266],[-121.038118847631,50.4625068345321],[-121.038117156785,50.462494611746],[-121.037908196449,50.4622353269081]]]}},{"type":"Feature","id":"883050998","properties":{"name":"iSP_22kph_%TR_4CR_Brake_Temp_CTRL_NOREMOVE","oid":"883050998","speedLimit":6.111111},"geometry":{"type":"Polygon","coordinates":[[[-121.031794521444,50.4745593105045],[-121.032183838646,50.4743126978199],[-121.032485513683,50.4745750383543],[-121.03278718872,50.4748024181254],[-121.032965009316,50.4748848320583],[-121.033173828749,50.4749349814307],[-121.033457749907,50.4749597864967],[-121.033661637706,50.474922219404],[-121.033822831654,50.4748628130686],[-121.033913996413,50.4748107763542],[-121.034003329423,50.4747475953347],[-121.034053772983,50.4746584408948],[-121.034047995927,50.4745482560729],[-121.03405180033,50.4744839066989],[-121.033989661754,50.4743799231435],[-121.033871302561,50.4742598522446],[-121.033504389065,50.4739379256279],[-121.033056033171,50.4735602774862],[-121.032942746516,50.4734257369655],[-121.032817764844,50.4732211850449],[-121.032600913895,50.4728152267737],[-121.03224738626,50.4722093001266],[-121.032482413799,50.4721564545513],[-121.03242534776,50.4722059748098],[-121.032897939107,50.473049167305],[-121.033037152062,50.4733098901177],[-121.033244985168,50.4735472458393],[-121.033738007566,50.473961921833],[-121.034093085144,50.4742714459167],[-121.034198481186,50.474394752259],[-121.034251179208,50.4744619775827],[-121.034258224398,50.4745931029132],[-121.034233284425,50.4746791117831],[-121.034178754654,50.4747919029344],[-121.034081249224,50.4748761143358],[-121.03396838528,50.4749379472538],[-121.033785773954,50.4750164067559],[-121.033526229154,50.4750646687864],[-121.033258230125,50.4750683535969],[-121.033066600956,50.4750265624532],[-121.032802829042,50.4749168269984],[-121.032652061975,50.4748354016732],[-121.032490445316,50.4747056244442],[-121.03213987666,50.4744133560585],[-121.031794521444,50.4745593105045]]]}},{"type":"Feature","id":"883053336","properties":{"name":"iSP_22kph_%TR_Brake_Temp_CTRL_NOREMOVE","oid":"883053336","speedLimit":6.111111},"geometry":{"type":"Polygon","coordinates":[[[-121.032461137325,50.4721455798666],[-121.032246259029,50.4722258368372],[-121.031483546757,50.4710086810109],[-121.030811576531,50.4699237289961],[-121.030656300543,50.4696605796009],[-121.030591484795,50.4694580947691],[-121.030545127445,50.4692571377856],[-121.030591484795,50.4689733175021],[-121.0307177346,50.4686246984774],[-121.030879492163,50.4683759288306],[-121.031083943578,50.4680982199401],[-121.031683348346,50.4675369603864],[-121.032427320413,50.4668940957607],[-121.032783666125,50.4665566210411],[-121.033142829912,50.466222831132],[-121.0334797309,50.4658711564108],[-121.033774783458,50.4660345463017],[-121.033582731578,50.4659937437657],[-121.032914565755,50.4666525159881],[-121.032549765816,50.4669916983028],[-121.032173693572,50.4673081426405],[-121.031769440568,50.4676688047043],[-121.031377023483,50.4680348591739],[-121.031142136848,50.4682867743907],[-121.031003769316,50.4684702959293],[-121.030900064118,50.468654895949],[-121.030823553355,50.46885342635],[-121.030762682913,50.4691917099305],[-121.030771418948,50.4694010251427],[-121.030868642571,50.469630741623],[-121.031022650425,50.4699355024151],[-121.031325593596,50.4704041923386],[-121.031525676993,50.4707113797132],[-121.031745346018,50.4710832759555],[-121.032141144794,50.4717291962778],[-121.032376454141,50.4721454899932],[-121.032461137325,50.4721455798666]]]}},{"type":"Feature","id":"883059532","properties":{"name":"iSP_22kph_%TR_Brake_CTRL_NOREMOVE","oid":"883059532","speedLimit":6.111111},"geometry":{"type":"Polygon","coordinates":[[[-121.02725685545,50.477322289281],[-121.027024645987,50.4772101272436],[-121.0273291391,50.476944371519],[-121.027711129303,50.4766327803465],[-121.028027881047,50.4763230765159],[-121.028185129688,50.4761691233349],[-121.028616013511,50.4756927042966],[-121.028902048226,50.4753261105865],[-121.029258675745,50.4748879776282],[-121.029467495178,50.4746570927934],[-121.02968631878,50.4745407965784],[-121.029796364648,50.4744885801172],[-121.029947131715,50.4745930130397],[-121.029783542402,50.4745424143001],[-121.029550910228,50.4747919029344],[-121.029246698922,50.4751734156334],[-121.029067751095,50.4754783561724],[-121.028847941166,50.4757751182294],[-121.028690833429,50.4759750866052],[-121.028403671483,50.476270949928],[-121.028036335275,50.4765703183145],[-121.027238537956,50.4772197437004],[-121.02725685545,50.477322289281]]]}},{"type":"Feature","id":"903864124","properties":{"name":"SP_15KPH_%TR_OLD_GARBAGEDUMP_SEP_1_NS","oid":"903864124","speedLimit":4.1666665},"geometry":{"type":"Polygon","coordinates":[[[-121.042481511105,50.4669874742517],[-121.042128265277,50.4673291730224],[-121.04201976935,50.4669795653901],[-121.041682586555,50.466810243853],[-121.041831099161,50.466710753969],[-121.042481511105,50.4669874742517]]]}},{"type":"Feature","id":"910445950","properties":{"name":"SP_22KPH_%TR_1635_FLATS_SEP_1_NS","oid":"910445950","speedLimit":6.111111},"geometry":{"type":"Polygon","coordinates":[[[-121.018910559725,50.4576040593242],[-121.015242129277,50.4587010543783],[-121.014491393827,50.4578802403664],[-121.017895066034,50.4565677288337],[-121.018223090082,50.4542753273227],[-121.018434868495,50.4540107399526],[-121.019213784704,50.4539296741212],[-121.019239147388,50.4568513693703],[-121.019151787032,50.4570737162296],[-121.019189831058,50.4574057086701],[-121.018910559725,50.4576040593242]]]}},{"type":"Feature","id":"917291012","properties":{"name":"SP_20KPH_%TR_CORNER_RUTS_SEP_1_NS","oid":"917291012","speedLimit":5.5555553},"geometry":{"type":"Polygon","coordinates":[[[-121.040606363326,50.4662218425243],[-121.040680619629,50.4661077032716],[-121.040418679464,50.4659266981889],[-121.040116863523,50.4658985678062],[-121.040012735614,50.4663109969642],[-121.039929743276,50.4664863400209],[-121.039990895525,50.4668204894237],[-121.040663147558,50.4667396932126],[-121.040545211077,50.4666227678836],[-121.040527739006,50.4663777729207],[-121.040606363326,50.4662218425243]]]}},{"type":"Feature","id":"922262468","properties":{"name":"SP_20kph_HMT_DUMP_SEP_1_NS","oid":"922262468","speedLimit":5.5555553},"geometry":{"type":"Polygon","coordinates":[[[-121.012494786973,50.4364273633888],[-121.012474919537,50.4374180381783],[-121.016357664666,50.4384086230943],[-121.017174061287,50.43696076218],[-121.016517026865,50.4359066367508],[-121.0147647472,50.4353096974465],[-121.012893122017,50.4352081404736],[-121.012494786973,50.4364273633888]]]}},{"type":"Feature","id":"923351007","properties":{"name":"iSP_17KPH_PERMISSIONS_AUG 18_NS","oid":"923351007","speedLimit":4.7222223},"geometry":{"type":"Polygon","coordinates":[[[-121.03884957474,50.4608777887882],[-121.038869019465,50.461135366031],[-121.038779686455,50.4608901014478],[-121.038534936554,50.4608901014478],[-121.038531132151,50.4608306951123],[-121.038876769174,50.4608232356179],[-121.03884957474,50.4608777887882]]]}},{"type":"Feature","id":"926367691","properties":{"name":"SP_15KPH_%TR_24SH_SEP_1_NS","oid":"926367691","speedLimit":4.1666665},"geometry":{"type":"Polygon","coordinates":[[[-121.03859707513,50.4501829408091],[-121.037729530429,50.450179345872],[-121.038241152129,50.4520121346756],[-121.038473079785,50.4519892169517],[-121.039660053401,50.4519363713764],[-121.039534085404,50.4510989307805],[-121.03859707513,50.4501829408091]]]}},{"type":"Feature","id":"929009157","properties":{"name":"iSP_22kph_Long_Single_Lane_Aug30","oid":"929009157","speedLimit":6.111111},"geometry":{"type":"Polygon","coordinates":[[[-121.005861599656,50.4378890648109],[-121.004802143979,50.4381079964799],[-121.005167648438,50.4381984091478],[-121.007928235699,50.443171285629],[-121.008517072682,50.4445356541293],[-121.008204125341,50.4465104429481],[-121.007826080444,50.4466809328397],[-121.008927666357,50.4466476796716],[-121.008816915969,50.4465936657418],[-121.009397016917,50.4448183959317],[-121.008758018181,50.4430691894155],[-121.008256259747,50.4415409816572],[-121.007252601975,50.4401570207497],[-121.006432823663,50.4389848915104],[-121.005682510925,50.4380223471037],[-121.005861599656,50.4378890648109]]]}},{"type":"Feature","id":"930116666","properties":{"name":"SP_9023 Rough_15KM_SEP_1_NS","oid":"930116666","speedLimit":4.1666665},"geometry":{"type":"Polygon","coordinates":[[[-121.043594228418,50.4685546870776],[-121.043293962419,50.4689183149645],[-121.042545340526,50.4684630161817],[-121.042340748208,50.4680410604404],[-121.043032726773,50.4679077781476],[-121.043594228418,50.4685546870776]]]}},{"type":"Feature","id":"930437800","properties":{"name":"SP_15KPH_%TR_SEP_1_NS","oid":"930437800","speedLimit":4.1666665},"geometry":{"type":"Polygon","coordinates":[[[-121.039271863431,50.4615748470906],[-121.038750519369,50.4621068977804],[-121.038180140784,50.4617352711584],[-121.038732201875,50.4612071748994],[-121.039124618959,50.4614183774537],[-121.039271863431,50.4615748470906]]]}},{"type":"Feature","id":"930462893","properties":{"name":"SP_15KPH_%TR__SEP_1_NS","oid":"930462893","speedLimit":4.1666665},"geometry":{"type":"Polygon","coordinates":[[[-121.04229706803,50.4676854312884],[-121.042977351579,50.4674471768325],[-121.04272344293,50.4671874426276],[-121.042076835389,50.4674105084742],[-121.042182231432,50.4676120945717],[-121.04229706803,50.4676854312884]]]}}]}