{"type":"FeatureCollection","features":[{"type":"Feature","id":"702602533","properties":{"name":"iSP_4KPH_%TR_CR01_SLOW BUMP","oid":"702602533","speedLimit":1.1111112},"geometry":{"type":"Polygon","coordinates":[[[-121.033359424627,50.464807842129],[-121.033654168106,50.464690825641],[-121.033697562461,50.4647315387509],[-121.033369709653,50.4648696757264],[-121.033359424627,50.464807842129]]]}},{"type":"Feature","id":"707947583","properties":{"name":"iSP_22KPH_%TR_Permission Gate 1 from west dump_Jun","oid":"707947583","speedLimit":6.111111},"geometry":{"type":"Polygon","coordinates":[[[-121.038629020994,50.4619779664305],[-121.038855714234,50.4617994758428],[-121.037981487041,50.461351002513],[-121.037744367885,50.4615422552676],[-121.037960494318,50.4614965091905],[-121.038667484173,50.4618460307896],[-121.038629020994,50.4619779664305]]]}},{"type":"Feature","id":"742345972","properties":{"name":"iSP_4KPH_%TR_CR01_PITSIDE_SLOW BUMP","oid":"742345972","speedLimit":1.1111112},"geometry":{"type":"Polygon","coordinates":[[[-121.033399296713,50.464882797391],[-121.03370657947,50.4647443009178],[-121.033756736582,50.4647763860839],[-121.033475236835,50.4649182977848],[-121.033399296713,50.464882797391]]]}},{"type":"Feature","id":"776427243","properties":{"name":"iSP_7KPH_%TR_CR1_PermissionBlocker_DO_NOT_DELETE","oid":"776427243","speedLimit":1.9444444},"geometry":{"type":"Polygon","coordinates":[[[-121.034100510047,50.4652128162421],[-121.034052043624,50.4652331278598],[-121.03403091001,50.465274559965],[-121.034116571595,50.4652254885346],[-121.034100510047,50.4652128162421]]]}},{"type":"Feature","id":"794004438","properties":{"name":"iSP_11KPH_%TR_LOWER_FUEL_BAY","oid":"794004438","speedLimit":3.0555556},"geometry":{"type":"Polygon","coordinates":[[[-121.036777293679,50.4606954585315],[-121.03677940704,50.4607252968372],[-121.036749679089,50.4606708329418],[-121.03712585743,50.4605991131588],[-121.037535849554,50.4605560633141],[-121.037543598546,50.4605814078991],[-121.036945094579,50.4606502517008],[-121.036777293679,50.4606954585315]]]}},{"type":"Feature","id":"801543391","properties":{"name":"iSP_4KPH_%TR_CR1_PermissionBlocker_DO_NOT_DELETE_","oid":"801543391","speedLimit":1.1111112},"geometry":{"type":"Polygon","coordinates":[[[-121.033155978363,50.4645232997318],[-121.033155133019,50.4644738688037],[-121.033176689306,50.4644318075776],[-121.033108639067,50.4644593990229],[-121.033155978363,50.4645232997318]]]}},{"type":"Feature","id":"806473874","properties":{"name":"iSP_4KPH_%TR_Permission Blocker - DO NOT DELETE","oid":"806473874","speedLimit":1.1111112},"geometry":{"type":"Polygon","coordinates":[[[-121.022719917669,50.481545064521],[-121.022686808339,50.4815427277862],[-121.022679200238,50.4815713977246],[-121.022701320088,50.4815724762175],[-121.02270540592,50.4815483898744],[-121.022719917669,50.481545064521]]]}},{"type":"Feature","id":"824566967","properties":{"name":"iSP_4Cr_3KPH","oid":"824566967","speedLimit":0.8333333},"geometry":{"type":"Polygon","coordinates":[[[-121.023302782761,50.4810681908761],[-121.023282635381,50.4810681908761],[-121.023279958457,50.4811862858572],[-121.023305037013,50.4811855668619],[-121.023302782761,50.4810681908761]]]}},{"type":"Feature","id":"826307302","properties":{"name":"iSP_4KPH_TR%_CRUSHER POCKETS","oid":"826307302","speedLimit":1.1111112},"geometry":{"type":"Polygon","coordinates":[[[-121.023297992475,50.4813213671026],[-121.023337441889,50.481477029589],[-121.023542156169,50.4814375747209],[-121.02346114398,50.4811887124664],[-121.023052842545,50.4811894314617],[-121.023058196394,50.4813601029754],[-121.023283058054,50.4813261304466],[-121.023297992475,50.4813213671026]]]}},{"type":"Feature","id":"853029148","properties":{"name":"SP_15KPH_%TR_1635 Flats_AUG_28_DS","oid":"853029148","speedLimit":4.1666665},"geometry":{"type":"Polygon","coordinates":[[[-121.017602765108,50.4567739681909],[-121.016439007395,50.4570839450475],[-121.014801434041,50.4577460498613],[-121.013837318541,50.4588994981007],[-121.014982619564,50.4587965918958],[-121.019118608842,50.4574577327387],[-121.019253300412,50.4570347837426],[-121.018435570416,50.4568996126228],[-121.017981338592,50.4568029976269],[-121.017602765108,50.4567739681909]]]}},{"type":"Feature","id":"855316169","properties":{"name":"SP_25KPH_TR%_CRUSHER YARD EMPTY_AUG_28_DS","oid":"855316169","speedLimit":6.9444447},"geometry":{"type":"Polygon","coordinates":[[[-121.037912732348,50.462234827508],[-121.037771278021,50.4621194287594],[-121.037596714364,50.4622032815884],[-121.03754627547,50.4622375237404],[-121.037609394533,50.4622264691874],[-121.037905828701,50.4624612211589],[-121.037720134674,50.4625137976915],[-121.038123364041,50.4625063381151],[-121.038121673352,50.4624941151947],[-121.037912732348,50.462234827508]]]}},{"type":"Feature","id":"859384545","properties":{"name":"SP_20KPH_TR%_MAINT_CREW_L1590_DUST_AUG_28_DS","oid":"859384545","speedLimit":5.5555553},"geometry":{"type":"Polygon","coordinates":[[[-121.013533980726,50.4515903714435],[-121.01342972156,50.4510354868066],[-121.013044948883,50.4487706515539],[-121.012190587288,50.4488017481014],[-121.012684832089,50.4490003705581],[-121.013319685873,50.4514063985164],[-121.013238814574,50.4520995100033],[-121.012830231358,50.4521818349672],[-121.013442965292,50.4522149986263],[-121.013533980726,50.4515903714435]]]}},{"type":"Feature","id":"878230085","properties":{"name":"SP_30KPH_TR%_PUNCH_OUT_L1590_DMP_AUG_28_DS","oid":"878230085","speedLimit":8.333333},"geometry":{"type":"Polygon","coordinates":[[[-121.013652892531,50.453327554007],[-121.013645284429,50.4527796795744],[-121.013741090149,50.4524494809745],[-121.01309792381,50.4524617937693],[-121.013065518934,50.4528629931569],[-121.013205000791,50.4533674582471],[-121.01361034352,50.4545820210886],[-121.013328984663,50.4549546404123],[-121.013044244429,50.4549500568172],[-121.013783357378,50.4551889430117],[-121.014113041767,50.4546825905588],[-121.014059362386,50.4542961305752],[-121.013652892531,50.453327554007]]]}},{"type":"Feature","id":"883050998","properties":{"name":"iSP_22kph_%TR_4CR_Brake_Temp_CTRL_NOREMOVE","oid":"883050998","speedLimit":6.111111},"geometry":{"type":"Polygon","coordinates":[[[-121.031799622975,50.4745589465105],[-121.032188904157,50.4743123311164],[-121.032490551284,50.4745746745331],[-121.03279219841,50.4748020568025],[-121.032970002554,50.4748844716409],[-121.033178802667,50.4749346215644],[-121.033462697557,50.4749594269028],[-121.033666566493,50.4749218593975],[-121.033827745528,50.4748624524093],[-121.033918901852,50.4748104151231],[-121.034008226597,50.4747472334095],[-121.03405866549,50.47465807799],[-121.034052888969,50.4745478919575],[-121.03405669302,50.4744835418765],[-121.033994560193,50.4743795571786],[-121.033876211951,50.4742594849605],[-121.0335093324,50.4739375548067],[-121.033061017988,50.4735599025157],[-121.032947741814,50.4734253605168],[-121.032822771706,50.4732208063487],[-121.03260594082,50.4728148436171],[-121.032252445892,50.4722089103126],[-121.032487451687,50.4721560641567],[-121.032430390927,50.4722055849593],[-121.032902938551,50.4730487867188],[-121.033042138626,50.4733095123961],[-121.033249952503,50.4735468707256],[-121.033742929288,50.4739615512754],[-121.034097974014,50.47427107876],[-121.034203360305,50.4743943864571],[-121.034256053451,50.4744616125193],[-121.034263097989,50.4745927392905],[-121.034238160324,50.4746787491054],[-121.034183635598,50.474791541496],[-121.034086139189,50.4748757538227],[-121.033973285687,50.47493758742],[-121.033790691257,50.4750160477842],[-121.033531170469,50.4750643103449],[-121.033263196235,50.4750679951959],[-121.033071584796,50.475026203593],[-121.032807837285,50.4749164669326],[-121.032657084167,50.4748350407128],[-121.03249548246,50.4747052620578],[-121.032144946239,50.4744129904609],[-121.031799622975,50.4745589465105]]]}},{"type":"Feature","id":"883053336","properties":{"name":"iSP_22kph_%TR_Brake_Temp_CTRL_NOREMOVE","oid":"883053336","speedLimit":6.111111},"geometry":{"type":"Polygon","coordinates":[[[-121.032466177181,50.4721451893525],[-121.032251318766,50.4722254472049],[-121.031488677058,50.4710082780054],[-121.030816769003,50.4699233140701],[-121.030661507381,50.4696601617836],[-121.03059669763,50.469457674727],[-121.030550344568,50.4692567155356],[-121.03059669763,50.4689728921337],[-121.030722935754,50.4686242692787],[-121.030884678352,50.4683754968986],[-121.031089110851,50.4680977849568],[-121.031688460162,50.4675365192365],[-121.032432363398,50.4668936475475],[-121.032788676141,50.46655616912],[-121.033147806699,50.4662223755434],[-121.033484676517,50.4658706969584],[-121.033779701777,50.4660340886444],[-121.033587667665,50.4659932856601],[-121.032919563661,50.4666520651205],[-121.032554797472,50.466991251162],[-121.032178760022,50.4673076989764],[-121.031774544419,50.467668365003],[-121.031382163641,50.4680344234944],[-121.031147298736,50.4682863414791],[-121.031008944006,50.4684698650341],[-121.030905248403,50.4686544670821],[-121.030828744718,50.4688529996643],[-121.030767879908,50.4691912869616],[-121.030776615136,50.4694006044736],[-121.030873829763,50.4696303234778],[-121.031027823368,50.4699350876184],[-121.031330738512,50.4704037826915],[-121.031530803397,50.4707109734413],[-121.031750452099,50.4710828737697],[-121.032146214256,50.4717288011888],[-121.032381501832,50.4721450994781],[-121.032466177181,50.4721451893525]]]}},{"type":"Feature","id":"883059532","properties":{"name":"iSP_22kph_%TR_Brake_CTRL_NOREMOVE","oid":"883059532","speedLimit":6.111111},"geometry":{"type":"Polygon","coordinates":[[[-121.027262376801,50.4773219556444],[-121.027030188821,50.4772097923748],[-121.027334653763,50.4769440337302],[-121.027716608625,50.4766324391342],[-121.028033331063,50.4763227319008],[-121.028190565156,50.4761687770283],[-121.028621409114,50.4756923527555],[-121.028907417365,50.4753257550175],[-121.02926401189,50.4748876172454],[-121.029472812002,50.4746567298738],[-121.02969161536,50.4745404323811],[-121.029801651046,50.4744882153461],[-121.029952404164,50.4745926494161],[-121.029788829987,50.4745420501206],[-121.029556219335,50.474791541496],[-121.029252036175,50.4751730583868],[-121.029073104904,50.4754780022762],[-121.028853315312,50.4757747675938],[-121.02869622211,50.4759747381667],[-121.028409086732,50.4762706047402],[-121.028041784509,50.4765699764159],[-121.027244061002,50.4772194089372],[-121.027262376801,50.4773219556444]]]}},{"type":"Feature","id":"891249991","properties":{"name":"SP_30KPH_TR%_1590 #1_AUG_28_DS","oid":"891249991","speedLimit":8.333333},"geometry":{"type":"Polygon","coordinates":[[[-121.012957033046,50.4498607383308],[-121.013847603567,50.4497488446844],[-121.013379000885,50.4450041945788],[-121.012138880377,50.443083847958],[-121.011299594094,50.4419103577241],[-121.010529766958,50.4421497831651],[-121.011008795557,50.4427017019463],[-121.011240842645,50.4430299233091],[-121.011456405515,50.443520008493],[-121.01177439597,50.4445106941672],[-121.012957033046,50.4498607383308]]]}},{"type":"Feature","id":"893804793","properties":{"name":"SP_20KPH_%TR_1590Dynamic_AUG_28_DS","oid":"893804793","speedLimit":5.5555553},"geometry":{"type":"Polygon","coordinates":[[[-121.011186599701,50.4418408848014],[-121.010484259241,50.4421101485482],[-121.005981953976,50.4380482743717],[-121.006514521065,50.4376817665082],[-121.010067363469,50.4407334522624],[-121.011186599701,50.4418408848014]]]}},{"type":"Feature","id":"903864124","properties":{"name":"SP_15KPH_%TR_OLD_GARBAGEDUMP_AUG_28_DS","oid":"903864124","speedLimit":4.1666665},"geometry":{"type":"Polygon","coordinates":[[[-121.042485623886,50.4669870270645],[-121.04213241074,50.4673287295895],[-121.042023924851,50.466979118116],[-121.041014160743,50.4664999976107],[-121.041217325226,50.4664449944689],[-121.042485623886,50.4669870270645]]]}},{"type":"Feature","id":"908328496","properties":{"name":"SP_15KPH_%TR_9019_SOFT_GROUND_AUG_28_DS","oid":"908328496","speedLimit":4.1666665},"geometry":{"type":"Polygon","coordinates":[[[-121.03888628753,50.4644515799488],[-121.038900658388,50.464753018736],[-121.039379968768,50.4648989747856],[-121.038731307689,50.4665301055397],[-121.038275948739,50.4671547327225],[-121.037820589789,50.4675725588768],[-121.037502740224,50.4696996166517],[-121.035469686495,50.4697242422413],[-121.035228904179,50.4668159061787],[-121.03788173638,50.4651399280917],[-121.038520816887,50.4648144029613],[-121.03888628753,50.4644515799488]]]}},{"type":"Feature","id":"910445950","properties":{"name":"SP_25KPH_%TR_1635_FLATS_AUG_28_DS","oid":"910445950","speedLimit":6.9444447},"geometry":{"type":"Polygon","coordinates":[[[-121.020225728468,50.4571641130255],[-121.01904464119,50.4569612664714],[-121.018650992395,50.456922620473],[-121.017842983862,50.4571469470123],[-121.018448955039,50.4564124932946],[-121.018505311345,50.4561073696564],[-121.019236111739,50.4561250749161],[-121.019236675302,50.4564588684927],[-121.019424482691,50.4568918834231],[-121.019757830239,50.4570619258159],[-121.020225728468,50.4571641130255]]]}},{"type":"Feature","id":"917291012","properties":{"name":"SP_20KPH_%TR_CORNER_RUTS_AUG_28_DS","oid":"917291012","speedLimit":5.5555553},"geometry":{"type":"Polygon","coordinates":[[[-121.040610649594,50.4662213869249],[-121.040684899027,50.4661072464181],[-121.040422983096,50.4659262393467],[-121.040121195079,50.4658981086549],[-121.040017076804,50.4663105423443],[-121.039934092144,50.4664858873276],[-121.039995238736,50.4668200404018],[-121.040667428572,50.4667392433029],[-121.040549503003,50.4666223166892],[-121.040532032548,50.4663773190345],[-121.040610649594,50.4662213869249]]]}},{"type":"Feature","id":"917665392","properties":{"name":"SP_15KPH_%TR_22SH RUTS_AUG 28_DS","oid":"917665392","speedLimit":4.1666665},"geometry":{"type":"Polygon","coordinates":[[[-121.035647913312,50.4455197142221],[-121.035215660447,50.4452078500027],[-121.03373419406,50.4447560513196],[-121.033078206662,50.4452864002413],[-121.035586484939,50.4459567735012],[-121.036390971203,50.4468446428449],[-121.036872676726,50.4466102503711],[-121.035647913312,50.4455197142221]]]}},{"type":"Feature","id":"920440343","properties":{"name":"iSP_17KPH_CAL_PAD_ROAD_LIMIT_AUG_23_NS","oid":"920440343","speedLimit":4.7222223},"geometry":{"type":"Polygon","coordinates":[[[-121.005955466513,50.4378308681623],[-121.005969132917,50.4376131923297],[-121.005586896273,50.4375784109312],[-121.005286658054,50.4376828450012],[-121.005191134116,50.4378351821342],[-121.005286658054,50.4381616958832],[-121.005989562078,50.4392587928645],[-121.007470464901,50.4413701226168],[-121.007675179182,50.4416487333026],[-121.007784369524,50.4421537376393],[-121.007934559079,50.442663055948],[-121.008118844199,50.4432333091098],[-121.008323558479,50.4436512251386],[-121.008685225071,50.4445611137139],[-121.008760319849,50.4449224088614],[-121.008760319849,50.4451792699388],[-121.008692128719,50.445618935576],[-121.008494177195,50.4462283739827],[-121.008944604968,50.4462153421925],[-121.009135652845,50.4457321773386],[-121.009319937965,50.4449180948894],[-121.009217510379,50.4444522757976],[-121.008999129694,50.4437992482997],[-121.008773986253,50.443377018299],[-121.00846008163,50.4427370225913],[-121.008296225671,50.4420753671496],[-121.008241700945,50.4417445394288],[-121.007920892675,50.4411959460009],[-121.006815322847,50.4398333599983],[-121.00660384581,50.4394938144592],[-121.006228512814,50.4387798521081],[-121.005989562078,50.438388089534],[-121.005935037352,50.4380572618132],[-121.005955466513,50.4378308681623]]]}},{"type":"Feature","id":"922262468","properties":{"name":"SP_20kph_HMT_DUMP_AUG_28_DS","oid":"922262468","speedLimit":5.5555553},"geometry":{"type":"Polygon","coordinates":[[[-121.012501674095,50.4364265804312],[-121.012481808498,50.4374172661055],[-121.016364194399,50.4384078619053],[-121.017180515488,50.436959985083],[-121.016523541854,50.435905848072],[-121.014771424309,50.4353089022089],[-121.012899972286,50.4352073441202],[-121.012501674095,50.4364265804312]]]}},{"type":"Feature","id":"923351007","properties":{"name":"iSP_17KPH_PERMISSIONS_AUG 18_NS","oid":"923351007","speedLimit":4.7222223},"geometry":{"type":"Polygon","coordinates":[[[-121.038854023545,50.4608772744726],[-121.03887346647,50.4611348545454],[-121.038784141726,50.4608895872674],[-121.038539414468,50.4608895872674],[-121.038535610418,50.4608301802792],[-121.038881215462,50.4608227207028],[-121.038854023545,50.4608772744726]]]}},{"type":"Feature","id":"923607825","properties":{"name":"MRK_CROSS DITCH ","oid":"923607825","speedLimit":2.7777777},"geometry":{"type":"Polygon","coordinates":[[[-121.035186073387,50.4458454191013],[-121.035617480907,50.4454861011909],[-121.035587048502,50.4454714516613],[-121.035137747854,50.4458266353486],[-121.035186073387,50.4458454191013]]]}},{"type":"Feature","id":"924266047","properties":{"name":"SP_12KPH_%TR_CROSS DITCH_AUG_28_DS ","oid":"924266047","speedLimit":3.3333333},"geometry":{"type":"Polygon","coordinates":[[[-121.03761615729,50.4473123492995],[-121.037894134768,50.4474715168881],[-121.037657720065,50.4477507566948],[-121.037463009029,50.447692068702],[-121.037268157102,50.4475133983654],[-121.03761615729,50.4473123492995]]]}},{"type":"Feature","id":"926023128","properties":{"name":"SP_10KPH_TR%_4CR_1_AUG_27_DS","oid":"926023128","speedLimit":2.7777777},"geometry":{"type":"Polygon","coordinates":[[[-121.022862358231,50.4811967112893],[-121.022835870768,50.4815102831225],[-121.022151564325,50.4816162450575],[-121.021885844344,50.4812730146674],[-121.021893452445,50.4811096229814],[-121.022493224429,50.4810276575151],[-121.022510272211,50.4812221457487],[-121.022822486145,50.4810186700736],[-121.02298197449,50.4812602525006],[-121.022862358231,50.4811967112893]]]}},{"type":"Feature","id":"926367691","properties":{"name":"SP_20KPH_%TR_AUG_27_NS","oid":"926367691","speedLimit":5.5555553},"geometry":{"type":"Polygon","coordinates":[[[-121.038604506001,50.4502033396],[-121.037911746113,50.450261398472],[-121.038245657225,50.4520115229512],[-121.038477563423,50.4519886049754],[-121.039664427221,50.4519357588195],[-121.039538470878,50.4510983090225],[-121.038604506001,50.4502033396]]]}},{"type":"Feature","id":"927804884","properties":{"name":"ATT_Rut/Hole_10x10 4239","oid":"927804884","speedLimit":3.3333333},"geometry":{"type":"Polygon","coordinates":[[[-121.01358456051,50.4366503677241],[-121.014653498739,50.436505400293],[-121.014586012063,50.4372812861159],[-121.013566244711,50.4370265820244],[-121.01358456051,50.4366503677241]]]}},{"type":"Feature","id":"928024354","properties":{"name":"SP_15KPH_BOUNCING TRUCKS_AUG 28_DS","oid":"928024354","speedLimit":4.1666665},"geometry":{"type":"Polygon","coordinates":[[[-121.039959734263,50.4633924998449],[-121.039603562411,50.4634726678229],[-121.039851530156,50.4634927098174],[-121.039194979195,50.4648204245471],[-121.038940107802,50.4647669492703],[-121.039366161473,50.4649273751007],[-121.039980726987,50.4639494515934],[-121.040040041999,50.4635662270887],[-121.039998197442,50.4634459751217],[-121.039959734263,50.4633924998449]]]}}]}