{"type":"FeatureCollection","features":[{"type":"Feature","id":"702602533","properties":{"name":"iSP_4KPH_%TR_CR01_Slow Bump","oid":"702602533","speedLimit":1.1111112},"geometry":{"type":"Polygon","coordinates":[[[-121.033360671888,50.464807950099],[-121.03365540033,50.4646909326486],[-121.033698792472,50.4647316460933],[-121.033370956389,50.464869784205],[-121.033360671888,50.464807950099]]]}},{"type":"Feature","id":"707947583","properties":{"name":"iSP_25KPH_%TR_Permission Gate 1 From West Dump","oid":"707947583","speedLimit":6.9444447},"geometry":{"type":"Polygon","coordinates":[[[-121.038629999426,50.4619780511265],[-121.038856681101,50.4617995590708],[-121.038141696949,50.4614083325256],[-121.03799405096,50.4616710376006],[-121.038193542105,50.4615669621724],[-121.038668460642,50.4618461144005],[-121.038629999426,50.4619780511265]]]}},{"type":"Feature","id":"742345972","properties":{"name":"iSP_4KPH_%TR_CR01_Pit Side_Slow Bump","oid":"742345972","speedLimit":1.1111112},"geometry":{"type":"Polygon","coordinates":[[[-121.03340054194,50.4648829059774],[-121.033707809021,50.4647444083652],[-121.033757963574,50.4647764937952],[-121.033476478188,50.4649184066632],[-121.03340054194,50.4648829059774]]]}},{"type":"Feature","id":"776427243","properties":{"name":"iSP_7KPH_%TR_CR1_PermissionBlocker","oid":"776427243","speedLimit":1.9444444},"geometry":{"type":"Polygon","coordinates":[[[-121.034101719501,50.4652129275428],[-121.034053255551,50.4652332393275],[-121.034032123014,50.4652746717735],[-121.034117780229,50.4652255999395],[-121.034101719501,50.4652129275428]]]}},{"type":"Feature","id":"794004438","properties":{"name":"iSP_11KPH_%TR_Lower_Fuel_Bay","oid":"794004438","speedLimit":3.0555556},"geometry":{"type":"Polygon","coordinates":[[[-121.036778366576,50.4606955326796],[-121.03678047983,50.4607253712308],[-121.036750753395,50.4606709068875],[-121.037126912545,50.4605991865146],[-121.037536883754,50.4605561363159],[-121.03754463235,50.4605814811093],[-121.036946158916,50.4606503254772],[-121.036778366576,50.4606955326796]]]}},{"type":"Feature","id":"801543391","properties":{"name":"iSP_4KPH_%TR_CR01_PermissionBlocker_2","oid":"801543391","speedLimit":1.1111112},"geometry":{"type":"Polygon","coordinates":[[[-121.033157236003,50.4645234053616],[-121.033156390701,50.464473974027],[-121.033177945889,50.4644319124549],[-121.033109899121,50.4644595041272],[-121.033157236003,50.4645234053616]]]}},{"type":"Feature","id":"806473874","properties":{"name":"iSP_4KPH_%TR_CR04_PermissionBlocker","oid":"806473874","speedLimit":1.1111112},"geometry":{"type":"Polygon","coordinates":[[[-121.022721707705,50.4815453101445],[-121.022688600064,50.4815429733904],[-121.022680992351,50.4815716435646],[-121.022703111073,50.4815727220664],[-121.022707196697,50.4815486355252],[-121.022721707705,50.4815453101445]]]}},{"type":"Feature","id":"824566967","properties":{"name":"iSP_3KPH_%TR_CR04","oid":"824566967","speedLimit":0.8333333},"geometry":{"type":"Polygon","coordinates":[[[-121.023304543062,50.4810684325776],[-121.023284396711,50.4810684325776],[-121.023281719923,50.4811865285299],[-121.023306797199,50.4811858095286],[-121.023304543062,50.4810684325776]]]}},{"type":"Feature","id":"826307302","properties":{"name":"iSP_4KPH_%TR_CR04_Pockets","oid":"826307302","speedLimit":1.1111112},"geometry":{"type":"Polygon","coordinates":[[[-121.02329975302,50.4813216108863],[-121.023339200422,50.4814772746529],[-121.023543904259,50.4814378194603],[-121.023462896202,50.481188955159],[-121.023054615597,50.4811896741603],[-121.023059969173,50.4813603470776],[-121.023284819361,50.4813263742694],[-121.02329975302,50.4813216108863]]]}},{"type":"Feature","id":"883050998","properties":{"name":"iSP_22KPH_%TR_4CR_Brake_Temp_Ctrl","oid":"883050998","speedLimit":6.111111},"geometry":{"type":"Polygon","coordinates":[[[-121.031800949809,50.4745591346774],[-121.032190211132,50.474312517255],[-121.03249184287,50.4745748628294],[-121.032793474608,50.4748022469689],[-121.032971269681,50.474884662485],[-121.033180059142,50.4749348128209],[-121.033463939549,50.4749596183634],[-121.033667798085,50.4749220505491],[-121.033828968897,50.4748626430723],[-121.033920120571,50.4748106053582],[-121.034009440759,50.474747423125],[-121.034059877079,50.4746582669722],[-121.034054100852,50.4745480800335],[-121.034057904709,50.4744837294233],[-121.033995775052,50.4743797438701],[-121.033877432847,50.4742596706644],[-121.033510572013,50.473937737863],[-121.033062280472,50.4735600824661],[-121.032949010076,50.4734255393606],[-121.032824046344,50.4732209835102],[-121.032607226519,50.4728150174398],[-121.032253749625,50.4722090791519],[-121.032488743431,50.4721562325613],[-121.032431685582,50.4722057537712],[-121.032904209099,50.4730489624656],[-121.033043402073,50.4733096902872],[-121.033251205348,50.4735470505688],[-121.033744156984,50.4739617345291],[-121.034099183597,50.4742712645593],[-121.034204564512,50.4743945732705],[-121.03425725497,50.4744617998857],[-121.034264299149,50.4745929277353],[-121.034239362756,50.4746789382576],[-121.034184840812,50.4747917315758],[-121.034087349377,50.4748759445951],[-121.033974501632,50.474937778701],[-121.033791916516,50.4750162397104],[-121.033532408968,50.4750645026681],[-121.033264448405,50.4750681875494],[-121.03307284674,50.4750263956028],[-121.032809112685,50.4749166580398],[-121.032658367258,50.4748352311504],[-121.032496773795,50.4747054514281],[-121.032146255456,50.4744131774274],[-121.031800949809,50.4745591346774]]]}},{"type":"Feature","id":"883053336","properties":{"name":"iSP_22KPH_%TR_Brake_Temp_Ctrl","oid":"883053336","speedLimit":6.111111},"geometry":{"type":"Polygon","coordinates":[[[-121.032467470011,50.4721453576677],[-121.032252622556,50.4722256161802],[-121.031490019755,50.4710084369702],[-121.030818145978,50.4699234641117],[-121.030662892276,50.4696603096609],[-121.030598085831,50.4694578209391],[-121.030551735134,50.4692568600948],[-121.030598085831,50.4689730343587],[-121.030724317516,50.4686244086365],[-121.030886051862,50.4683756342103],[-121.031090473932,50.4680979199846],[-121.031689792667,50.4675366496482],[-121.032433657953,50.466893772672],[-121.032789952518,50.4665562914689],[-121.033149064755,50.4662224951471],[-121.033485917387,50.4658708136697],[-121.033780927597,50.4660342066996],[-121.033588903282,50.4659934033797],[-121.032920833361,50.4666521882581],[-121.032556085781,50.4669913770892],[-121.032180067514,50.4673078275062],[-121.031775872533,50.467668496499],[-121.031383511771,50.4680345580011],[-121.031148658849,50.4682864780576],[-121.031010311177,50.468470003122],[-121.030906620864,50.4686546066882],[-121.030830121082,50.4688531409033],[-121.030769259377,50.4691914309828],[-121.030777994158,50.4694007502163],[-121.030875203826,50.4696304711098],[-121.031029189576,50.4699352377569],[-121.031332089266,50.4704039366847],[-121.031532143945,50.4707111299609],[-121.031751781441,50.471083033348],[-121.032147523408,50.4717289660795],[-121.032382798981,50.4721452677926],[-121.032467470011,50.4721453576677]]]}},{"type":"Feature","id":"883059532","properties":{"name":"iSP_22KPH_%TR_Brake_Ctrl","oid":"883059532","speedLimit":6.111111},"geometry":{"type":"Polygon","coordinates":[[[-121.027263935103,50.4773221665354],[-121.027031758969,50.4772100023432],[-121.027336208378,50.476944241513],[-121.027718143755,50.4766326443543],[-121.028034850035,50.4763229345737],[-121.028192076107,50.476168978435],[-121.028622898085,50.4756925502439],[-121.028908891746,50.4753259494909],[-121.029265468078,50.4748878081154],[-121.029474257539,50.4746569188449],[-121.029693049734,50.4745406203957],[-121.029803079807,50.4744884029313],[-121.029953825234,50.4745928378602],[-121.029790259402,50.4745422381485],[-121.029557660617,50.4747917315758],[-121.029253492974,50.4751732516044],[-121.029074570832,50.4754781980017],[-121.028854792452,50.4757749657601],[-121.028697707264,50.4759749379776],[-121.028410586535,50.4762708069844],[-121.02804330305,50.4765701811223],[-121.027245620238,50.4772196189847],[-121.027263935103,50.4773221665354]]]}},{"type":"Feature","id":"884401102","properties":{"name":"iSP_30KPH_%TR_Maint_Limit_Policy","oid":"884401102","speedLimit":8.333333},"geometry":{"type":"Polygon","coordinates":[[[-121.036993918449,50.4611014088749],[-121.037110006516,50.461107879886],[-121.038296246232,50.4609922105628],[-121.038279903737,50.4603980459201],[-121.038121409714,50.4605659327076],[-121.037034352035,50.460708564577],[-121.036746667772,50.4605378916596],[-121.036993918449,50.4611014088749]]]}},{"type":"Feature","id":"887797506","properties":{"name":"SP_20KPH_%TR_LNX WEST_FLATS_SEPT 20_NS","oid":"887797506","speedLimit":5.5555553},"geometry":{"type":"Polygon","coordinates":[[[-121.055041527283,50.4668457793398],[-121.054279769783,50.4668725621356],[-121.054003637973,50.4667283125135],[-121.053449965516,50.4663378049696],[-121.053424465589,50.4658515803867],[-121.053449965516,50.4654410306835],[-121.054110427724,50.4652519333596],[-121.054847107947,50.4651439034245],[-121.054780751782,50.4656838733495],[-121.054840204651,50.4659010117214],[-121.055014336752,50.4663529938706],[-121.055041527283,50.4668457793398]]]}},{"type":"Feature","id":"908328496","properties":{"name":"SP_25KPH_%TR_1445_SOFT_GROUND_SEPT_20_NS","oid":"908328496","speedLimit":6.9444447},"geometry":{"type":"Polygon","coordinates":[[[-121.039333008474,50.4644968921912],[-121.039942048176,50.4647091773048],[-121.03919029341,50.4666748367969],[-121.038828081735,50.4674279007119],[-121.03845333142,50.4678943527609],[-121.037916424109,50.4682380353496],[-121.037181434489,50.4680259299863],[-121.038314420214,50.4667053044741],[-121.038795114978,50.4655660470226],[-121.039333008474,50.4644968921912]]]}},{"type":"Feature","id":"910445950","properties":{"name":"SP_22KPH_%TR_1635_FLATS_SEP_20_NS","oid":"910445950","speedLimit":6.111111},"geometry":{"type":"Polygon","coordinates":[[[-121.017371794761,50.4554939182695],[-121.018004925555,50.4544142480451],[-121.018150176523,50.453998575458],[-121.018534788687,50.453751598535],[-121.018950817889,50.4536881466763],[-121.018868682764,50.4543417187958],[-121.018263869569,50.45607217501],[-121.018277957927,50.455700900749],[-121.017371794761,50.4554939182695]]]}},{"type":"Feature","id":"915576987","properties":{"name":"iSP_15KPH_%TR_Preventing Shifting","oid":"915576987","speedLimit":4.1666665},"geometry":{"type":"Polygon","coordinates":[[[-121.036999412908,50.4448633053097],[-121.03751349708,50.4453132203304],[-121.037982780274,50.4457956701568],[-121.038526731764,50.4462189821319],[-121.039459381042,50.446850085463],[-121.039916689132,50.4470998485158],[-121.040472615726,50.4471952060541],[-121.041225779327,50.4473229186479],[-121.04164420355,50.447509769093],[-121.042322698856,50.4480952158458],[-121.042705338651,50.4485279647121],[-121.042848758132,50.4487949837945],[-121.043010210711,50.4493917548167],[-121.04318941462,50.4501982944483],[-121.043326916991,50.4505014433426],[-121.043688565133,50.4511688562358],[-121.043859034261,50.4514891712845],[-121.044127981009,50.4522537392192],[-121.044385093536,50.4529383182668],[-121.044698841262,50.4537982437399],[-121.044737725129,50.4541948627943],[-121.044573313995,50.4550719544217],[-121.044217723847,50.4568394391993],[-121.044053312713,50.4572074779547],[-121.043007111272,50.458399132621],[-121.041907233188,50.459537491321],[-121.041345389484,50.4600007977396],[-121.040373997222,50.460597658637],[-121.039925564798,50.4607311232406],[-121.039136475884,50.4608073373712],[-121.038499118583,50.4608388835502],[-121.038646905455,50.4611436501972],[-121.0387597532,50.460949699615],[-121.03988076382,50.4608798666204],[-121.040708736601,50.4606319909458],[-121.041512759173,50.4600580482126],[-121.042875666895,50.458700394137],[-121.044244491727,50.4571425880936],[-121.044429894514,50.4562903020087],[-121.044815492863,50.4544217076828],[-121.044812393425,50.4537867397202],[-121.044262524825,50.4523014629259],[-121.043835084053,50.4511860223902],[-121.043347908644,50.4503375110618],[-121.043052053133,50.4493097886763],[-121.042929484421,50.4486919868681],[-121.042241972567,50.4478873346147],[-121.041548543602,50.4473915832655],[-121.041094194067,50.4472218989749],[-121.040460640622,50.4471304060681],[-121.039919647687,50.4470197697536],[-121.038822728159,50.4463333932029],[-121.038198050379,50.4458718842873],[-121.037154948377,50.4449070745097],[-121.037379094148,50.4446973957755],[-121.036999412908,50.4448633053097]]]}},{"type":"Feature","id":"917773475","properties":{"name":"SP_15KPH_%TR_1200_CORNER_Sept_20_NS","oid":"917773475","speedLimit":4.1666665},"geometry":{"type":"Polygon","coordinates":[[[-121.037100285549,50.4446825663751],[-121.036926153448,50.4448621369327],[-121.036630579704,50.4448206146116],[-121.036416014017,50.4448699560711],[-121.036324439692,50.4449676503634],[-121.03625582939,50.4450821513096],[-121.036243572519,50.4451449740422],[-121.036264705055,50.4452672941267],[-121.036317395513,50.445351507146],[-121.036185528485,50.4453952763459],[-121.036090432071,50.4451943155017],[-121.036164395949,50.4449317003018],[-121.036261182966,50.4447914051865],[-121.036518013726,50.4447151011808],[-121.03671510985,50.4447117758001],[-121.036924462845,50.444770104775],[-121.037095072857,50.4446836448769],[-121.037100285549,50.4446825663751]]]}},{"type":"Feature","id":"921770139","properties":{"name":"SP_20KPH_%TR_HIGHMONT_SEPT 20_NS","oid":"921770139","speedLimit":5.5555553},"geometry":{"type":"Polygon","coordinates":[[[-121.002081841059,50.4283003030629],[-121.001586071752,50.4284272966555],[-121.001001264025,50.4285433254792],[-121.001189766251,50.4289620538215],[-121.001583535848,50.4287564194692],[-121.001925742056,50.4286884738529],[-121.002548870116,50.4285670525199],[-121.002408268306,50.4282228306802],[-121.002081841059,50.4283003030629]]]}},{"type":"Feature","id":"926367691","properties":{"name":"SP_30KPH_%TR_24SH_EMPTY_LANE_SEP_20_NS","oid":"926367691","speedLimit":8.333333},"geometry":{"type":"Polygon","coordinates":[[[-121.038785534894,50.4508575287025],[-121.038614361349,50.4512056151738],[-121.038640283927,50.4520121548054],[-121.038867247369,50.4535985411478],[-121.039046451279,50.4535756229835],[-121.038783562524,50.4517187124277],[-121.038785534894,50.4508575287025]]]}},{"type":"Feature","id":"929009157","properties":{"name":"iSP_22KPH_%TR_Long_Single_Lane","oid":"929009157","speedLimit":6.111111},"geometry":{"type":"Polygon","coordinates":[[[-121.005683107048,50.438055981399],[-121.004753416325,50.4382240479369],[-121.005177898542,50.4381975347665],[-121.007938089578,50.443170506785],[-121.008526842045,50.4445349014971],[-121.008213939621,50.4465097282549],[-121.007835948984,50.446680221422],[-121.008937376787,50.446646967615],[-121.008826642296,50.4465929526475],[-121.009406659982,50.4448176487315],[-121.008767752961,50.4430684086101],[-121.008266066544,50.4415401714923],[-121.007262552827,50.4401561839966],[-121.006442892177,50.4389840322387],[-121.005863860677,50.4383130243393],[-121.005683107048,50.438055981399]]]}},{"type":"Feature","id":"929572873","properties":{"name":"SP_11KPH_%TR_1665_FLATS_WATERHOLE_SEPT 20_NS","oid":"929572873","speedLimit":3.0555556},"geometry":{"type":"Polygon","coordinates":[[[-121.053572111577,50.4666492223781],[-121.053363603883,50.4670037798604],[-121.053263294777,50.4671269088213],[-121.05300857727,50.4671859567975],[-121.052784713266,50.4671269088213],[-121.052275278253,50.4664177938566],[-121.052259921943,50.4654280886613],[-121.052738503453,50.4650982468463],[-121.05356436298,50.4651129863716],[-121.053626069987,50.4653296753677],[-121.053363603883,50.465423235403],[-121.05337135248,50.4663440063552],[-121.053556614384,50.4666344828528],[-121.053572111577,50.4666492223781]]]}},{"type":"Feature","id":"932281958","properties":{"name":"SP_15KPH_%TR_1185-1170_22shl_SEPT_20_NS","oid":"932281958","speedLimit":4.1666665},"geometry":{"type":"Polygon","coordinates":[[[-121.03737641736,50.4481142693784],[-121.037409947651,50.4479621107428],[-121.03698335218,50.4479088147765],[-121.035925457403,50.4473800792458],[-121.035634391933,50.4472468842677],[-121.035476743211,50.4475379898913],[-121.035551975041,50.4474434412294],[-121.036815982491,50.4479515054746],[-121.037217500685,50.4480555809029],[-121.03733584289,50.4481912025102],[-121.03737641736,50.4481142693784]]]}},{"type":"Feature","id":"934051091","properties":{"name":"iSP_17KPH_%TR_Ramp_Permission Blocker","oid":"934051091","speedLimit":4.7222223},"geometry":{"type":"Polygon","coordinates":[[[-121.039514325637,50.4610297783772],[-121.039466284337,50.4607717468102],[-121.039018838098,50.4607923282204],[-121.039077727433,50.4610450571534],[-121.039165216134,50.4608999986549],[-121.039381190657,50.4608868768824],[-121.039514325637,50.4610297783772]]]}},{"type":"Feature","id":"934181262","properties":{"name":"SP_25KPH_TR%_1590_1_SEPT 20_NS","oid":"934181262","speedLimit":6.9444447},"geometry":{"type":"Polygon","coordinates":[[[-121.007187884531,50.4383850143376],[-121.006791719913,50.4384791136238],[-121.008913426579,50.4404385717303],[-121.009586145658,50.4400915637609],[-121.009054732807,50.4401351532106],[-121.007132658169,50.4385143446842],[-121.007187884531,50.4383850143376]]]}},{"type":"Feature","id":"934181339","properties":{"name":"SP_30KPH_TR%_1590_2_SEPT 20_NS_ROUGH_SECTION.","oid":"934181339","speedLimit":8.333333},"geometry":{"type":"Polygon","coordinates":[[[-121.009626438361,50.4401266150709],[-121.008922584012,50.4404385717303],[-121.010385096422,50.4417985625599],[-121.011096699369,50.4414569470997],[-121.010562750613,50.4414849881478],[-121.009453151562,50.440407474927],[-121.009626438361,50.4401266150709]]]}},{"type":"Feature","id":"934182445","properties":{"name":"SP_25KPH_TR%_1590_16_SEPT 20_NS","oid":"934182445","speedLimit":6.9444447},"geometry":{"type":"Polygon","coordinates":[[[-121.010728429699,50.4432868951094],[-121.011317182166,50.4430413561888],[-121.010416936111,50.4420371810936],[-121.009451742726,50.4411427435615],[-121.008812272171,50.4414165032805],[-121.009276060906,50.4414389720689],[-121.010824653182,50.4430593312196],[-121.010728429699,50.4432868951094]]]}},{"type":"Feature","id":"934773555","properties":{"name":"SP_10KPH_NEW RAMP_SEPT 20_NS","oid":"934773555","speedLimit":2.7777777},"geometry":{"type":"Polygon","coordinates":[[[-121.033904623378,50.4443402319137],[-121.034416171645,50.4442041609306],[-121.035776684346,50.4443192011277],[-121.03627865253,50.4444736066422],[-121.03593362865,50.4447856531767],[-121.034624397571,50.4446108460022],[-121.034346716041,50.4446010496105],[-121.033904623378,50.4443402319137]]]}},{"type":"Feature","id":"936169885","properties":{"name":"SP_15KPH_%TR_24shl_loadplan_Sept_20_NS","oid":"936169885","speedLimit":4.1666665},"geometry":{"type":"Polygon","coordinates":[[[-121.039054199875,50.4535938676398],[-121.038509121317,50.4536748451535],[-121.038613656931,50.4545480721493],[-121.039165216134,50.4545295578676],[-121.039145915084,50.4542340483614],[-121.039101677641,50.4539211030753],[-121.039079136268,50.4537567214187],[-121.039054199875,50.4535938676398]]]}},{"type":"Feature","id":"936513295","properties":{"name":"SP_30KPH_%TR_1635_FLATS_SEP_20_NS","oid":"936513295","speedLimit":8.333333},"geometry":{"type":"Polygon","coordinates":[[[-121.017287969033,50.4555553029996],[-121.018052121553,50.4557852935186],[-121.017436037672,50.4574539156269],[-121.015229096442,50.458517048823],[-121.014500305699,50.4578797441063],[-121.016179356167,50.4566195146976],[-121.017287969033,50.4555553029996]]]}},{"type":"Feature","id":"937786749","properties":{"name":"SP_30KPH_%TR_24SH_Loaded_LANE_SEP_20_NS","oid":"937786749","speedLimit":8.333333},"geometry":{"type":"Polygon","coordinates":[[[-121.038411629882,50.4510853622178],[-121.038214533758,50.4510392562638],[-121.038255108228,50.4516608328286],[-121.038480803718,50.4536763730311],[-121.038648032524,50.4536486914837],[-121.038405149237,50.4516753027284],[-121.038411629882,50.4510853622178]]]}},{"type":"Feature","id":"938065675","properties":{"name":"SP_8KPH_CR01_YARD_RUTIING_SEP_20_NS","oid":"938065675","speedLimit":2.2222223},"geometry":{"type":"Polygon","coordinates":[[[-121.034290785261,50.4648012993376],[-121.034100592433,50.4648581004349],[-121.033942380176,50.4649070823938],[-121.033830941267,50.4650050463117],[-121.034045788721,50.4650689475461],[-121.03396576685,50.4650114274476],[-121.034244152798,50.4648882086115],[-121.034320793463,50.4649374601959],[-121.034290785261,50.4648012993376]]]}},{"type":"Feature","id":"938165680","properties":{"name":"SP_10KPH_%TR_22SH_Sept20_NS","oid":"938165680","speedLimit":2.7777777},"geometry":{"type":"Polygon","coordinates":[[[-121.034632850586,50.4470558096904],[-121.035056769268,50.4472506590241],[-121.035498580165,50.4474473957361],[-121.035796689813,50.4469122790695],[-121.034873057084,50.4467191373636],[-121.034632850586,50.4470558096904]]]}},{"type":"Feature","id":"938217281","properties":{"name":"SP_25KPH_CRUSHER_YARD_WEATHER_SEPT_20_NS","oid":"938217281","speedLimit":6.9444447},"geometry":{"type":"Polygon","coordinates":[[[-121.036885015444,50.4639826265603],[-121.03724370503,50.4642846070776],[-121.034293602933,50.4654992697832],[-121.032880963309,50.4644544711186],[-121.036885015444,50.4639826265603]]]}},{"type":"Feature","id":"939481274","properties":{"name":"SP_10KPH_%TR_LRNX_PIT_BOTTOM_SEP_20_NS","oid":"939481274","speedLimit":2.7777777},"geometry":{"type":"Polygon","coordinates":[[[-121.034056918524,50.4452363770737],[-121.034063962703,50.4449962306624],[-121.033304459341,50.4447664198937],[-121.033470701961,50.4448876614764],[-121.033359544819,50.4469937958341],[-121.033817134676,50.4469741131754],[-121.033665403064,50.4469200083327],[-121.034056918524,50.4452363770737]]]}},{"type":"Feature","id":"939584863","properties":{"name":"SP_40KPH_%TR_HMT EMPTY2_ROUGH_SECTION_SEPT 20_NS","oid":"939584863","speedLimit":11.111111},"geometry":{"type":"Polygon","coordinates":[[[-121.005962197413,50.4301700657658],[-121.005670709293,50.4303973600301],[-121.005923313546,50.4302830388343],[-121.006322718486,50.4305570681787],[-121.006715501898,50.4308737882212],[-121.007138716163,50.4312429054785],[-121.007266074916,50.4315321237239],[-121.007412875603,50.4321903693515],[-121.007320033326,50.4325924707902],[-121.007054467784,50.432614490203],[-121.007548828255,50.4326902549578],[-121.007646037923,50.4323019044175],[-121.007587712122,50.4319287427783],[-121.007419356248,50.4313516544148],[-121.007307072037,50.4311740611106],[-121.007119274229,50.43098397516],[-121.006685352813,50.430646583832],[-121.005962197413,50.4301700657658]]]}},{"type":"Feature","id":"939585115","properties":{"name":"SP_40KPH_%TR_HMT EMPTY22_ROUGH_SECTION_SEPT 20_NS","oid":"939585115","speedLimit":11.111111},"geometry":{"type":"Polygon","coordinates":[[[-121.007520792423,50.4327112857438],[-121.007047282722,50.4338270857801],[-121.006950636588,50.4340181603574],[-121.006754244882,50.4342996493396],[-121.005791164751,50.4352900735361],[-121.005291873355,50.4350887531913],[-121.005662256279,50.4351667648249],[-121.006612516004,50.4341291561725],[-121.006757344321,50.4339277459525],[-121.006963597877,50.433411952444],[-121.0072276137,50.4327831858669],[-121.007031221994,50.4326537656452],[-121.007520792423,50.4327112857438]]]}},{"type":"Feature","id":"940771585","properties":{"name":"SP_15KPH_%TR_1660_HMT_SEPT20_NS","oid":"940771585","speedLimit":4.1666665},"geometry":{"type":"Polygon","coordinates":[[[-121.00271130888,50.4281184856265],[-121.002606068848,50.4277113511791],[-121.002234417972,50.4276979597812],[-121.002507872995,50.4277963730747],[-121.002535908827,50.4281139918688],[-121.002676228869,50.4280826254401],[-121.00271130888,50.4281184856265]]]}},{"type":"Feature","id":"940772885","properties":{"name":"SP_11KPH_%TR_1654_HMT_SEPT20_NS","oid":"940772885","speedLimit":3.0555556},"geometry":{"type":"Polygon","coordinates":[[[-121.004064777402,50.426490037712],[-121.004415436624,50.4266376127148],[-121.004611687447,50.4261544438872],[-121.004380356614,50.4258055485395],[-121.003973625727,50.4255504828526],[-121.003538718126,50.425917353231],[-121.003840349864,50.4258323313354],[-121.004183964908,50.4261097759357],[-121.004148884897,50.426490037712],[-121.004064777402,50.426490037712]]]}},{"type":"Feature","id":"940778315","properties":{"name":"SP_25KPH_%TR_HMT_SPILLING_ROCK_IN_CORNER_SEPT20_NS","oid":"940778315","speedLimit":6.9444447},"geometry":{"type":"Polygon","coordinates":[[[-121.0047870875,50.43670803384],[-121.004772999142,50.4370436276649],[-121.004990382501,50.4372762245633],[-121.005123658365,50.4371688237544],[-121.004892327532,50.4369362268559],[-121.004885283353,50.4367572854244],[-121.005200862565,50.4367975494934],[-121.004801034974,50.4366991361998],[-121.0047870875,50.43670803384]]]}},{"type":"Feature","id":"941544052","properties":{"name":"SP_11KPH_%TR_TEMP_LOADED_SPILL_SEPT20_NS","oid":"941544052","speedLimit":3.0555556},"geometry":{"type":"Polygon","coordinates":[[[-121.012795332654,50.4562997388998],[-121.012428190052,50.4565454575707],[-121.012325345041,50.4564643901819],[-121.012557380292,50.4564001294468],[-121.012779131042,50.4563099846674],[-121.012795332654,50.4562997388998]]]}}]}