{"type":"FeatureCollection","features":[{"type":"Feature","id":"702602533","properties":{"name":"iSP_4KPH_%TR_CR01_SLOW BUMP","oid":"702602533","speedLimit":1.1111112},"geometry":{"type":"Polygon","coordinates":[[[-121.033359336323,50.4648080524274],[-121.033654081292,50.4646910353002],[-121.033697475867,50.4647317486324],[-121.033369621401,50.4648698863625],[-121.033359336323,50.4648080524274]]]}},{"type":"Feature","id":"707947583","properties":{"name":"iSP_22KPH_%TR_Permission Gate 1 from west dump_Jun","oid":"707947583","speedLimit":6.111111},"geometry":{"type":"Polygon","coordinates":[[[-121.038628959334,50.4619781612716],[-121.038855653719,50.4617996697088],[-121.037981422107,50.4613511939294],[-121.037744301752,50.4615424477287],[-121.037960429277,50.4614967014017],[-121.038667422707,50.46184622491],[-121.038628959334,50.4619781612716]]]}},{"type":"Feature","id":"742345972","properties":{"name":"iSP_4KPH_%TR_CR01_PITSIDE_SLOW BUMP","oid":"742345972","speedLimit":1.1111112},"geometry":{"type":"Polygon","coordinates":[[[-121.033399208611,50.4648830080987],[-121.033706492922,50.4647445108691],[-121.033756650287,50.4647765962104],[-121.033475149117,50.4649185086865],[-121.033399208611,50.4648830080987]]]}},{"type":"Feature","id":"776427243","properties":{"name":"iSP_7KPH_%TR_CR1_PermissionBlocker_DO_NOT_DELETE","oid":"776427243","speedLimit":1.9444444},"geometry":{"type":"Polygon","coordinates":[[[-121.03410042549,50.4652130287525],[-121.034051958823,50.4652333404812],[-121.034030825101,50.4652747728127],[-121.034116487119,50.4652257011142],[-121.03410042549,50.4652130287525]]]}},{"type":"Feature","id":"794004438","properties":{"name":"iSP_11KPH_%TR_LOWER_FUEL_BAY","oid":"794004438","speedLimit":3.0555556},"geometry":{"type":"Polygon","coordinates":[[[-121.036777222656,50.4606956463672],[-121.036779336028,50.4607254848359],[-121.036749607926,50.460671020643],[-121.037125788169,50.4605993004683],[-121.037535782366,50.4605562503885],[-121.037543531397,50.4605815951119],[-121.036945024404,50.4606504392896],[-121.036777222656,50.4606956463672]]]}},{"type":"Feature","id":"801543391","properties":{"name":"iSP_4KPH_%TR_CR1_PermissionBlocker_DO_NOT_DELETE_","oid":"801543391","speedLimit":1.1111112},"geometry":{"type":"Polygon","coordinates":[[[-121.033155889031,50.4645235084759],[-121.033155043682,50.4644740772778],[-121.033176600078,50.4644320158219],[-121.033108549495,50.464459607418],[-121.033155889031,50.4645235084759]]]}},{"type":"Feature","id":"806473874","properties":{"name":"iSP_4KPH_%TR_Permission Blocker - DO NOT DELETE","oid":"806473874","speedLimit":1.1111112},"geometry":{"type":"Polygon","coordinates":[[[-121.022719775571,50.4815453662412],[-121.022686666074,50.4815430294937],[-121.022679057934,50.4815716995886],[-121.022701177896,50.4815727780875],[-121.022705263749,50.4815486916127],[-121.022719775571,50.4815453662412]]]}},{"type":"Feature","id":"824566967","properties":{"name":"iSP_4Cr_3KPH","oid":"824566967","speedLimit":0.8333333},"geometry":{"type":"Polygon","coordinates":[[[-121.02330264361,50.4810684899916],[-121.023282496129,50.4810684899916],[-121.023279819191,50.4811865856177],[-121.023304897874,50.4811858666184],[-121.02330264361,50.4810684899916]]]}},{"type":"Feature","id":"826307302","properties":{"name":"iSP_4KPH_TR%_CRUSHER POCKETS","oid":"826307302","speedLimit":1.1111112},"geometry":{"type":"Polygon","coordinates":[[[-121.0232978533,50.4813216676009],[-121.023337302913,50.4814773309376],[-121.023542018229,50.481437875854],[-121.02346100563,50.4811890122401],[-121.023052702131,50.4811897312394],[-121.023058056007,50.4813604036853],[-121.023282918803,50.4813264309709],[-121.0232978533,50.4813216676009]]]}},{"type":"Feature","id":"849417440","properties":{"name":"iSP_Permissions_35_KPH_June_19_NS","oid":"849417440","speedLimit":9.722222},"geometry":{"type":"Polygon","coordinates":[[[-121.03269587836,50.4660343056408],[-121.033010489027,50.466014982536],[-121.033217458606,50.4658141121218],[-121.033806244087,50.4653796568276],[-121.033727063077,50.4652508660878],[-121.033963197192,50.465400328056],[-121.033426964232,50.4658086297526],[-121.033024578175,50.4661881714793],[-121.03269587836,50.4660343056408]]]}},{"type":"Feature","id":"853029148","properties":{"name":"SP_30KPH_%TR_1635 Flats_AUG_10_NS","oid":"853029148","speedLimit":8.333333},"geometry":{"type":"Polygon","coordinates":[[[-121.01859024639,50.4569710505251],[-121.01740901225,50.4572898368157],[-121.016430520944,50.4584576713403],[-121.018349321965,50.4588932051334],[-121.020692488114,50.4589873041596],[-121.020240790039,50.4572318675015],[-121.019423055909,50.4570966956433],[-121.018968821788,50.4570000801197],[-121.01859024639,50.4569710505251]]]}},{"type":"Feature","id":"883050998","properties":{"name":"iSP_22kph_%TR_4CR_Brake_Temp_CTRL_NOREMOVE","oid":"883050998","speedLimit":6.111111},"geometry":{"type":"Polygon","coordinates":[[[-121.031799526785,50.4745592100713],[-121.032188809935,50.47431259333],[-121.032490458587,50.4745749381798],[-121.032792107238,50.4748023216912],[-121.032969912282,50.4748847369797],[-121.03317871345,50.4749348871771],[-121.033462609776,50.4749596926511],[-121.033666479742,50.4749221249405],[-121.033827659592,50.4748627176278],[-121.033918816377,50.4748106800574],[-121.034008141573,50.4747474979987],[-121.034058580722,50.4746583420922],[-121.034052804171,50.4745481554579],[-121.034056608241,50.4744838050254],[-121.0339944751,50.4743798197595],[-121.03387612626,50.4742597468855],[-121.033509244854,50.4739378149732],[-121.033060928176,50.4735601606195],[-121.032947651428,50.4734256178856],[-121.032822680689,50.4732210626003],[-121.032605848706,50.4728150976512],[-121.032252351991,50.472209161037],[-121.032487358974,50.4721563145924],[-121.032430297926,50.4722058356655],[-121.032902847939,50.4730490420308],[-121.033042048718,50.4733097691322],[-121.033249863646,50.4735471287582],[-121.033742842923,50.4739618115731],[-121.034097889444,50.4742713407483],[-121.034203276268,50.4743946491189],[-121.034255969681,50.4744618755484],[-121.034263014255,50.4745930030358],[-121.034238076463,50.4746790133206],[-121.034183551462,50.4747918063272],[-121.03408605456,50.4748760191138],[-121.033973200487,50.474937853049],[-121.033790605133,50.4750163138416],[-121.033531083033,50.475064576666],[-121.033263107445,50.4750682615371],[-121.033071495036,50.475026469706],[-121.032807746192,50.4749167324461],[-121.032656992312,50.4748353057816],[-121.032495389788,50.4747055264177],[-121.032144851794,50.4744132532244],[-121.031799526785,50.4745592100713]]]}},{"type":"Feature","id":"883053336","properties":{"name":"iSP_22kph_%TR_Brake_Temp_CTRL_NOREMOVE","oid":"883053336","speedLimit":6.111111},"geometry":{"type":"Polygon","coordinates":[[[-121.032466084361,50.4721454397288],[-121.032251224859,50.4722256980196],[-121.031488579296,50.4710085221717],[-121.030816667844,50.4699235523101],[-121.030661405437,50.4696603985862],[-121.030596595357,50.4694579104236],[-121.030550242061,50.4692569501345],[-121.030596595357,50.4689731251823],[-121.03072283412,50.4686245004231],[-121.030884577536,50.4683757266841],[-121.031089011068,50.4680980132255],[-121.03168836341,50.4675367444394],[-121.032432270407,50.4668938692389],[-121.032788584951,50.466556388968],[-121.033147717325,50.4662225935682],[-121.033484588846,50.4658709130622],[-121.033779615598,50.4660343056408],[-121.033587580515,50.4659935024336],[-121.032919473133,50.4666522854924],[-121.0325547051,50.4669914733865],[-121.032178665749,50.4673079229295],[-121.031774448102,50.467668590926],[-121.03138206534,50.468034651417],[-121.031147199248,50.4682865707776],[-121.031008843818,50.4684700953351],[-121.030905147691,50.4686546983914],[-121.030828643619,50.4688532320581],[-121.030767778501,50.4691915212032],[-121.030776513773,50.4694008398585],[-121.030873728892,50.4696305601175],[-121.031027723276,50.4699353259227],[-121.031330639951,50.470404023556],[-121.031530705848,50.4707112159837],[-121.03175035566,50.4710831183434],[-121.032146119818,50.4717290492907],[-121.032381408584,50.4721453498539],[-121.032466084361,50.4721454397288]]]}},{"type":"Feature","id":"883059532","properties":{"name":"iSP_22kph_%TR_Brake_CTRL_NOREMOVE","oid":"883059532","speedLimit":6.111111},"geometry":{"type":"Polygon","coordinates":[[[-121.02726225767,50.4773222342972],[-121.027030068517,50.4772100704149],[-121.027334534998,50.4769443103188],[-121.027716491791,50.4766327140207],[-121.028033215831,50.4763230050956],[-121.028190450719,50.4761690493822],[-121.028621296854,50.4756926225071],[-121.028907306552,50.4753260227667],[-121.029263902879,50.4748878826014],[-121.029472704048,50.4746569939687],[-121.029691508511,50.4745406958407],[-121.029801544754,50.4744884785205],[-121.029952298634,50.4745929131609],[-121.02978872363,50.474542313589],[-121.029556111802,50.4747918063272],[-121.029251927104,50.4751733253019],[-121.029072994929,50.475478270857],[-121.028853204225,50.4757750377956],[-121.028696110229,50.4759750094608],[-121.028408973399,50.4762708776503],[-121.028041669319,50.4765702509612],[-121.027243941779,50.4772196870298],[-121.02726225767,50.4773222342972]]]}},{"type":"Feature","id":"908328496","properties":{"name":"SP_12KPH_%TR_9019_SOFT_GROUND_AUG_9_NS","oid":"908328496","speedLimit":3.3333333},"geometry":{"type":"Polygon","coordinates":[[[-121.039000208375,50.464489176262],[-121.038982315157,50.4647360626279],[-121.038909756047,50.4649879819886],[-121.038202480834,50.4657216308438],[-121.037624684888,50.466217111199],[-121.037445048255,50.4665119008897],[-121.037342338369,50.4667329931577],[-121.036963622079,50.4670237384776],[-121.035974845696,50.4664710976825],[-121.037881670941,50.465140140204],[-121.038520754679,50.4648146132955],[-121.039000208375,50.464489176262]]]}},{"type":"Feature","id":"910445950","properties":{"name":"SP_30KPH_%TR_1635_FLATS_AUG_10_NS","oid":"910445950","speedLimit":8.333333},"geometry":{"type":"Polygon","coordinates":[[[-121.02022557376,50.4571642815724],[-121.019044480511,50.4569614339102],[-121.018650829725,50.4569227877008],[-121.017454520197,50.4572318675015],[-121.018090504322,50.4544692027751],[-121.018771855504,50.4538993059981],[-121.01893853012,50.4535129337785],[-121.019559297967,50.4545175554744],[-121.02022557376,50.4571449584677],[-121.020210498372,50.4571449584677],[-121.02022557376,50.4571642815724]]]}},{"type":"Feature","id":"915576987","properties":{"name":"iSP_15kph_prevent shifting","oid":"915576987","speedLimit":4.1666665},"geometry":{"type":"Polygon","coordinates":[[[-121.036998281383,50.4448634627287],[-121.037512394381,50.4453133765066],[-121.03798170389,50.4457958250004],[-121.038525685881,50.4462191358063],[-121.039458387457,50.4468502373941],[-121.03991572119,50.4470999997571],[-121.040471678957,50.447195357032],[-121.041224884791,50.447323069273],[-121.041643332477,50.447509919202],[-121.042321865828,50.4480953643377],[-121.042704527079,50.4485281120086],[-121.042847954602,50.4487951303535],[-121.043009416235,50.4493918997273],[-121.043188630193,50.4501984371311],[-121.043326140274,50.450501585188],[-121.043687808695,50.4511689962378],[-121.043858287382,50.4514893104017],[-121.04412724921,50.4522538762245],[-121.044384376155,50.4529384533812],[-121.044698141474,50.453798376479],[-121.044737027521,50.4541949944378],[-121.044572607168,50.4550720836426],[-121.044216997081,50.4568395635381],[-121.044052576728,50.4572076012769],[-121.043006316622,50.4583992526516],[-121.041906376864,50.4595376082072],[-121.041344501655,50.4600009133461],[-121.040373054923,50.4605977725949],[-121.039924597353,50.4607312368299],[-121.039135464192,50.4608074507499],[-121.038944274458,50.4608055633769],[-121.039001053723,50.4612936739897],[-121.03906079171,50.4609276134988],[-121.039879793863,50.4608799797988],[-121.040707813072,50.4606321048089],[-121.041511880729,50.4600581636611],[-121.042874864874,50.4587005133355],[-121.044243766462,50.457142711595],[-121.044429179645,50.4562904278643],[-121.044814799617,50.4544218386998],[-121.044811700004,50.453786872491],[-121.044261800571,50.4523015997994],[-121.04383433583,50.4511861623448],[-121.043347133104,50.45033765336],[-121.043051261003,50.4493099338133],[-121.042928685418,50.4486921337116],[-121.042241135012,50.4478874836808],[-121.041547667164,50.447391733701],[-121.041093292152,50.447222049879],[-121.040459703181,50.447130557225],[-121.039918679911,50.4470199212161],[-121.038821698874,50.4463335465612],[-121.038196986066,50.4458720389205],[-121.037153825573,50.4449072318078],[-121.037377983912,50.4446975536528],[-121.036998281383,50.4448634627287]]]}},{"type":"Feature","id":"919196848","properties":{"name":"SPD_25_kph_1445bench_aug10_NS","oid":"919196848","speedLimit":6.9444447},"geometry":{"type":"Polygon","coordinates":[[[-121.037820101366,50.4671985451692],[-121.037496614536,50.4670225701039],[-121.038303781805,50.4660839165887],[-121.038721525034,50.4655214794288],[-121.038860725813,50.4653853189467],[-121.039482620791,50.4654977524537],[-121.039065018454,50.4661728028704],[-121.038888622325,50.4666286483922],[-121.038990627754,50.4671733801956],[-121.038944274458,50.4674220640597],[-121.038155282189,50.4672681083462],[-121.037719082177,50.4671260161203],[-121.037820101366,50.4671985451692]]]}}]}