{"type":"FeatureCollection","features":[{"type":"Feature","id":"702602533","properties":{"name":"iSP_4KPH_%TR_CR01_SLOW BUMP","oid":"702602533","speedLimit":1.1111112},"geometry":{"type":"Polygon","coordinates":[[[-121.033359729415,50.4648090354192],[-121.033654487161,50.464692015517],[-121.033697883617,50.4647327298148],[-121.033370014939,50.4648708708207],[-121.033359729415,50.4648090354192]]]}},{"type":"Feature","id":"707947583","properties":{"name":"iSP_22KPH_%TR_Permission Gate 1 from west dump_Jun","oid":"707947583","speedLimit":6.111111},"geometry":{"type":"Polygon","coordinates":[[[-121.038629580856,50.4619790771545],[-121.038856285069,50.461800581359],[-121.03798201556,50.4613520949442],[-121.037744884926,50.461543353279],[-121.03796102182,50.4614976058672],[-121.038668045897,50.4618471376641],[-121.038629580856,50.4619790771545]]]}},{"type":"Feature","id":"742345972","properties":{"name":"iSP_4KPH_%TR_CR01_PITSIDE_SLOW BUMP","oid":"742345972","speedLimit":1.1111112},"geometry":{"type":"Polygon","coordinates":[[[-121.033399603432,50.4648839928681],[-121.033706901062,50.4647454923541],[-121.033757060602,50.4647775784563],[-121.033475547229,50.4649194942977],[-121.033399603432,50.4648839928681]]]}},{"type":"Feature","id":"776427243","properties":{"name":"iSP_7KPH_%TR_CR1_PermissionBlocker_DO_NOT_DELETE","oid":"776427243","speedLimit":1.9444444},"geometry":{"type":"Polygon","coordinates":[[[-121.034100850708,50.4652140213481],[-121.034052381939,50.4652343335584],[-121.034031247301,50.4652757668725],[-121.034116913032,50.4652266940103],[-121.034100850708,50.4652140213481]]]}},{"type":"Feature","id":"794004438","properties":{"name":"iSP_11KPH_%TR_LOWER_FUEL_BAY","oid":"794004438","speedLimit":3.0555556},"geometry":{"type":"Polygon","coordinates":[[[-121.036777763908,50.4606965318362],[-121.036779877372,50.4607263710125],[-121.036750147982,50.460671905528],[-121.037126344531,50.4606001836525],[-121.037536356501,50.4605571325518],[-121.037544105868,50.4605824778762],[-121.036945572931,50.4606513236866],[-121.036777763908,50.4606965318362]]]}},{"type":"Feature","id":"801543391","properties":{"name":"iSP_4KPH_%TR_CR1_PermissionBlocker_DO_NOT_DELETE_","oid":"801543391","speedLimit":1.1111112},"geometry":{"type":"Polygon","coordinates":[[[-121.033156273304,50.46452448472],[-121.033155427918,50.4644750523497],[-121.033176985249,50.4644329898963],[-121.033108931716,50.4644605821467],[-121.033156273304,50.46452448472]]]}},{"type":"Feature","id":"806473874","properties":{"name":"iSP_4KPH_%TR_Permission Blocker - DO NOT DELETE","oid":"806473874","speedLimit":1.1111112},"geometry":{"type":"Polygon","coordinates":[[[-121.022719707453,50.481546746147],[-121.022686596521,50.481544409344],[-121.022678988052,50.4815730801188],[-121.022701108972,50.4815741586433],[-121.022705195002,50.4815500715974],[-121.022719707453,50.481546746147]]]}},{"type":"Feature","id":"824566967","properties":{"name":"iSP_4Cr_3KPH","oid":"824566967","speedLimit":0.8333333},"geometry":{"type":"Polygon","coordinates":[[[-121.023302600759,50.4810698585885],[-121.023282452404,50.4810698585885],[-121.02327977535,50.4811879570152],[-121.02330485512,50.4811872379989],[-121.023302600759,50.4810698585885]]]}},{"type":"Feature","id":"826307302","properties":{"name":"iSP_4KPH_TR%_CRUSHER POCKETS","oid":"826307302","speedLimit":1.1111112},"geometry":{"type":"Polygon","coordinates":[[[-121.023297810241,50.4813230422018],[-121.023337261565,50.48147870923],[-121.023541985754,50.4814392532107],[-121.023460969643,50.4811903836952],[-121.023052648445,50.4811911027115],[-121.023058002553,50.4813617792048],[-121.023282875097,50.4813278056848],[-121.023297810241,50.4813230422018]]]}},{"type":"Feature","id":"849417440","properties":{"name":"iSP_Permissions_35_KPH_June_19_NS","oid":"849417440","speedLimit":9.722222},"geometry":{"type":"Polygon","coordinates":[[[-121.032696242692,50.4660353177124],[-121.033010866997,50.4660159941494],[-121.033217845548,50.4658151189717],[-121.033806656552,50.4653806533747],[-121.03372747211,50.4652518595806],[-121.033963616461,50.4654013250932],[-121.033427360256,50.4658096364724],[-121.033024956755,50.4661891871998],[-121.032696242692,50.4660353177124]]]}},{"type":"Feature","id":"853029148","properties":{"name":"SP_15KPH_%TR_1635 Flats_AUG_17_DS","oid":"853029148","speedLimit":4.1666665},"geometry":{"type":"Polygon","coordinates":[[[-121.018589999263,50.4569718476679],[-121.017426185218,50.4572818335686],[-121.015788532598,50.4579439577003],[-121.01482437043,50.4590974395935],[-121.018349064394,50.4588940478587],[-121.020692332116,50.4589881491164],[-121.020240614461,50.4572326708293],[-121.019422844883,50.4570974957656],[-121.018968591072,50.4570008779508],[-121.018589999263,50.4569718476679]]]}},{"type":"Feature","id":"883050998","properties":{"name":"iSP_22kph_%TR_4CR_Brake_Temp_CTRL_NOREMOVE","oid":"883050998","speedLimit":6.111111},"geometry":{"type":"Polygon","coordinates":[[[-121.031799852262,50.4745604243051],[-121.032189152286,50.4743138017155],[-121.032490814014,50.4745761527866],[-121.032792475742,50.4748035416903],[-121.032970288493,50.4748859589332],[-121.033179098712,50.4749361103199],[-121.033463007344,50.4749609163821],[-121.033666886149,50.4749233477806],[-121.033828072985,50.4748639390591],[-121.033919233722,50.4748119002547],[-121.03400856279,50.4747487166977],[-121.034059004125,50.474659558677],[-121.034053227324,50.4745493694296],[-121.034057031559,50.474485017471],[-121.033994895724,50.4743810297392],[-121.033876541754,50.4742609540178],[-121.033509644445,50.4739390144711],[-121.033061308332,50.4735613511616],[-121.032948026674,50.4734268052371],[-121.032823050517,50.4732222451009],[-121.032606209135,50.4728162705246],[-121.032252697097,50.472210319541],[-121.032487714267,50.4721574718433],[-121.032430650746,50.4722069940907],[-121.032903221243,50.473050220452],[-121.033042428056,50.4733109537364],[-121.033250251992,50.4735483189912],[-121.033743252639,50.47396301164],[-121.034098314551,50.4742725481555],[-121.034203705944,50.4743958594503],[-121.034256401641,50.474463087474],[-121.03426344652,50.474594218071],[-121.034238507647,50.4746802303955],[-121.034183980282,50.4747930260769],[-121.034086479154,50.4748772408606],[-121.033973620189,50.4749390762621],[-121.03379101692,50.4750175389154],[-121.03353148357,50.4750658028843],[-121.033263496365,50.4750694878428],[-121.033071875651,50.4750276950206],[-121.032808115373,50.4749179551584],[-121.032657354958,50.4748365265628],[-121.032495745429,50.4747067441214],[-121.03214519224,50.474414463997],[-121.031799852262,50.4745604243051]]]}},{"type":"Feature","id":"883053336","properties":{"name":"iSP_22kph_%TR_Brake_Temp_CTRL_NOREMOVE","oid":"883053336","speedLimit":6.111111},"geometry":{"type":"Polygon","coordinates":[[[-121.032466438732,50.4721465967218],[-121.032251569916,50.4722268569158],[-121.031488891293,50.4710096522034],[-121.030816950715,50.4699246566125],[-121.030661681577,50.4696614966481],[-121.030596868688,50.4694590036837],[-121.030550513383,50.4692580386289],[-121.030596868688,50.468974206946],[-121.030723112924,50.4686255739194],[-121.03088486335,50.4683767942809],[-121.031089305745,50.4680990742365],[-121.031688684068,50.4675377921403],[-121.032432623312,50.4668949016945],[-121.032788953302,50.4665574134204],[-121.033148101244,50.4662236101049],[-121.033484987368,50.4658719212591],[-121.033780026909,50.4660353177124],[-121.033587983502,50.4659945135376],[-121.032919847158,50.4666533122189],[-121.032555063312,50.4669925081567],[-121.03217900766,50.467308965204],[-121.031774772492,50.4676696417536],[-121.03138237272,50.4680357109254],[-121.031147496447,50.4682876362602],[-121.031009135019,50.4684711651698],[-121.030905434398,50.4686557726038],[-121.030828927009,50.4688543109786],[-121.030768059253,50.469192608146],[-121.030776794903,50.4694019317652],[-121.030874014236,50.4696316574718],[-121.031028015296,50.4699364305044],[-121.031330945102,50.4704051392524],[-121.031531019671,50.470712338965],[-121.031750679005,50.4710842501442],[-121.032146460318,50.4717301964093],[-121.032381759284,50.4721465068448],[-121.032466438732,50.4721465967218]]]}},{"type":"Feature","id":"883059532","properties":{"name":"iSP_22kph_%TR_Brake_CTRL_NOREMOVE","oid":"883059532","speedLimit":6.111111},"geometry":{"type":"Polygon","coordinates":[[[-121.027262386463,50.4773235140543],[-121.027030187244,50.4772113475121],[-121.027334666923,50.4769455811136],[-121.027716640274,50.4766339774263],[-121.028033378043,50.4763242611567],[-121.028190619747,50.4761703017923],[-121.028621484559,50.475693863619],[-121.028907506655,50.475327255185],[-121.02926411844,50.4748891046295],[-121.02947292866,50.4746582105214],[-121.029691742608,50.4745419096355],[-121.029801783621,50.474489691077],[-121.029952544036,50.474594128194],[-121.029788961941,50.4745435274222],[-121.02955634003,50.4747930260769],[-121.029252142146,50.4751745540991],[-121.029073202214,50.4754795068857],[-121.028853401983,50.475776280862],[-121.028696301176,50.4759762572693],[-121.0284091519,50.4762721324752],[-121.028041831898,50.4765715128855],[-121.027244069777,50.4772209643551],[-121.027262386463,50.4773235140543]]]}},{"type":"Feature","id":"908328496","properties":{"name":"SP_15KPH_%TR_9019_SOFT_GROUND_AUG_17_DS","oid":"908328496","speedLimit":4.1666665},"geometry":{"type":"Polygon","coordinates":[[[-121.039689694279,50.4639776728268],[-121.039875256397,50.4641981411986],[-121.039739572024,50.465014763957],[-121.039441010043,50.4657765617228],[-121.039206415566,50.4663546508249],[-121.038929270018,50.4669803747567],[-121.037873665317,50.4685924092927],[-121.036178244688,50.4681979389772],[-121.035229299459,50.4668171580574],[-121.03788226007,50.465141131071],[-121.038521371512,50.4648155964429],[-121.039689694279,50.4639776728268]]]}},{"type":"Feature","id":"910445950","properties":{"name":"SP_20KPH_%TR_1635_FLATS_AUG_17_DS","oid":"910445950","speedLimit":5.5555553},"geometry":{"type":"Polygon","coordinates":[[[-121.020225397522,50.4571650832975],[-121.019044253074,50.4569622308249],[-121.018650585224,50.456923583699],[-121.017842537579,50.4571479167834],[-121.018448538089,50.4564134416368],[-121.018503065454,50.4555089191362],[-121.019218120693,50.4555089191362],[-121.019236296481,50.4564598181879],[-121.019424112961,50.4568928457523],[-121.019757476645,50.4570628931064],[-121.020225397522,50.4571650832975]]]}},{"type":"Feature","id":"913788494","properties":{"name":"SP_20KPH_%TR_DUST_21SH_AUG_18_DS","oid":"913788494","speedLimit":5.5555553},"geometry":{"type":"Polygon","coordinates":[[[-121.040491119738,50.452053866079],[-121.041021317347,50.4519651574435],[-121.041192085218,50.4542745479098],[-121.040910712743,50.4551338622607],[-121.040262161163,50.4560699316013],[-121.039700825188,50.4564183848739],[-121.039059882078,50.4561279921673],[-121.039632630758,50.4559006032636],[-121.040320633661,50.4550792170222],[-121.040546915181,50.4542447986105],[-121.040578617137,50.4525628397397],[-121.040491119738,50.452053866079]]]}},{"type":"Feature","id":"917291012","properties":{"name":"SP_15KPH_%TR_CORNER_RUTS_AUG_17_DS","oid":"917291012","speedLimit":4.1666665},"geometry":{"type":"Polygon","coordinates":[[[-121.040611305377,50.4662226214575],[-121.040685558404,50.4661084776205],[-121.040423629795,50.4659274652679],[-121.040530289266,50.4656666421065],[-121.040027003095,50.4656491160843],[-121.040220455478,50.4657720678709],[-121.040017703855,50.4663117794783],[-121.039934715178,50.4664871295775],[-121.039995864729,50.4668212924011],[-121.040668087103,50.4667404929448],[-121.040550155825,50.4666235629197],[-121.040532684525,50.4663785581168],[-121.040611305377,50.4662226214575]]]}},{"type":"Feature","id":"917665392","properties":{"name":"SP_15KPH_%TR_22SH RUTS_AUG 17_NS","oid":"917665392","speedLimit":4.1666665},"geometry":{"type":"Polygon","coordinates":[[[-121.035648328874,50.4455203447497],[-121.035216055086,50.4452084714312],[-121.033734516989,50.4447566595661],[-121.033078497837,50.4452870239616],[-121.035586897527,50.4459574167807],[-121.036007195021,50.4464652220399],[-121.036509776703,50.4462088028532],[-121.035648328874,50.4455203447497]]]}},{"type":"Feature","id":"920440343","properties":{"name":"iSP_17KPH_CAL_PAD_ROAD_LIMIT_AUG_12_DS","oid":"920440343","speedLimit":4.7222223},"geometry":{"type":"Polygon","coordinates":[[[-121.005954444817,50.4378312743553],[-121.005968111883,50.4376135921716],[-121.005585856737,50.4375788097583],[-121.005285603986,50.4376832468753],[-121.005190075424,50.4378355884531],[-121.005285603986,50.4381621117286],[-121.005988542033,50.4392592407195],[-121.007469516539,50.4413706320733],[-121.007674240729,50.441649250888],[-121.007783436357,50.4421542699591],[-121.007933633181,50.4426636031279],[-121.008117927221,50.4432338729278],[-121.008322651411,50.44365180115],[-121.00868433551,50.4445617162728],[-121.008759433922,50.4449230219616],[-121.008759433922,50.4451798905334],[-121.008691239491,50.4456195689985],[-121.008493278386,50.4462290251866],[-121.008943727962,50.4462159930162],[-121.009134785086,50.4457328140652],[-121.009319079126,50.4449187078638],[-121.009216646582,50.4444528751809],[-121.008998255327,50.4437998286299],[-121.008773100988,50.44337758631],[-121.00845918117,50.4427375719294],[-121.00829531728,50.4420758971828],[-121.008240789915,50.4417450598095],[-121.007919966116,50.4411964503755],[-121.006814342773,50.4398338246172],[-121.006602855499,50.4394942691713],[-121.006227504335,50.4387802859892],[-121.005988542033,50.4383885119848],[-121.005934014668,50.4380576746116],[-121.005954444817,50.4378312743553]]]}},{"type":"Feature","id":"921284584","properties":{"name":"SP_22kph_rough ground_AUG 17_DS","oid":"921284584","speedLimit":6.111111},"geometry":{"type":"Polygon","coordinates":[[[-121.039985861001,50.4678271063225],[-121.040545365307,50.4679713589669],[-121.04034458625,50.468255550158],[-121.039852712784,50.4686657489549],[-121.039241358166,50.4705093067383],[-121.037953131555,50.4698096140051],[-121.039985861001,50.4678271063225]]]}},{"type":"Feature","id":"921727643","properties":{"name":"SP_35KPH_%TR_ HIGHMONT TRIAL_Aug17_DS","oid":"921727643","speedLimit":9.722222},"geometry":{"type":"Polygon","coordinates":[[[-121.012708793205,50.4365931282933],[-121.010155869878,50.4366194622651],[-121.007266060428,50.4370215721288],[-121.006147615405,50.4371705882562],[-121.005262778577,50.4370782845391],[-121.004923356297,50.436854670471],[-121.005301807208,50.436109320203],[-121.005969520859,50.4354596889794],[-121.006754179505,50.4347249442017],[-121.007316219968,50.433904995993],[-121.007673818036,50.4330517034035],[-121.007911653158,50.432392814845],[-121.007906017255,50.4319206907696],[-121.007794708163,50.4313847539978],[-121.007510940429,50.4310049336393],[-121.006987928597,50.430564805789],[-121.005752538579,50.4297838642143],[-121.004889963569,50.4292691384233],[-121.00411657673,50.4288929131463],[-121.003315573965,50.4284989820931],[-121.003469575024,50.4283235421168],[-121.00311465401,50.4285320568427],[-121.004388790863,50.4291673077404],[-121.005349994182,50.429695694841],[-121.006573548802,50.4304923648972],[-121.007129953362,50.4309179326675],[-121.007499950418,50.4313878098171],[-121.007670718289,50.431853732377],[-121.007635916586,50.4325374269976],[-121.007398785952,50.4332029664568],[-121.007172222637,50.4338692249322],[-121.006589752024,50.4345644238136],[-121.006157619134,50.4350398733394],[-121.005744225622,50.4354073805438],[-121.005111595469,50.4360626740208],[-121.004792180646,50.436645975991],[-121.004710741842,50.4369335825095],[-121.004892358828,50.4370853848251],[-121.005449890569,50.4372771824221],[-121.006282877086,50.4372652287761],[-121.007585616149,50.4371453328088],[-121.008819456293,50.4369815768473],[-121.009458285939,50.4368816335821],[-121.011036620676,50.4367897792503],[-121.012887169546,50.4367967896592],[-121.012877870306,50.4364193959807],[-121.012708793205,50.4365931282933]]]}},{"type":"Feature","id":"921770139","properties":{"name":"15_ KPH HIGHMONT TRIAL1","oid":"921770139","speedLimit":4.1666665},"geometry":{"type":"Polygon","coordinates":[[[-121.003357984137,50.4283912195257],[-121.003136634033,50.4282222506961],[-121.003078866023,50.4277715173554],[-121.003183834723,50.4276357131525],[-121.002536128529,50.4274536222754],[-121.002300125076,50.4277209165836],[-121.002401007746,50.4281486414027],[-121.002602913984,50.4286546491212],[-121.002695765492,50.4286976103449],[-121.003357984137,50.4283912195257]]]}},{"type":"Feature","id":"921772515","properties":{"name":"12_ KPH HIGHMONT TRIAL11","oid":"921772515","speedLimit":3.3333333},"geometry":{"type":"Polygon","coordinates":[[[-121.003183834723,50.4276357131525],[-121.003345726048,50.4274264794103],[-121.004969711602,50.4266705236519],[-121.002653496217,50.4273206941377],[-121.002536128529,50.4274536222754],[-121.003183834723,50.4276357131525]]]}},{"type":"Feature","id":"922262468","properties":{"name":"SPD_25kph_HMT_DUMP_AUG_18_DS","oid":"922262468","speedLimit":6.9444447},"geometry":{"type":"Polygon","coordinates":[[[-121.012500969268,50.4364269456518],[-121.012481102709,50.4374176602309],[-121.016363676536,50.438408284933],[-121.017180037139,50.4369603658666],[-121.016523031704,50.4359061980993],[-121.014770829348,50.4353092348194],[-121.012899286738,50.4352076737676],[-121.012500969268,50.4364269456518]]]}},{"type":"Feature","id":"922385545","properties":{"name":"SP_20KPH_RUTS_AUG 17_DS","oid":"922385545","speedLimit":5.5555553},"geometry":{"type":"Polygon","coordinates":[[[-121.007510940429,50.4337195796656],[-121.006869433729,50.4335261642819],[-121.006518035154,50.434072706544],[-121.007225341026,50.4343193291336],[-121.007510940429,50.4337195796656]]]}},{"type":"Feature","id":"923345849","properties":{"name":"Speedzn 30 Trk ","oid":"923345849","speedLimit":2.7777777},"geometry":{"type":"Polygon","coordinates":[[[-121.03511784947,50.4643601894963],[-121.035029365787,50.4646866228948],[-121.034726013288,50.4646623560948],[-121.034622735359,50.4643333162623],[-121.03511784947,50.4643601894963]]]}}]}