{"type":"FeatureCollection","features":[{"type":"Feature","id":"702602533","properties":{"name":"iSP_4KPH_%TR_CR01_SLOW BUMP","oid":"702602533","speedLimit":1.1111112},"geometry":{"type":"Polygon","coordinates":[[[-121.033346412074,50.4648093261688],[-121.033641237174,50.464692311733],[-121.033684643547,50.4647330241288],[-121.033356699948,50.4648711586817],[-121.033346412074,50.4648093261688]]]}},{"type":"Feature","id":"707947583","properties":{"name":"iSP_22KPH_%TR_Permission Gate 1 from west dump_Jun","oid":"707947583","speedLimit":6.111111},"geometry":{"type":"Polygon","coordinates":[[[-121.03861746772,50.4619795001014],[-121.038844223737,50.461801012644],[-121.038129005101,50.4614097961778],[-121.037981310691,50.4616724944849],[-121.03818086726,50.4615684217379],[-121.03865594155,50.4618475667744],[-121.03861746772,50.4619795001014]]]}},{"type":"Feature","id":"742345972","properties":{"name":"iSP_4KPH_%TR_CR01_PITSIDE_SLOW BUMP","oid":"742345972","speedLimit":1.1111112},"geometry":{"type":"Polygon","coordinates":[[[-121.033386295202,50.4648842801161],[-121.033693663053,50.4647457860719],[-121.033743834055,50.4647778706753],[-121.033462256353,50.4649197798873],[-121.033386295202,50.4648842801161]]]}},{"type":"Feature","id":"776427243","properties":{"name":"iSP_7KPH_%TR_CR1_PermissionBlocker_DO_NOT_DELETE","oid":"776427243","speedLimit":1.9444444},"geometry":{"type":"Polygon","coordinates":[[[-121.034087702719,50.4652142931793],[-121.034039222874,50.4652346044408],[-121.034018083407,50.4652760358194],[-121.034103768714,50.4652269652495],[-121.034087702719,50.4652142931793]]]}},{"type":"Feature","id":"794004438","properties":{"name":"iSP_11KPH_%TR_LOWER_FUEL_BAY","oid":"794004438","speedLimit":3.0555556},"geometry":{"type":"Polygon","coordinates":[[[-121.036765227616,50.4606970146953],[-121.036767341563,50.4607268524777],[-121.036737605379,50.4606723895375],[-121.037113887893,50.4606006710124],[-121.037523993554,50.4605576219227],[-121.037531744692,50.4605829660632],[-121.036933074985,50.4606518086575],[-121.036765227616,50.4606970146953]]]}},{"type":"Feature","id":"801543391","properties":{"name":"iSP_4KPH_%TR_CR1_PermissionBlocker_DO_NOT_DELETE_","oid":"801543391","speedLimit":1.1111112},"geometry":{"type":"Polygon","coordinates":[[[-121.033142909471,50.4645247887619],[-121.033142063892,50.4644753587007],[-121.033163626149,50.4644332982123],[-121.033095557065,50.4644608891737],[-121.033142909471,50.4645247887619]]]}},{"type":"Feature","id":"806473874","properties":{"name":"iSP_4KPH_%TR_Permission Blocker - DO NOT DELETE","oid":"806473874","speedLimit":1.1111112},"geometry":{"type":"Polygon","coordinates":[[[-121.022703958778,50.4815462550189],[-121.022670840279,50.4815439183251],[-121.022663230071,50.4815725877606],[-121.022685356047,50.4815736662347],[-121.02268944301,50.4815495803139],[-121.022703958778,50.4815462550189]]]}},{"type":"Feature","id":"824566967","properties":{"name":"iSP_4Cr_3KPH","oid":"824566967","speedLimit":0.8333333},"geometry":{"type":"Polygon","coordinates":[[[-121.023286985279,50.4810693897376],[-121.023266832321,50.4810693897376],[-121.023264154655,50.4811874826474],[-121.023289240156,50.4811867636647],[-121.023286985279,50.4810693897376]]]}},{"type":"Feature","id":"826307302","properties":{"name":"iSP_4KPH_TR%_CRUSHER POCKETS","oid":"826307302","speedLimit":1.1111112},"geometry":{"type":"Polygon","coordinates":[[[-121.023282193667,50.4813225615238],[-121.023321654005,50.4814782212801],[-121.023526424976,50.481438767104],[-121.023445390352,50.481189909214],[-121.023036975849,50.4811906281968],[-121.02304233118,50.4813612967172],[-121.02326725511,50.4813273247842],[-121.023282193667,50.4813225615238]]]}},{"type":"Feature","id":"855316169","properties":{"name":"SP_30KPH_TR%_CRUSHER YARD EMPTY_AUG_31_DS","oid":"855316169","speedLimit":9.722222},"geometry":{"type":"Polygon","coordinates":[[[-121.037900980717,50.462236356674],[-121.037759487217,50.4621209599492],[-121.037584875219,50.4622048113076],[-121.037534422358,50.4622390528591],[-121.037597558899,50.4622279985],[-121.037894075157,50.4624627463543],[-121.037708329707,50.4625153219648],[-121.038111670738,50.4625078625192],[-121.038109979581,50.4624956398132],[-121.037900980717,50.462236356674]]]}},{"type":"Feature","id":"883050998","properties":{"name":"iSP_22kph_%TR_4CR_Brake_Temp_CTRL_NOREMOVE","oid":"883050998","speedLimit":6.111111},"geometry":{"type":"Polygon","coordinates":[[[-121.031786178475,50.4745602595328],[-121.032175567458,50.4743136484638],[-121.032477298118,50.4745759872796],[-121.032779028778,50.4748033655611],[-121.032956882161,50.474885778954],[-121.033165740095,50.474935927998],[-121.033449713603,50.4749607329014],[-121.033653638995,50.4749231660549],[-121.033814862664,50.4748637601086],[-121.033906044232,50.4748117237351],[-121.033995393713,50.4747485431296],[-121.034045846574,50.4746593892737],[-121.034040068453,50.4745492051737],[-121.034043873557,50.4744848562213],[-121.033981723524,50.4743808733471],[-121.033863342508,50.4742608032348],[-121.03349636136,50.4739388787271],[-121.033047922799,50.4735612330595],[-121.032934615256,50.4734266934202],[-121.03280961054,50.4732221428397],[-121.032592719608,50.4728161872279],[-121.032239126789,50.4722102645504],[-121.032474197663,50.4721574193214],[-121.032417121102,50.4722069392554],[-121.032889799585,50.4730501262267],[-121.033029038208,50.4733108473313],[-121.033236909634,50.4735482014979],[-121.033730022936,50.473962874775],[-121.034085165983,50.4742723968309],[-121.034190581458,50.4743957023654],[-121.034243289196,50.4744629272487],[-121.034250335685,50.4745940517201],[-121.034225391114,50.4746800600266],[-121.034170851289,50.474792850439],[-121.034073327881,50.4748770612887],[-121.033960443127,50.4749388938016],[-121.033777798132,50.4750173527897],[-121.033518205476,50.475065614504],[-121.033250157034,50.4750692992904],[-121.033058492533,50.4750275084204],[-121.032794671984,50.4749177736846],[-121.032643877119,50.4748363488928],[-121.03248223066,50.474706572514],[-121.032131597367,50.474414306043],[-121.031786178475,50.4745602595328]]]}},{"type":"Feature","id":"883053336","properties":{"name":"iSP_22kph_%TR_Brake_Temp_CTRL_NOREMOVE","oid":"883053336","speedLimit":6.111111},"geometry":{"type":"Polygon","coordinates":[[[-121.032452917266,50.4721465447079],[-121.032237999351,50.4722268011527],[-121.03147514645,50.4710096533003],[-121.030803052327,50.4699247083933],[-121.030647747709,50.469661560722],[-121.03058292001,50.4694590772168],[-121.030536554112,50.4692581215498],[-121.03058292001,50.4689743031256],[-121.030709193093,50.4686256863849],[-121.030870980481,50.4683769183678],[-121.031075469593,50.4680992112967],[-121.031674984878,50.46753795542],[-121.032419094119,50.4668950950058],[-121.032775505533,50.4665576224971],[-121.033134735544,50.4662238347747],[-121.033471698649,50.4658721623574],[-121.033766805609,50.4660355511779],[-121.033574718318,50.4659947489092],[-121.032906429299,50.4666535168158],[-121.032541562098,50.4669926969085],[-121.032165420514,50.467309139173],[-121.031761092974,50.4676697988741],[-121.031368603536,50.4680358509455],[-121.031133673592,50.468287764512],[-121.030995280548,50.4684712848483],[-121.030891556229,50.4686558836587],[-121.030815031358,50.468854412759],[-121.030754149693,50.4691926941233],[-121.03076288734,50.4694020079643],[-121.030860128888,50.4696317229396],[-121.031014165138,50.4699364817351],[-121.031317164166,50.4704051685882],[-121.031517284454,50.4707123539503],[-121.031736993982,50.4710842477563],[-121.032132865735,50.4717301638469],[-121.032368218468,50.4721464548351],[-121.032452917266,50.4721465447079]]]}},{"type":"Feature","id":"883059532","properties":{"name":"iSP_22kph_%TR_Brake_CTRL_NOREMOVE","oid":"883059532","speedLimit":6.111111},"geometry":{"type":"Polygon","coordinates":[[[-121.027247675827,50.4773232202083],[-121.027015423549,50.4772110589058],[-121.027319972805,50.4769453049222],[-121.027702033439,50.476633715791],[-121.028018843586,50.4763240139893],[-121.028176121221,50.4761700618169],[-121.028607084489,50.4756936458998],[-121.028893171943,50.4753270545913],[-121.029249865217,50.4748889245034],[-121.029458723152,50.4746580411812],[-121.029677587101,50.4745417457281],[-121.029787653259,50.4744895296089],[-121.029938448124,50.4745939618473],[-121.029774828649,50.4745433634392],[-121.029542153582,50.474792850439],[-121.029237886186,50.4751743606386],[-121.029058905365,50.4754792991798],[-121.028839054908,50.4757760592927],[-121.028681918202,50.4759760263585],[-121.02839470331,50.476271887743],[-121.028027299372,50.4765712541682],[-121.027229354956,50.4772206752995],[-121.027247675827,50.4773232202083]]]}},{"type":"Feature","id":"887797506","properties":{"name":"SP_22KPH_%TR_LNX WEST_FLATS_AUG31_DS","oid":"887797506","speedLimit":6.111111},"geometry":{"type":"Polygon","coordinates":[[[-121.055034377838,50.46684710291],[-121.054272370515,50.4668738850159],[-121.053996148146,50.46672963911],[-121.053442294109,50.4663391416266],[-121.053416785819,50.46585292957],[-121.053442294109,50.4654423904435],[-121.054102972919,50.4652532979912],[-121.054839894741,50.4651452708393],[-121.054773516815,50.4656852268533],[-121.054832989182,50.4659023596312],[-121.05500717839,50.4663543301363],[-121.055034377838,50.46684710291]]]}},{"type":"Feature","id":"903864124","properties":{"name":"SP_15KPH_%TR_OLD_GARBAGEDUMP_AUG_31_NS","oid":"903864124","speedLimit":4.1666665},"geometry":{"type":"Polygon","coordinates":[[[-121.042475138599,50.4669884728851],[-121.042121827639,50.4673301694172],[-121.042013311708,50.4669805640753],[-121.041676066744,50.4668112436474],[-121.041824606732,50.4667117544152],[-121.042475138599,50.4669884728851]]]}},{"type":"Feature","id":"910445950","properties":{"name":"SP_22KPH_%TR_1635_FLATS_AUG_31_DS","oid":"910445950","speedLimit":6.111111},"geometry":{"type":"Polygon","coordinates":[[[-121.020209078875,50.457165731123],[-121.019059091867,50.4569658539301],[-121.018669561954,50.456890181],[-121.017898957915,50.4567011784206],[-121.018212244817,50.4542764092365],[-121.018424062277,50.4540118235998],[-121.019203122103,50.4539307582994],[-121.019228489463,50.4568524344078],[-121.019407611214,50.456893506295],[-121.019741051075,50.4570635457056],[-121.020209078875,50.457165731123]]]}},{"type":"Feature","id":"917291012","properties":{"name":"SP_20KPH_%TR_CORNER_RUTS_AUG_31_NS","oid":"917291012","speedLimit":5.5555553},"geometry":{"type":"Polygon","coordinates":[[[-121.040599645081,50.4662228461735],[-121.040673915076,50.4661087076685],[-121.040411926614,50.4659277037717],[-121.040110055024,50.4658995735732],[-121.040005907917,50.4663120000293],[-121.039922900276,50.4664873419373],[-121.039984063801,50.466821489151],[-121.040656439783,50.4667406934692],[-121.040538481557,50.4666237689062],[-121.040521006264,50.4663787755484],[-121.040599645081,50.4662228461735]]]}},{"type":"Feature","id":"923351007","properties":{"name":"iSP_17KPH_PERMISSIONS_AUG 18_NS","oid":"923351007","speedLimit":4.7222223},"geometry":{"type":"Polygon","coordinates":[[[-121.038842532579,50.4608788274477],[-121.038861980889,50.461136403003],[-121.038772631408,50.4608911400266],[-121.03852783638,50.4608911400266],[-121.038524031276,50.4608317340803],[-121.038869732027,50.4608242746347],[-121.038842532579,50.4608788274477]]]}},{"type":"Feature","id":"926367691","properties":{"name":"SP_15KPH_%TR_24SH_AUG_31_DS","oid":"926367691","speedLimit":4.1666665},"geometry":{"type":"Polygon","coordinates":[[[-121.038589986413,50.4501840495332],[-121.037722281755,50.4501804546196],[-121.038233997788,50.4520132314162],[-121.038465968206,50.4519903138423],[-121.039653160676,50.4519374686133],[-121.039527169453,50.4511000335037],[-121.038589986413,50.4501840495332]]]}},{"type":"Feature","id":"929572873","properties":{"name":"SP_10KPH_%TR_1665_FLATS_WATERHOLE_AUG31_DS","oid":"929572873","speedLimit":2.7777777},"geometry":{"type":"Polygon","coordinates":[[[-121.053564480229,50.4666505510121],[-121.053355904154,50.4670050993602],[-121.05325556215,50.467128225149],[-121.053000761107,50.4671872716039],[-121.052776823686,50.467128225149],[-121.0522672216,50.4664191284529],[-121.052251860254,50.4654294487548],[-121.052730598718,50.4650996154373],[-121.053556729091,50.4651143545828],[-121.053618456334,50.4653310379966],[-121.053355904154,50.4654245956215],[-121.053363655292,50.4663453428524],[-121.053548977953,50.4666358118666],[-121.053564480229,50.4666505510121]]]}},{"type":"Feature","id":"930061649","properties":{"name":"adfgbdgb","oid":"930061649","speedLimit":3.0555556},"geometry":{"type":"Polygon","coordinates":[[[-121.033892514973,50.474037469231],[-121.033425473681,50.4743212876551],[-121.033617983761,50.4745366229763],[-121.034365898105,50.4746754765118],[-121.034293319268,50.4743192205798],[-121.033892514973,50.474037469231]]]}}]}