{"type":"FeatureCollection","features":[{"type":"Feature","id":"702602533","properties":{"name":"iSP_4KPH_%TR_CR01_Slow Bump","oid":"702602533","speedLimit":1.1111112},"geometry":{"type":"Polygon","coordinates":[[[-121.03336016499,50.4648079881],[-121.033654891653,50.4646909706222],[-121.033698283533,50.4647316840765],[-121.033370449429,50.4648698222204],[-121.03336016499,50.4648079881]]]}},{"type":"Feature","id":"707947583","properties":{"name":"iSP_25KPH_%TR_Permission Gate 1 From West Dump","oid":"707947583","speedLimit":6.9444447},"geometry":{"type":"Polygon","coordinates":[[[-121.038629460713,50.4619780884653],[-121.038856141019,50.4617995963678],[-121.038141161184,50.4614083697311],[-121.037993516087,50.4616710748676],[-121.038193006027,50.461566999415],[-121.038667921697,50.4618461517085],[-121.038629460713,50.4619780884653]]]}},{"type":"Feature","id":"742345972","properties":{"name":"iSP_4KPH_%TR_CR01_Pit Side_Slow Bump","oid":"742345972","speedLimit":1.1111112},"geometry":{"type":"Polygon","coordinates":[[[-121.033400034802,50.464882943996],[-121.033707300027,50.4647444463513],[-121.033757454278,50.4647765317888],[-121.033475970591,50.4649184446901],[-121.033400034802,50.464882943996]]]}},{"type":"Feature","id":"776427243","properties":{"name":"iSP_7KPH_%TR_CR1_PermissionBlocker","oid":"776427243","speedLimit":1.9444444},"geometry":{"type":"Polygon","coordinates":[[[-121.034101208129,50.4652129656385],[-121.034052744472,50.4652332774281],[-121.034031612063,50.4652747098837],[-121.03411726876,50.4652256380382],[-121.034101208129,50.4652129656385]]]}},{"type":"Feature","id":"794004438","properties":{"name":"iSP_11KPH_%TR_Lower_Fuel_Bay","oid":"794004438","speedLimit":3.0555556},"geometry":{"type":"Polygon","coordinates":[[[-121.036777839043,50.4606955697183],[-121.036779952284,50.4607254082764],[-121.036750226029,50.4606709439204],[-121.037126382908,50.4605992235307],[-121.037536351641,50.4605561733219],[-121.03754410019,50.4605815181213],[-121.03694563037,50.4606503625053],[-121.036777839043,50.4606955697183]]]}},{"type":"Feature","id":"801543391","properties":{"name":"iSP_4KPH_%TR_CR01_PermissionBlocker_2","oid":"801543391","speedLimit":1.1111112},"geometry":{"type":"Polygon","coordinates":[[[-121.033156730333,50.464523443296],[-121.033155885037,50.4644740119498],[-121.033177440094,50.4644319503679],[-121.033109393738,50.4644595420466],[-121.033156730333,50.464523443296]]]}},{"type":"Feature","id":"806473874","properties":{"name":"iSP_4KPH_%TR_CR04_PermissionBlocker","oid":"806473874","speedLimit":1.1111112},"geometry":{"type":"Polygon","coordinates":[[[-121.022721265044,50.481545352062],[-121.022688157603,50.4815430153075],[-121.022680549936,50.4815716854883],[-121.022702668524,50.4815727639904],[-121.022706754123,50.4815486774435],[-121.022721265044,50.481545352062]]]}},{"type":"Feature","id":"824566967","properties":{"name":"iSP_3KPH_%TR_CR04","oid":"824566967","speedLimit":0.8333333},"geometry":{"type":"Polygon","coordinates":[[[-121.023304096882,50.4810684743836],[-121.023283950652,50.4810684743836],[-121.02328127388,50.4811865703635],[-121.023306351006,50.4811858513621],[-121.023304096882,50.4810684743836]]]}},{"type":"Feature","id":"826307302","properties":{"name":"iSP_4KPH_%TR_CR04_Pockets","oid":"826307302","speedLimit":1.1111112},"geometry":{"type":"Polygon","coordinates":[[[-121.023299306869,50.4813216527515],[-121.023338754033,50.4814773165546],[-121.023543456634,50.4814378613527],[-121.023462449066,50.4811889969932],[-121.023054170926,50.4811897159946],[-121.023059524469,50.4813603889519],[-121.0232843733,50.4813264161358],[-121.023299306869,50.4813216527515]]]}},{"type":"Feature","id":"883050998","properties":{"name":"iSP_22KPH_%TR_4CR_Brake_Temp_Ctrl","oid":"883050998","speedLimit":6.111111},"geometry":{"type":"Polygon","coordinates":[[[-121.031800452329,50.4745591749602],[-121.032189711301,50.4743125574801],[-121.032491341218,50.4745749031158],[-121.032792971135,50.4748022873085],[-121.032970765135,50.474884702844],[-121.033179553335,50.4749348531916],[-121.033463432028,50.4749596587399],[-121.033667289333,50.4749220909168],[-121.033828459172,50.4748626834261],[-121.033919610295,50.4748106456998],[-121.034008929944,50.4747474634518],[-121.03405936596,50.4746583072782],[-121.034053589768,50.4745481203137],[-121.034057393602,50.4744837696884],[-121.033995264319,50.4743797841109],[-121.033876922829,50.4742597108772],[-121.033510064211,50.4739377780004],[-121.033061775376,50.4735601225151],[-121.032948505664,50.4734255793782],[-121.032823542686,50.4732210234799],[-121.032606724171,50.4728150573145],[-121.032253249411,50.4722091188848],[-121.032488241798,50.4721562722819],[-121.032431184294,50.4722057935033],[-121.032903704957,50.473049002395],[-121.033042897091,50.4733097302776],[-121.033250699112,50.4735470906147],[-121.033743647771,50.4739617746721],[-121.03409867224,50.4742713047747],[-121.03420405252,50.4743946135148],[-121.034256742659,50.4744618401457],[-121.034263786795,50.474592968026],[-121.034238850553,50.4746789785685],[-121.034184328938,50.4747917719131],[-121.034086838091,50.474875984952],[-121.033973991028,50.4749378190724],[-121.033791407015,50.4750162801002],[-121.033531901033,50.4750645430691],[-121.033263942088,50.4750682279513],[-121.033072341581,50.475026435995],[-121.032808609117,50.4749166984063],[-121.0326578646,50.4748352714978],[-121.032496272113,50.4747054917451],[-121.032145755891,50.474413217676],[-121.031800452329,50.4745591749602]]]}},{"type":"Feature","id":"883053336","properties":{"name":"iSP_22KPH_%TR_Brake_Temp_Ctrl","oid":"883053336","speedLimit":6.111111},"geometry":{"type":"Polygon","coordinates":[[[-121.032466968506,50.4721453973857],[-121.032252122349,50.4722256559169],[-121.031489524153,50.4710084764221],[-121.030817654432,50.4699235033097],[-121.030662401667,50.4696603487974],[-121.030597595613,50.4694578600282],[-121.030551245197,50.4692568991369],[-121.030597595613,50.4689730733343],[-121.030723826536,50.4686244475305],[-121.030885559906,50.4683756730462],[-121.031089980741,50.4680979587555],[-121.031689295858,50.4675366882877],[-121.032433156652,50.466893811161],[-121.032789449066,50.466556329879],[-121.033148559135,50.4662225334791],[-121.033485409734,50.4658708519194],[-121.033780418162,50.4660342449875],[-121.033588395006,50.4659934416581],[-121.032920329119,50.4666522266907],[-121.032555583741,50.4669914156011],[-121.032179567745,50.4673078660922],[-121.031775375204,50.4676685351694],[-121.031383016812,50.4680345967571],[-121.031148165307,50.4682865168726],[-121.03100981847,50.4684700419799],[-121.030906128784,50.4686546455893],[-121.030829629463,50.4688531798509],[-121.030768768126,50.4691914700095],[-121.030777502855,50.469400789292],[-121.030874711936,50.4696305102393],[-121.031028696755,50.4699352769577],[-121.031331594617,50.4704039759952],[-121.031531648088,50.4707111693433],[-121.031751284258,50.4710830728174],[-121.032147023835,50.4717290057],[-121.032382297988,50.4721453075105],[-121.032466968506,50.4721453973857]]]}},{"type":"Feature","id":"883059532","properties":{"name":"iSP_22KPH_%TR_Brake_Ctrl","oid":"883059532","speedLimit":6.111111},"geometry":{"type":"Polygon","coordinates":[[[-121.027263465017,50.4773222074647],[-121.027031290284,50.4772100432464],[-121.027335737855,50.4769442823539],[-121.027717670926,50.4766326851223],[-121.028034375294,50.4763229752693],[-121.028191600417,50.4761690190945],[-121.028622419793,50.4756925907919],[-121.028908411727,50.4753259899532],[-121.029264985907,50.4748878484751],[-121.029473774107,50.4746569591506],[-121.029692564981,50.4745406606742],[-121.02980259439,50.4744884431975],[-121.029953338907,50.4745928781508],[-121.029789774062,50.4745422784273],[-121.029557176681,50.4747917719131],[-121.029253010875,50.4751732920309],[-121.029074089813,50.4754782384996],[-121.02885431276,50.4757750063274],[-121.028697228521,50.4759749785917],[-121.028410109525,50.4762708476678],[-121.028042828258,50.4765702218756],[-121.027245150263,50.4772196598901],[-121.027263465017,50.4773222074647]]]}},{"type":"Feature","id":"884401102","properties":{"name":"iSP_30KPH_%TR_Maint_Limit_Policy","oid":"884401102","speedLimit":8.333333},"geometry":{"type":"Polygon","coordinates":[[[-121.036993389614,50.4611014460085],[-121.03710947698,50.4611079170211],[-121.038295709534,50.4609922476709],[-121.038279367138,50.4603980828891],[-121.038120874071,50.460565969716],[-121.037033822956,50.4607086016187],[-121.03674614043,50.4605379286614],[-121.036993389614,50.4611014460085]]]}},{"type":"Feature","id":"887797506","properties":{"name":"SP_20KPH_%TR_LNX WEST_FLATS_SEPT 18_NS","oid":"887797506","speedLimit":5.5555553},"geometry":{"type":"Polygon","coordinates":[[[-121.055040889479,50.4668458178176],[-121.054279136579,50.4668726006198],[-121.054003006436,50.4667283509639],[-121.053449337322,50.4663378433286],[-121.053423837548,50.4658516186319],[-121.053449337322,50.4654410688326],[-121.054109795542,50.4652519714645],[-121.054846471317,50.4651439415041],[-121.054780115553,50.4656839115554],[-121.054839568063,50.4659010499782],[-121.055013699113,50.4663530322332],[-121.055040889479,50.4668458178176]]]}},{"type":"Feature","id":"908328496","properties":{"name":"SP_25KPH_%TR_1445_SOFT_GROUND_SEPT_17_NS","oid":"908328496","speedLimit":6.9444447},"geometry":{"type":"Polygon","coordinates":[[[-121.039332465516,50.4644969301194],[-121.039941501541,50.4647092152827],[-121.039189751314,50.4666748752348],[-121.038827541825,50.467427939326],[-121.038452793774,50.4678943914841],[-121.037915889705,50.4682380741533],[-121.037180904523,50.4680259687403],[-121.038313883406,50.4667053429191],[-121.038794575268,50.465566085201],[-121.039332465516,50.4644969301194]]]}},{"type":"Feature","id":"910445950","properties":{"name":"SP_22KPH_%TR_1635_FLATS_SEP_17_NS","oid":"910445950","speedLimit":6.111111},"geometry":{"type":"Polygon","coordinates":[[[-121.017503814165,50.4573018831109],[-121.016222626653,50.4569707829663],[-121.016995791054,50.4561043862795],[-121.018004511373,50.4544142836139],[-121.018149761464,50.4539986109296],[-121.018534371306,50.4537516339488],[-121.018950397996,50.4536881820752],[-121.018868263367,50.4543417543477],[-121.018263453824,50.4560722109668],[-121.018043535888,50.4566100240139],[-121.017503814165,50.4573018831109]]]}},{"type":"Feature","id":"915576987","properties":{"name":"iSP_15KPH_%TR_Preventing Shifting","oid":"915576987","speedLimit":4.1666665},"geometry":{"type":"Polygon","coordinates":[[[-121.03699888404,50.4448633386436],[-121.037512965108,50.4453132537696],[-121.037982245469,50.4457957037089],[-121.038526193674,50.446219015783],[-121.039458837321,50.4468501192618],[-121.03991614265,50.447099882373],[-121.040472065888,50.4471952399337],[-121.041225224941,50.4473229525574],[-121.041643646638,50.4475098030461],[-121.042322137847,50.448095249936],[-121.042704775331,50.4485279989035],[-121.042848193946,50.4487950180484],[-121.043009645551,50.4493917892103],[-121.043188848378,50.4501983290306],[-121.043326349919,50.4505014779958],[-121.043687995877,50.4511688910452],[-121.043858463975,50.4514892061689],[-121.0441274091,50.4522537742825],[-121.044384520075,50.4529383534903],[-121.044698265906,50.4537982791646],[-121.044737149538,50.4541948983118],[-121.044572739397,50.4550719901444],[-121.044217151396,50.4568394753357],[-121.044052741255,50.4572075141772],[-121.043006546131,50.4583991691223],[-121.041906674688,50.4595375280886],[-121.041344834376,50.4600008346157],[-121.040373447979,50.4605976956528],[-121.039925018262,50.4607311602876],[-121.039135934113,50.460807374436],[-121.03849858066,50.4608389206224],[-121.03864636664,50.4611436873408],[-121.038759213703,50.4609497367132],[-121.039880217555,50.4608799037022],[-121.040708185337,50.4606320279696],[-121.041512203055,50.4600580851022],[-121.042875102547,50.4587004307089],[-121.044243919114,50.4571426243009],[-121.044429320782,50.4562903380165],[-121.044814916803,50.4544217432534],[-121.044811817383,50.4537867751422],[-121.044261952103,50.4523014980004],[-121.043834513912,50.4511860572037],[-121.043347341445,50.4503375456767],[-121.04305148772,50.4493098230507],[-121.042928919748,50.4486920210979],[-121.042241412045,50.4478873686563],[-121.041547987267,50.447391617191],[-121.041093640475,50.4472219328607],[-121.040460090856,50.4471304399325],[-121.039919101188,50.4470198035921],[-121.038822188282,50.4463334268808],[-121.038197514274,50.4458719178572],[-121.03715441857,50.4449071078538],[-121.037378562987,50.4446974290706],[-121.03699888404,50.4448633386436]]]}},{"type":"Feature","id":"917773475","properties":{"name":"SP_15KPH_%TR_1200_CORNER_Sept_17_NS","oid":"917773475","speedLimit":4.1666665},"geometry":{"type":"Polygon","coordinates":[[[-121.037099756072,50.4446825996667],[-121.036925625023,50.4448621702663],[-121.036630053063,50.4448206479355],[-121.036415488672,50.4448699894065],[-121.0363239149,50.4449676837217],[-121.036255305012,50.4450821846947],[-121.036243048215,50.445145007442],[-121.036264180624,50.4452673275551],[-121.036316870763,50.4453515405941],[-121.036185004532,50.4453953098043],[-121.036089908691,50.445194348913],[-121.036163872123,50.4449317336518],[-121.036260658555,50.4447914385036],[-121.036517487765,50.44471513448],[-121.036714582699,50.4447118090986],[-121.03692393443,50.4447701380871],[-121.037094543411,50.4446836781688],[-121.037099756072,50.4446825996667]]]}},{"type":"Feature","id":"921770139","properties":{"name":"SP_20KPH_%TR_HIGHMONT_SEPT 17_NS","oid":"921770139","speedLimit":5.5555553},"geometry":{"type":"Polygon","coordinates":[[[-121.002081523018,50.4283003325211],[-121.001585756705,50.4284273261433],[-121.001000952509,50.4285433549942],[-121.001189453597,50.4289620834345],[-121.001583220816,50.4287564490341],[-121.001925424958,50.4286885034018],[-121.002548549256,50.4285670820404],[-121.002407948295,50.4282228601202],[-121.002081523018,50.4283003325211]]]}},{"type":"Feature","id":"926367691","properties":{"name":"SP_25KPH_%TR_24SH_EMPTY_LANE_SEP_17_NS","oid":"926367691","speedLimit":6.9444447},"geometry":{"type":"Polygon","coordinates":[[[-121.038784995242,50.4508575634391],[-121.03861382273,50.4512056499918],[-121.038639745152,50.4520121898121],[-121.038866707223,50.4535985765258],[-121.039045910051,50.4535756583561],[-121.038783022884,50.4517187473658],[-121.038784995242,50.4508575634391]]]}},{"type":"Feature","id":"929009157","properties":{"name":"iSP_22KPH_%TR_Long_Single_Lane","oid":"929009157","speedLimit":6.111111},"geometry":{"type":"Polygon","coordinates":[[[-121.005682767264,50.43805601314],[-121.004753082154,50.4382240797172],[-121.005177561808,50.4381975665406],[-121.007937736178,50.4431705397228],[-121.00852648509,50.4445349347542],[-121.008213584556,50.4465097619741],[-121.007835596202,50.446680255181],[-121.008937017354,50.4466470013663],[-121.008826283532,50.4465929863861],[-121.009406297715,50.4448176820547],[-121.008767394552,50.443068441524],[-121.008265711164,50.4415402040486],[-121.007262203506,50.440156216229],[-121.006442547806,50.4389840641969],[-121.005863519801,50.4383130561404],[-121.005682767264,50.43805601314]]]}},{"type":"Feature","id":"929572873","properties":{"name":"SP_11KPH_%TR_1665_FLATS_WATERHOLE_SEPT 18_NS","oid":"929572873","speedLimit":3.0555556},"geometry":{"type":"Polygon","coordinates":[[[-121.053571482645,50.4666492608099],[-121.053362976211,50.4670038183752],[-121.05326266771,50.467126947365],[-121.053007951741,50.4671859953549],[-121.052784089089,50.467126947365],[-121.052274657151,50.4664178322343],[-121.052259300934,50.4654281268074],[-121.052737879555,50.4650982849152],[-121.053563734095,50.4651130244439],[-121.05362544073,50.4653297134908],[-121.053362976211,50.465423273548],[-121.053370724761,50.4663440447157],[-121.053555985546,50.4666345212812],[-121.053571482645,50.4666492608099]]]}},{"type":"Feature","id":"932114358","properties":{"name":"SP_20KPH_%TR_23SH_LOADED_LANES_SEP_","oid":"932114358","speedLimit":5.5555553},"geometry":{"type":"Polygon","coordinates":[[[-121.042099261374,50.4671398893902],[-121.04126650358,50.4667318560957],[-121.040735375703,50.4664970122635],[-121.040689870582,50.4664766105988],[-121.040378237992,50.4667814671923],[-121.040594774742,50.4666720891044],[-121.041767341672,50.4671899498626],[-121.041839755393,50.4675479226846],[-121.042099261374,50.4671398893902]]]}},{"type":"Feature","id":"932281958","properties":{"name":"SP_15KPH_%TR_1185-1170_22shl_SEPT_17_NS","oid":"932281958","speedLimit":4.1666665},"geometry":{"type":"Polygon","coordinates":[[[-121.037375886215,50.4481143034731],[-121.037409416304,50.4479621448018],[-121.03698282341,50.4479088488231],[-121.035924935019,50.4473801131686],[-121.035633871307,50.4472469181593],[-121.035476223536,50.4475380238511],[-121.035551454912,50.447443475167],[-121.036815454731,50.4479515395312],[-121.0372169705,50.4480556149838],[-121.03733531199,50.4481912366229],[-121.037375886215,50.4481143034731]]]}},{"type":"Feature","id":"933274269","properties":{"name":"SP_15KPH_%TR_21SH_EMPTY_LANE_SEP_17_NS","oid":"933274269","speedLimit":4.1666665},"geometry":{"type":"Polygon","coordinates":[[[-121.039410373663,50.452369623383],[-121.039607045949,50.4523825654082],[-121.039539281358,50.4510066663544],[-121.039313164582,50.4510519634426],[-121.039419671923,50.451513382591],[-121.039410373663,50.452369623383]]]}},{"type":"Feature","id":"934051091","properties":{"name":"iSP_17KPH_%TR_Ramp_Permission Blocker","oid":"934051091","speedLimit":4.7222223},"geometry":{"type":"Polygon","coordinates":[[[-121.039513781584,50.4610298154941],[-121.039465740575,50.4607717838667],[-121.039018297037,50.4607923652818],[-121.039077186016,50.4610450942738],[-121.039164674189,50.4609000357414],[-121.039380647408,50.4608869139659],[-121.039513781584,50.4610298154941]]]}},{"type":"Feature","id":"934181262","properties":{"name":"SP_25KPH_TR%_1590_1_SEPT 19_NS","oid":"934181262","speedLimit":6.9444447},"geometry":{"type":"Polygon","coordinates":[[[-121.007187535661,50.4383850461556],[-121.006791373435,50.4384791454638],[-121.008913067291,50.4404386040288],[-121.009585782308,50.4400915959782],[-121.009054372665,50.440135185438],[-121.007132309633,50.4385143765324],[-121.007187535661,50.4383850461556]]]}},{"type":"Feature","id":"934181339","properties":{"name":"SP_30KPH_TR%_1590_2_SEPT 16_NS_ROUGH_SECTION.","oid":"934181339","speedLimit":8.333333},"geometry":{"type":"Polygon","coordinates":[[[-121.009626074768,50.4401266472964],[-121.008922224668,50.4404386040288],[-121.010384728248,50.4417985951766],[-121.011096326898,50.4414569796365],[-121.010562381366,50.4414850206911],[-121.009452789015,50.4404075072183],[-121.009626074768,50.4401266472964]]]}},{"type":"Feature","id":"934182445","properties":{"name":"SP_25KPH_TR%_1590_16_SEPT 16_NS","oid":"934182445","speedLimit":6.9444447},"geometry":{"type":"Polygon","coordinates":[[[-121.010728059452,50.4432869280744],[-121.011316808364,50.4430413890963],[-121.010416567744,50.4420372137662],[-121.009451380187,50.4411427760248],[-121.008811913494,50.4414165358078],[-121.009275699428,50.4414390046015],[-121.010824282354,50.4430593641313],[-121.010728059452,50.4432869280744]]]}},{"type":"Feature","id":"934773555","properties":{"name":"SP_10KPH_NEW RAMP_SEPT 17_NS","oid":"934773555","speedLimit":2.7777777},"geometry":{"type":"Polygon","coordinates":[[[-121.033904113196,50.4443402651252],[-121.034415658374,50.4442041941103],[-121.03577616286,50.4443192343342],[-121.036278128014,50.4444736398849],[-121.035933106217,50.4447856864924],[-121.034623883043,50.4446108792771],[-121.03434620319,50.444601082883],[-121.033904113196,50.4443402651252]]]}},{"type":"Feature","id":"936169885","properties":{"name":"SP_15KPH_%TR_24shl_loadplan_Sept_19_NS","oid":"936169885","speedLimit":4.1666665},"geometry":{"type":"Polygon","coordinates":[[[-121.039053658601,50.4535939030167],[-121.038508583334,50.4536748805493],[-121.038613118316,50.4545481077494],[-121.039164674189,50.4545295934634],[-121.039145373256,50.4542340838881],[-121.03910113608,50.4539211385288],[-121.039078594843,50.4537567568337],[-121.039053658601,50.4535939030167]]]}},{"type":"Feature","id":"936513295","properties":{"name":"SP_30KPH_%TR_1635_FLATS_SEP_17_NS","oid":"936513295","speedLimit":8.333333},"geometry":{"type":"Polygon","coordinates":[[[-121.017435626925,50.457453951907],[-121.01522869902,50.4585170853519],[-121.014499912678,50.4578797804861],[-121.016653586912,50.4569269238809],[-121.017435626925,50.457453951907]]]}},{"type":"Feature","id":"937786749","properties":{"name":"SP_30KPH_%TR_24SH_Loaded_LANE_SEP_17_NS","oid":"937786749","speedLimit":8.333333},"geometry":{"type":"Polygon","coordinates":[[[-121.038411092487,50.4510853970077],[-121.038213997553,50.4510392910429],[-121.038254571778,50.4516608677531],[-121.038333888753,50.4527882619481],[-121.038496608302,50.4527610297701],[-121.038404611882,50.4516753376563],[-121.038411092487,50.4510853970077]]]}},{"type":"Feature","id":"937793793","properties":{"name":"SP_10KPH_%TR_21SH_LOAD_AREA_SEP_17_NS","oid":"937793793","speedLimit":2.7777777},"geometry":{"type":"Polygon","coordinates":[[[-121.039611695079,50.4523982935638],[-121.039004067881,50.452405034202],[-121.039059716558,50.453437430337],[-121.039659454323,50.4534069626527],[-121.039619584512,50.4529280178452],[-121.039611695079,50.4523982935638]]]}},{"type":"Feature","id":"938065675","properties":{"name":"SP_8KPH_CR01_YARD_RUTIING_SEP_17_NS","oid":"938065675","speedLimit":2.2222223},"geometry":{"type":"Polygon","coordinates":[[[-121.034290272748,50.4648013373371],[-121.034100081068,50.4648581384477],[-121.033941869766,50.464907120418],[-121.03383043153,50.4650050843588],[-121.034045277687,50.4650689856082],[-121.033965256299,50.4650114654962],[-121.034243640566,50.4648882466313],[-121.034320280769,50.4649374982272],[-121.034290272748,50.4648013373371]]]}},{"type":"Feature","id":"938165680","properties":{"name":"SP_22SH_10kph_%TR_Sept17_NS","oid":"938165680","speedLimit":2.7777777},"geometry":{"type":"Polygon","coordinates":[[[-121.034632336007,50.4470558435373],[-121.03505625213,50.4472506929167],[-121.035498060359,50.4474474296747],[-121.035796168207,50.4469123128829],[-121.034872541055,50.4467191711318],[-121.034632336007,50.4470558435373]]]}},{"type":"Feature","id":"938217281","properties":{"name":"SP_25KPH_CRUSHER_YARD_WEATHER_SEPT_17_NS","oid":"938217281","speedLimit":6.9444447},"geometry":{"type":"Polygon","coordinates":[[[-121.036884487267,50.4639826643682],[-121.037243174687,50.4642846449561],[-121.034293090402,50.465499307946],[-121.032880459308,50.4644545090368],[-121.036884487267,50.4639826643682]]]}},{"type":"Feature","id":"939481274","properties":{"name":"SP_10KPH_%TR_LRNX_PIT_BOTTOM_SEP_17_NS1","oid":"939481274","speedLimit":2.7777777},"geometry":{"type":"Polygon","coordinates":[[[-121.034056407423,50.4452364104949],[-121.034063451559,50.4449962640274],[-121.033303952782,50.444766453205],[-121.033470194399,50.444887694816],[-121.033359037928,50.4469938296666],[-121.033816625023,50.4469741470032],[-121.033664894327,50.4469200421479],[-121.034056407423,50.4452364104949]]]}},{"type":"Feature","id":"939584863","properties":{"name":"SP_40KPH_%TR_HMT EMPTY2_ROUGH_SECTION_SEPT 17_NS","oid":"939584863","speedLimit":11.111111},"geometry":{"type":"Polygon","coordinates":[[[-121.005961855944,50.4301700956614],[-121.005670369584,50.430397389979],[-121.005922972312,50.4302830687564],[-121.00632237484,50.4305570981649],[-121.006715155881,50.4308738182815],[-121.00713836759,50.4312429356252],[-121.007265725574,50.4315321539383],[-121.007412525375,50.4321903997199],[-121.007319683658,50.4325925012527],[-121.00705411972,50.4326145206706],[-121.007548477206,50.4326902854431],[-121.007645686287,50.432301934812],[-121.007587360838,50.4319287730855],[-121.00741900598,50.4313516845869],[-121.007306722448,50.4311740912412],[-121.007118925774,50.4309840052461],[-121.006685006977,50.4306466138392],[-121.005961855944,50.4301700956614]]]}},{"type":"Feature","id":"939585115","properties":{"name":"SP_40KPH_%TR_HMT EMPTY22_ROUGH_SECTION_SEPT 17_NS","oid":"939585115","speedLimit":11.111111},"geometry":{"type":"Polygon","coordinates":[[[-121.007520441543,50.4327113162341],[-121.007046934701,50.4338271165315],[-121.006950289151,50.4340181911535],[-121.00675389863,50.4342996802016],[-121.005790824315,50.4352901046299],[-121.005291535933,50.4350887842379],[-121.00566191662,50.4351667958898],[-121.006612170608,50.4341291869946],[-121.00675699805,50.4339277767275],[-121.006963250361,50.4334119830982],[-121.00722726459,50.4327832163741],[-121.00703087407,50.4326537961221],[-121.007520441543,50.4327113162341]]]}},{"type":"Feature","id":"940771585","properties":{"name":"SP_15KPH_%TR_1660_HMT_SEPT17_NS","oid":"940771585","speedLimit":4.1666665},"geometry":{"type":"Polygon","coordinates":[[[-121.002710987039,50.4281185150421],[-121.002605747642,50.4277113804994],[-121.002234099011,50.4276979890983],[-121.002507552382,50.4277964024149],[-121.002535588045,50.4281140212833],[-121.00267590724,50.4280826548472],[-121.002710987039,50.4281185150421]]]}},{"type":"Feature","id":"940772885","properties":{"name":"SP_11KPH_%TR_1654_HMT_SEPT17_NS","oid":"940772885","speedLimit":3.0555556},"geometry":{"type":"Polygon","coordinates":[[[-121.004064447389,50.4264900667465],[-121.004415104494,50.4266376417839],[-121.004611354131,50.4261544728432],[-121.004380024695,50.4258055774139],[-121.003973296265,50.4255505116673],[-121.003538391289,50.4259173821316],[-121.003840021206,50.425832360216],[-121.004183634175,50.4261098048812],[-121.004148554376,50.4264900667465],[-121.004064447389,50.4264900667465]]]}},{"type":"Feature","id":"940778315","properties":{"name":"SP_25KPH_%TR_HMT_SPILLING_ROCK_IN_CORNER_SEPT17_NS","oid":"940778315","speedLimit":6.9444447},"geometry":{"type":"Polygon","coordinates":[[[-121.004786753125,50.4367080652656],[-121.004772664853,50.437043659169],[-121.004990046899,50.4372762561218],[-121.005123321958,50.4371688552877],[-121.004891992522,50.4369362583349],[-121.004884948386,50.4367573168615],[-121.005200525692,50.4367975809399],[-121.004800700515,50.4366991676233],[-121.004786753125,50.4367080652656]]]}},{"type":"Feature","id":"941544052","properties":{"name":"SP_11KPH_%TR_TEMP_LOADED_SPILL_SEPT19_NS","oid":"941544052","speedLimit":3.0555556},"geometry":{"type":"Polygon","coordinates":[[[-121.012794949927,50.4562997749099],[-121.012427809542,50.4565454936383],[-121.012324965152,50.4564644262304],[-121.012556999002,50.4564001654803],[-121.012778748413,50.4563100206798],[-121.012794949927,50.4562997749099]]]}}]}