{"type":"FeatureCollection","features":[{"type":"Feature","id":"910445950","properties":{"name":"SP_22KPH_%TR_1635_FLATS_SEP_16_NS","oid":"910445950","speedLimit":6.111111},"geometry":{"type":"Polygon","coordinates":[[[-121.017915349385,50.4571009897988],[-121.017759525646,50.4573816673291],[-121.016601414307,50.4571352319182],[-121.017124395972,50.4561457155532],[-121.017775164375,50.4542398405271],[-121.018182053128,50.4539931354933],[-121.01853455855,50.4537515532963],[-121.019044155717,50.4536552080153],[-121.018868466564,50.4543416681422],[-121.018263628124,50.4560721084776],[-121.018043699681,50.4566099164638],[-121.017988611903,50.4569256449824],[-121.017915349385,50.4571009897988]]]}},{"type":"Feature","id":"934181339","properties":{"name":"SP_35KPH_TR%_1590_2_SEPT 16_NS_ROUGH_SECTION.","oid":"934181339","speedLimit":9.722222},"geometry":{"type":"Polygon","coordinates":[[[-121.00954764274,50.4401729801358],[-121.00892195266,50.4404386486531],[-121.010384526116,50.4417986270033],[-121.011096158764,50.4414570146778],[-121.010562187721,50.4414850554685],[-121.00936321844,50.44043235745],[-121.00954764274,50.4401729801358]]]}},{"type":"Feature","id":"937786749","properties":{"name":"SP_30KPH_%TR_24SH_Loaded_LANE_SEP_15_DS","oid":"937786749","speedLimit":8.333333},"geometry":{"type":"Polygon","coordinates":[[[-121.038412229407,50.4510853414448],[-121.038215125056,50.4510392359138],[-121.03825570122,50.4516608067749],[-121.038335021984,50.4527881903611],[-121.038497749307,50.4527609584393],[-121.038405748492,50.451675276542],[-121.038412229407,50.4510853414448]]]}},{"type":"Feature","id":"937793793","properties":{"name":"SP_10KPH_%TR_21SH_LOAD_AREA_SEP_15_DS","oid":"937793793","speedLimit":2.7777777},"geometry":{"type":"Polygon","coordinates":[[[-121.039650929515,50.4523552657171],[-121.039077368535,50.4524101789322],[-121.039163451993,50.4533143146845],[-121.039697000368,50.4532578736057],[-121.039666568245,50.4529191372588],[-121.039650929515,50.4523552657171]]]}},{"type":"Feature","id":"939481274","properties":{"name":"SP_10KPH_%TR_LRNX_PIT_BOTTOM_SEP_15_NS1","oid":"939481274","speedLimit":2.7777777},"geometry":{"type":"Polygon","coordinates":[[[-121.034057336283,50.4452364099715],[-121.034064380756,50.4449962657637],[-121.033304845692,50.4447664571038],[-121.033471095251,50.444887697574],[-121.033359933469,50.4469938126056],[-121.033817542427,50.4469741301275],[-121.033665804481,50.4469200257813],[-121.034057336283,50.4452364099715]]]}},{"type":"Feature","id":"939585115","properties":{"name":"SP_35KPH_%TR_HMT EMPTY22_ROUGH_SECTION_SEPT 16_NS","oid":"939585115","speedLimit":9.722222},"geometry":{"type":"Polygon","coordinates":[[[-121.00752010256,50.4327114335728],[-121.007046573094,50.4338272233704],[-121.006949922927,50.4340182961944],[-121.006753523023,50.4342997825936],[-121.005790402693,50.435290197702],[-121.005291090457,50.4350888792044],[-121.00566148884,50.4351668901222],[-121.006611788229,50.434129290991],[-121.006756622591,50.4339278826192],[-121.006962884757,50.4334120938436],[-121.0072269116,50.4327833330362],[-121.007030511696,50.432653914002],[-121.00752010256,50.4327114335728]]]}},{"type":"Feature","id":"939584863","properties":{"name":"SP_35KPH_%TR_HMT EMPTY2_ROUGH_SECTION_SEPT 16_NS","oid":"939584863","speedLimit":9.722222},"geometry":{"type":"Polygon","coordinates":[[[-121.005961442494,50.4301702369132],[-121.005669942207,50.4303975290919],[-121.005922557004,50.4302832089451],[-121.006321978616,50.430557235775],[-121.006714778422,50.4308739529112],[-121.007138010352,50.4312430667815],[-121.007265374421,50.431532282373],[-121.007412181236,50.4321905219604],[-121.007319335084,50.4325926197095],[-121.007053758457,50.4326146389202],[-121.007548139562,50.4326904029797],[-121.007645353288,50.432302056003],[-121.007587025052,50.431928897788],[-121.007418662151,50.4313518147199],[-121.007306373254,50.4311742230453],[-121.007118567607,50.4309841388389],[-121.006684628079,50.4306467506069],[-121.005961442494,50.4301702369132]]]}},{"type":"Feature","id":"938217281","properties":{"name":"SP_20KPH_CRUSHER_YARD_WEATHER_SEPT_15_DS","oid":"938217281","speedLimit":5.5555553},"geometry":{"type":"Polygon","coordinates":[[[-121.036885551248,50.4639824874409],[-121.037244255806,50.4642844651872],[-121.034294030571,50.465499116747],[-121.032881331983,50.4644543276694],[-121.036885551248,50.4639824874409]]]}},{"type":"Feature","id":"938165680","properties":{"name":"TR_22SH_10kph_%TR_Sept16_DS","oid":"938165680","speedLimit":2.7777777},"geometry":{"type":"Polygon","coordinates":[[[-121.034362221068,50.4471928842449],[-121.035053847414,50.4475034899268],[-121.035420723561,50.4476025314376],[-121.035797180191,50.446912296589],[-121.034733887457,50.44661067834],[-121.034362221068,50.4471928842449]]]}},{"type":"Feature","id":"938065675","properties":{"name":"SP_8KPH_CR01_YARD_RUTIING_SEP_15_DS","oid":"938065675","speedLimit":2.2222223},"geometry":{"type":"Polygon","coordinates":[[[-121.034291212782,50.464801152706],[-121.034101012015,50.4648579532821],[-121.033942793154,50.4649069347915],[-121.033831349593,50.4650048978104],[-121.034046206016,50.4650687984585],[-121.033966180804,50.4650112788878],[-121.034244578372,50.4648880611824],[-121.034321222236,50.4649373123148],[-121.034291212782,50.464801152706]]]}},{"type":"Feature","id":"936513295","properties":{"name":"SP_30KPH_%TR_1635_FLATS_SEP_15_DS","oid":"936513295","speedLimit":8.333333},"geometry":{"type":"Polygon","coordinates":[[[-121.017435761673,50.4574538364154],[-121.015228728325,50.4585169598562],[-121.014499907162,50.4578796609874],[-121.016653684296,50.4569268133487],[-121.017435761673,50.4574538364154]]]}},{"type":"Feature","id":"936169885","properties":{"name":"SP_10KPH_%TR_24shl_loadplan_Sept_15_DS","oid":"936169885","speedLimit":2.7777777},"geometry":{"type":"Polygon","coordinates":[[[-121.039054826221,50.4535938238485],[-121.038513810705,50.4536890906375],[-121.038719931981,50.454748079859],[-121.039231078932,50.4546029328173],[-121.039183740075,50.4543765393819],[-121.039102305968,50.4539210562813],[-121.039079763655,50.4537566761331],[-121.039054826221,50.4535938238485]]]}},{"type":"Feature","id":"935505135","properties":{"name":"SP_20KPH_%TR_1590_WATERHOLES_SEPT_16_DS","oid":"935505135","speedLimit":5.5555553},"geometry":{"type":"Polygon","coordinates":[[[-121.01340505519,50.4441737359024],[-121.012721177764,50.4442020463161],[-121.012969847657,50.4452614849093],[-121.013112005119,50.4462075919733],[-121.013280649799,50.4469894087635],[-121.013706981297,50.4470970782099],[-121.013795882544,50.4467741597449],[-121.013440559333,50.4437488100737],[-121.013387303118,50.4441624117369],[-121.01340505519,50.4441737359024]]]}},{"type":"Feature","id":"934773555","properties":{"name":"SP_10KPH_NEW RAMP_SEPT 15_DS","oid":"934773555","speedLimit":2.7777777},"geometry":{"type":"Polygon","coordinates":[[[-121.03390503478,50.4443402730345],[-121.034416604399,50.4442042033],[-121.035777173888,50.4443192424414],[-121.036279163024,50.4444736465391],[-121.035934124743,50.4447856902103],[-121.034624839017,50.4446108846399],[-121.034347145896,50.444601088338],[-121.03390503478,50.4443402730345]]]}},{"type":"Feature","id":"934051091","properties":{"name":"iSP_17KPH_%TR_Ramp_Permission Blocker","oid":"934051091","speedLimit":4.7222223},"geometry":{"type":"Polygon","coordinates":[[[-121.039514971189,50.4610296663533],[-121.039466927884,50.4607716371541],[-121.039019462968,50.4607922183755],[-121.039078354761,50.4610449449893],[-121.039165847114,50.4608998878219],[-121.039381830652,50.4608867661698],[-121.039514971189,50.4610296663533]]]}},{"type":"Feature","id":"933274269","properties":{"name":"SP_15KPH_%TR_21SH_EMPTY_LANE_SEP_15_NS","oid":"933274269","speedLimit":4.1666665},"geometry":{"type":"Polygon","coordinates":[[[-121.039474817693,50.4523655113906],[-121.039652479299,50.4523480757707],[-121.039540472181,50.4510066115323],[-121.039314344602,50.4510519081943],[-121.039420857031,50.4515133230006],[-121.039474817693,50.4523655113906]]]}},{"type":"Feature","id":"932281958","properties":{"name":"SP_15KPH_%TR_1185-1170_22shl_SEPT_16_DS","oid":"932281958","speedLimit":4.1666665},"geometry":{"type":"Polygon","coordinates":[[[-121.037376973675,50.4481142758684],[-121.037410505366,50.447962118629],[-121.036983892089,50.4479088231517],[-121.035925953154,50.4473800924727],[-121.035634875536,50.4472468987168],[-121.035477220233,50.4475380016692],[-121.035552455203,50.4474434538749],[-121.036816515414,50.4479515134581],[-121.037218050367,50.4480555879314],[-121.037336397511,50.4481912082942],[-121.037376973675,50.4481142758684]]]}},{"type":"Feature","id":"929009157","properties":{"name":"iSP_22KPH_%TR_Long_Single_Lane","oid":"929009157","speedLimit":6.111111},"geometry":{"type":"Polygon","coordinates":[[[-121.00568234048,50.4380560801846],[-121.004752610951,50.4382241451803],[-121.005177110886,50.4381976322532],[-121.007937417133,50.4431705586393],[-121.008526194174,50.4445349408316],[-121.00821327869,50.4465097494683],[-121.007835272276,50.4466802410709],[-121.008936746053,50.446646987569],[-121.00882600694,50.4465929730972],[-121.009406048835,50.4448176854715],[-121.008767115146,50.4430684614013],[-121.008265407789,50.4415402383067],[-121.007261852185,50.4401562635106],[-121.006442157323,50.4389841225085],[-121.005863101653,50.4383131207663],[-121.00568234048,50.4380560801846]]]}},{"type":"Feature","id":"926367691","properties":{"name":"SP_25KPH_%TR_24SH_EMPTY_LANE_SEP_15_DS","oid":"926367691","speedLimit":6.9444447},"geometry":{"type":"Polygon","coordinates":[[[-121.038786150026,50.4508575100201],[-121.038614969336,50.4512055932973],[-121.038640892996,50.452012125528],[-121.038867865912,50.4535984973136],[-121.039047077301,50.4535755793596],[-121.038784177574,50.451718685843],[-121.038786150026,50.4508575100201]]]}},{"type":"Feature","id":"921770139","properties":{"name":"SP_20KPH_%TR_HIGHMONT_SEPT 16_DS","oid":"921770139","speedLimit":5.5555553},"geometry":{"type":"Polygon","coordinates":[[[-121.00174687527,50.4283062433246],[-121.000754590822,50.4285433318051],[-121.000898579848,50.4289675386392],[-121.001626414784,50.4287939014351],[-121.001924818654,50.4286886585955],[-121.002547972724,50.4285672383767],[-121.002401306799,50.4281876990843],[-121.00174687527,50.4283062433246]]]}},{"type":"Feature","id":"917773475","properties":{"name":"SP_15KPH_%TR_1200_CORNER_Sept_15_DS","oid":"917773475","speedLimit":4.1666665},"geometry":{"type":"Polygon","coordinates":[[[-121.037100830339,50.4446826043546],[-121.036926690969,50.4448621732645],[-121.036631104888,50.4448206513243],[-121.036416530245,50.4448699923311],[-121.036324952097,50.444967685727],[-121.036256338932,50.4450821856225],[-121.036244081549,50.4451450077786],[-121.036265214968,50.4452673267407],[-121.036317907625,50.4453515389872],[-121.036186035093,50.4453953077856],[-121.036090934709,50.4451943487854],[-121.036164901674,50.4449317359953],[-121.036261692731,50.4447914421673],[-121.036518534212,50.4447151388618],[-121.036715638562,50.4447118135116],[-121.036925000296,50.4447701419513],[-121.037095617429,50.4446836828466],[-121.037100830339,50.4446826043546]]]}},{"type":"Feature","id":"915576987","properties":{"name":"iSP_15KPH_%TR_Preventing Shifting","oid":"915576987","speedLimit":4.1666665},"geometry":{"type":"Polygon","coordinates":[[[-121.036999953487,50.4448633416307],[-121.037514059117,50.445313252523],[-121.037983361899,50.4457956979224],[-121.038527336093,50.4462190060132],[-121.0394600243,50.4468501035531],[-121.039917351479,50.4470998643141],[-121.040473301277,50.4471952209775],[-121.041226496316,50.4473229323993],[-121.041644938004,50.4475097811298],[-121.04232346163,50.4480952225106],[-121.042706117396,50.4485279674059],[-121.042849542863,50.4487949840381],[-121.043011002181,50.4493917495844],[-121.043190213571,50.450198281815],[-121.043327721681,50.4505014279276],[-121.043689384918,50.4511688346966],[-121.043859861161,50.4514891468061],[-121.044128819135,50.452253707725],[-121.044385942395,50.4529382804909],[-121.044699703216,50.4537981980732],[-121.044738588706,50.4541948134882],[-121.04457417071,50.4550718970673],[-121.044218565719,50.4568393656264],[-121.044054147723,50.4572074010046],[-121.043007902613,50.4583990447362],[-121.04190797862,50.4595373929905],[-121.041346111465,50.4600006951577],[-121.040374678657,50.4605975505783],[-121.039926227515,50.4607310139572],[-121.039137105664,50.4608072273884],[-121.03849972176,50.460838773278],[-121.0386475148,50.4611435371285],[-121.038760367256,50.460949588326],[-121.039881424667,50.4608797559722],[-121.040709432007,50.4606318825721],[-121.04151348814,50.4600579451055],[-121.04287645275,50.4587003034878],[-121.044245334716,50.4571425117389],[-121.044430745242,50.4562902334746],[-121.044816359687,50.4544216562952],[-121.044813260119,50.453786694159],[-121.044263368567,50.4523014309938],[-121.043835909954,50.4511860006935],[-121.04334871421,50.4503374971511],[-121.04305284635,50.4493097841961],[-121.042930272522,50.4486919880568],[-121.042242731971,50.447887343187],[-121.041549274062,50.4473915963869],[-121.041094905562,50.4472219136533],[-121.040461325673,50.4471304215861],[-121.039920310157,50.4470197862868],[-121.038823344843,50.4463334160343],[-121.03819864099,50.4458719113536],[-121.037155495448,50.4449071104291],[-121.037379650574,50.4446974336189],[-121.036999953487,50.4448633416307]]]}},{"type":"Feature","id":"908328496","properties":{"name":"SP_25KPH_%TR_1445_SOFT_GROUND_SEPT_16_NS","oid":"908328496","speedLimit":6.9444447},"geometry":{"type":"Polygon","coordinates":[[[-121.039333646457,50.4644967483528],[-121.039942711581,50.4647090315185],[-121.039190925437,50.4666746729736],[-121.038828698642,50.4674277299784],[-121.038453932686,50.4678941777472],[-121.037917002964,50.4682378571822],[-121.037181982666,50.4680257537652],[-121.038315015681,50.4667051403712],[-121.038795730509,50.4655658933736],[-121.039333646457,50.4644967483528]]]}},{"type":"Feature","id":"884401102","properties":{"name":"iSP_30KPH_%TR_Maint_Limit_Policy","oid":"884401102","speedLimit":8.333333},"geometry":{"type":"Polygon","coordinates":[[[-121.036994458798,50.4611012961938],[-121.037110551711,50.4611077671455],[-121.038296840941,50.4609920988837],[-121.038280497764,50.460397939693],[-121.038121997125,50.4605658249401],[-121.037034894073,50.4607084555006],[-121.036747197801,50.4605377841494],[-121.036994458798,50.4611012961938]]]}},{"type":"Feature","id":"883059532","properties":{"name":"iSP_22KPH_%TR_Brake_Ctrl","oid":"883059532","speedLimit":6.111111},"geometry":{"type":"Polygon","coordinates":[[[-121.027264069322,50.4773219050112],[-121.027031883496,50.4772097418483],[-121.027336345614,50.4769439834567],[-121.027718296932,50.4766323891572],[-121.028035016432,50.4763226822186],[-121.028192249066,50.4761687274926],[-121.028623089027,50.4756923036732],[-121.028909094625,50.4753257062842],[-121.029265685841,50.4748875689291],[-121.029474484017,50.4746566817773],[-121.029693285344,50.4745403843952],[-121.02980332001,50.47448816741],[-121.02995407173,50.4745926013805],[-121.02979049907,50.4745420021332],[-121.029557890576,50.4747914932712],[-121.029253710237,50.4751730097988],[-121.029074780627,50.475477953398],[-121.028854993073,50.4757747184332],[-121.028697901329,50.4759746888158],[-121.028410768615,50.4762705551076],[-121.0280434698,50.4765699264984],[-121.027245753693,50.4772193584016],[-121.027264069322,50.4773219050112]]]}},{"type":"Feature","id":"883053336","properties":{"name":"iSP_22KPH_%TR_Brake_Temp_Ctrl","oid":"883053336","speedLimit":6.111111},"geometry":{"type":"Polygon","coordinates":[[[-121.032467821426,50.4721451436464],[-121.032252965004,50.4722254014224],[-121.031490330372,50.4710082333814],[-121.03081842855,50.4699232704787],[-121.030663168368,50.4696601184426],[-121.030598359218,50.4694576315788],[-121.030552006586,50.4692566725786],[-121.030598359218,50.4689728494468],[-121.030724596171,50.4686242269237],[-121.030886337268,50.4683754547803],[-121.031090767871,50.4680977431029],[-121.031690111622,50.4675364779168],[-121.032434007956,50.4668936068396],[-121.032790317394,50.4665561287333],[-121.03314944462,50.4662223354744],[-121.033486311313,50.4658706572241],[-121.033781333836,50.4660340487547],[-121.033589301506,50.4659932458092],[-121.032921203699,50.4666520246426],[-121.032556440895,50.4669912103612],[-121.032180406933,50.4673076578745],[-121.03177619508,50.4676683235578],[-121.031383817942,50.4680343817008],[-121.031148955217,50.4682862994457],[-121.03101060177,50.468469822826],[-121.030906907129,50.4686544246983],[-121.030830404154,50.4688529570916],[-121.030769539908,50.4691912440669],[-121.030778275054,50.4694005613797],[-121.03087548878,50.4696302801653],[-121.031029480957,50.4699350440158],[-121.03133239329,50.4704037386428],[-121.031532456319,50.4707109291002],[-121.031752102983,50.4710828290746],[-121.032147861469,50.471728755879],[-121.032383146862,50.4721450537721],[-121.032467821426,50.4721451436464]]]}},{"type":"Feature","id":"883050998","properties":{"name":"iSP_22KPH_%TR_4CR_Brake_Temp_Ctrl","oid":"883050998","speedLimit":6.111111},"geometry":{"type":"Polygon","coordinates":[[[-121.031801273404,50.4745588985071],[-121.032190550974,50.4743122833476],[-121.032492195302,50.4745746265147],[-121.03279383963,50.4748020085677],[-121.032971642125,50.4748844233276],[-121.033180440301,50.4749345732033],[-121.033464332557,50.4749593785182],[-121.033668199602,50.4749218110486],[-121.033829377141,50.474862404117],[-121.03392053262,50.4748103668803],[-121.034009856536,50.4747471852269],[-121.034060294961,50.4746580298922],[-121.034054518494,50.4745478439646],[-121.034058322509,50.4744834939448],[-121.033996190258,50.4743795093459],[-121.033877843114,50.474259437242],[-121.033510966968,50.4739375073946],[-121.033062656715,50.4735598554631],[-121.032949381591,50.4734253135922],[-121.032824412642,50.4732207596189],[-121.032607583768,50.4728147972736],[-121.032254092119,50.4722088645458],[-121.032489095734,50.4721560184402],[-121.032432035504,50.4722055391956],[-121.032904578743,50.4730487401527],[-121.033043777527,50.4733094655818],[-121.033251589477,50.4735468236854],[-121.033744561688,50.4739615038405],[-121.03409960312,50.4742710310305],[-121.034204988434,50.4743943386102],[-121.034257681091,50.4744615646085],[-121.034264725564,50.4745926912549],[-121.03423978813,50.474678700988],[-121.03418526391,50.4747914932712],[-121.034087768406,50.4748757055177],[-121.03397491595,50.4749375390562],[-121.033792323214,50.4750159993456],[-121.033532804833,50.4750642618604],[-121.033264833086,50.4750679467079],[-121.033073223424,50.4750261551448],[-121.03280947836,50.4749164185888],[-121.032658726641,50.4748349924465],[-121.032497126433,50.4747052139151],[-121.032146593463,50.4744129425964],[-121.031801273404,50.4745588985071]]]}},{"type":"Feature","id":"826307302","properties":{"name":"iSP_4KPH_%TR_CR04_Pockets","oid":"826307302","speedLimit":1.1111112},"geometry":{"type":"Polygon","coordinates":[[[-121.023299721774,50.4813213126629],[-121.023339170822,50.4814769750011],[-121.023543883203,50.4814375201706],[-121.023462871765,50.4811886581529],[-121.023054574118,50.4811893771475],[-121.023059927917,50.4813600484988],[-121.023284787491,50.4813260760023],[-121.023299721774,50.4813213126629]]]}},{"type":"Feature","id":"824566967","properties":{"name":"iSP_3KPH_%TR_CR04","oid":"824566967","speedLimit":0.8333333},"geometry":{"type":"Polygon","coordinates":[[[-121.023304512015,50.4810681366774],[-121.023284364823,50.4810681366774],[-121.023281687923,50.481186231546],[-121.023306766246,50.4811855125514],[-121.023304512015,50.4810681366774]]]}},{"type":"Feature","id":"806473874","properties":{"name":"iSP_4KPH_%TR_CR04_PermissionBlocker","oid":"806473874","speedLimit":1.1111112},"geometry":{"type":"Polygon","coordinates":[[[-121.02272165233,50.4815450098684],[-121.022688543308,50.4815426731358],[-121.022680935277,50.4815713430468],[-121.022703054922,50.4815724215388],[-121.022707140716,50.4815483352186],[-121.02272165233,50.4815450098684]]]}},{"type":"Feature","id":"801543391","properties":{"name":"iSP_4KPH_%TR_CR01_PermissionBlocker_2","oid":"801543391","speedLimit":1.1111112},"geometry":{"type":"Polygon","coordinates":[[[-121.033157616209,50.46452326128],[-121.033156770872,50.4644738303989],[-121.033178326959,50.4644317692128],[-121.033110277351,50.4644593606319],[-121.033157616209,50.46452326128]]]}},{"type":"Feature","id":"794004438","properties":{"name":"iSP_11KPH_%TR_Lower_Fuel_Bay","oid":"794004438","speedLimit":3.0555556},"geometry":{"type":"Polygon","coordinates":[[[-121.036778897929,50.4606954237229],[-121.036781011271,50.4607252620002],[-121.036751283595,50.4606707981566],[-121.037127458446,50.4605990784419],[-121.037537446767,50.4605560286382],[-121.037545195687,50.460581373199],[-121.036946697272,50.4606502169352],[-121.036778897929,50.4606954237229]]]}},{"type":"Feature","id":"776902464","properties":{"name":"SP_35KPH_80%TR_SkyWay-4CR_SEPT_15_DS","oid":"776902464","speedLimit":9.722222},"geometry":{"type":"Polygon","coordinates":[[[-121.029522245543,50.475229271129],[-121.02920115847,50.4750683062053],[-121.028513054361,50.4759389188327],[-121.027004269163,50.4773121087093],[-121.027193483704,50.4773779865927],[-121.027136141695,50.4773066263752],[-121.028524466407,50.4762096203124],[-121.029229899919,50.4752841843441],[-121.029442079442,50.4752402357971],[-121.029522245543,50.475229271129]]]}},{"type":"Feature","id":"776902235","properties":{"name":"SP_35KPH_80%TR_1cr-4cr sec2_SEPT_15_DS","oid":"776902235","speedLimit":9.722222},"geometry":{"type":"Polygon","coordinates":[[[-121.033393746939,50.4730314842815],[-121.032872737726,50.4731802262964],[-121.033049413106,50.4735342412793],[-121.033926027309,50.4743026667944],[-121.03405550472,50.4744918522574],[-121.034062549193,50.4746646805926],[-121.033837689619,50.4749140818563],[-121.033427701298,50.4749663887159],[-121.033188189221,50.4749423023957],[-121.032696203236,50.4747572511517],[-121.032336794231,50.4744796293487],[-121.032084461213,50.4742624030949],[-121.031901586697,50.4741095268608],[-121.03163093805,50.4739600658513],[-121.031248423173,50.4739187236598],[-121.030843788652,50.4739705811478],[-121.030410130903,50.4740618934663],[-121.03050424506,50.4742759741186],[-121.030541017208,50.4741271422294],[-121.03090930225,50.4740592871108],[-121.031242646706,50.4740219892641],[-121.031522171389,50.4740407729989],[-121.031857488297,50.4742322053202],[-121.032419496342,50.4746883175412],[-121.032799193429,50.4749754660231],[-121.033270045996,50.4751072217898],[-121.03378288362,50.4750935608918],[-121.034190899488,50.4749704330607],[-121.034411532378,50.4746807680975],[-121.034329534714,50.4743629724693],[-121.033825009568,50.4739002994223],[-121.033062938493,50.4732822336601],[-121.033228342716,50.4731568589708],[-121.033311044828,50.4730942165633],[-121.033352325439,50.4730628504224],[-121.033393746939,50.4730314842815]]]}},{"type":"Feature","id":"776901904","properties":{"name":"SP_35KPH_80%TR_1CR-Connector Parking_SPET_15_DS","oid":"776901904","speedLimit":9.722222},"geometry":{"type":"Polygon","coordinates":[[[-121.034268952248,50.4656278167865],[-121.034012815214,50.4654803330122],[-121.033533368391,50.4658616697912],[-121.032602229968,50.4667553801212],[-121.031096685228,50.4680970241083],[-121.030852946467,50.4684462757518],[-121.030629214009,50.4688679661046],[-121.030555810601,50.4691725502064],[-121.030575816904,50.4694259059406],[-121.030722764608,50.4697752474584],[-121.031707581915,50.4713532609314],[-121.032178293591,50.4721561083146],[-121.032769183975,50.4731229763486],[-121.033374726862,50.4730055106003],[-121.03290035206,50.4730090156992],[-121.031026522278,50.4699119463132],[-121.030746574927,50.4693079908206],[-121.030774471039,50.4689802191418],[-121.031221513287,50.4681720691732],[-121.032722408675,50.4668937865883],[-121.033526605697,50.4660555287194],[-121.034093544873,50.4655822505015],[-121.034268952248,50.4656278167865]]]}},{"type":"Feature","id":"776427243","properties":{"name":"iSP_7KPH_%TR_CR1_PermissionBlocker","oid":"776427243","speedLimit":1.9444444},"geometry":{"type":"Polygon","coordinates":[[[-121.03410213913,50.465212777134],[-121.034053673157,50.4652330887324],[-121.034032539738,50.4652745207982],[-121.034118200528,50.4652254494144],[-121.03410213913,50.465212777134]]]}},{"type":"Feature","id":"742345972","properties":{"name":"iSP_4KPH_%TR_CR01_Pit Side_Slow Bump","oid":"742345972","speedLimit":1.1111112},"geometry":{"type":"Polygon","coordinates":[[[-121.033400932301,50.464882758597],[-121.033708212208,50.4647442622556],[-121.033758368854,50.4647763473911],[-121.033476871719,50.464918258957],[-121.033400932301,50.464882758597]]]}},{"type":"Feature","id":"707947583","properties":{"name":"iSP_25KPH_%TR_Permission Gate 1 From West Dump","oid":"707947583","speedLimit":6.9444447},"geometry":{"type":"Polygon","coordinates":[[[-121.038630608066,50.4619779304013],[-121.038857299202,50.4617994399834],[-121.038142285207,50.4614082170281],[-121.037994633055,50.4616709196925],[-121.038194132527,50.4615668452193],[-121.038669070887,50.4618459948859],[-121.038630608066,50.4619779304013]]]}},{"type":"Feature","id":"702602533","properties":{"name":"iSP_4KPH_%TR_CR01_Slow Bump","oid":"702602533","speedLimit":1.1111112},"geometry":{"type":"Polygon","coordinates":[[[-121.033361060585,50.4648078034064],[-121.03365580133,50.4646907870297],[-121.033699195282,50.4647315001008],[-121.033371345515,50.4648696369449],[-121.033361060585,50.4648078034064]]]}}]}