{"type":"FeatureCollection","features":[{"type":"Feature","id":"702602533","properties":{"name":"iSP_4KPH_%TR_CR01_SLOW BUMP","oid":"702602533","speedLimit":1.1111112},"geometry":{"type":"Polygon","coordinates":[[[-121.033359923668,50.4648088423424],[-121.033654680191,50.4646918221323],[-121.033698076466,50.4647325365372],[-121.033370209149,50.4648706779066],[-121.033359923668,50.4648088423424]]]}},{"type":"Feature","id":"707947583","properties":{"name":"iSP_22KPH_%TR_Permission Gate 1 from west dump_Jun","oid":"707947583","speedLimit":6.111111},"geometry":{"type":"Polygon","coordinates":[[[-121.038629753244,50.4619788766316],[-121.038856456516,50.4618003803664],[-121.037982190634,50.4613518927716],[-121.037745060984,50.4615431516096],[-121.037961196981,50.4614974040774],[-121.038668218125,50.4618469367941],[-121.038629753244,50.4619788766316]]]}},{"type":"Feature","id":"742345972","properties":{"name":"iSP_4KPH_%TR_CR01_PITSIDE_SLOW BUMP","oid":"742345972","speedLimit":1.1111112},"geometry":{"type":"Polygon","coordinates":[[[-121.033399797518,50.4648837999885],[-121.033707093874,50.46474529911],[-121.033757253206,50.4647773852967],[-121.033475741001,50.4649193015116],[-121.033399797518,50.4648837999885]]]}},{"type":"Feature","id":"776427243","properties":{"name":"iSP_7KPH_%TR_CR1_PermissionBlocker_DO_NOT_DELETE","oid":"776427243","speedLimit":1.9444444},"geometry":{"type":"Polygon","coordinates":[[[-121.034101041885,50.4652138293368],[-121.034052573317,50.4652341416006],[-121.034031438767,50.4652755750237],[-121.034117104143,50.4652265020324],[-121.034101041885,50.4652138293368]]]}},{"type":"Feature","id":"794004438","properties":{"name":"iSP_11KPH_%TR_LOWER_FUEL_BAY","oid":"794004438","speedLimit":3.0555556},"geometry":{"type":"Polygon","coordinates":[[[-121.036777943979,50.4606963279386],[-121.036780057434,50.4607261671935],[-121.036750328167,50.4606717015657],[-121.037126523156,50.4605999795014],[-121.037536533425,50.4605569282874],[-121.03754428276,50.4605822736786],[-121.036945752306,50.4606511196701],[-121.036777943979,50.4606963279386]]]}},{"type":"Feature","id":"801543391","properties":{"name":"iSP_4KPH_%TR_CR1_PermissionBlocker_DO_NOT_DELETE_","oid":"801543391","speedLimit":1.1111112},"geometry":{"type":"Polygon","coordinates":[[[-121.0331564684,50.4645242908945],[-121.033155623018,50.4644748583941],[-121.033177180259,50.4644327958301],[-121.033109127008,50.464460388153],[-121.0331564684,50.4645242908945]]]}},{"type":"Feature","id":"806473874","properties":{"name":"iSP_4KPH_%TR_Permission Blocker - DO NOT DELETE","oid":"806473874","speedLimit":1.1111112},"geometry":{"type":"Polygon","coordinates":[[[-121.022719945851,50.4815465971099],[-121.022686835056,50.4815442603008],[-121.022679226618,50.4815729311511],[-121.022701347447,50.4815740096784],[-121.02270543346,50.481549922569],[-121.022719945851,50.4815465971099]]]}},{"type":"Feature","id":"824566967","properties":{"name":"iSP_4Cr_3KPH","oid":"824566967","speedLimit":0.8333333},"geometry":{"type":"Polygon","coordinates":[[[-121.023302836738,50.4810697082967],[-121.023282688467,50.4810697082967],[-121.023280011424,50.4811878070341],[-121.02330509109,50.4811870880159],[-121.023302836738,50.4810697082967]]]}},{"type":"Feature","id":"826307302","properties":{"name":"iSP_4KPH_TR%_CRUSHER POCKETS","oid":"826307302","speedLimit":1.1111112},"geometry":{"type":"Polygon","coordinates":[[[-121.02329804624,50.4813228925762],[-121.0233374974,50.4814785600139],[-121.02354222074,50.4814391038908],[-121.023461204965,50.4811902337205],[-121.023052885461,50.4811909527387],[-121.023058239547,50.4813616296811],[-121.023283111158,50.4813276560717],[-121.02329804624,50.4813228925762]]]}},{"type":"Feature","id":"849417440","properties":{"name":"iSP_Permissions_35_KPH_June_19_NS","oid":"849417440","speedLimit":9.722222},"geometry":{"type":"Polygon","coordinates":[[[-121.032696439697,50.4660351278621],[-121.033011062697,50.4660158042483],[-121.033218040389,50.465814928542],[-121.03380684895,50.4653804618019],[-121.033727664836,50.465251667669],[-121.033963808208,50.4654011335748],[-121.033427554227,50.4658094460283],[-121.033025152397,50.4661889977544],[-121.032696439697,50.4660351278621]]]}},{"type":"Feature","id":"853029148","properties":{"name":"SP_15KPH_%TR_1635 Flats_AUG_18_NS","oid":"853029148","speedLimit":4.1666665},"geometry":{"type":"Polygon","coordinates":[[[-121.018590254794,50.4569716339701],[-121.017426445578,50.4572816206864],[-121.015788799753,50.4579437465603],[-121.014824641585,50.4590972314885],[-121.018349320925,50.4588938392185],[-121.020692578924,50.4589879407239],[-121.020240863144,50.4572324578178],[-121.019423096959,50.4570972823984],[-121.018968845032,50.4570006643294],[-121.018590254794,50.4569716339701]]]}},{"type":"Feature","id":"883050998","properties":{"name":"iSP_22kph_%TR_4CR_Brake_Temp_CTRL_NOREMOVE","oid":"883050998","speedLimit":6.111111},"geometry":{"type":"Polygon","coordinates":[[[-121.031800052986,50.4745602568859],[-121.032189351395,50.4743136336474],[-121.032491011871,50.4745759854087],[-121.032792672347,50.4748033749107],[-121.032970484361,50.4748857923705],[-121.033179293714,50.4749359438891],[-121.033463201168,50.4749607500166],[-121.033667079127,50.4749231813163],[-121.033828265294,50.4748637724385],[-121.033919425653,50.4748117334971],[-121.03400875435,50.4747485497738],[-121.034059195476,50.4746593915185],[-121.034053418699,50.4745492019812],[-121.034057222918,50.4744848498534],[-121.033995087341,50.4743808618479],[-121.033876733862,50.4742607858105],[-121.033509838075,50.4739388454168],[-121.033061503823,50.4735611811136],[-121.032948222635,50.4734266348351],[-121.032823246996,50.4732220741606],[-121.032606406514,50.4728160985162],[-121.032252895942,50.4722101459383],[-121.032487912137,50.4721572981014],[-121.032430848853,50.4722068204791],[-121.032903417389,50.4730500490592],[-121.033042623625,50.4733107830296],[-121.033250446699,50.4735481489089],[-121.0337434453,50.4739628426489],[-121.034098505739,50.4742723799788],[-121.034203896695,50.4743956915981],[-121.034256592173,50.4744629197987],[-121.034263637023,50.4745940507407],[-121.034238698254,50.4746800632914],[-121.034184171115,50.4747928592697],[-121.034086670391,50.474877074275],[-121.033973811895,50.4749389098391],[-121.033791209383,50.4750173726989],[-121.03353167711,50.4750656367948],[-121.033263691017,50.475069321763],[-121.033072071098,50.4750275288308],[-121.032808311914,50.4749177886799],[-121.032657552125,50.4748363598701],[-121.032495943266,50.4747065770871],[-121.032145391532,50.4744142961937],[-121.031800052986,50.4745602568859]]]}},{"type":"Feature","id":"883053336","properties":{"name":"iSP_22kph_%TR_Brake_Temp_CTRL_NOREMOVE","oid":"883053336","speedLimit":6.111111},"geometry":{"type":"Polygon","coordinates":[[[-121.03246663669,50.4721464229513],[-121.032251768766,50.4722266833566],[-121.031489093308,50.4710094754415],[-121.030817155517,50.4699244769958],[-121.030661887023,50.4696613163389],[-121.030597074404,50.4694588228417],[-121.030550719291,50.4692578572582],[-121.030597074404,50.4689740248284],[-121.030723318115,50.4686253908845],[-121.030885067871,50.4683766105915],[-121.031089509417,50.4680988898163],[-121.031688885253,50.4675376062433],[-121.032432821411,50.4668947141059],[-121.032789149922,50.4665572249439],[-121.033148296374,50.4662234207501],[-121.0334851811,50.4658717309789],[-121.033780219417,50.4660351278621],[-121.033588176807,50.4659943235799],[-121.032920043235,50.4666531239947],[-121.032555260903,50.4669923208249],[-121.032179206811,50.4673087787049],[-121.03177497332,50.4676694562035],[-121.031382575176,50.4680355263385],[-121.031147699878,50.4682874523361],[-121.031009339024,50.4684709817286],[-121.030905638833,50.4686555896484],[-121.030829131762,50.4688541285456],[-121.030768264258,50.4691924266031],[-121.030776999872,50.469401750773],[-121.030874218802,50.4696314770841],[-121.031028219222,50.4699362509186],[-121.031331147771,50.4704049608999],[-121.031531221511,50.4707121614208],[-121.031750879933,50.4710840735785],[-121.032146659605,50.4717300215432],[-121.032381957594,50.4721463330741],[-121.03246663669,50.4721464229513]]]}},{"type":"Feature","id":"883059532","properties":{"name":"iSP_22kph_%TR_Brake_CTRL_NOREMOVE","oid":"883059532","speedLimit":6.111111},"geometry":{"type":"Polygon","coordinates":[[[-121.027262606013,50.4773233539052],[-121.027030407757,50.4772111870679],[-121.027334886173,50.4769454199701],[-121.027716857939,50.4766338154629],[-121.028033594394,50.4763240983784],[-121.028190835446,50.4761701386089],[-121.02862169847,50.475693699182],[-121.028907719379,50.4753270897834],[-121.029264329685,50.4748889380751],[-121.029473139038,50.4746580433594],[-121.029691952079,50.4745417421675],[-121.029801992635,50.4744895234716],[-121.029952752425,50.4745939608634],[-121.029789171008,50.4745433599584],[-121.029556550062,50.4747928592697],[-121.02925235344,50.4751743882957],[-121.029073414251,50.4754793418847],[-121.028853614931,50.4757761166418],[-121.028696514777,50.4759760935754],[-121.028409366692,50.4762719695598],[-121.028042048214,50.4765713507578],[-121.027244289403,50.4772208039361],[-121.027262606013,50.4773233539052]]]}},{"type":"Feature","id":"891249991","properties":{"name":"SP_40KPH_TR%_1590 #1_AUG_19_NS","oid":"891249991","speedLimit":11.111111},"geometry":{"type":"Polygon","coordinates":[[[-121.012956629165,50.4498612631086],[-121.013432297435,50.4498233348991],[-121.012542391986,50.4443343500517],[-121.012138440289,50.4430841571772],[-121.011299116862,50.4419106296171],[-121.010529255657,50.4421500626737],[-121.011008305455,50.4427019990103],[-121.011240362814,50.4430302308131],[-121.011455935223,50.4435203315855],[-121.011773939751,50.4445110487714],[-121.012956629165,50.4498612631086]]]}},{"type":"Feature","id":"908328496","properties":{"name":"SP_15KPH_%TR_9019_SOFT_GROUND_AUG_17_DS","oid":"908328496","speedLimit":4.1666665},"geometry":{"type":"Polygon","coordinates":[[[-121.039689862269,50.4639774775625],[-121.039875423617,50.4641979465144],[-121.039739739806,50.4650145714215],[-121.039441179064,50.4657763711917],[-121.03920658556,50.4663544618149],[-121.038929441162,50.466980187393],[-121.037873840842,50.4685922261706],[-121.036178427246,50.4681977548172],[-121.035229485954,50.4668169702643],[-121.037882435559,50.465140938868],[-121.038521544349,50.4648154033834],[-121.039689862269,50.4639774775625]]]}},{"type":"Feature","id":"910445950","properties":{"name":"SP_20KPH_%TR_1635_FLATS_AUG_18_NS","oid":"910445950","speedLimit":5.5555553},"geometry":{"type":"Polygon","coordinates":[[[-121.020225646268,50.4571648701081],[-121.019044506721,50.4569620171018],[-121.018650840504,50.4569233698742],[-121.017842796212,50.4571477035489],[-121.018448794207,50.4564132264698],[-121.018503321346,50.4555087015892],[-121.019218373618,50.4555087015892],[-121.019236549331,50.4564596031429],[-121.019424365032,50.4568926318467],[-121.019757727332,50.4570626796481],[-121.020225646268,50.4571648701081]]]}},{"type":"Feature","id":"913788494","properties":{"name":"SP_15KPH_%TR_ROUGH_21SH_AUG_19_DS","oid":"913788494","speedLimit":4.1666665},"geometry":{"type":"Polygon","coordinates":[[[-121.041138847012,50.4531508611961],[-121.041192246975,50.4542743271149],[-121.040910875667,50.4551336437269],[-121.040262326778,50.4560697155304],[-121.039700993132,50.4564181697198],[-121.039060052681,50.4561277762491],[-121.039632798984,50.4559003867472],[-121.040320799033,50.4550789983446],[-121.040547079614,50.4542445777374],[-121.040544543468,50.4531386378869],[-121.041138847012,50.4531508611961]]]}},{"type":"Feature","id":"917291012","properties":{"name":"SP_15KPH_%TR_CORNER_RUTS_AUG_18_NS","oid":"917291012","speedLimit":4.1666665},"geometry":{"type":"Polygon","coordinates":[[[-121.040611469543,50.4662224321001],[-121.040685722261,50.4661082879627],[-121.040423794739,50.4659272751339],[-121.040530453768,50.4656664512862],[-121.040027169686,50.4656489252179],[-121.040220621266,50.465771877328],[-121.040017870484,50.4663115903554],[-121.039934882151,50.466486940916],[-121.039996031449,50.4668211046189],[-121.040668251033,50.46674030495],[-121.040550320245,50.4666233746172],[-121.040532849017,50.4663783691696],[-121.040611469543,50.4662224321001]]]}},{"type":"Feature","id":"920440343","properties":{"name":"iSP_17KPH_CAL_PAD_ROAD_LIMIT_AUG_12_DS","oid":"920440343","speedLimit":4.7222223},"geometry":{"type":"Polygon","coordinates":[[[-121.005954752773,50.4378310102954],[-121.005968419782,50.437613327539],[-121.005586166222,50.4375785450341],[-121.005285914716,50.4376829824259],[-121.005190386551,50.4378353244045],[-121.005285914716,50.4381618485392],[-121.005988849847,50.4392589804168],[-121.007469818209,50.441370377326],[-121.007674541549,50.4416489968739],[-121.007783736724,50.4421540172737],[-121.007933932925,50.4426633517827],[-121.008118226201,50.443233623083],[-121.008322949541,50.4436515524048],[-121.008684632139,50.4445614699218],[-121.00875973024,50.4449227765613],[-121.00875973024,50.445179645809],[-121.008691536092,50.445619325431],[-121.008493575808,50.4462287832226],[-121.008944023515,50.4462157510179],[-121.009135079847,50.4457325707956],[-121.009319373122,50.4449184624522],[-121.009216941003,50.4444526285436],[-121.008998550654,50.4437995802743],[-121.008773397249,50.4433773368434],[-121.008459478734,50.4427373207788],[-121.008295615523,50.4420756442912],[-121.008241088384,50.4417448060474],[-121.007920265917,50.44119619517],[-121.006814647161,50.4398335658264],[-121.006603160765,50.4394940094871],[-121.006227811158,50.4387800244263],[-121.005988849847,50.4383882493911],[-121.005934322708,50.4380574111474],[-121.005954752773,50.4378310102954]]]}},{"type":"Feature","id":"921284584","properties":{"name":"SP_22kph_rough ground_AUG 18_NS","oid":"921284584","speedLimit":6.111111},"geometry":{"type":"Polygon","coordinates":[[[-121.039986027762,50.4678269211867],[-121.040545529747,50.4679711742107],[-121.040344751522,50.4682553661495],[-121.039852880097,50.4686655660258],[-121.039241528016,50.4705091286599],[-121.037953306749,50.4698094340857],[-121.039986027762,50.4678269211867]]]}},{"type":"Feature","id":"921727643","properties":{"name":"SP_35KPH_%TR_ HIGHMONT TRIAL_Aug18_NS","oid":"921727643","speedLimit":9.722222},"geometry":{"type":"Polygon","coordinates":[[[-121.012709073137,50.4365928609756],[-121.010156160402,50.4366191950167],[-121.007266362942,50.4370213059384],[-121.006147922559,50.4371703224579],[-121.005263089402,50.437078018498],[-121.00492366853,50.4368544038415],[-121.005302117871,50.4361090516123],[-121.005969828752,50.4354594186794],[-121.006754484142,50.4347246719685],[-121.007316522274,50.4339047216023],[-121.007674118858,50.4330514267677],[-121.007911952994,50.4323925364756],[-121.007906317114,50.4319204111579],[-121.007795008484,50.431384472976],[-121.007511241927,50.4310046516182],[-121.006988232265,50.4305645226098],[-121.005752847373,50.4297835789803],[-121.004890275942,50.429268851835],[-121.004116892311,50.4288926255681],[-121.003315892869,50.4284986934783],[-121.003469893289,50.4283232530404],[-121.003114973747,50.428531768315],[-121.004389105314,50.4291670208841],[-121.005350304645,50.429695409375],[-121.006573854189,50.4304920815274],[-121.00713025644,50.4309176504174],[-121.007500251961,50.4313875288033],[-121.007671019124,50.4318534525891],[-121.007636217565,50.4325371490087],[-121.007399087915,50.433202690219],[-121.00717252554,50.4338689504475],[-121.006590057344,50.434564151158],[-121.006157926246,50.4350396019349],[-121.00574453445,50.4354071101062],[-121.005111906922,50.4360624053074],[-121.004792493424,50.4366457088124],[-121.004711054958,50.4369333160876],[-121.004892671191,50.4370851188026],[-121.005450200618,50.4372769169042],[-121.006283183679,50.4372649632269],[-121.007585917337,50.437145066944],[-121.008819752362,50.4369813105517],[-121.009458579357,50.4368813670235],[-121.011036907546,50.43678951245],[-121.012887448738,50.4367965228774],[-121.012878149536,50.4364191282059],[-121.012709073137,50.4365928609756]]]}},{"type":"Feature","id":"922262468","properties":{"name":"SPD_25kph_HMT_DUMP_AUG_18_NS","oid":"922262468","speedLimit":6.9444447},"geometry":{"type":"Polygon","coordinates":[[[-121.012501250062,50.4364266778969],[-121.012481383585,50.4374173950827],[-121.016363941305,50.4384080223913],[-121.01718029852,50.4369600995151],[-121.016523295811,50.4359059289742],[-121.014771100725,50.4353089641236],[-121.01289956588,50.4352074028045],[-121.012501250062,50.4364266778969]]]}},{"type":"Feature","id":"922385545","properties":{"name":"SP_20KPH_RUTS_AUG 18_NS","oid":"922385545","speedLimit":5.5555553},"geometry":{"type":"Polygon","coordinates":[[[-121.007511241927,50.4337193047871],[-121.006869737888,50.4335258888945],[-121.006518340771,50.4340724325947],[-121.007225643709,50.4343190558332],[-121.007511241927,50.4337193047871]]]}},{"type":"Feature","id":"923351007","properties":{"name":"iSP_17KPH_PERMISSIONS_AUG 18_NS","oid":"923351007","speedLimit":4.7222223},"geometry":{"type":"Polygon","coordinates":[[[-121.038854765752,50.460878149663],[-121.038874209538,50.4611357379288],[-121.038784880841,50.4608904628494],[-121.038540142752,50.4608904628494],[-121.038536338533,50.4608310539716],[-121.038881958873,50.4608235941579],[-121.038854765752,50.460878149663]]]}}]}