{"type":"FeatureCollection","features":[{"type":"Feature","id":"702602533","properties":{"name":"iSP_4KPH_%TR_CR01_Slow Bump","oid":"702602533","speedLimit":1.1111112},"geometry":{"type":"Polygon","coordinates":[[[-121.033348861238,50.4648080633589],[-121.033643491129,50.4646910459693],[-121.033686868762,50.4647317593929],[-121.0333591423,50.4648698974326],[-121.033348861238,50.4648080633589]]]}},{"type":"Feature","id":"707947583","properties":{"name":"iSP_25KPH_%TR_Permission Gate 1 From West Dump","oid":"707947583","speedLimit":6.9444447},"geometry":{"type":"Polygon","coordinates":[[[-121.038616426815,50.4619781658597],[-121.038843032692,50.4617996738969],[-121.038128287617,50.4614084475554],[-121.037980690999,50.4616711524936],[-121.038180115437,50.4615670771195],[-121.038654875171,50.4618462292024],[-121.038616426815,50.4619781658597]]]}},{"type":"Feature","id":"742345972","properties":{"name":"iSP_4KPH_%TR_CR01_Pit Side_Slow Bump","oid":"742345972","speedLimit":1.1111112},"geometry":{"type":"Polygon","coordinates":[[[-121.033388717959,50.4648830191982],[-121.033695882296,50.4647445216581],[-121.033746020078,50.4647766070714],[-121.033464628815,50.4649185198656],[-121.033388717959,50.4648830191982]]]}},{"type":"Feature","id":"776427243","properties":{"name":"iSP_7KPH_%TR_CR1_PermissionBlocker","oid":"776427243","speedLimit":1.9444444},"geometry":{"type":"Polygon","coordinates":[[[-121.03408966106,50.4652130405917],[-121.034041213315,50.465233352366],[-121.034020087845,50.4652747847904],[-121.034105716417,50.4652257129818],[-121.03408966106,50.4652130405917]]]}},{"type":"Feature","id":"794004438","properties":{"name":"iSP_11KPH_%TR_Lower_Fuel_Bay","oid":"794004438","speedLimit":3.0555556},"geometry":{"type":"Polygon","coordinates":[[[-121.036765413116,50.4606956480805],[-121.036767525663,50.4607254866161],[-121.036737809168,50.4606710223011],[-121.037113842538,50.4605993019656],[-121.03752367666,50.4605562517893],[-121.037531422666,50.4605815965695],[-121.036933149349,50.4606504409016],[-121.036765413116,50.4606956480805]]]}},{"type":"Feature","id":"801543391","properties":{"name":"iSP_4KPH_%TR_CR01_PermissionBlocker_2","oid":"801543391","speedLimit":1.1111112},"geometry":{"type":"Polygon","coordinates":[[[-121.033145493378,50.4645235187696],[-121.03314464836,50.4644740874607],[-121.033166196339,50.4644320259105],[-121.033098172325,50.4644596175684],[-121.033145493378,50.4645235187696]]]}},{"type":"Feature","id":"806473874","properties":{"name":"iSP_4KPH_%TR_CR04_PermissionBlocker","oid":"806473874","speedLimit":1.1111112},"geometry":{"type":"Polygon","coordinates":[[[-121.022713454519,50.4815454146904],[-121.022680357949,50.4815430779376],[-121.02267275278,50.4815717480968],[-121.022694864105,50.4815728265981],[-121.022698948363,50.4815487400694],[-121.022713454519,50.4815454146904]]]}},{"type":"Feature","id":"824566967","properties":{"name":"iSP_3KPH_%TR_CR04","oid":"824566967","speedLimit":0.8333333},"geometry":{"type":"Polygon","coordinates":[[[-121.023296094987,50.4810685373718],[-121.023275955372,50.4810685373718],[-121.023273279479,50.4811866332626],[-121.023298348371,50.4811859142617],[-121.023296094987,50.4810685373718]]]}},{"type":"Feature","id":"826307302","properties":{"name":"iSP_4KPH_%TR_CR04_Pockets","oid":"826307302","speedLimit":1.1111112},"geometry":{"type":"Polygon","coordinates":[[[-121.023291306547,50.4813217155487],[-121.023330740758,50.4814773792343],[-121.023535376146,50.4814379240622],[-121.023454395177,50.4811890598905],[-121.023046251093,50.4811897788914],[-121.023051602879,50.4813604517198],[-121.023276377882,50.4813264789293],[-121.023291306547,50.4813217155487]]]}},{"type":"Feature","id":"883050998","properties":{"name":"iSP_22KPH_%TR_4CR_Brake_Temp_Ctrl","oid":"883050998","speedLimit":6.111111},"geometry":{"type":"Polygon","coordinates":[[[-121.031789660701,50.4745592428605],[-121.032178791862,50.4743126255665],[-121.03248032274,50.4745749710043],[-121.032781853618,50.4748023550254],[-121.032959589241,50.4748847704987],[-121.033168308886,50.4749349208085],[-121.033452094369,50.474959726338],[-121.033655884739,50.4749221585432],[-121.033817001658,50.4748627510974],[-121.033908122853,50.4748107134104],[-121.033997413174,50.47474753121],[-121.034047832629,50.4746583751037],[-121.034042058334,50.4745481882224],[-121.034045860919,50.4744838376456],[-121.033983752036,50.4743798521466],[-121.033865449403,50.4742597790035],[-121.03349871124,50.4739378463696],[-121.033050569599,50.4735601911693],[-121.032937337079,50.4734256481339],[-121.032812415132,50.47322109239],[-121.032595667807,50.472815126531],[-121.032242309109,50.4722091885585],[-121.032477224338,50.4721563419955],[-121.032420185568,50.4722058631795],[-121.032892551082,50.4730490714349],[-121.033031697512,50.4733097991208],[-121.033239431303,50.4735471592788],[-121.033732218104,50.4739618430232],[-121.034087126004,50.4742713728923],[-121.034192471682,50.4743946815393],[-121.034245144521,50.4744619081195],[-121.034252186344,50.4745930359008],[-121.034227258289,50.4746790463784],[-121.034172754576,50.4747918396379],[-121.03407529574,50.4748760526133],[-121.033962485729,50.474937886687],[-121.033779961667,50.4750163476556],[-121.033520540893,50.4750646105881],[-121.033252669931,50.4750682954675],[-121.033061132334,50.4750265035427],[-121.032797486466,50.4749167660368],[-121.032646791445,50.4748353391897],[-121.032485252016,50.474705559535],[-121.032134850884,50.4744132856865],[-121.031789660701,50.4745592428605]]]}},{"type":"Feature","id":"883053336","properties":{"name":"iSP_22KPH_%TR_Brake_Temp_Ctrl","oid":"883053336","speedLimit":6.111111},"geometry":{"type":"Polygon","coordinates":[[[-121.032455958031,50.4721454671075],[-121.032241182417,50.4722257255782],[-121.031478834616,50.4710085470019],[-121.0308071855,50.4699235747083],[-121.030651983712,50.4696604203945],[-121.030587198937,50.4694579317781],[-121.030540863739,50.4692569710385],[-121.030587198937,50.46897314545],[-121.030713388412,50.4686245199094],[-121.030875068677,50.4683757456127],[-121.031079422393,50.4680980315316],[-121.031678540728,50.4675367614874],[-121.032422157279,50.4668938848459],[-121.032778332706,50.4665564038185],[-121.033137324863,50.4662226076705],[-121.033474064858,50.4658709263762],[-121.033768976422,50.466034319321],[-121.033577016316,50.4659935160223],[-121.032909169785,50.4666523005578],[-121.032544544169,50.4669914892122],[-121.032168651636,50.4673079394646],[-121.03176459181,50.4676686082696],[-121.031372362246,50.4680346695811],[-121.031137587854,50.4682865895064],[-121.030999286442,50.4684701144753],[-121.030895630802,50.4686547179454],[-121.0308191566,50.4688532520571],[-121.030758315245,50.4691915419604],[-121.030767047107,50.469400861085],[-121.030864224269,50.4696305818589],[-121.031018158529,50.4699353483473],[-121.031320956935,50.4704040470312],[-121.03152094472,50.4707112401474],[-121.031740508773,50.4710831433409],[-121.032136118412,50.471729075736],[-121.032371315314,50.4721453772324],[-121.032455958031,50.4721454671075]]]}},{"type":"Feature","id":"883059532","properties":{"name":"iSP_22KPH_%TR_Brake_Ctrl","oid":"883059532","speedLimit":6.111111},"geometry":{"type":"Polygon","coordinates":[[[-121.027254163085,50.47732227328],[-121.027022064585,50.4772101091463],[-121.027326412193,50.4769443484544],[-121.027708219858,50.4766327514578],[-121.028024820238,50.4763230418386],[-121.028181993736,50.47616908578],[-121.028612671655,50.4756926578369],[-121.028898569685,50.4753260572748],[-121.029255026786,50.4748879161274],[-121.029463746431,50.4746570269771],[-121.029682465466,50.4745407285885],[-121.029792458748,50.4744885111512],[-121.029943153769,50.4745929460257],[-121.029779642629,50.4745423463404],[-121.02954712162,50.4747918396379],[-121.029243055686,50.4751733594678],[-121.029064193372,50.4754783057064],[-121.028844488482,50.4757750733102],[-121.02868745582,50.4759750454236],[-121.028400431098,50.4762709142764],[-121.028033270426,50.4765702882584],[-121.027235854344,50.4772197257827],[-121.027254163085,50.47732227328]]]}},{"type":"Feature","id":"884401102","properties":{"name":"iSP_30KPH_%TR_Maint_Limit_Policy","oid":"884401102","speedLimit":8.333333},"geometry":{"type":"Polygon","coordinates":[[[-121.036980892912,50.4611015240644],[-121.037096942162,50.4611079950722],[-121.038282785223,50.4609923258092],[-121.038266448192,50.4603981614758],[-121.038108007166,50.460566048176],[-121.037021312978,50.460708679971],[-121.036733724911,50.4605380071425],[-121.036980892912,50.4611015240644]]]}},{"type":"Feature","id":"908328496","properties":{"name":"SP_25KPH_%TR_1445_SOFT_GROUND_SEPT_21_DS","oid":"908328496","speedLimit":6.9444447},"geometry":{"type":"Polygon","coordinates":[[[-121.039319200791,50.464497005613],[-121.039928036842,50.4647092906161],[-121.039176533449,50.4666749490848],[-121.038814442889,50.4674280126077],[-121.038439817884,50.4678944644139],[-121.037903090105,50.4682381468237],[-121.037168346251,50.4680260415708],[-121.038300953127,50.4667054167462],[-121.038781487156,50.4655661598878],[-121.039319200791,50.464497005613]]]}},{"type":"Feature","id":"910445950","properties":{"name":"SP_22KPH_%TR_1635_FLATS_SEP_21_DS","oid":"910445950","speedLimit":6.111111},"geometry":{"type":"Polygon","coordinates":[[[-121.017365330482,50.4554940363784],[-121.01799824957,50.4544143667161],[-121.018143451968,50.4539986943455],[-121.018527935526,50.453751717551],[-121.018943825616,50.4536882657254],[-121.018861717955,50.4543418375046],[-121.018257106998,50.4560722928179],[-121.018271190645,50.4557010187502],[-121.017365330482,50.4554940363784]]]}},{"type":"Feature","id":"915576987","properties":{"name":"iSP_15KPH_%TR_Preventing Shifting","oid":"915576987","speedLimit":4.1666665},"geometry":{"type":"Polygon","coordinates":[[[-121.036986385534,50.4448634289532],[-121.037500297806,50.4453133437396],[-121.037969424081,50.4457957933149],[-121.038513193684,50.4462191050696],[-121.039445531103,50.4468502080721],[-121.039902686278,50.4470999709949],[-121.040458426981,50.4471953284836],[-121.041211338739,50.4473230410109],[-121.041629623049,50.4475098913587],[-121.042307891479,50.4480953378067],[-121.042690403326,50.4485280864477],[-121.04283377485,50.4487951053911],[-121.042995173443,50.4493918761026],[-121.04317431743,50.4501984153143],[-121.043311773823,50.4505015640507],[-121.043673301036,50.4511689765965],[-121.043843713162,50.4514892914784],[-121.04411256998,50.4522538590151],[-121.044369596534,50.4529384377063],[-121.044683239348,50.4537983627316],[-121.044722110213,50.4541949815795],[-121.044557754055,50.4550720727503],[-121.04420228281,50.4568395566078],[-121.044037926652,50.4572075951716],[-121.04299207504,50.4583992492174],[-121.041892564734,50.4595376073247],[-121.0413309089,50.4600009135021],[-121.040359841453,50.4605977740888],[-121.039911558975,50.4607312386229],[-121.039122733918,50.4608074527138],[-121.038485589736,50.4608389988764],[-121.038633327191,50.4611437653648],[-121.038746137202,50.4609498148836],[-121.039866772978,50.4608799819253],[-121.040694468901,50.4606321063797],[-121.041498222624,50.4600581639454],[-121.042860674616,50.4587005105766],[-121.044229041739,50.4571427053442],[-121.044414382531,50.456290419703],[-121.044799851944,50.45442182635],[-121.044796753542,50.4537868587179],[-121.044247068807,50.452301582697],[-121.043819770963,50.451186142742],[-121.043332758456,50.4503376318553],[-121.043037001874,50.4493099100049],[-121.042914474146,50.4486921085183],[-121.042227192182,50.4478874566838],[-121.041533995087,50.4473917055928],[-121.041079797477,50.4472220213904],[-121.040446455881,50.4471305285313],[-121.039905643844,50.4470198922744],[-121.038809091104,50.446333516081],[-121.038184622204,50.4458720074058],[-121.037141868995,50.4449071981304],[-121.037365939816,50.4446975195054],[-121.036986385534,50.4448634289532]]]}},{"type":"Feature","id":"917773475","properties":{"name":"SP_15KPH_%TR_1200_CORNER_Sept_21_DS","oid":"917773475","speedLimit":4.1666665},"geometry":{"type":"Polygon","coordinates":[[[-121.037087224445,50.4446826901127],[-121.036913150571,50.4448622605768],[-121.036617675661,50.4448207382773],[-121.03640318172,50.4448700797111],[-121.036311638016,50.4449677739526],[-121.036243050656,50.4450822748391],[-121.036230797883,50.445145097539],[-121.036251923354,50.4452674175599],[-121.036304596193,50.4453516305353],[-121.036172773259,50.4453953997125],[-121.036077708643,50.4451944389729],[-121.036151647788,50.4449318239098],[-121.036248402442,50.4447915288675],[-121.036505147323,50.4447152249015],[-121.036702177542,50.4447118995225],[-121.036911460533,50.4447702284671],[-121.037082013496,50.444683768614],[-121.037087224445,50.4446826901127]]]}},{"type":"Feature","id":"926078125","properties":{"name":"EX_NewLandfill_SEP15_DS","oid":"926078125","speedLimit":4.1666665},"geometry":{"type":"Polygon","coordinates":[[[-121.011161765739,50.4603919600934],[-121.010845728705,50.4601116396342],[-121.010387024328,50.4596574108426],[-121.010040003271,50.4593951552799],[-121.009788891849,50.4591368542219],[-121.009540878828,50.4588336156103],[-121.009338919333,50.458874418909],[-121.009482009185,50.4595404833282],[-121.009689883812,50.4600623880754],[-121.010011554305,50.4603632899342],[-121.010297734008,50.460607210975],[-121.010569407554,50.4606653601694],[-121.010851925509,50.4605664975515],[-121.011161765739,50.4603919600934]]]}},{"type":"Feature","id":"926367691","properties":{"name":"SP_30KPH_%TR_24SH_EMPTY_LANE_SEP_21_DS","oid":"926367691","speedLimit":8.333333},"geometry":{"type":"Polygon","coordinates":[[[-121.038771910276,50.4508576492253],[-121.038600793967,50.4512057355154],[-121.038626707877,50.452012274727],[-121.038853595427,50.4535986602435],[-121.039032739415,50.4535757420912],[-121.038769938565,50.4517188325021],[-121.038771910276,50.4508576492253]]]}},{"type":"Feature","id":"929009157","properties":{"name":"iSP_22KPH_%TR_Long_Single_Lane","oid":"929009157","speedLimit":6.111111},"geometry":{"type":"Polygon","coordinates":[[[-121.00568055124,50.4380561085866],[-121.004751171387,50.438224175037],[-121.005175511666,50.4381976618804],[-121.007934779747,50.4431706313098],[-121.008523335347,50.4445350253116],[-121.008210537552,50.4465098510413],[-121.007832673308,50.4466803441196],[-121.008933732815,50.4466470903299],[-121.008823035351,50.4465930753905],[-121.00940285909,50.4448177723988],[-121.008764165707,50.4430685331881],[-121.008262647045,50.4415402968659],[-121.007259468883,50.4401563100907],[-121.006440082312,50.4389841589431],[-121.005861244428,50.4383131513931],[-121.00568055124,50.4380561085866]]]}},{"type":"Feature","id":"929572873","properties":{"name":"SP_11KPH_%TR_1665_FLATS_WATERHOLE_SEPT 20_NS","oid":"929572873","speedLimit":3.0555556},"geometry":{"type":"Polygon","coordinates":[[[-121.053553542614,50.4666493346793],[-121.053345104641,50.467003891977],[-121.053244829076,50.4671270208738],[-121.052990196742,50.4671860688192],[-121.052766407594,50.4671270208738],[-121.052257142926,50.4664179062783],[-121.052241791751,50.4654282015983],[-121.052720213232,50.465098359955],[-121.053545796608,50.4651130994726],[-121.053607482981,50.4653297883559],[-121.053345104641,50.4654233483425],[-121.053352850647,50.4663441188154],[-121.053538050602,50.4666345951617],[-121.053553542614,50.4666493346793]]]}},{"type":"Feature","id":"934051091","properties":{"name":"iSP_17KPH_%TR_Ramp_Permission Blocker","oid":"934051091","speedLimit":4.7222223},"geometry":{"type":"Polygon","coordinates":[[[-121.039500457325,50.461029893604],[-121.039452432089,50.4607718621714],[-121.039005135467,50.4607924435709],[-121.039064005111,50.4610451723722],[-121.039151464557,50.4609001139493],[-121.039367366863,50.4608869921836],[-121.039500457325,50.461029893604]]]}},{"type":"Feature","id":"934773555","properties":{"name":"SP_10KPH_NEW RAMP_SEPT 20_NS","oid":"934773555","speedLimit":2.7777777},"geometry":{"type":"Polygon","coordinates":[[[-121.033892630841,50.4443403558295],[-121.034404008057,50.4442042849173],[-121.035764065828,50.4443193250544],[-121.036265866164,50.4444737304886],[-121.035920957654,50.4447857768606],[-121.034612164356,50.4446109697772],[-121.034334575678,50.4446011733905],[-121.033892630841,50.4443403558295]]]}},{"type":"Feature","id":"936169885","properties":{"name":"SP_20KPH_%TR_24shl_loadplan_Sept_21_DS","oid":"936169885","speedLimit":5.5555553},"geometry":{"type":"Polygon","coordinates":[[[-121.03904048542,50.4535939867379],[-121.038495589126,50.4536749642095],[-121.038600089785,50.4545481907507],[-121.039151464557,50.4545296764786],[-121.039132169961,50.4542341671262],[-121.03908794731,50.4539212220031],[-121.039065413475,50.4537568404321],[-121.03904048542,50.4535939867379]]]}},{"type":"Feature","id":"936513295","properties":{"name":"SP_30KPH_%TR_1635_FLATS_SEP_21_DS","oid":"936513295","speedLimit":8.333333},"geometry":{"type":"Polygon","coordinates":[[[-121.017281532784,50.4555554210766],[-121.018045429786,50.4557854114758],[-121.017429551912,50.4574540327154],[-121.01522334864,50.458517165358],[-121.014494801591,50.4578798609731],[-121.016173290617,50.4566196322205],[-121.017281532784,50.4555554210766]]]}},{"type":"Feature","id":"937786749","properties":{"name":"SP_32KPH_%TR_24SH_Loaded_LANE_SEP_21_DS","oid":"937786749","speedLimit":8.888889},"geometry":{"type":"Polygon","coordinates":[[[-121.03839813029,50.451085482622],[-121.038201100071,50.451039376692],[-121.038241660974,50.4516609529331],[-121.038467280996,50.4536764920863],[-121.038634453883,50.4536488105533],[-121.038391651812,50.4516754228254],[-121.03839813029,50.451085482622]]]}},{"type":"Feature","id":"938065675","properties":{"name":"SP_8KPH_CR01_YARD_RUTIING_SEP_20_NS","oid":"938065675","speedLimit":2.2222223},"geometry":{"type":"Polygon","coordinates":[[[-121.0342786636,50.4648014126009],[-121.034088534368,50.4648582136687],[-121.033930375015,50.4649071956021],[-121.033818973369,50.4650051594689],[-121.034033748982,50.4650690606701],[-121.033953753868,50.4650115406015],[-121.034232046729,50.4648883218296],[-121.034308661768,50.4649375733883],[-121.0342786636,50.4648014126009]]]}},{"type":"Feature","id":"938165680","properties":{"name":"SP_10KPH_%TR_22SH_Sept20_NS","oid":"938165680","speedLimit":2.7777777},"geometry":{"type":"Polygon","coordinates":[[[-121.034620614545,50.4470559321924],[-121.035044391477,50.4472507814247],[-121.035486054641,50.4474475180343],[-121.035784064607,50.4469124016463],[-121.034860740723,50.446719260041],[-121.034620614545,50.4470559321924]]]}},{"type":"Feature","id":"939481274","properties":{"name":"SP_10KPH_%TR_LRNX_PIT_BOTTOM_SEP_20_NS","oid":"939481274","speedLimit":2.7777777},"geometry":{"type":"Polygon","coordinates":[[[-121.034044875063,50.445236500523],[-121.034051916887,50.4449963542367],[-121.033292667488,50.4447665435877],[-121.03345885452,50.4448877851072],[-121.033347734547,50.4469939183685],[-121.033805171395,50.44697423572],[-121.033653490519,50.4469201309055],[-121.034044875063,50.445236500523]]]}},{"type":"Feature","id":"939584863","properties":{"name":"SP_40KPH_%TR_HMT EMPTY2_ROUGH_SECTION_SEPT 21_DS","oid":"939584863","speedLimit":11.111111},"geometry":{"type":"Polygon","coordinates":[[[-121.005959548283,50.430170197059],[-121.005668157631,50.430397491205],[-121.005920677418,50.4302831700687],[-121.006319948805,50.4305571992704],[-121.006712600878,50.430873919148],[-121.007135673628,50.4312430362131],[-121.007262989795,50.431532254308],[-121.007409741394,50.4321904995928],[-121.007316930162,50.4325926008223],[-121.00705145342,50.4326146202235],[-121.007545648586,50.4326903849389],[-121.007642825749,50.4323020346008],[-121.007584519451,50.4319288731559],[-121.007416219872,50.4313517850928],[-121.007303973207,50.4311741918811],[-121.007116238195,50.4309841060294],[-121.006682461873,50.4306467148771],[-121.005959548283,50.430170197059]]]}},{"type":"Feature","id":"939585115","properties":{"name":"SP_40KPH_%TR_HMT EMPTY22_ROUGH_SECTION_SEPT 21_DS","oid":"939585115","speedLimit":11.111111},"geometry":{"type":"Polygon","coordinates":[[[-121.007517622129,50.4327114157139],[-121.00704427076,50.4338272151693],[-121.006947656943,50.4340182896472],[-121.006751330906,50.4342997784828],[-121.005788572811,50.4352902021637],[-121.005289448368,50.4350888819237],[-121.005659707443,50.4351668935167],[-121.00660964942,50.4341292854045],[-121.006754429309,50.4339278752894],[-121.006960613898,50.4334120820494],[-121.007224541439,50.4327833157997],[-121.007028215402,50.4326538956454],[-121.007517622129,50.4327114157139]]]}},{"type":"Feature","id":"940771585","properties":{"name":"SP_15KPH_%TR_1660_HMT_SEPT20_NS","oid":"940771585","speedLimit":4.1666665},"geometry":{"type":"Polygon","coordinates":[[[-121.002709746783,50.4281186179878],[-121.002604541942,50.4277114837524],[-121.002233015339,50.4276980923614],[-121.002506378924,50.4277965056037],[-121.002534405381,50.4281141242324],[-121.002674678503,50.42808275782],[-121.002709746783,50.4281186179878]]]}},{"type":"Feature","id":"940778315","properties":{"name":"SP_25KPH_%TR_HMT_SPILLING_ROCK_IN_CORNER_SEPT21_DS","oid":"940778315","speedLimit":6.9444447},"geometry":{"type":"Polygon","coordinates":[[[-121.004784831303,50.4367081617294],[-121.004770747657,50.4370437553795],[-121.004988058327,50.4372763521569],[-121.005121289625,50.4371689514038],[-121.004890036145,50.4369363546265],[-121.004882994322,50.4367574132881],[-121.00519846801,50.4367976773361],[-121.004798774114,50.4366992640938],[-121.004784831303,50.4367081617294]]]}},{"type":"Feature","id":"941544052","properties":{"name":"SP_11KPH_%TR_TEMP_LOADED_SPILL_SEPT20_NS","oid":"941544052","speedLimit":3.0555556},"geometry":{"type":"Polygon","coordinates":[[[-121.012790398655,50.4562998565892],[-121.012423378819,50.4565455751322],[-121.012320568198,50.4564645077856],[-121.012552525861,50.4564002470839],[-121.012774202461,50.4563101023515],[-121.012790398655,50.4562998565892]]]}},{"type":"Feature","id":"943619660","properties":{"name":"SP_10KPH_SWAIL_SEPT 22_DS","oid":"943619660","speedLimit":2.7777777},"geometry":{"type":"Polygon","coordinates":[[[-121.039432714984,50.4510121445345],[-121.038959645288,50.4510773039872],[-121.039032598578,50.4514496565562],[-121.039526512072,50.4513498951872],[-121.039432714984,50.4510121445345]]]}}]}