{"type":"FeatureCollection","features":[{"type":"Feature","id":"702602533","properties":{"name":"iSP_4KPH_%TR_CR01_SLOW BUMP","oid":"702602533","speedLimit":1.1111112},"geometry":{"type":"Polygon","coordinates":[[[-121.033356832673,50.4648092953318],[-121.033651609436,50.4646922757301],[-121.033695008692,50.4647329899234],[-121.03336711886,50.4648711305745],[-121.033356832673,50.4648092953318]]]}},{"type":"Feature","id":"707947583","properties":{"name":"iSP_22KPH_%TR_Permission Gate 1 from west dump_Jun","oid":"707947583","speedLimit":6.111111},"geometry":{"type":"Polygon","coordinates":[[[-121.038627024119,50.4619793443351],[-121.038853742959,50.461800848998],[-121.037979417042,50.4613523637351],[-121.037742271109,50.4615436215787],[-121.037958421948,50.4614978742843],[-121.038665491641,50.4618474051836],[-121.038627024119,50.4619793443351]]]}},{"type":"Feature","id":"742345972","properties":{"name":"iSP_4KPH_%TR_CR01_PITSIDE_SLOW BUMP","oid":"742345972","speedLimit":1.1111112},"geometry":{"type":"Polygon","coordinates":[[[-121.033396709262,50.4648842525882],[-121.033704026719,50.4647457524298],[-121.033754189495,50.4647778384496],[-121.033472657959,50.4649197539266],[-121.033396709262,50.4648842525882]]]}},{"type":"Feature","id":"776427243","properties":{"name":"iSP_7KPH_%TR_CR1_PermissionBlocker_DO_NOT_DELETE","oid":"776427243","speedLimit":1.9444444},"geometry":{"type":"Polygon","coordinates":[[[-121.034098001782,50.4652142802205],[-121.034049529886,50.4652345923787],[-121.034028393884,50.4652760255864],[-121.034114065143,50.4652269528502],[-121.034098001782,50.4652142802205]]]}},{"type":"Feature","id":"794004438","properties":{"name":"iSP_11KPH_%TR_LOWER_FUEL_BAY","oid":"794004438","speedLimit":3.0555556},"geometry":{"type":"Polygon","coordinates":[[[-121.036775087694,50.4606968023107],[-121.036777201294,50.4607266414103],[-121.036747469986,50.4606721760658],[-121.037123690807,50.4606004543744],[-121.03753372923,50.4605574033843],[-121.037541479097,50.4605827486436],[-121.036942907543,50.4606515942772],[-121.036775087694,50.4606968023107]]]}},{"type":"Feature","id":"801543391","properties":{"name":"iSP_4KPH_%TR_CR1_PermissionBlocker_DO_NOT_DELETE_","oid":"801543391","speedLimit":1.1111112},"geometry":{"type":"Polygon","coordinates":[[[-121.033153363435,50.4645247453634],[-121.033152517995,50.46447531312],[-121.033174076716,50.4644332507747],[-121.033106018792,50.4644608429542],[-121.033153363435,50.4645247453634]]]}},{"type":"Feature","id":"806473874","properties":{"name":"iSP_4KPH_%TR_Permission Blocker - DO NOT DELETE","oid":"806473874","speedLimit":1.1111112},"geometry":{"type":"Polygon","coordinates":[[[-121.022716124228,50.4815469630729],[-121.02268301116,50.481544626276],[-121.022675402199,50.4815732969772],[-121.022697524547,50.4815743754988],[-121.022701610841,50.4815502885148],[-121.022716124228,50.4815469630729]]]}},{"type":"Feature","id":"824566967","properties":{"name":"iSP_4Cr_3KPH","oid":"824566967","speedLimit":0.8333333},"geometry":{"type":"Polygon","coordinates":[[[-121.023299055141,50.4810700767393],[-121.023278905487,50.4810700767393],[-121.02327622826,50.4811881748626],[-121.023301309648,50.4811874558482],[-121.023299055141,50.4810700767393]]]}},{"type":"Feature","id":"826307302","properties":{"name":"iSP_4KPH_TR%_CRUSHER POCKETS","oid":"826307302","speedLimit":1.1111112},"geometry":{"type":"Polygon","coordinates":[[[-121.023294264314,50.4813232597023],[-121.023333718183,50.4814789263306],[-121.023538455581,50.4814394704127],[-121.023457434244,50.4811906015364],[-121.0230490867,50.4811913205508],[-121.023054441154,50.4813619966058],[-121.023279328207,50.481328023173],[-121.023294264314,50.4813232597023]]]}},{"type":"Feature","id":"849417440","properties":{"name":"iSP_Permissions_35_KPH_June_19_NS","oid":"849417440","speedLimit":9.722222},"geometry":{"type":"Polygon","coordinates":[[[-121.032693303142,50.4660355744756],[-121.033007947746,50.4660162509622],[-121.033214939651,50.4658153763004],[-121.033803788645,50.4653809118192],[-121.033724599094,50.4652521183559],[-121.033960758681,50.4654015834846],[-121.033424467877,50.4658098938152],[-121.033022038414,50.4661894435678],[-121.032693303142,50.4660355744756]]]}},{"type":"Feature","id":"853029148","properties":{"name":"SP_30KPH_%TR_1635 Flats_July_30_NS","oid":"853029148","speedLimit":8.333333},"geometry":{"type":"Polygon","coordinates":[[[-121.018586149593,50.4569721277083],[-121.017404788033,50.4572909207399],[-121.016426191177,50.4584587799596],[-121.01834519918,50.4588943229624],[-121.020688618086,50.4589884239785],[-121.020236871287,50.4572329501999],[-121.019419048947,50.4570977754834],[-121.018964765828,50.4570011579167],[-121.018586149593,50.4569721277083]]]}},{"type":"Feature","id":"883050998","properties":{"name":"iSP_22kph_%TR_4CR_Brake_Temp_CTRL_NOREMOVE","oid":"883050998","speedLimit":6.111111},"geometry":{"type":"Polygon","coordinates":[[[-121.031796854878,50.4745606591737],[-121.03218618002,50.4743140372175],[-121.03248786121,50.4745763876148],[-121.032789542401,50.4748037759345],[-121.032967366624,50.4748861929657],[-121.033176190316,50.4749363442236],[-121.033460117265,50.4749611502221],[-121.033664009224,50.4749235817171],[-121.03382520646,50.4748641731482],[-121.033916373078,50.4748121344774],[-121.03400570791,50.4747489510827],[-121.034056152499,50.4746597932909],[-121.034050375326,50.4745496043265],[-121.034054179806,50.4744852525333],[-121.033992039962,50.4743812650685],[-121.033873678356,50.4742611896554],[-121.033506757375,50.4739392509356],[-121.033058392336,50.473561588596],[-121.032945103369,50.4734270430171],[-121.032820119149,50.4732224834062],[-121.032603263777,50.4728165098726],[-121.03224972893,50.4722105604453],[-121.032484761263,50.4721577128832],[-121.03242769406,50.4722072350034],[-121.032900295047,50.4730504591992],[-121.033039510842,50.473311191814],[-121.033247348187,50.4735485564591],[-121.033740380641,50.4739632480429],[-121.034095465462,50.4742727837634],[-121.034200863654,50.4743960947415],[-121.034253562751,50.4744633225926],[-121.034260608084,50.4745944528528],[-121.034235667603,50.4746804649564],[-121.03418113672,50.4747932603481],[-121.034083629301,50.4748774749155],[-121.033970763054,50.4749393101582],[-121.033788148004,50.47501777261],[-121.033528597909,50.4750660364549],[-121.033260593414,50.475069721404],[-121.033068960337,50.4750279286891],[-121.032805183042,50.4749181891087],[-121.0326544129,50.4748367607223],[-121.032492792944,50.4747069786142],[-121.032142217137,50.4744146992404],[-121.031796854878,50.4745606591737]]]}},{"type":"Feature","id":"883053336","properties":{"name":"iSP_22kph_%TR_Brake_Temp_CTRL_NOREMOVE","oid":"883053336","speedLimit":6.111111},"geometry":{"type":"Polygon","coordinates":[[[-121.032463484355,50.4721468377897],[-121.032248601677,50.4722270977776],[-121.031485873847,50.4710098961913],[-121.030813889915,50.4699249033869],[-121.03065861076,50.4696617440983],[-121.030593793689,50.469459251654],[-121.030547435393,50.4692582871153],[-121.030593793689,50.4689744561614],[-121.03072004607,50.4686258240301],[-121.030881806932,50.4683770450306],[-121.031086262517,50.4680993256994],[-121.031685679511,50.4675380450447],[-121.032429666754,50.46689515625],[-121.032786019734,50.4665576688427],[-121.033145190848,50.4662238663845],[-121.033482098707,50.4658721784419],[-121.033777157283,50.4660355744756],[-121.033585101486,50.4659947704055],[-121.032916922035,50.466653567395],[-121.032552114654,50.4669927624615],[-121.032176034739,50.4673092186962],[-121.031771773489,50.4676698943194],[-121.0313793484,50.4680359625511],[-121.031144456974,50.4682878872388],[-121.031006086619,50.4684714156771],[-121.030902379307,50.468656022637],[-121.030825866982,50.4688545605019],[-121.030764995299,50.4691928568004],[-121.030773731513,50.469402179882],[-121.030870957118,50.4696319049987],[-121.031024968114,50.4699366772485],[-121.031327917464,50.4704053847928],[-121.031528004942,50.4707125837164],[-121.031747678448,50.4710844939404],[-121.032143485297,50.4717304385466],[-121.032378799444,50.4721467479129],[-121.032463484355,50.4721468377897]]]}},{"type":"Feature","id":"883059532","properties":{"name":"iSP_22kph_%TR_Brake_CTRL_NOREMOVE","oid":"883059532","speedLimit":6.111111},"geometry":{"type":"Polygon","coordinates":[[[-121.027259096326,50.4773237418266],[-121.027026882126,50.4772115755725],[-121.02733138145,50.4769458098565],[-121.027713379445,50.4766342069694],[-121.02803013765,50.4763244914953],[-121.028187389499,50.4761705325263],[-121.02861828211,50.4756940955766],[-121.02890432266,50.4753274880842],[-121.029260957453,50.474889338654],[-121.029469781145,50.4746584451388],[-121.029688609211,50.4745421445516],[-121.029798657324,50.4744899261272],[-121.029949427466,50.474594362976],[-121.029785834817,50.4745437623341],[-121.029553197897,50.4747932603481],[-121.029248980386,50.4751747873904],[-121.029070028909,50.4754797393939],[-121.028850214497,50.4757765126079],[-121.028693103554,50.4759764885017],[-121.028405935751,50.4762723629477],[-121.028038592051,50.4765717425891],[-121.027240778459,50.4772211923907],[-121.027259096326,50.4773237418266]]]}},{"type":"Feature","id":"886231481","properties":{"name":"SP_15KPH_%TR_1200_SWITCHBACK_July_30_NS","oid":"886231481","speedLimit":4.1666665},"geometry":{"type":"Polygon","coordinates":[[[-121.036907399061,50.4452285545803],[-121.036966438958,50.4446815643378],[-121.036281914332,50.444746814899],[-121.036038004879,50.4452762791643],[-121.036521878399,50.44534647295],[-121.036616285871,50.4451030865588],[-121.036770296867,50.4451322965208],[-121.036907399061,50.4452285545803]]]}},{"type":"Feature","id":"899288147","properties":{"name":"SP_30KPH_%TR_1185_BENCH_JULY_30_NS","oid":"899288147","speedLimit":8.333333},"geometry":{"type":"Polygon","coordinates":[[[-121.039758504717,50.45005727587],[-121.039541931158,50.4496330573447],[-121.039838257895,50.4495904557386],[-121.040149379832,50.4505444081595],[-121.040332981229,50.450954605903],[-121.040198838075,50.4511943073452],[-121.040016223025,50.4506018394387],[-121.039758504717,50.45005727587]]]}},{"type":"Feature","id":"902935346","properties":{"name":"SP_20KPH_%TRX_NEW LANES_July30_NS","oid":"902935346","speedLimit":5.5555553},"geometry":{"type":"Polygon","coordinates":[[[-121.039150774229,50.4482807709187],[-121.039119633854,50.4482918257658],[-121.039074684625,50.4483249004305],[-121.039244618074,50.4487269193846],[-121.039508958996,50.4492687866492],[-121.039626897883,50.4495848833766],[-121.039828676241,50.4495430906617],[-121.039707496501,50.4493146238204],[-121.03922531386,50.4482988361567],[-121.039150774229,50.4482807709187]]]}},{"type":"Feature","id":"908328496","properties":{"name":"SP_12KPH_%TR_9019_SOFT_GROUND_July 30_NS","oid":"908328496","speedLimit":3.3333333},"geometry":{"type":"Polygon","coordinates":[[[-121.038998313207,50.4644904124234],[-121.039322962185,50.4647040495918],[-121.039502054569,50.4648797587479],[-121.039390033762,50.4652169765247],[-121.03935029808,50.4661498078962],[-121.038103414916,50.4665995514344],[-121.038027043498,50.4662279108408],[-121.037879655117,50.4651413901307],[-121.038518807793,50.4648158563387],[-121.038998313207,50.4644904124234]]]}},{"type":"Feature","id":"908575258","properties":{"name":"iSP_15km_permissions ","oid":"908575258","speedLimit":4.1666665},"geometry":{"type":"Polygon","coordinates":[[[-121.041868441263,50.4595517717997],[-121.041458261933,50.4599143348359],[-121.041082604739,50.4602074231009],[-121.04068722061,50.4604250148487],[-121.04034608555,50.460585804455],[-121.039955633155,50.4607150473023],[-121.039515722516,50.4607811966317],[-121.039174728364,50.4607970149496],[-121.039120338387,50.4612131445623],[-121.039253777008,50.4609388405498],[-121.039802467599,50.4608474358379],[-121.040271968639,50.4607056102377],[-121.040939302651,50.4603934680898],[-121.041542242312,50.4599868654185],[-121.041942699081,50.4596526135763],[-121.042090932903,50.4595296621054],[-121.041942699081,50.45949182397],[-121.041868441263,50.4595517717997]]]}},{"type":"Feature","id":"910445950","properties":{"name":"SP_30KPH_%TR_1635_FLATS_JULY30_NS","oid":"910445950","speedLimit":8.333333},"geometry":{"type":"Polygon","coordinates":[[[-121.020221653366,50.4571653628416],[-121.019040432712,50.45696251089],[-121.018646739463,50.4569238638634],[-121.017450300889,50.4572329501999],[-121.018086353618,50.4544702270542],[-121.018767778297,50.4539003182261],[-121.018934470893,50.4535139378363],[-121.019555305702,50.4545185807759],[-121.020221653366,50.4571460393283],[-121.020206576352,50.4571460393283],[-121.020221653366,50.4571653628416]]]}},{"type":"Feature","id":"913788494","properties":{"name":"SP_11KPH_%TR_ROUGH GROUND_21SH_JULY30_NS","oid":"913788494","speedLimit":3.0555556},"geometry":{"type":"Polygon","coordinates":[[[-121.040420906994,50.4520641350755],[-121.041196598239,50.4519534068503],[-121.041490247749,50.4536140605984],[-121.040513623586,50.4536169366562],[-121.040437111262,50.4524170812935],[-121.040420906994,50.4520641350755]]]}},{"type":"Feature","id":"913898324","properties":{"name":"SP_18KPH_%TR_SOFT_24SH_JULY30_NS","oid":"913898324","speedLimit":5},"geometry":{"type":"Polygon","coordinates":[[[-121.038076642648,50.4505175349945],[-121.03788289597,50.4500046979383],[-121.037776370524,50.4494794578829],[-121.037776370524,50.4492632142872],[-121.036894858367,50.4492446996651],[-121.037495402615,50.4493867948957],[-121.037505125175,50.4498996319519],[-121.03781511986,50.4505175349945],[-121.038037893312,50.4504557896286],[-121.038076642648,50.4505175349945]]]}}]}