{"type":"FeatureCollection","features":[{"type":"Feature","id":"702602533","properties":{"name":"iSP_4KPH_%TR_CR01_SLOW BUMP","oid":"702602533","speedLimit":1.1111112},"geometry":{"type":"Polygon","coordinates":[[[-121.033358078749,50.4648077666596],[-121.033652830861,50.4646907497409],[-121.033696226488,50.4647314630006],[-121.033368364076,50.4648696004845],[-121.033358078749,50.4648077666596]]]}},{"type":"Feature","id":"707947583","properties":{"name":"iSP_25KPH_%TR_Permission Gate 1 from west dump_Jun","oid":"707947583","speedLimit":6.9444447},"geometry":{"type":"Polygon","coordinates":[[[-121.038627829469,50.4619778805473],[-121.038854529349,50.4617993893027],[-121.038139487776,50.4614081645354],[-121.03799182993,50.4616708684166],[-121.038191337096,50.4615667934613],[-121.038666293775,50.4618459444208],[-121.038627829469,50.4619778805473]]]}},{"type":"Feature","id":"742345972","properties":{"name":"iSP_4KPH_%TR_CR01_PITSIDE_SLOW BUMP","oid":"742345972","speedLimit":1.1111112},"geometry":{"type":"Polygon","coordinates":[[[-121.033397952003,50.4648827221973],[-121.033705243761,50.4647442252145],[-121.033755402342,50.4647763104986],[-121.03347389435,50.4649182227218],[-121.033397952003,50.4648827221973]]]}},{"type":"Feature","id":"776427243","properties":{"name":"iSP_7KPH_%TR_CR1_PermissionBlocker_DO_NOT_DELETE","oid":"776427243","speedLimit":1.9444444},"geometry":{"type":"Polygon","coordinates":[[[-121.034099185877,50.4652127422629],[-121.034050718034,50.4652330539554],[-121.0340295838,50.4652744862131],[-121.034115247894,50.465225414602],[-121.034099185877,50.4652127422629]]]}},{"type":"Feature","id":"794004438","properties":{"name":"iSP_11KPH_%TR_LOWER_FUEL_BAY","oid":"794004438","speedLimit":3.0555556},"geometry":{"type":"Polygon","coordinates":[[[-121.036776047914,50.4606953679287],[-121.036778161338,50.4607252063442],[-121.036748432516,50.4606707422484],[-121.037124621875,50.4605990222015],[-121.037534626009,50.4605559721984],[-121.037542375228,50.4605813168766],[-121.03694385373,50.4606501609317],[-121.036776047914,50.4606953679287]]]}},{"type":"Feature","id":"801543391","properties":{"name":"iSP_4KPH_%TR_CR1_PermissionBlocker_DO_NOT_DELETE_","oid":"801543391","speedLimit":1.1111112},"geometry":{"type":"Polygon","coordinates":[[[-121.033154626526,50.4645232232152],[-121.033153781157,50.4644737921052],[-121.033175338075,50.4644317307243],[-121.033107285843,50.4644593222712],[-121.033154626526,50.4645232232152]]]}},{"type":"Feature","id":"806473874","properties":{"name":"iSP_4KPH_%TR_Permission Blocker - DO NOT DELETE","oid":"806473874","speedLimit":1.1111112},"geometry":{"type":"Polygon","coordinates":[[[-121.022718260146,50.4815450506437],[-121.022685149846,50.4815427139003],[-121.022677541522,50.4815713839441],[-121.02269966202,50.481572462441],[-121.022703747972,50.4815483760092],[-121.022718260146,50.4815450506437]]]}},{"type":"Feature","id":"824566967","properties":{"name":"iSP_4Cr_3KPH","oid":"824566967","speedLimit":0.8333333},"geometry":{"type":"Polygon","coordinates":[[[-121.023301142311,50.4810681752439],[-121.023280994341,50.4810681752439],[-121.023278317338,50.4811862706595],[-121.023303396629,50.4811855516616],[-121.023301142311,50.4810681752439]]]}},{"type":"Feature","id":"826307302","properties":{"name":"iSP_4KPH_TR%_CRUSHER POCKETS","oid":"826307302","speedLimit":1.1111112},"geometry":{"type":"Polygon","coordinates":[[[-121.023296351884,50.4813213524021],[-121.023335802454,50.4814770154613],[-121.023540522731,50.481437560448],[-121.023459508168,50.4811886972777],[-121.023051194774,50.4811894162756],[-121.02305654878,50.4813600884174],[-121.023281417026,50.4813261157636],[-121.023296351884,50.4813213524021]]]}},{"type":"Feature","id":"883050998","properties":{"name":"iSP_22kph_%TR_4CR_Brake_Temp_CTRL_NOREMOVE","oid":"883050998","speedLimit":6.111111},"geometry":{"type":"Polygon","coordinates":[[[-121.031798231409,50.4745589069246],[-121.032187523993,50.4743122906229],[-121.032489179955,50.4745746350051],[-121.032790835917,50.4748020181113],[-121.03296864527,50.4748844332529],[-121.033177451498,50.4749345833609],[-121.033461354704,50.4749593887907],[-121.033665229612,50.4749218211471],[-121.033826413367,50.4748624139403],[-121.033917572362,50.4748103764626],[-121.034006899723,50.4747471945165],[-121.034057340094,50.474658038769],[-121.034051563403,50.4745478523309],[-121.034055367565,50.4744835020131],[-121.033993232918,50.4743795169326],[-121.03387488121,50.4742594442726],[-121.033507990913,50.4739375129341],[-121.033059663369,50.4735598592534],[-121.032946383877,50.4734253167593],[-121.032821410108,50.4732207618385],[-121.032604572871,50.472814797613],[-121.032251067589,50.4722088620787],[-121.032486080267,50.4721560157283],[-121.032429017836,50.4722055367131],[-121.032901579302,50.4730487415756],[-121.033040783454,50.4733094682124],[-121.033248603419,50.4735468274153],[-121.033741594643,50.4739615094911],[-121.034096649769,50.4742710381147],[-121.034202039147,50.4743943462656],[-121.034254733836,50.4744615725752],[-121.034261778581,50.474592699829],[-121.034236840185,50.4746787099604],[-121.034182313862,50.474791502766],[-121.034084814598,50.4748757154026],[-121.03397195779,50.4749375492275],[-121.033789358011,50.4750160098804],[-121.033529829621,50.4750642726187],[-121.033261847538,50.4750679574833],[-121.033070230486,50.4750261657266],[-121.03280647525,50.4749164286623],[-121.032655717716,50.4748350021429],[-121.032494111276,50.4747052230103],[-121.032143564787,50.4744129503379],[-121.031798231409,50.4745589069246]]]}},{"type":"Feature","id":"883053336","properties":{"name":"iSP_22kph_%TR_Brake_Temp_CTRL_NOREMOVE","oid":"883053336","speedLimit":6.111111},"geometry":{"type":"Polygon","coordinates":[[[-121.032464805139,50.4721451408841],[-121.03224994043,50.4722253990319],[-121.031487276384,50.4710082253532],[-121.030815348648,50.4699232574253],[-121.030660082478,50.4696601041704],[-121.030595270828,50.4694576163687],[-121.030548916408,50.4692566564377],[-121.030595270828,50.4689728319914],[-121.03072151265,50.4686242078535],[-121.030883259985,50.4683754345579],[-121.031087698472,50.4680977215942],[-121.031687065339,50.4675364538084],[-121.032430990365,50.4668935797537],[-121.032787313545,50.4665561000842],[-121.033146454622,50.4662223052794],[-121.033483334307,50.4658706254001],[-121.033778368209,50.4660340176875],[-121.033586328473,50.465993214553],[-121.032918204899,50.4666519964377],[-121.032553428025,50.4669911837273],[-121.032177379561,50.4673076327063],[-121.031773152118,50.4676683000601],[-121.031380759846,50.4680343598986],[-121.031145888062,50.4682862788103],[-121.031007529279,50.4684698030407],[-121.030903830639,50.468654405768],[-121.030827324713,50.4688529390808],[-121.03076645812,50.469191227623],[-121.030775193604,50.4694005459053],[-121.030872411079,50.4696302657549],[-121.031026409195,50.4699350310169],[-121.031329333211,50.4704037278148],[-121.031529403956,50.470710919695],[-121.031749059092,50.471082821392],[-121.032144832841,50.4717287511881],[-121.032380127309,50.4721450510094],[-121.032464805139,50.4721451408841]]]}},{"type":"Feature","id":"883059532","properties":{"name":"iSP_22kph_%TR_Brake_CTRL_NOREMOVE","oid":"883059532","speedLimit":6.111111},"geometry":{"type":"Polygon","coordinates":[[[-121.027260852333,50.4773219262263],[-121.027028657552,50.4772097625438],[-121.027333131412,50.4769440029213],[-121.027715097462,50.4766324071786],[-121.028031829177,50.4763226988055],[-121.028189067876,50.4761687433664],[-121.028619924453,50.4756923173404],[-121.028905941082,50.4753257182534],[-121.029262546052,50.474887578869],[-121.029471352281,50.4746566906478],[-121.029690162047,50.4745403927271],[-121.029800200957,50.4744881754999],[-121.02995095849,50.4745926099542],[-121.029787379522,50.4745420104725],[-121.029554762056,50.474791502766],[-121.029250569986,50.4751730210608],[-121.029071633474,50.4754779660724],[-121.028851837444,50.4757747324821],[-121.02869473964,50.4759747037909],[-121.028407595852,50.4762705714531],[-121.028040282871,50.4765699442305],[-121.027242535997,50.4772193791416],[-121.027260852333,50.4773219262263]]]}},{"type":"Feature","id":"884401102","properties":{"name":"iSP_30KPH_MAIN INT_LIMIT_POLICY_SEPT_8_NS","oid":"884401102","speedLimit":8.333333},"geometry":{"type":"Polygon","coordinates":[[[-121.036991617098,50.4611012422794],[-121.037107714488,50.4611077132611],[-121.038294049472,50.4609920444636],[-121.038277705665,50.460397882521],[-121.038119198912,50.4605657685456],[-121.037032053932,50.4607083997668],[-121.036744346564,50.460537727625],[-121.036991617098,50.4611012422794]]]}},{"type":"Feature","id":"910445950","properties":{"name":"SP_22KPH_%TR_1635_FLATS_SEP_14_DS","oid":"910445950","speedLimit":6.111111},"geometry":{"type":"Polygon","coordinates":[[[-121.017911771828,50.4571009173562],[-121.017755942078,50.4573815961865],[-121.016597786073,50.4571351596342],[-121.017120787909,50.456145638686],[-121.017771581411,50.4542397548325],[-121.018178485857,50.453993048656],[-121.018531004875,50.45375146534],[-121.019040621696,50.4536551196128],[-121.018864925767,50.4543415829191],[-121.018260063999,50.4560720312694],[-121.018040127074,50.4566098417467],[-121.017985037171,50.4569255717277],[-121.017911771828,50.4571009173562]]]}},{"type":"Feature","id":"915576987","properties":{"name":"iSP_15kph_prevent shifting","oid":"915576987","speedLimit":4.1666665},"geometry":{"type":"Polygon","coordinates":[[[-121.036997111999,50.4448632125067],[-121.037511237457,50.4453131254828],[-121.037980558339,50.4457955731168],[-121.038524553514,50.4462188831682],[-121.039457277694,50.4468499836313],[-121.03991462251,50.4470997455491],[-121.040470593751,50.4471951026541],[-121.041223817839,50.4473228146675],[-121.041642275666,50.4475096642634],[-121.042320825462,50.4480951083558],[-121.042703495987,50.4485278552555],[-121.042846926986,50.4487948731244],[-121.043008392531,50.4493916414347],[-121.043187610833,50.450198177401],[-121.043325124247,50.4505013249177],[-121.043686801432,50.4511687347779],[-121.043857284251,50.451489048371],[-121.044126252598,50.4522536128311],[-121.044383385774,50.4529381887678],[-121.044697158697,50.453798110333],[-121.044736045687,50.454194727585],[-121.044571621349,50.4550718152265],[-121.044216002644,50.456839291972],[-121.044051578306,50.4572073290549],[-121.043005292844,50.4583989783058],[-121.041905326428,50.4595373318326],[-121.041343437602,50.4600006361458],[-121.040371967327,50.4605974943308],[-121.039923498889,50.4607309583279],[-121.039134346603,50.4608071721121],[-121.038496938115,50.4608387181478],[-121.038644736856,50.4611434834098],[-121.038757593664,50.460949533709],[-121.039878694313,50.4608797010317],[-121.040706733589,50.4606318264836],[-121.041510820733,50.4600578863587],[-121.04287383791,50.4587002384528],[-121.044242772673,50.4571424394886],[-121.04442819035,50.4562901572768],[-121.044813819667,50.4544215714426],[-121.044810719979,50.4537866063655],[-121.044260807219,50.452301336321],[-121.043833332119,50.4511859008543],[-121.043346117585,50.4503373933818],[-121.043050238314,50.4493096756668],[-121.042927659759,50.448691876666],[-121.04224009269,50.4478872280694],[-121.041546608035,50.4473914789731],[-121.041092222011,50.4472217954535],[-121.040458617685,50.4471303029626],[-121.039917581303,50.4470196671508],[-121.03882057368,50.4463332937193],[-121.038195845733,50.445871786901],[-121.037152659958,50.4449069815078],[-121.03737682373,50.4446973037265],[-121.036997111999,50.4448632125067]]]}},{"type":"Feature","id":"917773475","properties":{"name":"SP_15KPH_%TR_1200_CORNER_Sept_14_DS","oid":"917773475","speedLimit":4.1666665},"geometry":{"type":"Polygon","coordinates":[[[-121.037097992741,50.4446824743935],[-121.036923846655,50.444862044135],[-121.036628249173,50.4448205220026],[-121.036413666254,50.4448698632379],[-121.036322084575,50.4449675570863],[-121.036253468763,50.4450820575121],[-121.036241210907,50.4451448799592],[-121.036262345141,50.4452671994879],[-121.03631503983,50.4453514121244],[-121.036183162212,50.4453951811255],[-121.036088058161,50.4451942211945],[-121.036162027979,50.4449316071881],[-121.036258822769,50.4447913127103],[-121.036515674155,50.4447150090514],[-121.036712786108,50.4447116836858],[-121.036922155916,50.4447700123956],[-121.03709277963,50.4446835528904],[-121.037097992741,50.4446824743935]]]}},{"type":"Feature","id":"921770139","properties":{"name":"SP_15KPH_%TR_HIGHMONT_SEPT 14_DS","oid":"921770139","speedLimit":4.1666665},"geometry":{"type":"Polygon","coordinates":[[[-121.001281666031,50.4285223660252],[-121.000937318917,50.4287420199032],[-121.000849118715,50.4292275232785],[-121.001081454391,50.4292734492735],[-121.001265744908,50.4287573884847],[-121.001938799803,50.4284558587135],[-121.002507310689,50.4282872536909],[-121.002403189365,50.428154418817],[-121.001281666031,50.4285223660252]]]}},{"type":"Feature","id":"926078125","properties":{"name":"EX_NewLandfill_SEP3_NS","oid":"926078125","speedLimit":4.1666665},"geometry":{"type":"Polygon","coordinates":[[[-121.011161779381,50.4603916811635],[-121.010845611245,50.4601113618322],[-121.010386716584,50.4596571348684],[-121.010054063746,50.4593890385025],[-121.0097905903,50.4591388272109],[-121.009530216541,50.4588214794845],[-121.009338176804,50.4588741460854],[-121.009481326013,50.4595402078244],[-121.009689286873,50.4600621104717],[-121.010011090804,50.4603630111197],[-121.010297389223,50.4606069311791],[-121.010569175468,50.4606650801394],[-121.01085181062,50.4605662179193],[-121.011161779381,50.4603916811635]]]}},{"type":"Feature","id":"929009157","properties":{"name":"iSP_22kph_Long_Single_Lane_Aug30","oid":"929009157","speedLimit":6.111111},"geometry":{"type":"Polygon","coordinates":[[[-121.00567829111,50.4380559195313],[-121.004748525724,50.4382239853054],[-121.005173042031,50.4381974722555],[-121.007933454739,50.4431704216748],[-121.008522254489,50.4445348101866],[-121.008209326936,50.44650962797],[-121.007831305943,50.4466801203622],[-121.008932822202,50.4466468667064],[-121.008822078818,50.4465928519843],[-121.009402143085,50.444817556136],[-121.008763184753,50.4430683239639],[-121.008261458046,50.441540093791],[-121.007257863736,50.4401561125847],[-121.006438137259,50.4389839661536],[-121.005859059256,50.4383129613035],[-121.00567829111,50.4380559195313]]]}},{"type":"Feature","id":"933252378","properties":{"name":"SP_20KPH_%TR_1615_ROUGH_SECTION_SEP_14_DS","oid":"933252378","speedLimit":5.5555553},"geometry":{"type":"Polygon","coordinates":[[[-121.007360012532,50.4314118390937],[-121.007542471416,50.4321456663909],[-121.00705117093,50.4322076799653],[-121.007396504309,50.4321239167025],[-121.007255468522,50.4314847275124],[-121.006907599036,50.4314552485958],[-121.007360012532,50.4314118390937]]]}},{"type":"Feature","id":"933252549","properties":{"name":"SP_35KPH_%TR_1590_ROUGH_SEP_14_DS","oid":"933252549","speedLimit":9.722222},"geometry":{"type":"Polygon","coordinates":[[[-121.004360501193,50.4363928772401],[-121.004777127386,50.4364500375783],[-121.004881389606,50.4362112403794],[-121.005079346928,50.4359569847244],[-121.004581847067,50.435832418327],[-121.004795866407,50.4359808914067],[-121.004624679114,50.4363681616851],[-121.004360501193,50.4363928772401]]]}},{"type":"Feature","id":"933371104","properties":{"name":"SP_25KPH_1590_HMT_INTERSECT_SEPT_14_DS","oid":"933371104","speedLimit":6.9444447},"geometry":{"type":"Polygon","coordinates":[[[-121.00635810896,50.437488809887],[-121.00586032731,50.4376812317172],[-121.006066315641,50.4377779369434],[-121.006385865254,50.4379884235974],[-121.006551698541,50.4382643390662],[-121.007085267494,50.4381537032544],[-121.006743315593,50.4380710184886],[-121.006114924378,50.4376596617783],[-121.00635810896,50.437488809887]]]}},{"type":"Feature","id":"934051091","properties":{"name":"iSP_17KPH_PERMISSIONS BLOCKER_SEPT 7_NS","oid":"934051091","speedLimit":4.7222223},"geometry":{"type":"Polygon","coordinates":[[[-121.039512226701,50.4610296121073],[-121.039464181543,50.4607715817129],[-121.039016699369,50.4607921630296],[-121.039075593433,50.461044890814],[-121.039163089161,50.4608998329747],[-121.039379081029,50.4608867112619],[-121.039512226701,50.4610296121073]]]}},{"type":"Feature","id":"934773555","properties":{"name":"SP_10KPH_NEW RAMP_SEPT 14_DS","oid":"934773555","speedLimit":2.7777777},"geometry":{"type":"Polygon","coordinates":[[[-121.035774285238,50.4443191107973],[-121.036276293735,50.4444735156102],[-121.035931242147,50.4447855607266],[-121.034507499271,50.4446689931817],[-121.034739271367,50.4441516741464],[-121.035774285238,50.4443191107973]]]}},{"type":"Feature","id":"935505135","properties":{"name":"SP_20KPH_%TR_1590_WATERHOLES_SEPT_14_DS","oid":"935505135","speedLimit":5.5555553},"geometry":{"type":"Polygon","coordinates":[[[-121.013401303676,50.4441736035843],[-121.012717399874,50.4442019141292],[-121.012966079357,50.4452613576294],[-121.013108242302,50.4462074690755],[-121.013276893487,50.4469892894868],[-121.013703241428,50.447096959432],[-121.013792146104,50.4467740394713],[-121.013436809189,50.4437486757875],[-121.01338355092,50.4441622793664],[-121.013401303676,50.4441736035843]]]}},{"type":"Feature","id":"936169885","properties":{"name":"SP_10KPH_%TR_24shl_loadplan_Sept_14_DS","oid":"936169885","speedLimit":2.7777777},"geometry":{"type":"Polygon","coordinates":[[[-121.039172106434,50.4536480195079],[-121.03830348943,50.4537166838135],[-121.038709971191,50.4544374792726],[-121.039308633583,50.4543357410607],[-121.03951391744,50.45440485474],[-121.039377108501,50.4538957143066],[-121.039280172815,50.4537247725406],[-121.039172106434,50.4536480195079]]]}},{"type":"Feature","id":"936513295","properties":{"name":"SP_27KPH_%TR_1635_FLATS_SEP_14_DS","oid":"936513295","speedLimit":7.5},"geometry":{"type":"Polygon","coordinates":[[[-121.017432165618,50.4574537656071],[-121.015225047148,50.4585168939719],[-121.014496197876,50.4578795921514],[-121.016650058077,50.4569267400994],[-121.017432165618,50.4574537656071]]]}},{"type":"Feature","id":"937786749","properties":{"name":"SP_35KPH_%TR_24SH_Loaded_LANE_SEP_14_DS","oid":"937786749","speedLimit":9.722222},"geometry":{"type":"Polygon","coordinates":[[[-121.038518213244,50.4505394318098],[-121.0382712245,50.4509802674366],[-121.038252908164,50.4516607091349],[-121.038255444272,50.4529731500438],[-121.038536670475,50.4526664075373],[-121.038463123341,50.4516540584038],[-121.038518213244,50.4505394318098]]]}},{"type":"Feature","id":"937793793","properties":{"name":"SP_10KPH_%TR_21SH_LOAD_AREA_SEP_14_DS","oid":"937793793","speedLimit":2.7777777},"geometry":{"type":"Polygon","coordinates":[[[-121.039540969259,50.4523448356978],[-121.038960482307,50.4525984622297],[-121.03925551621,50.4533286945371],[-121.039707647915,50.4532448413995],[-121.039544068947,50.452426711591],[-121.039540969259,50.4523448356978]]]}},{"type":"Feature","id":"938065675","properties":{"name":"SP_8KPH_CR01_YARD_RUTIING_SEP_14_DS","oid":"938065675","speedLimit":2.2222223},"geometry":{"type":"Polygon","coordinates":[[[-121.034288266821,50.4648011159284],[-121.034098058718,50.4648579167676],[-121.033939833755,50.4649068985039],[-121.033828385896,50.4650048619765],[-121.034043250605,50.4650687629206],[-121.033963222307,50.4650112430834],[-121.034241630612,50.4648880248073],[-121.034318277432,50.4649372761679],[-121.034288266821,50.4648011159284]]]}},{"type":"Feature","id":"938217281","properties":{"name":"sp_20kph_people on the ground ","oid":"938217281","speedLimit":5.5555553},"geometry":{"type":"Polygon","coordinates":[[[-121.036882705347,50.4639824468714],[-121.03724142374,50.4642844260164],[-121.036265726618,50.4646093232215],[-121.035864035284,50.4642935932404],[-121.036882705347,50.4639824468714]]]}}]}