{"type":"FeatureCollection","features":[{"type":"Feature","id":"702602533","properties":{"name":"iSP_4KPH_%TR_CR01_SLOW BUMP","oid":"702602533","speedLimit":1.1111112},"geometry":{"type":"Polygon","coordinates":[[[-121.033358007998,50.4648080830804],[-121.033652741109,50.4646910657064],[-121.033696133938,50.4647317791246],[-121.033368292662,50.4648699171459],[-121.033358007998,50.4648080830804]]]}},{"type":"Feature","id":"707947583","properties":{"name":"iSP_22KPH_%TR_Permission Gate 1 from west dump_Jun","oid":"707947583","speedLimit":6.111111},"geometry":{"type":"Polygon","coordinates":[[[-121.038627419004,50.4619781859572],[-121.038854104269,50.4617996940181],[-121.037979907828,50.4613512172929],[-121.037742797013,50.4615424714956],[-121.037958915843,50.4614967250721],[-121.038665880829,50.4618462493174],[-121.038627419004,50.4619781859572]]]}},{"type":"Feature","id":"742345972","properties":{"name":"iSP_4KPH_%TR_CR01_PITSIDE_SLOW BUMP","oid":"742345972","speedLimit":1.1111112},"geometry":{"type":"Polygon","coordinates":[[[-121.033397878681,50.4648830389098],[-121.03370515063,50.4647445413881],[-121.033755305977,50.4647766267971],[-121.033473816132,50.4649185395724],[-121.033397878681,50.4648830389098]]]}},{"type":"Feature","id":"776427243","properties":{"name":"iSP_7KPH_%TR_CR1_PermissionBlocker_DO_NOT_DELETE","oid":"776427243","speedLimit":1.9444444},"geometry":{"type":"Polygon","coordinates":[[[-121.03409906735,50.4652130602595],[-121.034050602632,50.465233372031],[-121.034029469761,50.4652748044499],[-121.034115128332,50.4652257326479],[-121.03409906735,50.4652130602595]]]}},{"type":"Feature","id":"794004438","properties":{"name":"iSP_11KPH_%TR_LOWER_FUEL_BAY","oid":"794004438","speedLimit":3.0555556},"geometry":{"type":"Polygon","coordinates":[[[-121.036775756824,50.4606956683484],[-121.036777870111,50.46072550688],[-121.036748143205,50.4606710425723],[-121.037124308314,50.4605993222463],[-121.037534286016,50.4605562720757],[-121.037542034736,50.4605816168525],[-121.036943551822,50.4606504611755],[-121.036775756824,50.4606956683484]]]}},{"type":"Feature","id":"801543391","properties":{"name":"iSP_4KPH_%TR_CR1_PermissionBlocker_DO_NOT_DELETE_","oid":"801543391","speedLimit":1.1111112},"geometry":{"type":"Polygon","coordinates":[[[-121.03315456889,50.4645235385289],[-121.033153723576,50.4644741072266],[-121.033175279104,50.464432045682],[-121.033107231259,50.4644596373362],[-121.03315456889,50.4645235385289]]]}},{"type":"Feature","id":"806473874","properties":{"name":"iSP_4KPH_%TR_Permission Blocker - DO NOT DELETE","oid":"806473874","speedLimit":1.1111112},"geometry":{"type":"Polygon","coordinates":[[[-121.02271887529,50.4815454321883],[-121.022685767126,50.4815430954358],[-121.022678159292,50.4815717655912],[-121.022700278364,50.4815728440923],[-121.022704364052,50.4815487575668],[-121.02271887529,50.4815454321883]]]}},{"type":"Feature","id":"824566967","properties":{"name":"iSP_4Cr_3KPH","oid":"824566967","speedLimit":0.8333333},"geometry":{"type":"Polygon","coordinates":[[[-121.02330171988,50.481068554933],[-121.023281573209,50.481068554933],[-121.023278896379,50.4811866508082],[-121.023303974053,50.4811859318074],[-121.02330171988,50.481068554933]]]}},{"type":"Feature","id":"826307302","properties":{"name":"iSP_4KPH_TR%_CRUSHER POCKETS","oid":"826307302","speedLimit":1.1111112},"geometry":{"type":"Polygon","coordinates":[[[-121.023296929762,50.4813217330763],[-121.023336377789,50.4814773967412],[-121.023541084868,50.4814379415744],[-121.023460075528,50.4811890774357],[-121.023051788456,50.4811897964365],[-121.023057142116,50.4813604692423],[-121.023281995867,50.4813264964563],[-121.023296929762,50.4813217330763]]]}},{"type":"Feature","id":"849417440","properties":{"name":"iSP_Permissions_35_KPH_June_19_NS","oid":"849417440","speedLimit":9.722222},"geometry":{"type":"Polygon","coordinates":[[[-121.032694576726,50.4660343388796],[-121.033009174736,50.4660150157341],[-121.033216135989,50.4658141448963],[-121.033804897782,50.465379688686],[-121.033725719958,50.4652508976746],[-121.033961844572,50.4654003599579],[-121.033425633186,50.4658086625155],[-121.033023263317,50.4661882050426],[-121.032694576726,50.4660343388796]]]}},{"type":"Feature","id":"853029148","properties":{"name":"SP_15KPH_%TR_1635 Flats_AUG_23_NS","oid":"853029148","speedLimit":4.1666665},"geometry":{"type":"Polygon","coordinates":[[[-121.018589512246,50.4569710646522],[-121.017425795469,50.4572810438556],[-121.015788279718,50.4579431536821],[-121.014824198131,50.4590966106542],[-121.018348597514,50.4588932233137],[-121.020691669393,50.4589873225384],[-121.020239989492,50.4572318821786],[-121.01942228826,50.4570967100354],[-121.018968072413,50.457000094308],[-121.018589512246,50.4569710646522]]]}},{"type":"Feature","id":"859384545","properties":{"name":"SP_20KPH_TR%_MAINT_CREW_L1590_DUST_AUG_20_DS","oid":"859384545","speedLimit":5.5555553},"geometry":{"type":"Polygon","coordinates":[[[-121.013533261469,50.4515905123266],[-121.01342900597,50.4510356234888],[-121.012755853578,50.448326967869],[-121.012535508173,50.4488174162636],[-121.013393502747,50.4517794297768],[-121.013276708411,50.4521786549498],[-121.01311609859,50.4521879120846],[-121.013442249236,50.4522151442384],[-121.013533261469,50.4515905123266]]]}},{"type":"Feature","id":"863534413","properties":{"name":"SP_20KPH_%TRAC_1590_AUG_20_DS","oid":"863534413","speedLimit":5.5555553},"geometry":{"type":"Polygon","coordinates":[[[-121.012338831585,50.4562544006429],[-121.013044810371,50.455569192917],[-121.013345460686,50.4553103526427],[-121.013522976805,50.4551323999542],[-121.013057067436,50.4549761071636],[-121.013286570418,50.4550943827889],[-121.011898845205,50.4565735471061],[-121.011626935595,50.4565414616971],[-121.012024092689,50.4566651298281],[-121.012338831585,50.4562544006429]]]}},{"type":"Feature","id":"878230085","properties":{"name":"SP_20KPH_TR%_PUNCH_OUT_L1590_DMP_AUG_20_DS1","oid":"878230085","speedLimit":5.5555553},"geometry":{"type":"Polygon","coordinates":[[[-121.013652169091,50.4533277080422],[-121.013644561257,50.4527798294617],[-121.013740363607,50.4524496283619],[-121.013097219892,50.4524619412499],[-121.013064816156,50.452863143675],[-121.013204293106,50.4533676125844],[-121.013609621577,50.4545821846213],[-121.013328272617,50.454954806766],[-121.013043542399,50.4549502231362],[-121.013782629349,50.4551891111393],[-121.014112302141,50.4546827548528],[-121.014058624648,50.4542962919434],[-121.013652169091,50.4533277080422]]]}},{"type":"Feature","id":"883050998","properties":{"name":"iSP_22kph_%TR_4CR_Brake_Temp_CTRL_NOREMOVE","oid":"883050998","speedLimit":6.111111},"geometry":{"type":"Polygon","coordinates":[[[-121.031798261213,50.4745592612866],[-121.032187528702,50.4743126440253],[-121.032489165217,50.4745749894282],[-121.032790801733,50.4748023734192],[-121.032968599623,50.4748847888815],[-121.033177392391,50.4749349391846],[-121.033461277295,50.4749597447109],[-121.03366513906,50.4749221769211],[-121.033826312425,50.4748627694831],[-121.033917465543,50.474810731803],[-121.034006787145,50.4747475496111],[-121.034057224265,50.4746583935166],[-121.034051447947,50.4745482066499],[-121.034055251863,50.4744838560817],[-121.033993121222,50.4743798705965],[-121.033874777143,50.4742597974693],[-121.033507910498,50.4739378648782],[-121.033059611856,50.4735602097281],[-121.032946339666,50.4734256667106],[-121.032821373954,50.4732211109938],[-121.032604550694,50.4728151451887],[-121.032251068201,50.4722092072967],[-121.03248606573,50.4721563607408],[-121.032429006977,50.4722058819182],[-121.032901537978,50.4730490900616],[-121.033040733157,50.4733098177128],[-121.033248539725,50.4735471778393],[-121.033741499168,50.4739618615286],[-121.034096531405,50.4742713913566],[-121.03420191399,50.4743946999872],[-121.034254605282,50.4744619265585],[-121.034261649573,50.4745930543224],[-121.034236712785,50.4746790647885],[-121.034182189977,50.474791858033],[-121.034084696997,50.4748760709972],[-121.033971847465,50.4749379050627],[-121.033789259457,50.4750163660209],[-121.033529747798,50.475064628947],[-121.033261782991,50.4750683138259],[-121.033070178291,50.4750265219066],[-121.032806440058,50.4749167844154],[-121.032655692243,50.4748353575791],[-121.032494096221,50.4747055779416],[-121.032143572329,50.4744133041319],[-121.031798261213,50.4745592612866]]]}},{"type":"Feature","id":"883053336","properties":{"name":"iSP_22kph_%TR_Brake_Temp_CTRL_NOREMOVE","oid":"883053336","speedLimit":6.111111},"geometry":{"type":"Polygon","coordinates":[[[-121.032464791972,50.4721454858542],[-121.032249941115,50.4722257443143],[-121.031487326234,50.4710085658997],[-121.030815441813,50.4699235937502],[-121.030660185653,50.4696604394714],[-121.030595378181,50.4694579508818],[-121.03054902675,50.4692569901689],[-121.030595378181,50.4689731646182],[-121.030721611865,50.4686245391239],[-121.030883348773,50.4683757648603],[-121.031087774081,50.468098050816],[-121.03168710231,50.4675367808464],[-121.032430979378,50.4668939042903],[-121.032787279588,50.4665564233077],[-121.033146397513,50.4662226272041],[-121.033483255481,50.4658709459565],[-121.033778270364,50.4660343388796],[-121.033586243007,50.4659935355864],[-121.032918162504,50.4666523200343],[-121.032553409146,50.4669915086437],[-121.032177384923,50.467307958854],[-121.031773183539,50.4676686276111],[-121.031380816563,50.4680346888739],[-121.03114595992,50.4682866087658],[-121.031007610056,50.4684701337103],[-121.030903918101,50.4686547371558],[-121.030827417107,50.4688532712412],[-121.030766554438,50.4691915610996],[-121.030775289358,50.4694008801964],[-121.030872500566,50.4696306009398],[-121.031026488754,50.4699353673877],[-121.031329393243,50.4704040660092],[-121.03152945109,50.4707112590847],[-121.031749092066,50.4710831622287],[-121.032144840302,50.4717290945381],[-121.032380119602,50.4721453959791],[-121.032464791972,50.4721454858542]]]}},{"type":"Feature","id":"883059532","properties":{"name":"iSP_22kph_%TR_Brake_CTRL_NOREMOVE","oid":"883059532","speedLimit":6.111111},"geometry":{"type":"Polygon","coordinates":[[[-121.027261174639,50.477322291339],[-121.027028994827,50.4772101272201],[-121.027333449059,50.4769443665636],[-121.027715390485,50.4766327696084],[-121.028032101783,50.4763230600303],[-121.028189330345,50.4761691039922],[-121.028620159147,50.4756926761124],[-121.028906157338,50.475326075599],[-121.029262739319,50.4748879345098],[-121.029471532087,50.4746570453902],[-121.029690327748,50.474540747017],[-121.029800359564,50.4744885295866],[-121.029951107379,50.4745929644473],[-121.029787538955,50.4745423647687],[-121.029554936486,50.474791858033],[-121.029250764025,50.4751733778122],[-121.029071839049,50.4754783240103],[-121.028852057188,50.4757750915747],[-121.028694969511,50.4759750636616],[-121.028407844234,50.4762709324751],[-121.028040554931,50.4765703064172],[-121.027242859484,50.4772197438553],[-121.027261174639,50.477322291339]]]}},{"type":"Feature","id":"884401102","properties":{"name":"SP_15KPH_MAIN INT. DUST_AUG_ 23_NS","oid":"884401102","speedLimit":4.1666665},"geometry":{"type":"Polygon","coordinates":[[[-121.035771522781,50.4609093014497],[-121.03595340636,50.4612028335107],[-121.038293660523,50.4609923460377],[-121.03827731777,50.4603981817832],[-121.038118821235,50.4605660684611],[-121.035902264812,50.4608513320133],[-121.035709110368,50.4607571429135],[-121.035771522781,50.4609093014497]]]}},{"type":"Feature","id":"891249991","properties":{"name":"SP_30KPH_TR%_1590 #1_AUG_23_NS","oid":"891249991","speedLimit":8.333333},"geometry":{"type":"Polygon","coordinates":[[[-121.012956334083,50.4498608661191],[-121.013846873278,50.4497489716256],[-121.013378287079,50.4450042855987],[-121.012138210194,50.4430839244391],[-121.011298953433,50.4419104253208],[-121.010529153376,50.4421498525744],[-121.011008165125,50.4427017755342],[-121.011240204051,50.4430299993819],[-121.011455759338,50.4435200882762],[-121.011773738607,50.4445107814508],[-121.012956334083,50.4498608661191]]]}},{"type":"Feature","id":"893804793","properties":{"name":"SP_20KPH_%TR_1590Dynamic_AUG_23_NS","oid":"893804793","speedLimit":5.5555553},"geometry":{"type":"Polygon","coordinates":[[[-121.011185963015,50.4418409518722],[-121.01048364726,50.4421102176574],[-121.005981500367,50.4380483127289],[-121.006514048722,50.4376818020906],[-121.010066766153,50.4407335109489],[-121.011185963015,50.4418409518722]]]}},{"type":"Feature","id":"908328496","properties":{"name":"SP_15KPH_%TR_9019_SOFT_GROUND_AUG_23_NS","oid":"908328496","speedLimit":4.1666665},"geometry":{"type":"Polygon","coordinates":[[[-121.039687443826,50.4639767384496],[-121.039696742289,50.4642094250711],[-121.039280565611,50.4648805224072],[-121.038800849434,50.4661305052315],[-121.039263236657,50.4662042926847],[-121.038927083118,50.4669793755058],[-121.037871566641,50.4685913752137],[-121.036176287709,50.4681969134208],[-121.035227421789,50.4668161623329],[-121.037880160676,50.4651401715572],[-121.038519218703,50.4648146439624],[-121.039687443826,50.4639767384496]]]}},{"type":"Feature","id":"910445950","properties":{"name":"SP_20KPH_%TR_1635_FLATS_AUG_23_NS","oid":"910445950","speedLimit":5.5555553},"geometry":{"type":"Polygon","coordinates":[[[-121.020224773824,50.457164296107],[-121.019043728093,50.456961448017],[-121.018650093144,50.4569228017261],[-121.017842113033,50.4571471299638],[-121.018448062895,50.4564126706856],[-121.018502585702,50.4555081677273],[-121.01921758118,50.4555081677273],[-121.019235755449,50.4564590462348],[-121.019423556232,50.4568920644435],[-121.019756892055,50.4570621081237],[-121.020224773824,50.457164296107]]]}},{"type":"Feature","id":"917291012","properties":{"name":"SP_15KPH_%TR_CORNER_RUTS_AUG_23_NS","oid":"917291012","speedLimit":4.1666665},"geometry":{"type":"Polygon","coordinates":[[[-121.040608977899,50.466221638578],[-121.04068322472,50.4661074972071],[-121.040421318002,50.4659264887653],[-121.040527968559,50.465665671239],[-121.040024724451,50.4656481455954],[-121.040218160666,50.4657710947257],[-121.040015425988,50.4663107946725],[-121.039932444247,50.4664861409833],[-121.039993588688,50.4668202965873],[-121.040665754879,50.4667394988767],[-121.040547833458,50.4666225713778],[-121.040530363618,50.4663775718682],[-121.040608977899,50.466221638578]]]}},{"type":"Feature","id":"920440343","properties":{"name":"iSP_17KPH_CAL_PAD_ROAD_LIMIT_AUG_23_NS","oid":"920440343","speedLimit":4.7222223},"geometry":{"type":"Polygon","coordinates":[[[-121.005955013835,50.4378309048736],[-121.005968679758,50.437613227393],[-121.00558645656,50.4375784457311],[-121.005286228902,50.4376828805918],[-121.005190708324,50.4378352188782],[-121.005286228902,50.4381617350991],[-121.0059891082,50.4392588403865],[-121.007469958932,50.4413701861234],[-121.007674666012,50.4416487989186],[-121.007783852514,50.4421538070786],[-121.007934036785,50.4426631292432],[-121.008118315423,50.4432333867224],[-121.008323022502,50.4436513059152],[-121.008684676372,50.4445612013792],[-121.008759768508,50.444922499262],[-121.008759768508,50.4451793622842],[-121.008691579777,50.44561903125],[-121.008493635216,50.4462284742707],[-121.008944047146,50.4462154423819],[-121.009135088302,50.44573227387],[-121.009319366939,50.4449181852574],[-121.009216942957,50.4444523626389],[-121.008998569954,50.443799330197],[-121.008773434432,50.4433770969997],[-121.008459540851,50.4427370964466],[-121.008295690655,50.4420754359956],[-121.008241167848,50.4417446057701],[-121.007920370862,50.4411960081889],[-121.006814839923,50.4398334118702],[-121.006603370325,50.4394938637605],[-121.006228050531,50.438779896004],[-121.0059891082,50.438388130464],[-121.005934585392,50.4380573002385],[-121.005955013835,50.4378309048736]]]}},{"type":"Feature","id":"921284584","properties":{"name":"SP_22kph_rough ground_23SH_AUG 23_NS","oid":"921284584","speedLimit":6.111111},"geometry":{"type":"Polygon","coordinates":[[[-121.039983585795,50.4678260887779],[-121.04054304334,50.4679703383058],[-121.040342281063,50.4682545233568],[-121.039115024786,50.4697887811074],[-121.039352699145,50.4704372299194],[-121.039937938793,50.4707937644221],[-121.039579102639,50.4711138096362],[-121.038661795141,50.4705579321723],[-121.038402142596,50.4695221216998],[-121.039983585795,50.4678260887779]]]}},{"type":"Feature","id":"921727643","properties":{"name":"SP_35KPH_%TR_ HIGHMONT TRIAL_Aug 23_NS","oid":"921727643","speedLimit":9.722222},"geometry":{"type":"Polygon","coordinates":[[[-121.012708797718,50.4365927855618],[-121.010156087755,50.4366191189647],[-121.007266519825,50.4370212201408],[-121.006148168278,50.4371702330486],[-121.005263405401,50.4370779313258],[-121.004924011489,50.4368543220889],[-121.00530243077,50.4361089879243],[-121.005970088616,50.435459370736],[-121.006754681683,50.4347246418326],[-121.007316675173,50.4339047113389],[-121.007674243355,50.4330514371848],[-121.007912058599,50.4323925628618],[-121.007906423167,50.4319204489866],[-121.007795123378,50.4313845237938],[-121.00751137936,50.4310047116414],[-121.006988411239,50.4305645933001],[-121.005753124471,50.4297836685977],[-121.004890621552,50.4292689539274],[-121.00411729935,50.4288927367788],[-121.003316363529,50.4284988142364],[-121.003470351718,50.4283233780506],[-121.003115460366,50.4285318882715],[-121.004389490732,50.4291671254445],[-121.005350613717,50.4296955011293],[-121.006574066077,50.4304921539733],[-121.007130424134,50.4309177125492],[-121.007500390267,50.431387579547],[-121.007671143867,50.4318534920406],[-121.007636345072,50.43253717189],[-121.007399234257,50.4332026969701],[-121.007172689877,50.433868941051],[-121.006590267945,50.4345641249125],[-121.00615817117,50.4350395641662],[-121.005744812209,50.4354070634306],[-121.005112234929,50.4360623427498],[-121.004792846801,50.4366456321178],[-121.004711414804,50.4369332324225],[-121.004893016611,50.4370850314584],[-121.005450501755,50.4372768249116],[-121.006283418654,50.4372648715239],[-121.007586048839,50.4371449781469],[-121.008819785863,50.4369812257234],[-121.009458562118,50.4368812846175],[-121.011036764944,50.4367894322702],[-121.012887159151,50.4367964425276],[-121.012877860688,50.4364190570028],[-121.012708797718,50.4365927855618]]]}},{"type":"Feature","id":"922262468","properties":{"name":"SP_20kph_HMT_DUMP_AUG_23_NS","oid":"922262468","speedLimit":5.5555553},"geometry":{"type":"Polygon","coordinates":[[[-121.01250099115,50.4364266065108],[-121.012481126251,50.4374172996854],[-121.016363375588,50.4384079029849],[-121.017179667962,50.4369600152009],[-121.016522717437,50.4359058702091],[-121.014770661524,50.4353089198266],[-121.012899275331,50.435207360969],[-121.01250099115,50.4364266065108]]]}},{"type":"Feature","id":"922385545","properties":{"name":"SP_20KPH_RUTS_AUG 23_NS","oid":"922385545","speedLimit":5.5555553},"geometry":{"type":"Polygon","coordinates":[[[-121.00751137936,50.4337192990174],[-121.006869926274,50.4335258878125],[-121.006518557068,50.4340724182666],[-121.007225803826,50.4343190355278],[-121.00751137936,50.4337192990174]]]}},{"type":"Feature","id":"923351007","properties":{"name":"iSP_17KPH_PERMISSIONS_AUG 18_NS","oid":"923351007","speedLimit":4.7222223},"geometry":{"type":"Polygon","coordinates":[[[-121.03885241364,50.460877485666],[-121.038871855881,50.4611350676889],[-121.038782534279,50.4608897985541],[-121.038537815629,50.4608897985541],[-121.038534011713,50.4608303911161],[-121.038879604601,50.4608229314832],[-121.03885241364,50.460877485666]]]}},{"type":"Feature","id":"923607825","properties":{"name":"MRK_CROSS DITCH ","oid":"923607825","speedLimit":2.7777777},"geometry":{"type":"Polygon","coordinates":[[[-121.035184592504,50.4458455164899],[-121.035615984849,50.4454861958592],[-121.035585553514,50.4454715462187],[-121.035136268671,50.445826732595],[-121.035184592504,50.4458455164899]]]}},{"type":"Feature","id":"924222108","properties":{"name":"sp_11kph_rough ground_23SH _AUG 23_NS","oid":"924222108","speedLimit":3.0555556},"geometry":{"type":"Polygon","coordinates":[[[-121.039472733854,50.4712559920368],[-121.039828047863,50.471407161947],[-121.040766347347,50.4719020142213],[-121.041128705646,50.4715872716378],[-121.039779442259,50.4709828616225],[-121.039642783025,50.4710719278418],[-121.039472733854,50.4712559920368]]]}},{"type":"Feature","id":"924266047","properties":{"name":"SP_12KPH_%TR_CROSS DITCH_AUG_22 DS ","oid":"924266047","speedLimit":3.3333333},"geometry":{"type":"Polygon","coordinates":[[[-121.037614590927,50.4473124577941],[-121.037892558627,50.4474716265878],[-121.03765615224,50.4477508685086],[-121.037461448053,50.4476921800714],[-121.03726660298,50.4475135083821],[-121.037614590927,50.4473124577941]]]}},{"type":"Feature","id":"925208014","properties":{"name":"SP_18KPH_BAD RAMPS_AUG 22_NS","oid":"925208014","speedLimit":5},"geometry":{"type":"Polygon","coordinates":[[[-121.036763640644,50.4451607581394],[-121.036032161527,50.4452370620953],[-121.03630364848,50.4456361075181],[-121.037265053236,50.4467981924993],[-121.037918199844,50.4474349575489],[-121.038244914034,50.4478047036906],[-121.038870447023,50.4475376847828],[-121.036869445886,50.4452751691357],[-121.036763640644,50.4451607581394]]]}},{"type":"Feature","id":"925221054","properties":{"name":"SP_18KPH_MUDDY GROUND NO SHIFTING_AUG 22_NS","oid":"925221054","speedLimit":5},"geometry":{"type":"Polygon","coordinates":[[[-121.038705892399,50.4481133347676],[-121.037511462515,50.4480199545437],[-121.03742087294,50.4487658279589],[-121.038170385441,50.4519075916626],[-121.039341569166,50.4515567192908],[-121.038715895291,50.4499629642273],[-121.038648270103,50.4489201434974],[-121.038705892399,50.4481133347676]]]}},{"type":"Feature","id":"925558402","properties":{"name":"SP_15KPH_LAKE2_AUG 23_NS","oid":"925558402","speedLimit":2.7777777},"geometry":{"type":"Polygon","coordinates":[[[-121.025276938914,50.4783483953011],[-121.025270599052,50.4783786832082],[-121.025224811165,50.4784259575083],[-121.025196493117,50.478483297819],[-121.025185363138,50.4785366836256],[-121.025152254973,50.4786282663476],[-121.025081248526,50.4787309935814],[-121.024999112099,50.4788125102928],[-121.024910776698,50.4788688619775],[-121.024852449973,50.4789111931474],[-121.024718326683,50.47895145719],[-121.024603082092,50.4789836324741],[-121.02449727685,50.4789886654794],[-121.024399502099,50.4789907326066],[-121.025242140119,50.4783504624283],[-121.025276938914,50.4783483953011]]]}},{"type":"Feature","id":"925558964","properties":{"name":"SP_15KPH_LAKE_AUG 23_NS","oid":"925558964","speedLimit":4.1666665},"geometry":{"type":"Polygon","coordinates":[[[-121.039605730057,50.4634625630298],[-121.039996688175,50.4634253547404],[-121.04019350565,50.4642140985761],[-121.039994574888,50.4642497789889],[-121.039845095046,50.4635404847374],[-121.039605730057,50.4634625630298]]]}}]}