{"type":"FeatureCollection","features":[{"type":"Feature","id":"702602533","properties":{"name":"iSP_4KPH_%TR_CR01_SLOW BUMP","oid":"702602533","speedLimit":1.1111112},"geometry":{"type":"Polygon","coordinates":[[[-121.033356058462,50.4648083132592],[-121.033650818478,50.4646912980568],[-121.033694215268,50.4647320107194],[-121.033366344065,50.4648701461772],[-121.033356058462,50.4648083132592]]]}},{"type":"Feature","id":"707947583","properties":{"name":"iSP_22KPH_%TR_Permission Gate 1 from west dump_Jun","oid":"707947583","speedLimit":6.111111},"geometry":{"type":"Polygon","coordinates":[[[-121.038625950488,50.4619784686528],[-121.038852656447,50.4617999800261],[-121.038137595701,50.4614087609969],[-121.037989933896,50.461671461025],[-121.038189446411,50.4615673875962],[-121.038664415825,50.4618465344615],[-121.038625950488,50.4619784686528]]]}},{"type":"Feature","id":"742345972","properties":{"name":"iSP_4KPH_%TR_CR01_PITSIDE_SLOW BUMP","oid":"742345972","speedLimit":1.1111112},"geometry":{"type":"Polygon","coordinates":[[[-121.033395932785,50.4648832676976],[-121.033703232783,50.4647447727461],[-121.033753392709,50.4647768575596],[-121.033471877168,50.4649187677014],[-121.033395932785,50.4648832676976]]]}},{"type":"Feature","id":"776427243","properties":{"name":"iSP_7KPH_%TR_CR1_PermissionBlocker_DO_NOT_DELETE","oid":"776427243","speedLimit":1.9444444},"geometry":{"type":"Polygon","coordinates":[[[-121.034097185462,50.4652132829228],[-121.03404871632,50.4652335943173],[-121.034027581519,50.4652750259673],[-121.03411324791,50.465225955076],[-121.034097185462,50.4652132829228]]]}},{"type":"Feature","id":"794004438","properties":{"name":"iSP_11KPH_%TR_LOWER_FUEL_BAY","oid":"794004438","speedLimit":3.0555556},"geometry":{"type":"Polygon","coordinates":[[[-121.036774119279,50.4606959748448],[-121.036776232759,50.4607258128226],[-121.03674650314,50.4606713495257],[-121.037122702586,50.4605996305307],[-121.037532717714,50.460556581159],[-121.037540467141,50.4605819254655],[-121.036941929594,50.4606507685108],[-121.036774119279,50.4606959748448]]]}},{"type":"Feature","id":"801543391","properties":{"name":"iSP_4KPH_%TR_CR1_PermissionBlocker_DO_NOT_DELETE_","oid":"801543391","speedLimit":1.1111112},"geometry":{"type":"Polygon","coordinates":[[[-121.033152600783,50.4645237739883],[-121.033151755391,50.4644743436032],[-121.033173312888,50.4644322828392],[-121.03310525883,50.4644598739814],[-121.033152600783,50.4645237739883]]]}},{"type":"Feature","id":"806473874","properties":{"name":"iSP_4KPH_%TR_Permission Blocker - DO NOT DELETE","oid":"806473874","speedLimit":1.1111112},"geometry":{"type":"Polygon","coordinates":[[[-121.022715954556,50.4815453517579],[-121.022682843369,50.4815430150488],[-121.02267523484,50.4815716846721],[-121.022697355931,50.4815727631532],[-121.022701441993,50.4815486770747],[-121.022715954556,50.4815453517579]]]}},{"type":"Feature","id":"824566967","properties":{"name":"iSP_4Cr_3KPH","oid":"824566967","speedLimit":0.8333333},"geometry":{"type":"Polygon","coordinates":[[[-121.02329885235,50.4810684833524],[-121.023278703841,50.4810684833524],[-121.023276026766,50.481186577036],[-121.023301106729,50.4811858580485],[-121.02329885235,50.4810684833524]]]}},{"type":"Feature","id":"826307302","properties":{"name":"iSP_4KPH_TR%_CRUSHER POCKETS","oid":"826307302","speedLimit":1.1111112},"geometry":{"type":"Polygon","coordinates":[[[-121.023294061796,50.4813216567972],[-121.023333513423,50.4814773175734],[-121.023538239189,50.4814378631388],[-121.023457222455,50.4811890036185],[-121.023048898111,50.4811897226059],[-121.023054252261,50.4813603922444],[-121.023279126537,50.4813264200889],[-121.023294061796,50.4813216567972]]]}},{"type":"Feature","id":"855316169","properties":{"name":"SP_30KPH_TR%_CRUSHER YARD EMPTY_SEP_1_NS","oid":"855316169","speedLimit":8.333333},"geometry":{"type":"Polygon","coordinates":[[[-121.037909621654,50.4622353269081],[-121.03776815939,50.4621199294274],[-121.037593585939,50.4622037813351],[-121.037543144215,50.4622380231109],[-121.037606266819,50.4622269686794],[-121.037902717619,50.4624617180716],[-121.037717013173,50.4625142940266],[-121.038120265165,50.4625068345321],[-121.038118574381,50.462494611746],[-121.037909621654,50.4622353269081]]]}},{"type":"Feature","id":"883050998","properties":{"name":"iSP_22kph_%TR_4CR_Brake_Temp_CTRL_NOREMOVE","oid":"883050998","speedLimit":6.111111},"geometry":{"type":"Polygon","coordinates":[[[-121.031796169295,50.4745593105045],[-121.032185472318,50.4743126978199],[-121.032487136369,50.4745750383543],[-121.032788800419,50.4748024181254],[-121.03296661454,50.4748848320583],[-121.033175426368,50.4749349814307],[-121.033459337186,50.4749597864967],[-121.033663217561,50.474922219404],[-121.033824405638,50.4748628130686],[-121.033915567077,50.4748107763542],[-121.034004896834,50.4747475953347],[-121.034055338557,50.4746584408948],[-121.034049561712,50.4745482560729],[-121.034053365976,50.4744839066989],[-121.033991229663,50.4743799231435],[-121.03387287478,50.4742598522446],[-121.033505974646,50.4739379256279],[-121.03305763508,50.4735602774862],[-121.03294435255,50.4734257369655],[-121.032819375431,50.4732211850449],[-121.032602532379,50.4728152267737],[-121.032249017618,50.4722093001266],[-121.032484036598,50.4721564545513],[-121.032426972637,50.4722059748098],[-121.032899546773,50.473049167305],[-121.033038754659,50.4733098901177],[-121.033246580196,50.4735472458393],[-121.033739584639,50.473961921833],[-121.034094649286,50.4742714459167],[-121.03420004149,50.474394752259],[-121.034252737593,50.4744619775827],[-121.034259782526,50.4745931029132],[-121.034234843462,50.4746791117831],[-121.034180315677,50.4747919029344],[-121.034082813798,50.4748761143358],[-121.033969953964,50.4749379472538],[-121.033787349288,50.4750164067559],[-121.03352781394,50.4750646687864],[-121.033259824671,50.4750683535969],[-121.03306820248,50.4750265624532],[-121.032804440172,50.4749168269984],[-121.032653678596,50.4748354016732],[-121.032492067822,50.4747056244442],[-121.032141511933,50.4744133560585],[-121.031796169295,50.4745593105045]]]}},{"type":"Feature","id":"883053336","properties":{"name":"iSP_22kph_%TR_Brake_Temp_CTRL_NOREMOVE","oid":"883053336","speedLimit":6.111111},"geometry":{"type":"Polygon","coordinates":[[[-121.032462760899,50.4721455798666],[-121.032247890428,50.4722258368372],[-121.031485205932,50.4710086810109],[-121.030813260178,50.4699237289961],[-121.030657989845,50.4696605796009],[-121.030593176457,50.4694580947691],[-121.030546820795,50.4692571377856],[-121.030593176457,50.4689733175021],[-121.030719421664,50.4686246984774],[-121.030881173337,50.4683759288306],[-121.031085617306,50.4680982199401],[-121.031685000245,50.4675369603864],[-121.032428945218,50.4668940957607],[-121.032785277953,50.4665566210411],[-121.033144428661,50.466222831132],[-121.033481317379,50.4658711564108],[-121.033776359192,50.4660345463017],[-121.033584314306,50.4659937437657],[-121.032916172816,50.4666525159881],[-121.032551386162,50.4669916983028],[-121.032175327614,50.4673081426405],[-121.031771089332,50.4676688047043],[-121.031378686538,50.4680348591739],[-121.031143808456,50.4682867743907],[-121.031005445963,50.4684702959293],[-121.030901744542,50.468654895949],[-121.030825236565,50.46885342635],[-121.03076436834,50.4691917099305],[-121.030773104057,50.4694010251427],[-121.030870324139,50.469630741623],[-121.031024326385,50.4699355024151],[-121.031327258523,50.4704041923386],[-121.031527334634,50.4707113797132],[-121.031746995659,50.4710832759555],[-121.032142780021,50.4717291962778],[-121.032378080799,50.4721454899932],[-121.032462760899,50.4721455798666]]]}},{"type":"Feature","id":"883059532","properties":{"name":"iSP_22kph_%TR_Brake_CTRL_NOREMOVE","oid":"883059532","speedLimit":6.111111},"geometry":{"type":"Polygon","coordinates":[[[-121.027258668551,50.477322289281],[-121.027026467544,50.4772101272436],[-121.027330949568,50.476944371519],[-121.02771292586,50.4766327803465],[-121.028029666069,50.4763230765159],[-121.028186908984,50.4761691233349],[-121.028617777114,50.4756927042966],[-121.028903801413,50.4753261105865],[-121.029260415944,50.4748879776282],[-121.029469227772,50.4746570927934],[-121.029688043406,50.4745407965784],[-121.029798085266,50.4744885801172],[-121.029948846842,50.4745930130397],[-121.029785263487,50.4745424143001],[-121.029552639784,50.4747919029344],[-121.029248439558,50.4751734156334],[-121.029069498248,50.4754783561724],[-121.028849696324,50.4757751182294],[-121.028692594307,50.4759750866052],[-121.028405442819,50.476270949928],[-121.028038119989,50.4765703183145],[-121.027240351724,50.4772197437004],[-121.027258668551,50.477322289281]]]}},{"type":"Feature","id":"903864124","properties":{"name":"SP_15KPH_%TR_OLD_GARBAGEDUMP_SEP_1_NS","oid":"903864124","speedLimit":4.1666665},"geometry":{"type":"Polygon","coordinates":[[[-121.042482769761,50.4669874742517],[-121.042129536798,50.4673291730224],[-121.042021044822,50.4669795653901],[-121.041683874307,50.466810243853],[-121.041832381504,50.466710753969],[-121.042482769761,50.4669874742517]]]}},{"type":"Feature","id":"910445950","properties":{"name":"SP_22KPH_%TR_1635_FLATS_SEP_1_NS","oid":"910445950","speedLimit":6.111111},"geometry":{"type":"Polygon","coordinates":[[[-121.018912676777,50.4576040593242],[-121.015244379924,50.4587010543783],[-121.014493671814,50.4578802403664],[-121.017897220068,50.4565677288337],[-121.01822523217,50.4542753273227],[-121.01843700287,50.4540107399526],[-121.019215890713,50.4539296741212],[-121.019241252474,50.4568513693703],[-121.019153895299,50.4570737162296],[-121.01919193794,50.4574057086701],[-121.018912676777,50.4576040593242]]]}},{"type":"Feature","id":"917291012","properties":{"name":"SP_20KPH_%TR_CORNER_RUTS_SEP_1_NS","oid":"917291012","speedLimit":5.5555553},"geometry":{"type":"Polygon","coordinates":[[[-121.040607690271,50.4662218425243],[-121.04068194387,50.4661077032716],[-121.040420013244,50.4659266981889],[-121.040118208294,50.4658985678062],[-121.040014084178,50.4663109969642],[-121.039931094862,50.4664863400209],[-121.039992244884,50.4668204894237],[-121.040664472435,50.4667396932126],[-121.040546540249,50.4666227678836],[-121.040529068814,50.4663777729207],[-121.040607690271,50.4662218425243]]]}},{"type":"Feature","id":"922262468","properties":{"name":"SP_20kph_HMT_DUMP_SEP_1_NS","oid":"922262468","speedLimit":5.5555553},"geometry":{"type":"Polygon","coordinates":[[[-121.012497137671,50.4364273633888],[-121.012477270958,50.4374180381783],[-121.016359874688,50.4384086230943],[-121.017176241577,50.43696076218],[-121.016519231083,50.4359066367508],[-121.014767015232,50.4353096974465],[-121.012895458209,50.4352081404736],[-121.012497137671,50.4364273633888]]]}},{"type":"Feature","id":"923351007","properties":{"name":"iSP_17KPH_PERMISSIONS_AUG 18_NS","oid":"923351007","speedLimit":4.7222223},"geometry":{"type":"Polygon","coordinates":[[[-121.038850965663,50.4608777887882],[-121.03887040968,50.461135366031],[-121.038781079923,50.4608901014478],[-121.038536338935,50.4608901014478],[-121.038532534671,50.4608306951123],[-121.038878159106,50.4608232356179],[-121.038850965663,50.4608777887882]]]}},{"type":"Feature","id":"926367691","properties":{"name":"SP_15KPH_%TR_24SH_SEP_1_NS","oid":"926367691","speedLimit":4.1666665},"geometry":{"type":"Polygon","coordinates":[[[-121.038598475248,50.4501829408091],[-121.037730962141,50.450179345872],[-121.038242565209,50.4520121346756],[-121.038474484419,50.4519892169517],[-121.039661414809,50.4519363713764],[-121.039535451398,50.4510989307805],[-121.038598475248,50.4501829408091]]]}},{"type":"Feature","id":"929009157","properties":{"name":"iSP_22kph_Long_Single_Lane_Aug30","oid":"929009157","speedLimit":6.111111},"geometry":{"type":"Polygon","coordinates":[[[-121.005864191918,50.4378890648109],[-121.004804774824,50.4381079964799],[-121.005170265972,50.4381984091478],[-121.0079307527,50.443171285629],[-121.008519568238,50.4445356541293],[-121.008206632294,50.4465104429481],[-121.007828601164,50.4466809328397],[-121.008930146961,50.4466476796716],[-121.008819400606,50.4465936657418],[-121.009399480428,50.4448183959317],[-121.008760504963,50.4430691894155],[-121.008258764802,50.4415409816572],[-121.007255143581,50.4401570207497],[-121.006435395123,50.4389848915104],[-121.005685109709,50.4380223471037],[-121.005864191918,50.4378890648109]]]}},{"type":"Feature","id":"930116666","properties":{"name":"SP_9023 Rough_15KM_SEP_1_NS","oid":"930116666","speedLimit":4.1666665},"geometry":{"type":"Polygon","coordinates":[[[-121.043595446552,50.4685546870776],[-121.043295191488,50.4689183149645],[-121.042546596859,50.4684630161817],[-121.042342011991,50.4680410604404],[-121.043033965355,50.4679077781476],[-121.043595446552,50.4685546870776]]]}},{"type":"Feature","id":"930772612","properties":{"name":"New Zone4734","oid":"930772612","speedLimit":4.7222223},"geometry":{"type":"Polygon","coordinates":[[[-121.034989778532,50.4649753879606],[-121.034840003246,50.4647744309771],[-121.034437596647,50.4649797018851],[-121.034585117553,50.465110917089],[-121.034989778532,50.4649753879606]]]}}]}