{"type":"FeatureCollection","features":[{"type":"Feature","id":"702602533","properties":{"name":"iSP_4KPH_%TR_CR01_Slow Bump","oid":"702602533","speedLimit":1.1111112},"geometry":{"type":"Polygon","coordinates":[[[-121.033361286327,50.4648076930883],[-121.033656025642,50.464690676474],[-121.033699419384,50.4647313896278],[-121.033371571207,50.4648695267524],[-121.033361286327,50.4648076930883]]]}},{"type":"Feature","id":"707947583","properties":{"name":"iSP_25KPH_%TR_Permission Gate 1 From West Dump","oid":"707947583","speedLimit":6.9444447},"geometry":{"type":"Polygon","coordinates":[[[-121.038630808251,50.461977814337],[-121.038857498288,50.4617993235566],[-121.03814248776,50.461408099807],[-121.037994836325,50.4616708030048],[-121.038194334829,50.4615667283202],[-121.038669270886,50.4618458785537],[-121.038630808251,50.461977814337]]]}},{"type":"Feature","id":"742345972","properties":{"name":"iSP_4KPH_%TR_CR01_Pit Side_Slow Bump","oid":"742345972","speedLimit":1.1111112},"geometry":{"type":"Polygon","coordinates":[[[-121.03340115785,50.4648826484311],[-121.033708436266,50.4647441518085],[-121.033758592669,50.4647762370092],[-121.033477096899,50.4649181488632],[-121.03340115785,50.4648826484311]]]}},{"type":"Feature","id":"776427243","properties":{"name":"iSP_7KPH_%TR_CR1_PermissionBlocker","oid":"776427243","speedLimit":1.9444444},"geometry":{"type":"Polygon","coordinates":[[[-121.034102361278,50.4652126676382],[-121.03405389554,50.4652329792778],[-121.034032762223,50.4652744114278],[-121.034118422598,50.4652253399443],[-121.034102361278,50.4652126676382]]]}},{"type":"Feature","id":"794004438","properties":{"name":"iSP_11KPH_%TR_Lower_Fuel_Bay","oid":"794004438","speedLimit":3.0555556},"geometry":{"type":"Polygon","coordinates":[[[-121.036779107095,50.4606953050544],[-121.036781220426,50.4607251433923],[-121.036751492895,50.4606706794381],[-121.037127665921,50.4605989595778],[-121.037537652254,50.4605559096866],[-121.037545401136,50.460581254299],[-121.036946905624,50.460650098175],[-121.036779107095,50.4606953050544]]]}},{"type":"Feature","id":"801543391","properties":{"name":"iSP_4KPH_%TR_CR01_PermissionBlocker_2","oid":"801543391","speedLimit":1.1111112},"geometry":{"type":"Polygon","coordinates":[[[-121.033157842937,50.4645231503841],[-121.033156997604,50.4644737194026],[-121.033178553587,50.4644316581311],[-121.033110504309,50.4644592496062],[-121.033157842937,50.4645231503841]]]}},{"type":"Feature","id":"806473874","properties":{"name":"iSP_4KPH_%TR_CR04_PermissionBlocker","oid":"806473874","speedLimit":1.1111112},"geometry":{"type":"Polygon","coordinates":[[[-121.022721929671,50.481544933536],[-121.02268882081,50.4815425967987],[-121.022681212816,50.4815712667679],[-121.022703332353,50.4815723452621],[-121.022707418128,50.4815482588929],[-121.022721929671,50.481544933536]]]}},{"type":"Feature","id":"824566967","properties":{"name":"iSP_3KPH_%TR_CR04","oid":"824566967","speedLimit":0.8333333},"geometry":{"type":"Polygon","coordinates":[[[-121.023304786529,50.4810680593767],[-121.023284639435,50.4810680593767],[-121.023281962548,50.4811861544851],[-121.02330704075,50.481185435489],[-121.023304786529,50.4810680593767]]]}},{"type":"Feature","id":"826307302","properties":{"name":"iSP_4KPH_%TR_CR04_Pockets","oid":"826307302","speedLimit":1.1111112},"geometry":{"type":"Polygon","coordinates":[[[-121.023299996311,50.4813212358762],[-121.023339445168,50.4814768985306],[-121.023544156556,50.4814374436199],[-121.023463145511,50.4811885810969],[-121.023054849844,50.481189300093],[-121.023060203618,50.4813599717908],[-121.023285062101,50.4813259992254],[-121.023299996311,50.4813212358762]]]}},{"type":"Feature","id":"883050998","properties":{"name":"iSP_22KPH_%TR_4CR_Brake_Temp_Ctrl","oid":"883050998","speedLimit":6.111111},"geometry":{"type":"Polygon","coordinates":[[[-121.03180150671,50.474558807989],[-121.032190782393,50.4743121923288],[-121.032492425258,50.4745745360286],[-121.032794068123,50.4748019185433],[-121.032971869755,50.4748843334706],[-121.033180666918,50.4749344834481],[-121.033464557798,50.4749592888134],[-121.033668423854,50.4749217212675],[-121.033829600611,50.4748623142152],[-121.033920755648,50.4748102768729],[-121.034010079131,50.4747470950911],[-121.034060517312,50.4746579395755],[-121.034054740872,50.4745477534241],[-121.034058544869,50.4744834032737],[-121.03399641292,50.4743794184636],[-121.03387806635,50.4742593461159],[-121.033511191982,50.4739374156148],[-121.033062883903,50.4735597629165],[-121.032949609329,50.4734252207724],[-121.032824640987,50.4732206663837],[-121.032607813164,50.4728147032141],[-121.03225432323,50.4722087692559],[-121.032489325705,50.472155923043],[-121.032432265751,50.472205443899],[-121.032904806699,50.4730486465682],[-121.033044004808,50.4733093725268],[-121.033251815749,50.4735467311123],[-121.033744785569,50.4739614121095],[-121.03409982528,50.4742709399279],[-121.034205210083,50.474394247758],[-121.034257902484,50.4744614738928],[-121.034264946923,50.4745926008055],[-121.03424000961,50.4746786107132],[-121.034185485654,50.4747914032254],[-121.034087990623,50.4748756156429],[-121.033975138715,50.474937449307],[-121.033792546864,50.4750159097558],[-121.033533029742,50.4750641723686],[-121.033265059294,50.4750678572236],[-121.033073450562,50.4750260655756],[-121.032809706777,50.4749163287968],[-121.032658955788,50.4748349024891],[-121.032497356365,50.4747051236942],[-121.032146825095,50.474412851782],[-121.03180150671,50.474558807989]]]}},{"type":"Feature","id":"883053336","properties":{"name":"iSP_22KPH_%TR_Brake_Temp_Ctrl","oid":"883053336","speedLimit":6.111111},"geometry":{"type":"Polygon","coordinates":[[[-121.0324680515,50.4721450482271],[-121.032253196119,50.4722253061661],[-121.031490565186,50.4710081356535],[-121.030818666623,50.4699231705478],[-121.030663407194,50.4696600179774],[-121.030598598358,50.4694575307024],[-121.030552245951,50.4692565712941],[-121.030598598358,50.4689727475861],[-121.030724834699,50.468624124355],[-121.030886575012,50.4683753517065],[-121.031091004623,50.4680976394652],[-121.031690345467,50.4675363731394],[-121.032434238194,50.4668935007568],[-121.032790545903,50.4665560219652],[-121.033149671388,50.4662222280286],[-121.033486536447,50.4658705490642],[-121.033781557539,50.4660339409265],[-121.033589526141,50.4659931378982],[-121.032921431574,50.4666519180693],[-121.032556670539,50.4669911044766],[-121.032180638401,50.4673075526324],[-121.031776428508,50.4676682190481],[-121.031384053273,50.4680342779344],[-121.031149191687,50.4682861961908],[-121.031010838911,50.4684697199438],[-121.030907144773,50.4686543221909],[-121.030830642169,50.4688528549874],[-121.030769778218,50.4691911426496],[-121.030778513322,50.4694004603874],[-121.030875726576,50.4696301796395],[-121.031029718006,50.4699349441088],[-121.03133262887,50.4704036396875],[-121.031532690929,50.4707108307687],[-121.031752336528,50.4710827314983],[-121.032148093094,50.4717286596142],[-121.032383377347,50.4721449583526],[-121.0324680515,50.4721450482271]]]}},{"type":"Feature","id":"883059532","properties":{"name":"iSP_22KPH_%TR_Brake_Ctrl","oid":"883059532","speedLimit":6.111111},"geometry":{"type":"Polygon","coordinates":[[[-121.027264324633,50.4773218201036],[-121.027032139934,50.477209656713],[-121.027336600574,50.4769438977817],[-121.02771855004,50.4766323028495],[-121.028035268004,50.476322595282],[-121.028192499876,50.4761686402434],[-121.028623337747,50.4756922154567],[-121.028909341958,50.4753256173232],[-121.029265931445,50.4748874790785],[-121.029474728608,50.4746565914578],[-121.029693528874,50.4745402938396],[-121.029803563006,50.4744880767483],[-121.029954313995,50.4745925109309],[-121.029790742128,50.4745419115808],[-121.029558134762,50.4747914032254],[-121.029253955899,50.4751729205278],[-121.029075027156,50.4754778647461],[-121.028855240669,50.4757746303839],[-121.028698149686,50.4759746011726],[-121.028411018364,50.4762704680652],[-121.028043721331,50.4765698400638],[-121.027246009092,50.4772192732857],[-121.027264324633,50.4773218201036]]]}},{"type":"Feature","id":"884401102","properties":{"name":"iSP_30KPH_%TR_Maint_Limit_Policy","oid":"884401102","speedLimit":8.333333},"geometry":{"type":"Polygon","coordinates":[[[-121.036994666919,50.4611011783494],[-121.037110759268,50.4611076493142],[-121.038297042745,50.4609919808176],[-121.038280699648,50.4603978204205],[-121.038122199777,50.4605657060084],[-121.037035101997,50.4607083368586],[-121.03674740712,50.4605376651608],[-121.036994666919,50.4611011783494]]]}},{"type":"Feature","id":"908328496","properties":{"name":"SP_25KPH_%TR_1445_SOFT_GROUND_SEPT_16_NS","oid":"908328496","speedLimit":6.9444447},"geometry":{"type":"Polygon","coordinates":[[[-121.039333843233,50.4644966374031],[-121.039942905403,50.4647089209999],[-121.039191122905,50.4666745664462],[-121.038828897867,50.4674276249801],[-121.038454133728,50.4678940736961],[-121.037917206611,50.468237753829],[-121.037182189877,50.4680256499813],[-121.038315217397,50.4667050339057],[-121.038795929894,50.4655657845948],[-121.039333843233,50.4644966374031]]]}},{"type":"Feature","id":"910445950","properties":{"name":"SP_22KPH_%TR_1635_FLATS_SEP_16_NS","oid":"910445950","speedLimit":6.111111},"geometry":{"type":"Polygon","coordinates":[[[-121.017915650036,50.4571008638316],[-121.017759827052,50.4573815419318],[-121.01660172133,50.4571351060206],[-121.017124700459,50.4561455876463],[-121.017775465706,50.4542397087502],[-121.018182352485,50.4539930032155],[-121.018534856198,50.4537514205279],[-121.019044450893,50.4536550750514],[-121.018868762592,50.4543415365721],[-121.018263927085,50.4560719804212],[-121.018043999709,50.4566097894995],[-121.017988912199,50.4569255186592],[-121.017915650036,50.4571008638316]]]}},{"type":"Feature","id":"915576987","properties":{"name":"iSP_15KPH_%TR_Preventing Shifting","oid":"915576987","speedLimit":4.1666665},"geometry":{"type":"Polygon","coordinates":[[[-121.037000161581,50.4448631908144],[-121.037514264717,50.4453131026202],[-121.037983565223,50.4457955489993],[-121.03852753678,50.4462188579496],[-121.039460220463,50.4468499567711],[-121.039917545424,50.4470997180392],[-121.040473492526,50.4471950748962],[-121.041226683911,50.4473227865774],[-121.04164512357,50.4475096356873],[-121.042323643905,50.4480950782568],[-121.042706297816,50.4485278240308],[-121.042849722587,50.4487948412052],[-121.043011181122,50.4493916079632],[-121.043190391643,50.4501981418316],[-121.043327899086,50.4505012885597],[-121.043689560569,50.4511686966839],[-121.043860035986,50.4514890094438],[-121.044128992655,50.4522535719152],[-121.044386114668,50.4529381460712],[-121.044699873967,50.4537980653995],[-121.044738759269,50.4541946816199],[-121.04457434207,50.45507176698],[-121.044218738804,50.456839239128],[-121.044054321605,50.4572072752536],[-121.043008081569,50.4583989214048],[-121.041908162911,50.4595372719705],[-121.04134629848,50.4600005750786],[-121.040374870384,50.4605974317111],[-121.039926421416,50.460730895361],[-121.039137303393,50.460807108947],[-121.03849992258,50.4608386549006],[-121.038647714904,50.4611434193699],[-121.038760566812,50.4609494701736],[-121.039881618786,50.460879637678],[-121.040709622111,50.4606317637746],[-121.041513674344,50.4600578251426],[-121.042876632343,50.4587001807681],[-121.044245507671,50.4571423858561],[-121.044430917298,50.4562901058612],[-121.044816529872,50.4544215248875],[-121.044813430319,50.453786561462],[-121.044263541434,50.4523012952809],[-121.043836084894,50.4511858627157],[-121.043348891514,50.4503373574503],[-121.043053025088,50.4493096424085],[-121.042930451855,50.4486918450148],[-121.042242914638,50.4478871985111],[-121.041549460092,50.4473914507043],[-121.041095093796,50.4472217676261],[-121.04046151698,50.4471302753732],[-121.039920504088,50.4470196398492],[-121.038823544094,50.446333268203],[-121.03819884327,50.4458717625852],[-121.037155702787,50.4449069597016],[-121.037379856827,50.4446972824658],[-121.037000161581,50.4448631908144]]]}},{"type":"Feature","id":"917773475","properties":{"name":"SP_15KPH_%TR_1200_CORNER_Sept_15_DS","oid":"917773475","speedLimit":4.1666665},"geometry":{"type":"Polygon","coordinates":[[[-121.037101037943,50.4446824531713],[-121.036926899418,50.4448620224458],[-121.036631314771,50.4448205004214],[-121.036416741168,50.4448698415283],[-121.036325163465,50.4449675351226],[-121.036256550632,50.4450820352505],[-121.036244293309,50.4451448575342],[-121.036265426625,50.4452671767447],[-121.036318119026,50.4453513891622],[-121.036186247134,50.4453951580494],[-121.036091147211,50.4451941986412],[-121.036165113818,50.4449315853179],[-121.036261904405,50.444791291205],[-121.03651874464,50.4447149877446],[-121.036715848035,50.4447116623876],[-121.036925208753,50.4447699909458],[-121.037095825058,50.4446835316655],[-121.037101037943,50.4446824531713]]]}},{"type":"Feature","id":"921770139","properties":{"name":"SP_20KPH_%TR_HIGHMONT_SEPT 16_DS","oid":"921770139","speedLimit":5.5555553},"geometry":{"type":"Polygon","coordinates":[[[-121.001747254335,50.4283060588883],[-121.000804708437,50.4281540810889],[-121.0007549747,50.4285431478502],[-121.000898963027,50.4289673555457],[-121.001626794433,50.428793717989],[-121.001925196856,50.4286884749357],[-121.002548347904,50.4285670544704],[-121.00240168269,50.4281875144073],[-121.001747254335,50.4283060588883]]]}},{"type":"Feature","id":"926367691","properties":{"name":"SP_25KPH_%TR_24SH_EMPTY_LANE_SEP_15_DS","oid":"926367691","speedLimit":6.9444447},"geometry":{"type":"Polygon","coordinates":[[[-121.038786349457,50.4508573713752],[-121.038615169597,50.4512054553592],[-121.038641093131,50.4520119892276],[-121.038868064946,50.4535983642344],[-121.039047275467,50.4535754462339],[-121.038784377014,50.4517185489468],[-121.038786349457,50.4508573713752]]]}},{"type":"Feature","id":"929009157","properties":{"name":"iSP_22KPH_%TR_Long_Single_Lane","oid":"929009157","speedLimit":6.111111},"geometry":{"type":"Polygon","coordinates":[[[-121.005682700458,50.4380559155459],[-121.004752975439,50.4382239808828],[-121.005177473315,50.4381974679019],[-121.007937766175,50.4431704043857],[-121.008526540361,50.4445347893485],[-121.008213626394,50.4465096019951],[-121.007835621813,50.4466800939439],[-121.008937090248,50.4466468403745],[-121.008826351672,50.446592825793],[-121.009406390754,50.4448175345625],[-121.008767460164,50.4430683069404],[-121.00826575524,50.4415400807427],[-121.007262204503,50.4401561031363],[-121.006442513616,50.4389839597541],[-121.005863460755,50.4383129566494],[-121.005682700458,50.4380559155459]]]}},{"type":"Feature","id":"932281958","properties":{"name":"SP_15KPH_%TR_1185-1170_22shl_SEPT_16_DS","oid":"932281958","speedLimit":4.1666665},"geometry":{"type":"Polygon","coordinates":[[[-121.03737717994,50.4481141316533],[-121.037410711468,50.4479619741049],[-121.036984100261,50.4479086785194],[-121.035926166457,50.4473799467668],[-121.03563509025,50.4472467527404],[-121.035477435712,50.447537856284],[-121.035552670317,50.4474433082976],[-121.036816724397,50.4479513689125],[-121.037218257403,50.4480554435971],[-121.037336603973,50.4481910642353],[-121.03737717994,50.4481141316533]]]}},{"type":"Feature","id":"933274269","properties":{"name":"SP_15KPH_%TR_21SH_EMPTY_LANE_SEP_15_NS","oid":"933274269","speedLimit":4.1666665},"geometry":{"type":"Polygon","coordinates":[[[-121.039475013784,50.4523653758078],[-121.039652674528,50.4523479401525],[-121.039540667953,50.4510064731902],[-121.039314541471,50.4510517699442],[-121.039421053384,50.4515131856874],[-121.039475013784,50.4523653758078]]]}},{"type":"Feature","id":"934051091","properties":{"name":"iSP_17KPH_%TR_Ramp_Permission Blocker","oid":"934051091","speedLimit":4.7222223},"geometry":{"type":"Polygon","coordinates":[[[-121.039515167085,50.4610295483635],[-121.039467124013,50.4607715186403],[-121.039019661267,50.4607920999035],[-121.039078552775,50.4610448270305],[-121.039166044703,50.4608997695686],[-121.039382027194,50.4608866478899],[-121.039515167085,50.4610295483635]]]}},{"type":"Feature","id":"934181339","properties":{"name":"SP_35KPH_TR%_1590_2_SEPT 16_NS_ROUGH_SECTION.","oid":"934181339","speedLimit":9.722222},"geometry":{"type":"Polygon","coordinates":[[[-121.009547983972,50.4401728197955],[-121.008922296927,50.4404384888522],[-121.01038486329,50.4417984699639],[-121.011096492487,50.4414568569448],[-121.010562524034,50.4414848977925],[-121.009363560567,50.4404321976364],[-121.009547983972,50.4401728197955]]]}},{"type":"Feature","id":"934773555","properties":{"name":"SP_10KPH_NEW RAMP_SEPT 15_DS","oid":"934773555","speedLimit":2.7777777},"geometry":{"type":"Polygon","coordinates":[[[-121.033905257883,50.4443401211561],[-121.034416825021,50.4442040511453],[-121.035777387912,50.4443190905203],[-121.036279374613,50.4444734949315],[-121.035934338006,50.4447855392363],[-121.034625058629,50.4446107333109],[-121.034347366856,50.4446009369892],[-121.033905257883,50.4443401211561]]]}},{"type":"Feature","id":"935505135","properties":{"name":"SP_20KPH_%TR_1590_WATERHOLES_SEPT_16_DS","oid":"935505135","speedLimit":5.5555553},"geometry":{"type":"Polygon","coordinates":[[[-121.013405377715,50.4441735836858],[-121.012721503606,50.444201894157],[-121.012970172292,50.4452613349015],[-121.013112329065,50.4462074438866],[-121.013280972927,50.4469892622643],[-121.013707302358,50.4470969319293],[-121.013796203174,50.4467740128086],[-121.013440881686,50.4437486569943],[-121.013387625729,50.4441622594973],[-121.013405377715,50.4441735836858]]]}},{"type":"Feature","id":"936169885","properties":{"name":"SP_10KPH_%TR_24shl_loadplan_Sept_15_DS","oid":"936169885","speedLimit":2.7777777},"geometry":{"type":"Polygon","coordinates":[[[-121.039055024349,50.4535936907598],[-121.038514011457,50.4536889577423],[-121.038720131734,50.4547479491142],[-121.039231276206,50.4546028017777],[-121.039183937577,50.4543764078826],[-121.039102503866,50.4539209238571],[-121.039079961662,50.4537565433751],[-121.039055024349,50.4535936907598]]]}},{"type":"Feature","id":"936513295","properties":{"name":"SP_30KPH_%TR_1635_FLATS_SEP_15_DS","oid":"936513295","speedLimit":8.333333},"geometry":{"type":"Polygon","coordinates":[[[-121.017436064649,50.4574537111648],[-121.015229042005,50.4585168367642],[-121.014500224377,50.4578795366014],[-121.016653991065,50.4569266870279],[-121.017436064649,50.4574537111648]]]}},{"type":"Feature","id":"937786749","properties":{"name":"SP_30KPH_%TR_24SH_Loaded_LANE_SEP_15_DS","oid":"937786749","speedLimit":8.333333},"geometry":{"type":"Polygon","coordinates":[[[-121.038412430651,50.4510852032625],[-121.038215327256,50.451039097638],[-121.038255903223,50.4516606697612],[-121.038335223603,50.4527880556365],[-121.038497950137,50.4527608236595],[-121.038405949768,50.4516751395576],[-121.038412430651,50.4510852032625]]]}},{"type":"Feature","id":"937793793","properties":{"name":"SP_10KPH_%TR_21SH_LOAD_AREA_SEP_15_DS","oid":"937793793","speedLimit":2.7777777},"geometry":{"type":"Polygon","coordinates":[[[-121.039651124752,50.4523551301135],[-121.039077566553,50.4524100434402],[-121.039163649594,50.4533141810283],[-121.039697195381,50.4532577398349],[-121.039666763406,50.4529190028002],[-121.039651124752,50.4523551301135]]]}},{"type":"Feature","id":"938065675","properties":{"name":"SP_8KPH_CR01_YARD_RUTIING_SEP_15_DS","oid":"938065675","speedLimit":2.2222223},"geometry":{"type":"Polygon","coordinates":[[[-121.034291434012,50.4648010423744],[-121.034101234168,50.4648578430658],[-121.033943016074,50.4649068246747],[-121.033831573054,50.4650047878925],[-121.034046428435,50.4650686886704],[-121.033966403611,50.4650111689829],[-121.034244799828,50.4648879510273],[-121.034321443321,50.4649372022597],[-121.034291434012,50.4648010423744]]]}},{"type":"Feature","id":"938165680","properties":{"name":"SP_22SH_10kph_%TR_Sept16_DS","oid":"938165680","speedLimit":2.7777777},"geometry":{"type":"Polygon","coordinates":[[[-121.034362441955,50.4471927381589],[-121.035054064946,50.4475033444714],[-121.035420939313,50.4476023861834],[-121.035797394117,50.4469121499332],[-121.03473410654,50.4466105310718],[-121.034362441955,50.4471927381589]]]}},{"type":"Feature","id":"938217281","properties":{"name":"SP_20KPH_CRUSHER_YARD_WEATHER_SEPT_15_DS","oid":"938217281","speedLimit":5.5555553},"geometry":{"type":"Polygon","coordinates":[[[-121.036885759896,50.4639823754469],[-121.037244462715,50.4642843538064],[-121.034294251788,50.4654990078326],[-121.032881560051,50.4644542166336],[-121.036885759896,50.4639823754469]]]}},{"type":"Feature","id":"939481274","properties":{"name":"SP_10KPH_%TR_LRNX_PIT_BOTTOM_SEP_15_NS1","oid":"939481274","speedLimit":2.7777777},"geometry":{"type":"Polygon","coordinates":[[[-121.034057558648,50.4452362599127],[-121.034064603086,50.4449961152173],[-121.033305071706,50.4447663060908],[-121.033471320459,50.4448875468071],[-121.033360159217,50.4469936661153],[-121.033817765954,50.4469739835973],[-121.033666028745,50.4469198791412],[-121.034057558648,50.4452362599127]]]}},{"type":"Feature","id":"939584863","properties":{"name":"SP_35KPH_%TR_HMT EMPTY2_ROUGH_SECTION_SEPT 16_NS","oid":"939584863","speedLimit":9.722222},"geometry":{"type":"Polygon","coordinates":[[[-121.00596180112,50.4301700562618],[-121.005670302246,50.430397348902],[-121.005922915818,50.4302830285231],[-121.006322335492,50.4305570559094],[-121.006715133394,50.4308737736888],[-121.007138363271,50.4312428883085],[-121.007265726723,50.4315321044873],[-121.007412532825,50.4321903454114],[-121.007319687123,50.4325924439769],[-121.007054111784,50.4326144632323],[-121.007548490492,50.4326902274457],[-121.007645703746,50.4323018796804],[-121.007587375794,50.4319287207077],[-121.007419013709,50.4313516364677],[-121.007306725356,50.4311740444325],[-121.00711892062,50.4309839598402],[-121.006684983196,50.4306465709231],[-121.00596180112,50.4301700562618]]]}},{"type":"Feature","id":"939585115","properties":{"name":"SP_35KPH_%TR_HMT EMPTY22_ROUGH_SECTION_SEPT 16_NS","oid":"939585115","speedLimit":9.722222},"geometry":{"type":"Polygon","coordinates":[[[-121.007520453626,50.4327112580814],[-121.007046926457,50.4338270501447],[-121.006950276758,50.4340181233567],[-121.006753877807,50.4342996103275],[-121.005790762148,50.4352900274469],[-121.005291452333,50.4350887085406],[-121.00566184892,50.4351667196168],[-121.0066121437,50.4341291183787],[-121.00675697736,50.4339277095979],[-121.006963238525,50.433411919775],[-121.007227264087,50.4327831576908],[-121.007030865136,50.4326537383939],[-121.007520453626,50.4327112580814]]]}},{"type":"Feature","id":"940264088","properties":{"name":"SP_15KPH_1430 SINK)SEPT 16_NS","oid":"940264088","speedLimit":4.1666665},"geometry":{"type":"Polygon","coordinates":[[[-121.039401188067,50.4645033779915],[-121.039701422044,50.4638343521261],[-121.039143784277,50.463940763548],[-121.038056827386,50.4645277339842],[-121.038924420456,50.4650994257534],[-121.039401188067,50.4645033779915]]]}}]}