{"type":"FeatureCollection","features":[{"type":"Feature","id":"702602533","properties":{"name":"iSP_4KPH_%TR_CR01_SLOW BUMP","oid":"702602533","speedLimit":1.1111112},"geometry":{"type":"Polygon","coordinates":[[[-121.033359427367,50.4648077312243],[-121.033654170829,50.4646907144865],[-121.033697565181,50.4647314276833],[-121.033369712392,50.4648695649537],[-121.033359427367,50.4648077312243]]]}},{"type":"Feature","id":"707947583","properties":{"name":"iSP_22KPH_%TR_Permission Gate 1 from west dump_Jun","oid":"707947583","speedLimit":6.111111},"geometry":{"type":"Polygon","coordinates":[[[-121.038629023423,50.4619778494858],[-121.038855716649,50.461799358517],[-121.037981489508,50.46135088423],[-121.037744370366,50.4615421373929],[-121.037960496786,50.4614963912181],[-121.038667486599,50.4618459135633],[-121.038629023423,50.4619778494858]]]}},{"type":"Feature","id":"742345972","properties":{"name":"iSP_4KPH_%TR_CR01_PITSIDE_SLOW BUMP","oid":"742345972","speedLimit":1.1111112},"geometry":{"type":"Polygon","coordinates":[[[-121.033399299451,50.4648826866463],[-121.03370658219,50.4647441898775],[-121.033756739299,50.464776275112],[-121.033475239569,50.4649181871159],[-121.033399299451,50.4648826866463]]]}},{"type":"Feature","id":"776427243","properties":{"name":"iSP_7KPH_%TR_CR1_PermissionBlocker_DO_NOT_DELETE","oid":"776427243","speedLimit":1.9444444},"geometry":{"type":"Polygon","coordinates":[[[-121.034100512744,50.4652127062018],[-121.034052046324,50.4652330178628],[-121.03403091271,50.4652744500565],[-121.03411657429,50.4652253785213],[-121.034100512744,50.4652127062018]]]}},{"type":"Feature","id":"794004438","properties":{"name":"iSP_11KPH_%TR_LOWER_FUEL_BAY","oid":"794004438","speedLimit":3.0555556},"geometry":{"type":"Polygon","coordinates":[[[-121.036777296217,50.4606953388494],[-121.036779409578,50.4607251772188],[-121.036749681629,50.4606707132072],[-121.037125859947,50.4605989932711],[-121.037535852047,50.4605559433345],[-121.037543601039,50.4605812879736],[-121.036945097107,50.4606501319222],[-121.036777296217,50.4606953388494]]]}},{"type":"Feature","id":"801543391","properties":{"name":"iSP_4KPH_%TR_CR1_PermissionBlocker_DO_NOT_DELETE_","oid":"801543391","speedLimit":1.1111112},"geometry":{"type":"Polygon","coordinates":[[[-121.033155981115,50.4645231882198],[-121.033155135771,50.4644737571862],[-121.033176692057,50.4644316958703],[-121.033108641821,50.4644592873745],[-121.033155981115,50.4645231882198]]]}},{"type":"Feature","id":"806473874","properties":{"name":"iSP_4KPH_%TR_Permission Blocker - DO NOT DELETE","oid":"806473874","speedLimit":1.1111112},"geometry":{"type":"Polygon","coordinates":[[[-121.022719921038,50.48154498934],[-121.02268681171,50.4815426526002],[-121.022679203609,50.4815713225998],[-121.022701323458,50.481572401095],[-121.02270540929,50.4815483147005],[-121.022719921038,50.48154498934]]]}},{"type":"Feature","id":"824566967","properties":{"name":"iSP_4Cr_3KPH","oid":"824566967","speedLimit":0.8333333},"geometry":{"type":"Polygon","coordinates":[[[-121.023302786095,50.4810681146773],[-121.023282638717,50.4810681146773],[-121.023279961793,50.4811862099104],[-121.023305040347,50.4811854909136],[-121.023302786095,50.4810681146773]]]}},{"type":"Feature","id":"826307302","properties":{"name":"iSP_4KPH_TR%_CRUSHER POCKETS","oid":"826307302","speedLimit":1.1111112},"geometry":{"type":"Polygon","coordinates":[[[-121.023297995809,50.4813212914442],[-121.023337445221,50.4814769542628],[-121.02354215949,50.4814374993105],[-121.023461147305,50.4811886365248],[-121.023052845894,50.4811893555216],[-121.023058199743,50.4813600273996],[-121.023283061389,50.4813260547983],[-121.023297995809,50.4813212914442]]]}},{"type":"Feature","id":"835348611","properties":{"name":"iSP_35KPH_%TR_switchback to 1 gate_AUG_27_DS","oid":"835348611","speedLimit":9.722222},"geometry":{"type":"Polygon","coordinates":[[[-121.039920850764,50.4634032607467],[-121.039548617387,50.4634577247583],[-121.039801798076,50.4633740514996],[-121.03954551779,50.4629226113505],[-121.039365600295,50.4625821663407],[-121.039179483606,50.4622610443712],[-121.038987308615,50.4620178436857],[-121.038746385422,50.461836836228],[-121.03856336833,50.4617298854461],[-121.03802657455,50.4614321308744],[-121.037959369659,50.4614146053261],[-121.037840457861,50.4614574755135],[-121.037955002046,50.4613476487442],[-121.038145486348,50.4613854859536],[-121.038484046835,50.4615702681448],[-121.038867833254,50.4617906406802],[-121.03905535885,50.4619260817124],[-121.039239925741,50.4621303666932],[-121.03945407969,50.4625354315452],[-121.039582149387,50.4627533774663],[-121.039759108177,50.4630608384955],[-121.039862803773,50.4632592816269],[-121.039944802193,50.4633237217199],[-121.039920850764,50.4634032607467]]]}},{"type":"Feature","id":"849417440","properties":{"name":"iSP_Permissions_35_KPH_June_19_NS","oid":"849417440","speedLimit":9.722222},"geometry":{"type":"Polygon","coordinates":[[[-121.032695972797,50.466033980357],[-121.033010581855,50.4660146573166],[-121.033217550376,50.4658137875708],[-121.033806332845,50.4653793337224],[-121.03372715224,50.4652505434111],[-121.033963285147,50.4654000048819],[-121.03342705493,50.4658083052198],[-121.033024670931,50.4661878456836],[-121.032695972797,50.466033980357]]]}},{"type":"Feature","id":"853029148","properties":{"name":"SP_15KPH_%TR_1635 Flats_AUG_27_DS","oid":"853029148","speedLimit":4.1666665},"geometry":{"type":"Polygon","coordinates":[[[-121.01760276878,50.4567738401388],[-121.016439011135,50.4570838176571],[-121.014801437879,50.457745923884],[-121.013837322435,50.4588993745853],[-121.014982623391,50.4587964681608],[-121.019118612424,50.457457606146],[-121.019253303986,50.4570346562472],[-121.018435574039,50.4568994848389],[-121.017981342241,50.4568028696368],[-121.01760276878,50.4567738401388]]]}},{"type":"Feature","id":"855316169","properties":{"name":"SP_25KPH_TR%_CRUSHER YARD EMPTY_AUG_27_DS","oid":"855316169","speedLimit":6.9444447},"geometry":{"type":"Polygon","coordinates":[[[-121.037912734819,50.4622347111115],[-121.0377712805,50.4621193121166],[-121.037596716854,50.4622031651246],[-121.037546277963,50.4622374073497],[-121.037609397022,50.4622263527731],[-121.037905831172,50.4624611052456],[-121.037720137156,50.4625136818904],[-121.038123366499,50.4625062222981],[-121.03812167581,50.4624939993516],[-121.037912734819,50.4622347111115]]]}},{"type":"Feature","id":"859339791","properties":{"name":"SP_15KPH_TR%_1230_to_1215_Ramp1_AUG 20_DS","oid":"859339791","speedLimit":4.1666665},"geometry":{"type":"Polygon","coordinates":[[[-121.040704203368,50.4473789778853],[-121.04068222441,50.4475607942145],[-121.040631081065,50.4474348798907],[-121.040163182865,50.4474146581042],[-121.039902394075,50.4473929084494],[-121.039488175253,50.4472141478568],[-121.039190895758,50.4470089641299],[-121.038966738565,50.4468504253238],[-121.038844868061,50.4468597722829],[-121.039047046296,50.4467556076138],[-121.039456474833,50.447018311089],[-121.039719658765,50.4471737042838],[-121.040160787722,50.4472748132163],[-121.040553027587,50.4473089655668],[-121.040689550729,50.447327659485],[-121.040704203368,50.4473789778853]]]}},{"type":"Feature","id":"859384545","properties":{"name":"SP_20KPH_TR%_MAINT_CREW_L1590_DUST_AUG_27_DS","oid":"859384545","speedLimit":5.5555553},"geometry":{"type":"Polygon","coordinates":[[[-121.013533984638,50.4515902323276],[-121.013429725478,50.4510353465063],[-121.012756549446,50.4483267056121],[-121.012536196304,50.4488171513404],[-121.013394221008,50.4517791487507],[-121.013277422571,50.4521783717533],[-121.013116807109,50.4521876288378],[-121.013442969209,50.4522148608436],[-121.013533984638,50.4515902323276]]]}},{"type":"Feature","id":"878230085","properties":{"name":"SP_30KPH_TR%_PUNCH_OUT_L1590_DMP_AUG_27_DS1","oid":"878230085","speedLimit":8.333333},"geometry":{"type":"Polygon","coordinates":[[[-121.013652896436,50.4533274185989],[-121.013645288335,50.452779542997],[-121.013741094049,50.4524493436922],[-121.013097927748,50.4524616565134],[-121.013065522874,50.4528628567573],[-121.013205004722,50.4533673229242],[-121.013610347427,50.4545818883581],[-121.013328988588,50.4549545084771],[-121.01304424837,50.4549499248722],[-121.013783361276,50.4551888115765],[-121.014113045645,50.4546824580429],[-121.014059366267,50.4542959972344],[-121.013652896436,50.4533274185989]]]}},{"type":"Feature","id":"883050998","properties":{"name":"iSP_22kph_%TR_4CR_Brake_Temp_CTRL_NOREMOVE","oid":"883050998","speedLimit":6.111111},"geometry":{"type":"Polygon","coordinates":[[[-121.031799625808,50.4745588564185],[-121.032188906966,50.4743122404979],[-121.032490554075,50.4745745844746],[-121.032792201183,50.4748019672294],[-121.032970005318,50.4748843822436],[-121.033178805418,50.4749345322741],[-121.033462700291,50.4749593376656],[-121.033666569215,50.47492177008],[-121.03382774824,50.474862362965],[-121.033918904559,50.4748103255678],[-121.034008229298,50.4747471437193],[-121.034058668189,50.4746579881096],[-121.034052891668,50.4745478018418],[-121.034056695718,50.4744834516235],[-121.033994562895,50.4743794667037],[-121.03387621466,50.4742593942292],[-121.033509335131,50.4739374633883],[-121.033061020746,50.4735598102913],[-121.032947744578,50.4734252680052],[-121.032822774478,50.4732207134005],[-121.032605943604,50.4728147498024],[-121.032252448697,50.4722088152046],[-121.032487454478,50.472155968936],[-121.032430393722,50.4722054898442],[-121.032902941318,50.4730486934035],[-121.033042141385,50.4733094196373],[-121.03324995525,50.4735467784734],[-121.033742932005,50.4739614599083],[-121.03409797671,50.4742709880535],[-121.034203362995,50.4743942960138],[-121.034256056138,50.4744615222195],[-121.034263100676,50.4745926492706],[-121.034238163012,50.4746786592691],[-121.03418363829,50.4747914519004],[-121.034086141886,50.4748756644068],[-121.033973288391,50.4749374981361],[-121.033790693971,50.4750159586677],[-121.033531173199,50.4750642213315],[-121.033263198981,50.4750679061904],[-121.033071587553,50.4750261144983],[-121.032807840057,50.4749163776036],[-121.032657086948,50.47483495121],[-121.032495485251,50.474705172278],[-121.03214494905,50.4744129000573],[-121.031799625808,50.4745588564185]]]}},{"type":"Feature","id":"883053336","properties":{"name":"iSP_22kph_%TR_Brake_Temp_CTRL_NOREMOVE","oid":"883053336","speedLimit":6.111111},"geometry":{"type":"Polygon","coordinates":[[[-121.032466179974,50.4721450941086],[-121.032251321571,50.4722253521323],[-121.031488679909,50.4710081803348],[-121.030816771894,50.4699232140838],[-121.030661510281,50.4696600612356],[-121.030596700533,50.4694575737469],[-121.030550347474,50.4692566141265],[-121.030596700533,50.4689727901188],[-121.03072293865,50.4686241665197],[-121.030884681238,50.4683753936086],[-121.031089113725,50.4680976810742],[-121.031688463001,50.4675364141558],[-121.032432366193,50.4668935410947],[-121.032788678915,50.4665560619469],[-121.033147809452,50.4662222676579],[-121.033484679249,50.4658705883222],[-121.033779704492,50.466033980357],[-121.033587670392,50.4659931772856],[-121.032919566427,50.4666519581521],[-121.03255480026,50.4669911449175],[-121.032178762832,50.4673075934074],[-121.031774547253,50.4676682602037],[-121.031382166498,50.4680343194765],[-121.031147301607,50.4682862379988],[-121.031008946885,50.4684697619456],[-121.030905251288,50.4686543643875],[-121.030828747608,50.4688528973936],[-121.030767882801,50.4691911854129],[-121.030776618028,50.4694005033717],[-121.03087383265,50.4696302228662],[-121.031027826246,50.4699349876572],[-121.031330741372,50.4704036837307],[-121.031530806245,50.4707108751362],[-121.031750454934,50.4710827762583],[-121.032146217067,50.4717287050561],[-121.03238150463,50.4721450042339],[-121.032466179974,50.4721450941086]]]}},{"type":"Feature","id":"883059532","properties":{"name":"iSP_22kph_%TR_Brake_CTRL_NOREMOVE","oid":"883059532","speedLimit":6.111111},"geometry":{"type":"Polygon","coordinates":[[[-121.027262379902,50.4773218714497],[-121.027030191936,50.4772097079406],[-121.027334656859,50.4769439487289],[-121.027716611699,50.4766323534677],[-121.028033334118,50.4763226455733],[-121.028190568202,50.4761686903722],[-121.028621412134,50.4756922650825],[-121.028907420368,50.4753256665621],[-121.029264014872,50.4748875278549],[-121.029472814972,50.4746566399905],[-121.029691618316,50.4745403422495],[-121.029801653997,50.4744881251031],[-121.029952407106,50.4745925593959],[-121.029788832938,50.4745419599924],[-121.0295562223,50.4747914519004],[-121.029252039158,50.4751729696055],[-121.029073107898,50.4754779141457],[-121.028853318318,50.4757746800968],[-121.028696225125,50.4759746510965],[-121.028409089765,50.4762705183015],[-121.028041787564,50.4765698906161],[-121.027244064103,50.4772193245235],[-121.027262379902,50.4773218714497]]]}},{"type":"Feature","id":"891249991","properties":{"name":"SP_30KPH_TR%_1590 #1_AUG_27_DS","oid":"891249991","speedLimit":8.333333},"geometry":{"type":"Polygon","coordinates":[[[-121.012957036992,50.4498605955232],[-121.01384760746,50.449748701638],[-121.013379004806,50.4450040414055],[-121.012138884372,50.4430836906859],[-121.011299598138,50.4419101979473],[-121.010529771048,50.4421496238993],[-121.011008799618,50.4427015438586],[-121.011240846693,50.4430297659219],[-121.01145640955,50.4435198521518],[-121.011774399986,50.4445105399406],[-121.012957036992,50.4498605955232]]]}},{"type":"Feature","id":"893804793","properties":{"name":"SP_20KPH_%TR_1590Dynamic_AUG_27_DS","oid":"893804793","speedLimit":5.5555553},"geometry":{"type":"Polygon","coordinates":[[[-121.011186603752,50.4418407248764],[-121.010484263333,50.4421099891978],[-121.005981958335,50.4380481063518],[-121.006514525393,50.437681597706],[-121.010067367586,50.4407332899736],[-121.011186603752,50.4418407248764]]]}},{"type":"Feature","id":"908328496","properties":{"name":"SP_15KPH_%TR_9019_SOFT_GROUND_AUG_27_DS","oid":"908328496","speedLimit":4.1666665},"geometry":{"type":"Polygon","coordinates":[[[-121.038886289943,50.4644514682837],[-121.0389006608,50.4647529077143],[-121.039379971152,50.4648988640754],[-121.038731310112,50.4665299983109],[-121.038275951188,50.4671546268269],[-121.037820592265,50.4675724538731],[-121.037502742719,50.4696995161879],[-121.03546968911,50.4697241418301],[-121.035228906808,50.46681579956],[-121.037881738853,50.4651398178958],[-121.038520819322,50.4648142920706],[-121.038886289943,50.4644514682837]]]}},{"type":"Feature","id":"910445950","properties":{"name":"SP_25KPH_%TR_1635_FLATS_AUG_27_DS","oid":"910445950","speedLimit":6.9444447},"geometry":{"type":"Polygon","coordinates":[[[-121.020225731984,50.4571639858062],[-121.019044644777,50.456961138819],[-121.018650996005,50.4569224927382],[-121.017842987519,50.4571468197563],[-121.01844895866,50.456412364471],[-121.018505314963,50.4561072401816],[-121.019236115314,50.4561249454791],[-121.019236678877,50.456458739768],[-121.019424486255,50.4568917556227],[-121.019757833784,50.4570617983784],[-121.020225731984,50.4571639858062]]]}},{"type":"Feature","id":"917291012","properties":{"name":"SP_20KPH_%TR_CORNER_RUTS_AUG_27_DS","oid":"917291012","speedLimit":5.5555553},"geometry":{"type":"Polygon","coordinates":[[[-121.040610651906,50.4662212790372],[-121.040684901334,50.4661071382868],[-121.040422985419,50.4659261308291],[-121.040121197419,50.4658980000772],[-121.040017079151,50.466310434647],[-121.039934094495,50.4664857800045],[-121.039995241084,50.4668199337919],[-121.04066743088,50.4667391365205],[-121.040549505318,50.4666222096573],[-121.040532034864,50.4663772114797],[-121.040610651906,50.4662212790372]]]}},{"type":"Feature","id":"917665392","properties":{"name":"SP_15KPH_%TR_22SH RUTS_AUG 27_DS","oid":"917665392","speedLimit":4.1666665},"geometry":{"type":"Polygon","coordinates":[[[-121.035647915917,50.445519562149],[-121.035215663077,50.4452076972641],[-121.033734196778,50.4447558976166],[-121.033078209418,50.4452862476703],[-121.035586487547,50.445956622361],[-121.036390973764,50.4468444935998],[-121.036872679259,50.4466101006257],[-121.035647915917,50.445519562149]]]}},{"type":"Feature","id":"920440343","properties":{"name":"iSP_17KPH_CAL_PAD_ROAD_LIMIT_AUG_23_NS","oid":"920440343","speedLimit":4.7222223},"geometry":{"type":"Polygon","coordinates":[[[-121.005955470873,50.4378306996783],[-121.005969137276,50.4376130233811],[-121.005586900655,50.4375782419084],[-121.005286662454,50.4376826762012],[-121.005191138522,50.4378350136595],[-121.005286662454,50.4381615281053],[-121.005989566436,50.4392586274283],[-121.007470469172,50.4413699616869],[-121.00767518344,50.4416485729674],[-121.007784373776,50.442153578382],[-121.007934563322,50.4426628977777],[-121.008118848431,50.4432331521567],[-121.0083235627,50.4436510690775],[-121.00868522927,50.4445609595949],[-121.008760324043,50.4449222555135],[-121.008760324043,50.4451791171392],[-121.008692132917,50.4456187837148],[-121.008494181405,50.4462282234222],[-121.008944609152,50.4462151916043],[-121.009135657017,50.4457320257191],[-121.009319942126,50.4449179415323],[-121.009217514546,50.4444521214463],[-121.008999133874,50.4437990925546],[-121.008773990446,50.4433768616527],[-121.008460085842,50.442736864579],[-121.008296229893,50.442075207725],[-121.00824170517,50.4417443792981],[-121.007920896919,50.4411957846993],[-121.006815327157,50.4398331957884],[-121.006603850132,50.4394936495246],[-121.006228517158,50.4387796856496],[-121.005989566436,50.4383879222394],[-121.005935041713,50.4380570938124],[-121.005955470873,50.4378306996783]]]}},{"type":"Feature","id":"922262468","properties":{"name":"SP_20kph_HMT_DUMP_AUG_27_DS","oid":"922262468","speedLimit":5.5555553},"geometry":{"type":"Polygon","coordinates":[[[-121.012501678068,50.43642640895],[-121.012481812472,50.4374170967387],[-121.016364198144,50.4384076946528],[-121.017180519184,50.4369598147402],[-121.016523545589,50.4359056754792],[-121.014771428148,50.4353087283421],[-121.012899976236,50.4352071700366],[-121.012501678068,50.43642640895]]]}},{"type":"Feature","id":"922385545","properties":{"name":"SP_27KPH_RUTS_AUG 27_DS","oid":"922385545","speedLimit":7.5},"geometry":{"type":"Polygon","coordinates":[[[-121.007511891054,50.4337191161748],[-121.006870415442,50.4335257060214],[-121.006519033897,50.4340722335042],[-121.007226305492,50.4343188494248],[-121.007511891054,50.4337191161748]]]}},{"type":"Feature","id":"923351007","properties":{"name":"iSP_17KPH_PERMISSIONS_AUG 18_NS","oid":"923351007","speedLimit":4.7222223},"geometry":{"type":"Polygon","coordinates":[[[-121.03885402596,50.4608771551786],[-121.038873468884,50.4611347358011],[-121.038784144145,50.4608894679997],[-121.038539416902,50.4608894679997],[-121.038535612851,50.4608300608847],[-121.038881217876,50.4608226012923],[-121.03885402596,50.4608771551786]]]}},{"type":"Feature","id":"923607825","properties":{"name":"MRK_CROSS DITCH ","oid":"923607825","speedLimit":2.7777777},"geometry":{"type":"Polygon","coordinates":[[[-121.035186076019,50.4458452677234],[-121.035617483513,50.4454859490462],[-121.03558705111,50.4454712994853],[-121.035137750489,50.4458264839306],[-121.035186076019,50.4458452677234]]]}},{"type":"Feature","id":"924222108","properties":{"name":"SP_11kph_rough ground_23SH _AUG_27_DS","oid":"924222108","speedLimit":3.0555556},"geometry":{"type":"Polygon","coordinates":[[[-121.040369446932,50.4714161211743],[-121.04087045446,50.4718387115746],[-121.04144627498,50.4722542917556],[-121.042123114171,50.4716710055586],[-121.040529217049,50.4711216020884],[-121.040455108511,50.4712672888257],[-121.040369446932,50.4714161211743]]]}},{"type":"Feature","id":"924266047","properties":{"name":"SP_12KPH_%TR_CROSS DITCH_AUG_27_DNS ","oid":"924266047","speedLimit":3.3333333},"geometry":{"type":"Polygon","coordinates":[[[-121.037616159778,50.4473122010526],[-121.037894137239,50.4474713689809],[-121.037657722551,50.4477506093837],[-121.037463011526,50.4476919212656],[-121.037268159611,50.4475132505476],[-121.037616159778,50.4473122010526]]]}},{"type":"Feature","id":"926023128","properties":{"name":"SP_10KPH_TR%_4CR_1_AUG_27_DS","oid":"926023128","speedLimit":2.7777777},"geometry":{"type":"Polygon","coordinates":[[[-121.022862361592,50.4811966353648],[-121.02283587413,50.4815102078673],[-121.022151567728,50.4816161700285],[-121.021885847762,50.4812729389058],[-121.021893455863,50.481109546871],[-121.022493227811,50.4810275812297],[-121.022510275593,50.4812220698784],[-121.022822489508,50.4810185937691],[-121.022981977844,50.4812601767116],[-121.022862361592,50.4811966353648]]]}},{"type":"Feature","id":"926367691","properties":{"name":"SP_20KPH_%TR_AUG_27_NS","oid":"926367691","speedLimit":5.5555553},"geometry":{"type":"Polygon","coordinates":[[[-121.038604508431,50.4502031975237],[-121.037911748584,50.4502612565195],[-121.038245659676,50.4520113847342],[-121.03847756586,50.4519884667095],[-121.039664429589,50.4519356204408],[-121.039538473253,50.4510981688564],[-121.038604508431,50.4502031975237]]]}}]}