{"type":"FeatureCollection","features":[{"type":"Feature","id":"702602533","properties":{"name":"iSP_4KPH_%TR_CR01_Slow Bump","oid":"702602533","speedLimit":1.1111112},"geometry":{"type":"Polygon","coordinates":[[[-121.033359221768,50.4648080429032],[-121.033653960045,50.4646910251077],[-121.033697353634,50.4647317386725],[-121.033369506612,50.4648698771915],[-121.033359221768,50.4648080429032]]]}},{"type":"Feature","id":"707947583","properties":{"name":"iSP_25KPH_%TR_Permission Gate 1 From West Dump","oid":"707947583","speedLimit":6.9444447},"geometry":{"type":"Polygon","coordinates":[[[-121.038628725122,50.4619781355855],[-121.038855414361,50.4617996430034],[-121.038140406353,50.4614084153045],[-121.037992755438,50.4616711211542],[-121.038192253239,50.461567045419],[-121.038667187622,50.4618461984704],[-121.038628725122,50.4619781355855]]]}},{"type":"Feature","id":"742345972","properties":{"name":"iSP_4KPH_%TR_CR01_Pit Side_Slow Bump","oid":"742345972","speedLimit":1.1111112},"geometry":{"type":"Polygon","coordinates":[[[-121.033399093151,50.4648829990026],[-121.033706370484,50.464744500982],[-121.033756526711,50.4647765865066],[-121.033475031932,50.4649184997932],[-121.033399093151,50.4648829990026]]]}},{"type":"Feature","id":"776427243","properties":{"name":"iSP_7KPH_%TR_CR1_PermissionBlocker","oid":"776427243","speedLimit":1.9444444},"geometry":{"type":"Polygon","coordinates":[[[-121.034100294108,50.4652130215412],[-121.03405182854,50.4652333333859],[-121.034030695298,50.465274765954],[-121.034116355371,50.4652256939753],[-121.034100294108,50.4652130215412]]]}},{"type":"Feature","id":"794004438","properties":{"name":"iSP_11KPH_%TR_Lower_Fuel_Bay","oid":"794004438","speedLimit":3.0555556},"geometry":{"type":"Polygon","coordinates":[[[-121.036777030491,50.4606956133565],[-121.036779143816,50.4607254519956],[-121.036749416389,50.4606709874917],[-121.03712558809,50.4605992669073],[-121.037535572977,50.4605562165816],[-121.037543321833,50.4605815614498],[-121.03694482843,50.4606504060207],[-121.036777030491,50.4606956133565]]]}},{"type":"Feature","id":"801543391","properties":{"name":"iSP_4KPH_%TR_CR01_PermissionBlocker_2","oid":"801543391","speedLimit":1.1111112},"geometry":{"type":"Polygon","coordinates":[[[-121.033155779095,50.4645234973267],[-121.033154933766,50.4644740658462],[-121.033176489672,50.4644320041502],[-121.033108440634,50.4644595959038],[-121.033155779095,50.4645234973267]]]}},{"type":"Feature","id":"806473874","properties":{"name":"iSP_4KPH_%TR_CR04_PermissionBlocker","oid":"806473874","speedLimit":1.1111112},"geometry":{"type":"Polygon","coordinates":[[[-121.022719902606,50.4815454523063],[-121.022686793861,50.4815431155454],[-121.022679185894,50.481571785804],[-121.022701305353,50.4815728643091],[-121.022705391113,50.4815487776968],[-121.022719902606,50.4815454523063]]]}},{"type":"Feature","id":"824566967","properties":{"name":"iSP_3KPH_%TR_CR04","oid":"824566967","speedLimit":0.8333333},"geometry":{"type":"Polygon","coordinates":[[[-121.02330275741,50.4810685733331],[-121.023282610386,50.4810685733331],[-121.023279933509,50.4811866696337],[-121.023305011622,50.4811859506303],[-121.02330275741,50.4810685733331]]]}},{"type":"Feature","id":"826307302","properties":{"name":"iSP_4KPH_%TR_CR04_Pockets","oid":"826307302","speedLimit":1.1111112},"geometry":{"type":"Polygon","coordinates":[[[-121.023297967208,50.4813217523884],[-121.023337415926,50.4814774166141],[-121.023542126593,50.4814379613052],[-121.023461115834,50.48118909627],[-121.023052821606,50.4811898152733],[-121.02305817536,50.481360488694],[-121.023283033051,50.4813265157856],[-121.023297967208,50.4813217523884]]]}},{"type":"Feature","id":"883050998","properties":{"name":"iSP_22KPH_%TR_4CR_Brake_Temp_Ctrl","oid":"883050998","speedLimit":6.111111},"geometry":{"type":"Polygon","coordinates":[[[-121.031799447648,50.4745592562374],[-121.032188721959,50.4743126380876],[-121.032490363761,50.4745749844357],[-121.032792005563,50.4748023692457],[-121.032969806569,50.4748847850049],[-121.033178602996,50.4749349354887],[-121.033462492875,50.4749597411044],[-121.033666358213,50.4749221731792],[-121.033827534402,50.4748627655273],[-121.033918689118,50.4748107276597],[-121.034008012286,50.4747475452401],[-121.034058450289,50.4746583888245],[-121.03405267387,50.4745482015608],[-121.034056477853,50.4744838507608],[-121.033994346123,50.474379864901],[-121.03387599997,50.4742597913413],[-121.033509126895,50.4739378575905],[-121.033060820396,50.4735602010799],[-121.032947546221,50.4734256575776],[-121.032822578319,50.473221101124],[-121.03260575126,50.4728151338564],[-121.032252262572,50.4722091937816],[-121.032487264219,50.4721563470352],[-121.032430204466,50.4722058683911],[-121.032902743749,50.4730490795721],[-121.033041941367,50.4733098081626],[-121.033249751576,50.4735471691441],[-121.033742719659,50.4739618543273],[-121.034097758119,50.4742713852703],[-121.03420314255,50.4743946943452],[-121.034255834766,50.4744619211586],[-121.03426287918,50.4745930493949],[-121.034237941955,50.4746790601709],[-121.034183418191,50.4747918538217],[-121.034085923503,50.4748760670893],[-121.033973071993,50.4749379013776],[-121.033790480785,50.4750163626183],[-121.033530964578,50.4750646257183],[-121.033262995075,50.4750683106105],[-121.033071387017,50.4750265185407],[-121.032807644162,50.4749167806541],[-121.032656893705,50.4748353535245],[-121.032495294851,50.4747055734195],[-121.032144764816,50.4744132985569],[-121.031799447648,50.4745592562374]]]}},{"type":"Feature","id":"883053336","properties":{"name":"iSP_22KPH_%TR_Brake_Temp_Ctrl","oid":"883053336","speedLimit":6.111111},"geometry":{"type":"Polygon","coordinates":[[[-121.032465990089,50.4721454721095],[-121.032251135466,50.4722257308587],[-121.03148850722,50.4710085480593],[-121.030816611024,50.4699235720013],[-121.030661352143,50.4696604167745],[-121.030596543535,50.4694579274555],[-121.030550191292,50.4692569660186],[-121.030596543535,50.4689731394455],[-121.030722779432,50.4686245126952],[-121.030884519174,50.4683757375354],[-121.031088948065,50.4680980224908],[-121.031688286797,50.4675367504992],[-121.032432176902,50.4668938716271],[-121.032788483356,50.4665563894288],[-121.033147607575,50.4662225921227],[-121.033484471447,50.4658709096082],[-121.0337794915,50.4660343031199],[-121.033587460778,50.4659934996797],[-121.032919368566,50.4666522865009],[-121.032554608815,50.4669914763322],[-121.032178578003,50.4673079276824],[-121.031774369535,50.4676685977388],[-121.031381995682,50.4680346603204],[-121.031147134923,50.4682865811198],[-121.031008782635,50.4684701067254],[-121.030905088863,50.468654710836],[-121.030828586528,50.4688532456365],[-121.030767722792,50.4691915367136],[-121.030776457865,50.4694008565644],[-121.030873670777,50.4696305781354],[-121.031027661664,50.4699353456812],[-121.031330571461,50.4704040459912],[-121.031530632815,50.4707112401733],[-121.031750277639,50.4710831446571],[-121.032146032811,50.4717290792934],[-121.032381316234,50.4721453822341],[-121.032465990089,50.4721454721095]]]}},{"type":"Feature","id":"883059532","properties":{"name":"iSP_22KPH_%TR_Brake_Ctrl","oid":"883059532","speedLimit":6.111111},"geometry":{"type":"Polygon","coordinates":[[[-121.02726228156,50.4773222962434],[-121.027030097679,50.4772101317205],[-121.027334557246,50.4769443701065],[-121.027716505367,50.4766327720289],[-121.028033222214,50.476323061335],[-121.028190453532,50.4761691047423],[-121.028621289885,50.4756926751462],[-121.028907293088,50.4753260733122],[-121.029263881318,50.4748879306446],[-121.029472677746,50.4746570406932],[-121.02969147724,50.474540741901],[-121.029801510985,50.4744885242826],[-121.029952261442,50.4745929595195],[-121.029788690152,50.4745423596586],[-121.029556083606,50.4747918538217],[-121.029251905815,50.4751733749753],[-121.029072977702,50.4754783222719],[-121.028853191989,50.4757750909054],[-121.02869610156,50.4759750637127],[-121.028408971251,50.476270933592],[-121.028041675511,50.4765703086127],[-121.027243966084,50.4772197483903],[-121.02726228156,50.4773222962434]]]}},{"type":"Feature","id":"884401102","properties":{"name":"iSP_30KPH_%TR_Maint_Limit_Policy","oid":"884401102","speedLimit":8.333333},"geometry":{"type":"Polygon","coordinates":[[[-121.036992589556,50.4611014907487],[-121.037108681497,50.4611079617788],[-121.038294960793,50.4609922921146],[-121.038278617753,50.4603981257196],[-121.038120118441,50.4605660130023],[-121.037033024492,50.4607086452922],[-121.036745330629,50.4605379718716],[-121.036992589556,50.4611014907487]]]}},{"type":"Feature","id":"910445950","properties":{"name":"SP_22KPH_%TR_1635_FLATS_SEP_25_NS","oid":"910445950","speedLimit":6.111111},"geometry":{"type":"Polygon","coordinates":[[[-121.017369811157,50.455493983607],[-121.018002963076,50.4544143101987],[-121.01814821889,50.4539986363859],[-121.018532843888,50.4537516587345],[-121.018948886971,50.4536882066887],[-121.018866749105,50.4543417807356],[-121.01826191573,50.4560722420528],[-121.018276004558,50.455700966697],[-121.017369811157,50.455493983607]]]}},{"type":"Feature","id":"915576987","properties":{"name":"iSP_15KPH_%TR_Preventing Shifting","oid":"915576987","speedLimit":4.1666665},"geometry":{"type":"Polygon","coordinates":[[[-121.036998084199,50.4448633392981],[-121.037512185523,50.4453132556455],[-121.037981484376,50.4457957068947],[-121.038525454015,50.4462190201181],[-121.039458134412,50.4468501253103],[-121.03991545776,50.4470998890996],[-121.040471402903,50.4471952469192],[-121.041224591635,50.4473229598896],[-121.041643029819,50.4475098108856],[-121.042321547763,50.448095259365],[-121.042704200325,50.4485280095074],[-121.042847624591,50.4487950293772],[-121.043009082557,50.4493918021593],[-121.043188292446,50.4501983441693],[-121.043325799405,50.4505014939576],[-121.043687459613,50.451168908819],[-121.043857934429,50.4514892248123],[-121.044126890151,50.4522537950016],[-121.044384011257,50.4529383760681],[-121.044697769451,50.453798304077],[-121.044736654616,50.454194924301],[-121.044572237996,50.4550720185149],[-121.044216635984,50.4568395085047],[-121.044052219364,50.4572075483455],[-121.043005983015,50.4583992065259],[-121.041906068233,50.4595375685828],[-121.041344205782,50.4600008763677],[-121.040372781109,50.4605977390252],[-121.039924333722,50.4607312040224],[-121.03913521848,50.4608074183777],[-121.038497839913,50.4608389646498],[-121.038645631716,50.4611437321956],[-121.038758483226,50.4609497810414],[-121.03987953125,50.4608799478408],[-121.040707531656,50.4606320714353],[-121.041511581056,50.4600581270096],[-121.042874534252,50.4587004689303],[-121.044243404756,50.457142658293],[-121.04442881373,50.4562903696947],[-121.044814424945,50.4544217698585],[-121.044811325403,50.4537868000233],[-121.044261438456,50.4523015188491],[-121.043833983422,50.451186075024],[-121.043346791758,50.4503375611933],[-121.043050926376,50.4493098357772],[-121.042928353574,50.448692032147],[-121.04224081878,50.4478873775208],[-121.041547366679,50.4473916247097],[-121.041093001984,50.4472219399186],[-121.0404594274,50.4471304467421],[-121.039918416414,50.4470198101013],[-121.038821460286,50.4463334315265],[-121.038196761664,50.44587192125],[-121.037153624857,50.4449071086271],[-121.037377778107,50.4446974292746],[-121.036998084199,50.4448633392981]]]}},{"type":"Feature","id":"917773475","properties":{"name":"SP_15KPH_%TR_1200_CORNER_Sept_25_NS","oid":"917773475","speedLimit":4.1666665},"geometry":{"type":"Polygon","coordinates":[[[-121.037098960205,50.4446825998305],[-121.036924822294,50.4448621709176],[-121.036629238688,50.4448206484741],[-121.036414665842,50.4448699900791],[-121.036323088461,50.4449676846595],[-121.03625447587,50.4450821859433],[-121.03624221859,50.4451450088612],[-121.036263351832,50.4452673293064],[-121.036316044047,50.445351542574],[-121.03618417262,50.4453953119031],[-121.036089073032,50.4451943504662],[-121.036163039378,50.4449317344919],[-121.036259829625,50.4447914389629],[-121.036516668955,50.4447151347322],[-121.036713771655,50.4447118093417],[-121.036923131635,50.4447701384886],[-121.037093747339,50.4446836783355],[-121.037098960205,50.4446825998305]]]}},{"type":"Feature","id":"926367691","properties":{"name":"SP_30KPH_%TR_24SH_EMPTY_LANE_SEP_25_NS","oid":"926367691","speedLimit":8.333333},"geometry":{"type":"Polygon","coordinates":[[[-121.038784265781,50.4508575803676],[-121.038613086523,50.4512056678654],[-121.038639009967,50.4520122098754],[-121.038945019305,50.4544277915116],[-121.039193405338,50.4545000513484],[-121.038782293345,50.4517187666324],[-121.038784265781,50.4508575803676]]]}},{"type":"Feature","id":"929009157","properties":{"name":"iSP_22KPH_%TR_Long_Single_Lane","oid":"929009157","speedLimit":6.111111},"geometry":{"type":"Polygon","coordinates":[[[-121.005680733439,50.4380559953129],[-121.004751011696,50.4382240623465],[-121.005175508076,50.4381975490978],[-121.007935791209,50.4431705357814],[-121.00852456332,50.4445349345171],[-121.008211650456,50.4465097670986],[-121.007833647208,50.4466802607684],[-121.008935111761,50.4466470068634],[-121.008824373575,50.4465929917365],[-121.009404410613,50.4448176825852],[-121.008765482275,50.4430684373054],[-121.008263779119,50.4415401956809],[-121.007260231918,50.4401562041039],[-121.00644054392,50.4389840488894],[-121.005861493099,50.4383130390113],[-121.005680733439,50.4380559953129]]]}},{"type":"Feature","id":"932268643","properties":{"name":"SP_20KPH_%traction_1185_1170_SEP26_NS","oid":"932268643","speedLimit":5.5555553},"geometry":{"type":"Polygon","coordinates":[[[-121.038729178464,50.4481975375918],[-121.038467408045,50.4482557768633],[-121.038947273518,50.4498294055744],[-121.039506459091,50.4497914781475],[-121.039105913718,50.4497307223643],[-121.038622103373,50.448344304151],[-121.03885217393,50.448159610165],[-121.038729178464,50.4481975375918]]]}},{"type":"Feature","id":"932654885","properties":{"name":"SP_11KPH_%TR_LOTS OF MUD_SEPT_15_NS","oid":"932654885","speedLimit":3.0555556},"geometry":{"type":"Polygon","coordinates":[[[-121.036365495833,50.4453591819846],[-121.036057936723,50.4454652349791],[-121.036262929167,50.4454607412081],[-121.038009662031,50.4473915348343],[-121.038175910198,50.4473147812264],[-121.036365495833,50.4453591819846]]]}},{"type":"Feature","id":"934051091","properties":{"name":"iSP_17KPH_%TR_Ramp_Permission Blocker","oid":"934051091","speedLimit":4.7222223},"geometry":{"type":"Polygon","coordinates":[[[-121.03951308084,50.4610298600397],[-121.039465037937,50.4607718277118],[-121.039017576768,50.4607924091827],[-121.039076468068,50.4610451388609],[-121.039163959688,50.4609000799347],[-121.039379941418,50.4608869581235],[-121.03951308084,50.4610298600397]]]}},{"type":"Feature","id":"936169885","properties":{"name":"SP_15KPH_%TR_24shl_loadplan_Sept_25_NS","oid":"936169885","speedLimit":4.1666665},"geometry":{"type":"Polygon","coordinates":[[[-121.039169031666,50.4546368417361],[-121.038619144719,50.4545683566669],[-121.038154636069,50.4553924243836],[-121.038670146276,50.455519508226],[-121.038842170863,50.4552447590702],[-121.039002219946,50.4549475410596],[-121.039087598242,50.4547918768339],[-121.039169031666,50.4546368417361]]]}},{"type":"Feature","id":"936513295","properties":{"name":"SP_30KPH_%TR_1635_FLATS_SEP_25_NS","oid":"936513295","speedLimit":8.333333},"geometry":{"type":"Polygon","coordinates":[[[-121.017285982632,50.4555553685182],[-121.018050160649,50.4557853597154],[-121.017434056212,50.4574539867444],[-121.015227041345,50.4585171230756],[-121.014498226285,50.4578798164795],[-121.016177332776,50.4566195833545],[-121.017285982632,50.4555553685182]]]}},{"type":"Feature","id":"937786749","properties":{"name":"SP_32KPH_%TR_24SH_Loaded_LANE_SEP_25_NS","oid":"937786749","speedLimit":8.888889},"geometry":{"type":"Polygon","coordinates":[[[-121.038410348292,50.4510854145548],[-121.038213245592,50.4510393084648],[-121.038253821416,50.4516608868625],[-121.038601533685,50.4544464855987],[-121.038809766559,50.4542670942624],[-121.038403867431,50.451675356805],[-121.038410348292,50.4510854145548]]]}},{"type":"Feature","id":"938065675","properties":{"name":"SP_8KPH_CR01_YARD_RUTIING_SEP_25_NS","oid":"938065675","speedLimit":2.2222223},"geometry":{"type":"Polygon","coordinates":[[[-121.034289366176,50.4648013921222],[-121.034099167001,50.464858193387],[-121.033940949466,50.4649071754904],[-121.033829506838,50.4650051396971],[-121.034044361461,50.46506904112],[-121.03396433692,50.4650115208518],[-121.034242732156,50.4648883016524],[-121.034319375379,50.464937553382],[-121.034289366176,50.4648013921222]]]}},{"type":"Feature","id":"938165680","properties":{"name":"SP_10KPH_%TR_22SH_Sept_25_NS","oid":"938165680","speedLimit":2.7777777},"geometry":{"type":"Polygon","coordinates":[[[-121.034080569749,50.4466115060728],[-121.035055375741,50.4472507000527],[-121.035497201379,50.4474474373449],[-121.035795320974,50.4469123191002],[-121.03485503261,50.4461954727583],[-121.034080569749,50.4466115060728]]]}},{"type":"Feature","id":"940771585","properties":{"name":"SP_20KPH_%TR_1660_HMT_SEPT25_DS","oid":"940771585","speedLimit":5.5555553},"geometry":{"type":"Polygon","coordinates":[[[-121.002708836114,50.4281184702352],[-121.002603592571,50.4277113345872],[-121.002231929295,50.4276979431498],[-121.002505393442,50.4277963567336],[-121.002533430209,50.4281139764643],[-121.002673754933,50.4280826099431],[-121.002708836114,50.4281184702352]]]}},{"type":"Feature","id":"940778315","properties":{"name":"SP_20KPH_%TR_HMT_SPILLING_ROCK_IN_CORNER_SEPT25_NS","oid":"940778315","speedLimit":5.5555553},"geometry":{"type":"Polygon","coordinates":[[[-121.004784683995,50.4367080437789],[-121.004770595167,50.4370436385934],[-121.004987985779,50.4372762361778],[-121.00512126609,50.4371688350521],[-121.004889927538,50.4369362374678],[-121.004882883124,50.4367572955085],[-121.005198472866,50.4367975596962],[-121.004798631934,50.4366991461124],[-121.004784683995,50.4367080437789]]]}},{"type":"Feature","id":"944724443","properties":{"name":"SP_12KPH_%TR_21SH_EMPTY_SEPT 26_DS","oid":"944724443","speedLimit":3.3333333},"geometry":{"type":"Polygon","coordinates":[[[-121.039134795815,50.4501832450989],[-121.038912896778,50.4501674270252],[-121.038927971824,50.4505370846235],[-121.039265681025,50.451171065829],[-121.039345001125,50.451556092124],[-121.039732584776,50.4514984819804],[-121.03971102887,50.4511096809179],[-121.039407414632,50.4509587800894],[-121.039104645724,50.4503567046576],[-121.039084780476,50.4502971172548],[-121.039134795815,50.4501832450989]]]}},{"type":"Feature","id":"944724972","properties":{"name":"SP_20KPH_%TR_21SH_LOADED_SEPT 25_NS","oid":"944724972","speedLimit":5.5555553},"geometry":{"type":"Polygon","coordinates":[[[-121.038848229059,50.4522168562044],[-121.0391818525,50.4521685931044],[-121.039251028644,50.4519693393005],[-121.039327812755,50.4516357217452],[-121.039213552362,50.451264805891],[-121.038913178555,50.4506403514799],[-121.03881864252,50.4509655207458],[-121.038886128005,50.4509783729307],[-121.03905829348,50.4512927571464],[-121.039102109735,50.4515747862111],[-121.039047022418,50.4519346473888],[-121.038997288856,50.4521383949636],[-121.038848229059,50.4522168562044]]]}},{"type":"Feature","id":"945606742","properties":{"name":"SP_20KPH_19SH_SEPT 25_NS","oid":"945606742","speedLimit":5.5555553},"geometry":{"type":"Polygon","coordinates":[[[-121.002893822423,50.4271197745794],[-121.002444529706,50.427524663342],[-121.001789962769,50.4273168713733],[-121.002101748527,50.4269692332526],[-121.002893822423,50.4271197745794]]]}}]}