{"type":"FeatureCollection","features":[{"type":"Feature","id":"702602533","properties":{"name":"iSP_4KPH_%TR_CR01_SLOW BUMP","oid":"702602533","speedLimit":1.1111112},"geometry":{"type":"Polygon","coordinates":[[[-121.033358988858,50.4648077868204],[-121.033653727701,50.4646907702558],[-121.033697121374,50.4647314833924],[-121.033369273722,50.4648696204582],[-121.033358988858,50.4648077868204]]]}},{"type":"Feature","id":"707947583","properties":{"name":"iSP_22KPH_%TR_Permission Gate 1 from west dump_Jun","oid":"707947583","speedLimit":6.111111},"geometry":{"type":"Polygon","coordinates":[[[-121.038628502348,50.4619779092714],[-121.038855192022,50.4617994185669],[-121.038140182639,50.4614081949835],[-121.03799253144,50.4616708980697],[-121.038192029625,50.4615668234293],[-121.038666964922,50.4618459735442],[-121.038628502348,50.4619779092714]]]}},{"type":"Feature","id":"742345972","properties":{"name":"iSP_4KPH_%TR_CR01_PITSIDE_SLOW BUMP","oid":"742345972","speedLimit":1.1111112},"geometry":{"type":"Polygon","coordinates":[[[-121.033398860317,50.4648827421314],[-121.033706138241,50.4647442455676],[-121.033756294565,50.4647763307547],[-121.033474799245,50.4649182425484],[-121.033398860317,50.4648827421314]]]}},{"type":"Feature","id":"776427243","properties":{"name":"iSP_7KPH_%TR_CR1_PermissionBlocker_DO_NOT_DELETE","oid":"776427243","speedLimit":1.9444444},"geometry":{"type":"Polygon","coordinates":[[[-121.034100062623,50.4652127611983],[-121.034051596962,50.4652330728293],[-121.03403046368,50.4652745049616],[-121.034116123918,50.4652254334991],[-121.034100062623,50.4652127611983]]]}},{"type":"Feature","id":"794004438","properties":{"name":"iSP_11KPH_%TR_LOWER_FUEL_BAY","oid":"794004438","speedLimit":3.0555556},"geometry":{"type":"Polygon","coordinates":[[[-121.036776804155,50.4606954005336],[-121.036778917484,50.4607252388589],[-121.03674919,50.4606707749279],[-121.037125362424,50.460599055098],[-121.0375353481,50.4605560052252],[-121.037543096971,50.4605813498267],[-121.036944602417,50.4606501936734],[-121.036776804155,50.4606954005336]]]}},{"type":"Feature","id":"801543391","properties":{"name":"iSP_4KPH_%TR_CR1_PermissionBlocker_DO_NOT_DELETE_","oid":"801543391","speedLimit":1.1111112},"geometry":{"type":"Polygon","coordinates":[[[-121.033155545794,50.4645232442371],[-121.033154700463,50.4644738132767],[-121.033176256411,50.464431752023],[-121.033108207242,50.4644593434864],[-121.033155545794,50.4645232442371]]]}},{"type":"Feature","id":"806473874","properties":{"name":"iSP_4KPH_%TR_Permission Blocker - DO NOT DELETE","oid":"806473874","speedLimit":1.1111112},"geometry":{"type":"Polygon","coordinates":[[[-121.022719649232,50.4815450201573],[-121.022686540423,50.481542683421],[-121.022678932441,50.4815713533781],[-121.022701051943,50.4815724318718],[-121.022705137711,50.4815483455128],[-121.022719649232,50.4815450201573]]]}},{"type":"Feature","id":"824566967","properties":{"name":"iSP_4Cr_3KPH","oid":"824566967","speedLimit":0.8333333},"geometry":{"type":"Polygon","coordinates":[[[-121.023302505157,50.4810681462006],[-121.023282358094,50.4810681462006],[-121.023279681212,50.4811862412589],[-121.023304759374,50.4811855222631],[-121.023302505157,50.4810681462006]]]}},{"type":"Feature","id":"826307302","properties":{"name":"iSP_4KPH_TR%_CRUSHER POCKETS","oid":"826307302","speedLimit":1.1111112},"geometry":{"type":"Polygon","coordinates":[[[-121.023297714946,50.4813213225926],[-121.02333716374,50.4814769851808],[-121.023541874801,50.4814375302869],[-121.023460863885,50.4811886678696],[-121.023052568872,50.4811893868654],[-121.023057922637,50.4813600584907],[-121.02328278076,50.4813260859397],[-121.023297714946,50.4813213225926]]]}},{"type":"Feature","id":"855316169","properties":{"name":"SP_30KPH_TR%_CRUSHER YARD EMPTY_SEP_3_DS","oid":"855316169","speedLimit":8.333333},"geometry":{"type":"Polygon","coordinates":[[[-121.037912224968,50.4622347705168],[-121.037770772865,50.4621193716928],[-121.037596211953,50.4622032245766],[-121.037545773853,50.462237466751],[-121.037608891923,50.4622264121908],[-121.037905321429,50.4624611643157],[-121.037719630322,50.4625137408828],[-121.038122853348,50.4625062813014],[-121.038121162685,50.462494058373],[-121.037912224968,50.4622347705168]]]}},{"type":"Feature","id":"878230085","properties":{"name":"SP_35KPH_TR70%_PUNCH_OUT_L1590_DMP_Sep 3_DS","oid":"878230085","speedLimit":9.722222},"geometry":{"type":"Polygon","coordinates":[[[-121.013652766695,50.4533274911911],[-121.013645158713,50.4527796164002],[-121.013740962926,50.4524494175844],[-121.013097806702,50.4524617303873],[-121.013065402336,50.4528629300372],[-121.013204881999,50.4533673954573],[-121.013610218353,50.454581959093],[-121.013328863922,50.4549545786604],[-121.013044128165,50.4549499950623],[-121.013783229491,50.455188881413],[-121.014112908694,50.454682528629],[-121.014059230157,50.4542960683926],[-121.013652766695,50.4533274911911]]]}},{"type":"Feature","id":"883050998","properties":{"name":"iSP_22kph_%TR_4CR_Brake_Temp_CTRL_NOREMOVE","oid":"883050998","speedLimit":6.111111},"geometry":{"type":"Polygon","coordinates":[[[-121.031799211738,50.4745588975784],[-121.032188486797,50.474312282023],[-121.03249012918,50.4745746256113],[-121.032791771562,50.4748020080294],[-121.03296957291,50.4748844229217],[-121.033178369739,50.4749345728779],[-121.033462260164,50.4749593782326],[-121.033666125894,50.4749218107027],[-121.033827302393,50.4748624036756],[-121.033918457284,50.4748103663555],[-121.034007780624,50.4747471846005],[-121.034058218724,50.4746580291228],[-121.034052442294,50.4745478430182],[-121.034056246284,50.4744834928951],[-121.033994114435,50.4743795081292],[-121.033875768054,50.4742594358325],[-121.033508894274,50.4739375054682],[-121.033060586912,50.4735598529303],[-121.032947312519,50.4734253108434],[-121.032822344377,50.4732207565416],[-121.032605516901,50.4728147935445],[-121.032252027533,50.4722088598437],[-121.032487029632,50.4721560136533],[-121.032429969769,50.4722055344882],[-121.032902509961,50.4730487367992],[-121.033041707847,50.473309462647],[-121.033249518456,50.4735468211316],[-121.033742487487,50.4739615019527],[-121.034097526629,50.4742710296396],[-121.034202911263,50.4743943374173],[-121.034255603581,50.4744615635236],[-121.034262648008,50.4745926903805],[-121.034237710735,50.4746787002517],[-121.034183186867,50.474791492716],[-121.034085691991,50.4748757050977],[-121.033972840264,50.4749375387355],[-121.033790248705,50.475015999151],[-121.033530731999,50.4750642617433],[-121.033262761979,50.4750679465967],[-121.033071153554,50.4750261549665],[-121.032807410191,50.4749164182343],[-121.032656659444,50.4748349919612],[-121.032495060279,50.4747052132214],[-121.03214452957,50.4744129414334],[-121.031799211738,50.4745588975784]]]}},{"type":"Feature","id":"883053336","properties":{"name":"iSP_22kph_%TR_Brake_Temp_CTRL_NOREMOVE","oid":"883053336","speedLimit":6.111111},"geometry":{"type":"Polygon","coordinates":[[[-121.032465755461,50.472145138842],[-121.032250900424,50.4722253967469],[-121.031488270711,50.4710082267514],[-121.030816373224,50.4699232621066],[-121.030661114043,50.469660109648],[-121.030596305311,50.4694576224591],[-121.030549952979,50.4692566631362],[-121.030596305311,50.4689728395487],[-121.030722541451,50.4686242164657],[-121.030884281504,50.4683754439229],[-121.031088710788,50.4680977317996],[-121.031688050673,50.4675364657122],[-121.032431942209,50.4668935936028],[-121.032788249348,50.4665561149546],[-121.033147374258,50.4662223211598],[-121.033484238778,50.4658706423448],[-121.033779259398,50.4660340341377],[-121.033587228307,50.4659932311267],[-121.03291913481,50.4666520110179],[-121.032554374358,50.4669911972811],[-121.032178342822,50.4673076453025],[-121.031774133576,50.4676683115649],[-121.031381758969,50.4680343702958],[-121.031146897758,50.4682862884451],[-121.031008545204,50.4684698121202],[-121.030904851232,50.4686544142888],[-121.03082834875,50.468852947001],[-121.030767484897,50.4691912345194],[-121.030776219987,50.4694005521684],[-121.030873433086,50.4696302713228],[-121.031027424269,50.4699350356626],[-121.031330334649,50.4704037310423],[-121.031530396387,50.4707109219929],[-121.031750041635,50.4710828225645],[-121.032145797567,50.471728750406],[-121.032381081443,50.4721450489675],[-121.032465755461,50.472145138842]]]}},{"type":"Feature","id":"883059532","properties":{"name":"iSP_22kph_%TR_Brake_CTRL_NOREMOVE","oid":"883059532","speedLimit":6.111111},"geometry":{"type":"Polygon","coordinates":[[[-121.027262036923,50.4773219085191],[-121.027029852595,50.4772097451761],[-121.027334312748,50.4769439863578],[-121.027716261603,50.476632391558],[-121.02803297906,50.4763226841221],[-121.02819021068,50.4761687291489],[-121.028621047862,50.4756923045645],[-121.028907051615,50.4753257065869],[-121.029263640531,50.4748875685282],[-121.02947243736,50.4746566810057],[-121.029691237276,50.4745403834369],[-121.029801271232,50.4744881663677],[-121.029952021979,50.474592600506],[-121.029788450374,50.4745420011774],[-121.029555843381,50.474791492716],[-121.029251665004,50.4751730098563],[-121.029072736548,50.4754779539451],[-121.028852950412,50.4757747194568],[-121.028695859681,50.4759746901604],[-121.028408728819,50.4762705569274],[-121.028041432373,50.4765699287988],[-121.027243721412,50.4772193617448],[-121.027262036923,50.4773219085191]]]}},{"type":"Feature","id":"891249991","properties":{"name":"SP_35KPH_TR%_1590 #1_SEPT 3_DS","oid":"891249991","speedLimit":9.722222},"geometry":{"type":"Polygon","coordinates":[[[-121.012956918154,50.4498606732479],[-121.013847474669,50.4497487795283],[-121.013378879357,50.4450041263201],[-121.012138778353,50.4430837784435],[-121.01129950527,50.4419102874422],[-121.010529690241,50.4421497130397],[-121.011008711306,50.4427016321819],[-121.011240754745,50.4430298537593],[-121.011456314224,50.4435199392637],[-121.011774299678,50.4445106255857],[-121.012956918154,50.4498606732479]]]}},{"type":"Feature","id":"893804793","properties":{"name":"SP_25KPH_%TR_1590Dynamic_SEPT 3_DS","oid":"893804793","speedLimit":6.9444447},"geometry":{"type":"Polygon","coordinates":[[[-121.011186512654,50.4418408144741],[-121.01048418324,50.4421100783969],[-121.005981948785,50.4380482015643],[-121.006514507498,50.4376816934611],[-121.010067294025,50.4407333812109],[-121.011186512654,50.4418408144741]]]}},{"type":"Feature","id":"903864124","properties":{"name":"SP_15KPH_%TR_OLD_GARBAGEDUMP_SEP_3_DS","oid":"903864124","speedLimit":4.1666665},"geometry":{"type":"Polygon","coordinates":[[[-121.042485044585,50.4669869731809],[-121.042131836994,50.4673286759293],[-121.042023352812,50.4669790642272],[-121.041686206515,50.466809740719],[-121.041834703046,50.4667102496768],[-121.042485044585,50.4669869731809]]]}},{"type":"Feature","id":"908328496","properties":{"name":"SP_15KPH_%TR_9019_SOFT_GROUND_AUG_30_NS","oid":"908328496","speedLimit":4.1666665},"geometry":{"type":"Polygon","coordinates":[[[-121.038900135469,50.4647529633915],[-121.03982704123,50.4649940966041],[-121.039188816105,50.4666746593852],[-121.038826591647,50.4674277175992],[-121.038451828108,50.467894166117],[-121.03791490185,50.4682378461039],[-121.037179886293,50.4680257423463],[-121.038312911999,50.4667051268318],[-121.038671191578,50.465545206876],[-121.038900135469,50.4647529633915]]]}},{"type":"Feature","id":"910445950","properties":{"name":"SP_22KPH_%TR_1635_FLATS_SEP_3_DS","oid":"910445950","speedLimit":6.111111},"geometry":{"type":"Polygon","coordinates":[[[-121.018916644643,50.4576034490197],[-121.015248611283,50.458700456844],[-121.014497957097,50.457879633277],[-121.017480849445,50.4564157578516],[-121.017773193183,50.4542398069722],[-121.018441004903,50.4540100878178],[-121.019219836799,50.4539290210426],[-121.019245196738,50.4568507503036],[-121.019157845838,50.4570730997512],[-121.019195885746,50.4574050960566],[-121.018916644643,50.4576034490197]]]}},{"type":"Feature","id":"917291012","properties":{"name":"SP_20KPH_%TR_CORNER_RUTS_SEP_3_DS","oid":"917291012","speedLimit":5.5555553},"geometry":{"type":"Polygon","coordinates":[[[-121.040610099782,50.4662213325406],[-121.040684348047,50.4661071919592],[-121.040422436236,50.4659261847694],[-121.040120652965,50.4658980540592],[-121.040016536328,50.4663104880184],[-121.039933552972,50.4664858331163],[-121.039994698602,50.466819986409],[-121.040666877867,50.4667391892573],[-121.040548954152,50.4666222625672],[-121.040531483972,50.4663772647522],[-121.040610099782,50.4662213325406]]]}},{"type":"Feature","id":"921770139","properties":{"name":"SP_25KPH_HIGHMONT_SEPT 3_DS","oid":"921770139","speedLimit":6.9444447},"geometry":{"type":"Polygon","coordinates":[[[-121.003359167566,50.4283910096311],[-121.003137831657,50.4282220456208],[-121.001468302357,50.4282387622729],[-121.001503806272,50.4285899917156],[-121.002160487796,50.4285132389152],[-121.002604145835,50.4286544317132],[-121.002696991389,50.4286973917115],[-121.003359167566,50.4283910096311]]]}},{"type":"Feature","id":"922262468","properties":{"name":"SP_25kph_HMT_DUMP_SEP_3_DS","oid":"922262468","speedLimit":6.9444447},"geometry":{"type":"Polygon","coordinates":[[[-121.012501566365,50.4364265065633],[-121.01248170108,50.4374171928854],[-121.014762264014,50.4387149802836],[-121.017332071138,50.4379498788902],[-121.01652337087,50.4359057738635],[-121.014771280881,50.4353088276101],[-121.014433852808,50.4361466374527],[-121.012501566365,50.4364265065633]]]}},{"type":"Feature","id":"923351007","properties":{"name":"iSP_17KPH_PERMISSIONS_AUG 18_NS","oid":"923351007","speedLimit":4.7222223},"geometry":{"type":"Polygon","coordinates":[[[-121.03885350136,50.4608772165937],[-121.03887294398,50.4611347968349],[-121.03878362064,50.4608895293965],[-121.038538897231,50.4608895293965],[-121.03853509324,50.4608301223695],[-121.03888069285,50.4608226627882],[-121.03885350136,50.4608772165937]]]}},{"type":"Feature","id":"926367691","properties":{"name":"SP_15KPH_%TR_24SH_SEP_3_DS","oid":"926367691","speedLimit":4.1666665},"geometry":{"type":"Polygon","coordinates":[[[-121.038601029081,50.4501822441143],[-121.037733578288,50.4501786491354],[-121.038245144608,50.4520114592747],[-121.038477047158,50.451988541284],[-121.039663892291,50.4519356950935],[-121.039537937928,50.4510982447488],[-121.038601029081,50.4501822441143]]]}},{"type":"Feature","id":"929009157","properties":{"name":"iSP_22kph_Long_Single_Lane_Aug30","oid":"929009157","speedLimit":6.111111},"geometry":{"type":"Polygon","coordinates":[[[-121.005869097057,50.4378882250013],[-121.004809756062,50.4381071592189],[-121.005175220956,50.4381975729393],[-121.007935509398,50.4431705073105],[-121.008524282642,50.4445348916936],[-121.008211369176,50.4465097035012],[-121.0078333652,50.4466801953775],[-121.008934831872,50.4466469418223],[-121.008824093473,50.4465929272637],[-121.009404131627,50.4448176367874],[-121.00876520206,50.4430684099085],[-121.008263497939,50.44154018436],[-121.007259948808,50.4401562073417],[-121.006440259233,50.4389840644575],[-121.005690027712,50.4380215088456],[-121.005869097057,50.4378882250013]]]}},{"type":"Feature","id":"930116666","properties":{"name":"SP_15KPH_9023 Rough_SEP_3_DS","oid":"930116666","speedLimit":4.1666665},"geometry":{"type":"Polygon","coordinates":[[[-121.043597641453,50.4685542042508],[-121.043297407956,50.4689178363709],[-121.042548867098,50.4684625322878],[-121.042344296925,50.4680405716344],[-121.043036200587,50.4679072877901],[-121.043597641453,50.4685542042508]]]}},{"type":"Feature","id":"930976872","properties":{"name":"SP_12KPH_%TR_21SH_SEP_3_DS","oid":"930976872","speedLimit":3.3333333},"geometry":{"type":"Polygon","coordinates":[[[-121.03644444807,50.4473866087397],[-121.036360337606,50.4474503297415],[-121.036270873378,50.4474940087356],[-121.036167602072,50.447460305808],[-121.035366368897,50.4470801367849],[-121.035531490275,50.4468514961241],[-121.03644444807,50.4473866087397]]]}},{"type":"Feature","id":"931484928","properties":{"name":"SP_17KPH_TR%_5STK_SEPT 3_DS","oid":"931484928","speedLimit":4.7222223},"geometry":{"type":"Polygon","coordinates":[[[-121.023408876011,50.4842678572083],[-121.024056963334,50.4837153988194],[-121.023778004008,50.4834262726379],[-121.022894632809,50.4832446363268],[-121.022281485846,50.4833187827675],[-121.02200548518,50.4835133610028],[-121.021796265685,50.4840620446639],[-121.023167815704,50.4842399961215],[-121.023408876011,50.4842678572083]]]}},{"type":"Feature","id":"931851881","properties":{"name":"SP_15KPH_WaterHole_Sep_3_NS","oid":"931851881","speedLimit":4.1666665},"geometry":{"type":"Polygon","coordinates":[[[-121.006770220214,50.4373783671128],[-121.006675683997,50.4370666824385],[-121.005851767766,50.4371455922263],[-121.005952643967,50.4374925975687],[-121.006747396269,50.4373866355644],[-121.006770220214,50.4373783671128]]]}}]}