{"type":"FeatureCollection","features":[{"type":"Feature","id":"702602533","properties":{"name":"iSP_4KPH_%TR_CR01_Slow Bump","oid":"702602533","speedLimit":1.1111112},"geometry":{"type":"Polygon","coordinates":[[[-121.033358418244,50.4648077991831],[-121.033653142783,50.4646907822517],[-121.03369653435,50.4647314955159],[-121.033368702609,50.4648696330147],[-121.033358418244,50.4648077991831]]]}},{"type":"Feature","id":"707947583","properties":{"name":"iSP_25KPH_%TR_Permission Gate 1 From West Dump","oid":"707947583","speedLimit":6.9444447},"geometry":{"type":"Polygon","coordinates":[[[-121.038627675992,50.4619779127643],[-121.038854354665,50.4617994215003],[-121.038139379982,50.4614081966907],[-121.037991735949,50.4616709006003],[-121.038191224452,50.4615668256337],[-121.038666136699,50.4618459766235],[-121.038627675992,50.4619779127643]]]}},{"type":"Feature","id":"742345972","properties":{"name":"iSP_4KPH_%TR_CR01_Pit Side_Slow Bump","oid":"742345972","speedLimit":1.1111112},"geometry":{"type":"Polygon","coordinates":[[[-121.033398287768,50.464882754729],[-121.03370555078,50.4647442577311],[-121.033755704669,50.4647763430187],[-121.033474223011,50.4649182552573],[-121.033398287768,50.464882754729]]]}},{"type":"Feature","id":"776427243","properties":{"name":"iSP_7KPH_%TR_CR1_PermissionBlocker","oid":"776427243","speedLimit":1.9444444},"geometry":{"type":"Polygon","coordinates":[[[-121.034099456043,50.4652127748303],[-121.034050992735,50.4652330865249],[-121.034029860478,50.4652745187871],[-121.034115516558,50.4652254471708],[-121.034099456043,50.4652127748303]]]}},{"type":"Feature","id":"794004438","properties":{"name":"iSP_11KPH_%TR_Lower_Fuel_Bay","oid":"794004438","speedLimit":3.0555556},"geometry":{"type":"Polygon","coordinates":[[[-121.036776067667,50.4606954000067],[-121.036778180892,50.4607252384255],[-121.036748454851,50.4606707743238],[-121.037124609019,50.4605990542691],[-121.037534574798,50.4605560042613],[-121.037542323292,50.4605813489423],[-121.036943857784,50.4606501930048],[-121.036776067667,50.4606954000067]]]}},{"type":"Feature","id":"801543391","properties":{"name":"iSP_4KPH_%TR_CR01_PermissionBlocker_2","oid":"801543391","speedLimit":1.1111112},"geometry":{"type":"Polygon","coordinates":[[[-121.033154985054,50.4645232557079],[-121.033154139764,50.4644738245925],[-121.033175694665,50.4644317632071],[-121.033107648799,50.4644593547569],[-121.033154985054,50.4645232557079]]]}},{"type":"Feature","id":"806473874","properties":{"name":"iSP_4KPH_%TR_CR04_PermissionBlocker","oid":"806473874","speedLimit":1.1111112},"geometry":{"type":"Polygon","coordinates":[[[-121.022719594971,50.48154508498],[-121.022686487769,50.4815427482364],[-121.022678880157,50.4815714182833],[-121.022700998585,50.4815724967804],[-121.022705084155,50.4815484103459],[-121.022719594971,50.48154508498]]]}},{"type":"Feature","id":"824566967","properties":{"name":"iSP_3KPH_%TR_CR04","oid":"824566967","speedLimit":0.8333333},"geometry":{"type":"Polygon","coordinates":[[[-121.023302422609,50.4810682095286],[-121.023282276524,50.4810682095286],[-121.023279599772,50.481186304957],[-121.023304676716,50.481185585959],[-121.023302422609,50.4810682095286]]]}},{"type":"Feature","id":"826307302","properties":{"name":"iSP_4KPH_%TR_CR04_Pockets","oid":"826307302","speedLimit":1.1111112},"geometry":{"type":"Polygon","coordinates":[[[-121.023297632631,50.4813213867142],[-121.02333707951,50.4814770497903],[-121.023541780635,50.4814375947727],[-121.023460773652,50.4811887315754],[-121.023052498454,50.4811894505734],[-121.023057851959,50.4813601227337],[-121.023282699169,50.4813261500762],[-121.023297632631,50.4813213867142]]]}},{"type":"Feature","id":"883050998","properties":{"name":"iSP_22KPH_%TR_4CR_Brake_Temp_Ctrl","oid":"883050998","speedLimit":6.111111},"geometry":{"type":"Polygon","coordinates":[[[-121.031798716824,50.4745589405043],[-121.032187972991,50.4743123241759],[-121.032489600734,50.4745746685865],[-121.032791228477,50.4748020517173],[-121.032969021196,50.4748844668678],[-121.033177807891,50.4749346169813],[-121.033461684538,50.4749594224137],[-121.033665540374,50.474921854766],[-121.033826709051,50.4748624475528],[-121.033917859518,50.4748104100695],[-121.034007178523,50.4747472281166],[-121.034057614175,50.4746580723593],[-121.034051838025,50.4745478859094],[-121.034055641831,50.4744835355846],[-121.033993512997,50.4743795504928],[-121.03387517236,50.4742594778198],[-121.033508316385,50.4739375464464],[-121.033060030781,50.4735598927248],[-121.032946761885,50.4734253502162],[-121.032821799808,50.4732207952733],[-121.032604982855,50.4728148310038],[-121.032251510643,50.4722088954038],[-121.032486501336,50.4721560490477],[-121.032429444243,50.4722055700379],[-121.032901961501,50.4730487749917],[-121.033041152632,50.4733095016567],[-121.033248953155,50.4735468608853],[-121.033741898261,50.4739615430061],[-121.034096920172,50.4742710716632],[-121.034202299692,50.4743943798274],[-121.034254989452,50.4744616061443],[-121.034262033537,50.4745927334123],[-121.034237097475,50.474678743553],[-121.034182576253,50.4747915363709],[-121.034085086109,50.4748757490166],[-121.033972239858,50.4749375828482],[-121.033789657161,50.4750160435095],[-121.03353015305,50.4750643062531],[-121.033262196036,50.4750679911181],[-121.033070596909,50.4750261993569],[-121.032806866347,50.4749164622807],[-121.032656122916,50.4748350357524],[-121.032494531594,50.4747052566058],[-121.032144017897,50.4744129839018],[-121.031798716824,50.4745589405043]]]}},{"type":"Feature","id":"883053336","properties":{"name":"iSP_22KPH_%TR_Brake_Temp_Ctrl","oid":"883053336","speedLimit":6.111111},"geometry":{"type":"Polygon","coordinates":[[[-121.032465228198,50.4721451742023],[-121.032250383589,50.4722254323588],[-121.031487790888,50.4710082585483],[-121.030815926009,50.4699232905028],[-121.030660674364,50.4696601372194],[-121.030595868777,50.4694576493958],[-121.030549518694,50.4692566894431],[-121.030595868777,50.468972864966],[-121.03072209879,50.4686242407903],[-121.030883830994,50.4683754674678],[-121.031088250356,50.468097754474],[-121.031687561154,50.4675364866275],[-121.032431416587,50.4668936125031],[-121.032787706434,50.4665561327971],[-121.033146813915,50.4662223379561],[-121.033483662085,50.4658706580388],[-121.033778668388,50.4660340503438],[-121.033586646616,50.4659932472049],[-121.032918585543,50.466652029161],[-121.032553842794,50.4669912164873],[-121.032177829508,50.4673076655006],[-121.031773639879,50.4676683328934],[-121.031381284315,50.4680343927716],[-121.031146434503,50.4682863117106],[-121.031008088663,50.4684698359608],[-121.030904399724,50.4686544387081],[-121.030827900955,50.4688529720425],[-121.030767040056,50.4691912606213],[-121.030775774722,50.4694005789263],[-121.030872983102,50.4696302988007],[-121.031026966812,50.4699350640958],[-121.03132986249,50.4704037609444],[-121.03152991452,50.4707109528579],[-121.031749549107,50.4710828545952],[-121.032145285833,50.4717287844612],[-121.03238055829,50.4721450843276],[-121.032465228198,50.4721451742023]]]}},{"type":"Feature","id":"883059532","properties":{"name":"iSP_22KPH_%TR_Brake_Ctrl","oid":"883059532","speedLimit":6.111111},"geometry":{"type":"Polygon","coordinates":[[[-121.027261762209,50.4773219601052],[-121.02702958915,50.4772097964106],[-121.027334034527,50.4769440367593],[-121.027715964845,50.4766324409828],[-121.028032666931,50.4763227325762],[-121.02818989092,50.4761687771205],[-121.028620707192,50.4756923510428],[-121.028906697065,50.4753257519162],[-121.029263268675,50.4748876124843],[-121.02947205537,50.474656724238],[-121.029690844667,50.4745404263047],[-121.029800873283,50.4744882090719],[-121.029951616714,50.4745926435375],[-121.029788053047,50.4745420440503],[-121.029555457343,50.4747915363709],[-121.029251293729,50.475173054707],[-121.029072373957,50.4754779997516],[-121.028852598488,50.4757747661934],[-121.02869551538,50.4759747375239],[-121.028408398453,50.4762706052182],[-121.028041119833,50.4765699780279],[-121.027243447587,50.4772194130094],[-121.027261762209,50.4773219601052]]]}},{"type":"Feature","id":"884401102","properties":{"name":"iSP_30KPH_%TR_Maint_Limit_Policy","oid":"884401102","speedLimit":8.333333},"geometry":{"type":"Polygon","coordinates":[[[-121.036991616684,50.4611012744015],[-121.037107703214,50.4611077453839],[-121.038293927219,50.4609920765738],[-121.038277584941,50.4603979145668],[-121.038119093016,50.4605658006096],[-121.037032049735,50.4607084318462],[-121.036744369282,50.460537759686],[-121.036991616684,50.4611012744015]]]}},{"type":"Feature","id":"910445950","properties":{"name":"SP_22KPH_%TR_1635_FLATS_OCT_1_DS","oid":"910445950","speedLimit":6.111111},"geometry":{"type":"Polygon","coordinates":[[[-121.017369752885,50.4554938086714],[-121.018002875293,50.4544141432365],[-121.018148124337,50.4539984724934],[-121.018532731408,50.453751496666],[-121.0189487551,50.4536880450888],[-121.018866621062,50.454341614309],[-121.018261815878,50.4560720628468],[-121.018275904049,50.4557007902328],[-121.017369752885,50.4554938086714]]]}},{"type":"Feature","id":"915576987","properties":{"name":"iSP_15KPH_%TR_Preventing Shifting","oid":"915576987","speedLimit":4.1666665},"geometry":{"type":"Polygon","coordinates":[[[-121.036997111071,50.44486324287],[-121.037511188434,50.4453131558948],[-121.037980465412,50.445795603581],[-121.038524409698,50.4462189136783],[-121.039457046623,50.4468500142097],[-121.039914348657,50.4470997761546],[-121.040470267888,50.4471951332699],[-121.041223421513,50.4473228452971],[-121.041641840195,50.4475096949133],[-121.042320326514,50.4480951390691],[-121.04270296124,50.4485278860156],[-121.042846378822,50.4487949039135],[-121.043007829263,50.4493916722884],[-121.043187030799,50.4501982083421],[-121.043324531348,50.4505013558916],[-121.0436861747,50.4511687658241],[-121.04385664157,50.4514890794519],[-121.044125584756,50.4522536439949],[-121.044382693878,50.4529382200057],[-121.044696437448,50.453798141664],[-121.0447353208,50.4541947589589],[-121.044570911844,50.4550718466955],[-121.044215326406,50.4568393236324],[-121.044050917449,50.4572073607552],[-121.043004729865,50.4583990101351],[-121.041904866349,50.4595373637852],[-121.041343030086,50.4600006681486],[-121.04037165069,50.4605975263982],[-121.039923224204,50.4607309904098],[-121.039134145742,50.4608072042023],[-121.038496796883,50.4608387502414],[-121.038644581797,50.4611435155364],[-121.038757428048,50.4609495658146],[-121.03987842382,50.4608797331298],[-121.040706385635,50.4606318585548],[-121.041510397558,50.4600579183677],[-121.042873287229,50.4587002703148],[-121.044242093931,50.4571424711819],[-121.044427494262,50.4562901888778],[-121.044813087505,50.4544216028412],[-121.044809988107,50.4537866376953],[-121.04426012679,50.4523013674899],[-121.043832691679,50.4511859319024],[-121.043345522723,50.450337424338],[-121.043049671131,50.4493097065116],[-121.042927104042,50.448691907444],[-121.042239601294,50.4478872587602],[-121.041546181513,50.4473915096102],[-121.041091837996,50.4472218260722],[-121.040458292942,50.4471303335714],[-121.039917307173,50.4470196977477],[-121.038820402172,50.4463333242418],[-121.038195732667,50.4458718173735],[-121.03715264448,50.4449070118758],[-121.037376787282,50.4446973340718],[-121.036997111071,50.44486324287]]]}},{"type":"Feature","id":"917773475","properties":{"name":"SP_15KPH_%TR_1200_CORNER_OCT_1_DS","oid":"917773475","speedLimit":4.1666665},"geometry":{"type":"Polygon","coordinates":[[[-121.037097982376,50.4446825047372],[-121.036923852581,50.4448620744982],[-121.036628282752,50.4448205523613],[-121.036413719907,50.4448698936019],[-121.036322146795,50.4449675874609],[-121.036253537401,50.4450820878991],[-121.036241280693,50.445144910353],[-121.036262412949,50.4452672298949],[-121.036315102709,50.4453514425406],[-121.036183237428,50.4453952115464],[-121.036088142273,50.4451942515936],[-121.036162105171,50.4449316375588],[-121.036258890906,50.4447913430658],[-121.036515718265,50.4447150393986],[-121.036712811779,50.4447117140326],[-121.036922162001,50.4447700427488],[-121.037092769753,50.4446835832342],[-121.037097982376,50.4446825047372]]]}},{"type":"Feature","id":"929009157","properties":{"name":"iSP_22KPH_%TR_Long_Single_Lane","oid":"929009157","speedLimit":6.111111},"geometry":{"type":"Polygon","coordinates":[[[-121.005681219985,50.4380559491573],[-121.004751541575,50.4382240149496],[-121.00517601817,50.4381975018968],[-121.007936172648,50.4431704518547],[-121.008524917317,50.4445348405143],[-121.008212019038,50.4465096585116],[-121.007834033407,50.4466801509223],[-121.008935446623,50.4466468972628],[-121.008824713598,50.4465928825349],[-121.009404723601,50.4448175864943],[-121.008765825043,50.4430683541328],[-121.008264145271,50.4415401237943],[-121.007260644844,50.4401561424381],[-121.006440995051,50.43898399588],[-121.00586197122,50.4383129909573],[-121.005681219985,50.4380559491573]]]}},{"type":"Feature","id":"932268643","properties":{"name":"SP_35KPH_%traction_1185_1170_OCT_1_NS","oid":"932268643","speedLimit":9.722222},"geometry":{"type":"Polygon","coordinates":[[[-121.038728124652,50.4481974165406],[-121.038466366433,50.448255655382],[-121.03894620954,50.4498292724718],[-121.03950536905,50.4497913453251],[-121.039104842346,50.4497305899905],[-121.038621054551,50.4483441820159],[-121.038851114385,50.4481594893938],[-121.038728124652,50.4481974165406]]]}},{"type":"Feature","id":"933371104","properties":{"name":"SP_17KPH_%TR_1590_HMT_INTERSECT_OCT_1_DS","oid":"933371104","speedLimit":4.7222223},"geometry":{"type":"Polygon","coordinates":[[[-121.006360974239,50.4374888394516],[-121.005863239155,50.4376812613026],[-121.00594438702,50.4378152645627],[-121.006254045021,50.438093876304],[-121.006606108416,50.4383163163232],[-121.007163295582,50.4382767714309],[-121.006791790511,50.4381832118107],[-121.006117812406,50.4376596913613],[-121.006360974239,50.4374888394516]]]}},{"type":"Feature","id":"934051091","properties":{"name":"iSP_17KPH_%TR_Ramp_Permission Blocker","oid":"934051091","speedLimit":4.7222223},"geometry":{"type":"Polygon","coordinates":[[[-121.039511990491,50.4610296442215],[-121.039463949827,50.4607716137992],[-121.039016509514,50.4607921951181],[-121.039075398069,50.4610449229299],[-121.039162885611,50.4608998650749],[-121.039378857274,50.4608867433607],[-121.039511990491,50.4610296442215]]]}},{"type":"Feature","id":"934859271","properties":{"name":"SP_30KPH_%TR_23SH_LOADED_LANES2_OCT_1_NS","oid":"934859271","speedLimit":8.333333},"geometry":{"type":"Polygon","coordinates":[[[-121.04049844423,50.4654084321725],[-121.040444345653,50.4651300900554],[-121.039927732419,50.4634422421517],[-121.039469866859,50.4634991328718],[-121.039719650132,50.4635597983316],[-121.040034943401,50.4645694513321],[-121.04027697818,50.4653841659885],[-121.040002681489,50.4654675697614],[-121.04049844423,50.4654084321725]]]}},{"type":"Feature","id":"936169885","properties":{"name":"SP_15KPH_%TR_24shl_loadplan_OCT_1_NS","oid":"936169885","speedLimit":4.1666665},"geometry":{"type":"Polygon","coordinates":[[[-121.038810117807,50.4550799354235],[-121.03804865216,50.4548565067819],[-121.037412853,50.4555983330118],[-121.037844232798,50.4558185261622],[-121.03838874061,50.4556977344911],[-121.038576676813,50.4556101964795],[-121.038692904224,50.4552656166678],[-121.038810117807,50.4550799354235]]]}},{"type":"Feature","id":"936513295","properties":{"name":"SP_30KPH_%TR_1635_FLATS_OCT_1_NS","oid":"936513295","speedLimit":8.333333},"geometry":{"type":"Polygon","coordinates":[[[-121.017285928267,50.4555551931293],[-121.018050070667,50.455785182628],[-121.017433994945,50.4574537973341],[-121.015227082945,50.458516925814],[-121.014498301855,50.4578796239245],[-121.016177330085,50.4566194001063],[-121.017285928267,50.4555551931293]]]}},{"type":"Feature","id":"938065675","properties":{"name":"iSP_8KPH_CR01_YARD_RUTIING_OCT_1_DS","oid":"938065675","speedLimit":2.2222223},"geometry":{"type":"Polygon","coordinates":[[[-121.034288519299,50.4648011484512],[-121.03409832899,50.4648579492965],[-121.033940118828,50.4649069310381],[-121.033828681395,50.4650048945214],[-121.034043526004,50.4650687954723],[-121.033963505192,50.465011275629],[-121.034241887453,50.4648880573395],[-121.034318527103,50.4649373087054],[-121.034288519299,50.4648011484512]]]}},{"type":"Feature","id":"938165680","properties":{"name":"SP_10KPH_%TR_22SH_OCT_1_DS","oid":"938165680","speedLimit":2.7777777},"geometry":{"type":"Polygon","coordinates":[[[-121.034079732604,50.4466113967345],[-121.035054493161,50.4472505859939],[-121.035496298206,50.4474473218332],[-121.035794403906,50.4469122075404],[-121.034854159368,50.4461953664924],[-121.034079732604,50.4466113967345]]]}},{"type":"Feature","id":"948333262","properties":{"name":"SP_15KPH_%TR_19SH_LOADAREA_OCT_1_DS","oid":"948333262","speedLimit":4.1666665},"geometry":{"type":"Polygon","coordinates":[[[-121.001736250319,50.4276538449837],[-121.002116490056,50.4274007576729],[-121.001865297966,50.4271372448905],[-121.00167045856,50.4267523113137],[-121.002057742383,50.4262431708252],[-121.001738504426,50.4261428705983],[-121.001125809866,50.4265277143003],[-121.001736250319,50.4276538449837]]]}},{"type":"Feature","id":"949509237","properties":{"name":"SP_20KPH_%TR_24SH__LANE_OCT_1_NS","oid":"949509237","speedLimit":5.5555553},"geometry":{"type":"Polygon","coordinates":[[[-121.038500037162,50.4535461328502],[-121.038401701728,50.453704851668],[-121.038103736909,50.4548217252516],[-121.038988755817,50.4548139061479],[-121.039317855493,50.4537391838245],[-121.038500037162,50.4535461328502]]]}}]}