{"type":"FeatureCollection","features":[{"type":"Feature","id":"702602533","properties":{"name":"iSP_4KPH_%TR_CR01_SLOW BUMP","oid":"702602533","speedLimit":1.1111112},"geometry":{"type":"Polygon","coordinates":[[[-121.033358528699,50.4648077568707],[-121.033653269879,50.4646907404417],[-121.033696663896,50.4647314535311],[-121.033368813644,50.4648695904369],[-121.033358528699,50.4648077568707]]]}},{"type":"Feature","id":"707947583","properties":{"name":"iSP_22KPH_%TR_Permission Gate 1 from west dump_Jun","oid":"707947583","speedLimit":6.111111},"geometry":{"type":"Polygon","coordinates":[[[-121.038628083963,50.4619778826005],[-121.038854775435,50.4617993921028],[-121.038139760383,50.4614081689727],[-121.037992108014,50.4616708717545],[-121.03819160778,50.4615667972347],[-121.038666546842,50.4618459470262],[-121.038628083963,50.4619778826005]]]}},{"type":"Feature","id":"715433879","properties":{"name":"SP_25KPH_%TR_Gate_1_INT-1320_1_Sept2_NS","oid":"715433879","speedLimit":6.9444447},"geometry":{"type":"Polygon","coordinates":[[[-121.043618255021,50.4514240252727],[-121.043056246146,50.4502924170872],[-121.042827863999,50.4494409473112],[-121.042730791019,50.4489824981528],[-121.042718110949,50.4489527497365],[-121.042593423595,50.448974768957],[-121.042624137543,50.4490554761408],[-121.042687397002,50.4493154826915],[-121.042875343816,50.4500806730729],[-121.043108938881,50.4506633286099],[-121.043251237443,50.4509333112156],[-121.043475956459,50.4513982313287],[-121.043920322464,50.4525746868245],[-121.043746464617,50.4526183657681],[-121.044031061741,50.4525679462468],[-121.043760553584,50.451855422246],[-121.043618255021,50.4514240252727]]]}},{"type":"Feature","id":"742345972","properties":{"name":"iSP_4KPH_%TR_CR01_PITSIDE_SLOW BUMP","oid":"742345972","speedLimit":1.1111112},"geometry":{"type":"Polygon","coordinates":[[[-121.033398400474,50.4648827120948],[-121.033705680834,50.4647442156915],[-121.033755837555,50.4647763008414],[-121.033474340004,50.4649182124708],[-121.033398400474,50.4648827120948]]]}},{"type":"Feature","id":"776427243","properties":{"name":"iSP_7KPH_%TR_CR1_PermissionBlocker_DO_NOT_DELETE","oid":"776427243","speedLimit":1.9444444},"geometry":{"type":"Polygon","coordinates":[[[-121.034099608339,50.4652127307794],[-121.034051142294,50.4652330423869],[-121.034030008844,50.4652744744712],[-121.034115669761,50.4652254030655],[-121.034099608339,50.4652127307794]]]}},{"type":"Feature","id":"794004438","properties":{"name":"iSP_11KPH_%TR_LOWER_FUEL_BAY","oid":"794004438","speedLimit":3.0555556},"geometry":{"type":"Polygon","coordinates":[[[-121.036776371091,50.4606953753487],[-121.036778484436,50.4607252136394],[-121.036748756717,50.4606707497715],[-121.037124932123,50.4605990300247],[-121.03753492105,50.4605559802017],[-121.037542669981,50.4605813247739],[-121.036944170683,50.4606501685409],[-121.036776371091,50.4606953753487]]]}},{"type":"Feature","id":"801543391","properties":{"name":"iSP_4KPH_%TR_CR1_PermissionBlocker_DO_NOT_DELETE_","oid":"801543391","speedLimit":1.1111112},"geometry":{"type":"Polygon","coordinates":[[[-121.033155084022,50.4645232146171],[-121.033154238684,50.4644737837139],[-121.033175794803,50.464431722509],[-121.033107745095,50.4644593139404],[-121.033155084022,50.4645232146171]]]}},{"type":"Feature","id":"806473874","properties":{"name":"iSP_4KPH_%TR_Permission Blocker - DO NOT DELETE","oid":"806473874","speedLimit":1.1111112},"geometry":{"type":"Polygon","coordinates":[[[-121.022719104728,50.4815449708153],[-121.022685995657,50.4815426340817],[-121.022678387615,50.4815713040055],[-121.022700507292,50.4815723824979],[-121.022704593093,50.4815482961669],[-121.022719104728,50.4815449708153]]]}},{"type":"Feature","id":"824566967","properties":{"name":"iSP_4Cr_3KPH","oid":"824566967","speedLimit":0.8333333},"geometry":{"type":"Polygon","coordinates":[[[-121.023301965274,50.4810680974111],[-121.023281818052,50.4810680974111],[-121.023279141148,50.4811861923325],[-121.023304219508,50.4811854733375],[-121.023301965274,50.4810680974111]]]}},{"type":"Feature","id":"826307302","properties":{"name":"iSP_4KPH_TR%_CRUSHER POCKETS","oid":"826307302","speedLimit":1.1111112},"geometry":{"type":"Polygon","coordinates":[[[-121.023297175025,50.4813212735098],[-121.023336624131,50.4814769359176],[-121.023541336815,50.4814374810694],[-121.023460325258,50.4811886189405],[-121.023052027007,50.4811893379354],[-121.023057380815,50.481360009363],[-121.023282240721,50.4813260368513],[-121.023297175025,50.4813212735098]]]}},{"type":"Feature","id":"827282342","properties":{"name":"SP_25KPH_%TR_1230 to 1215 ramp2_Sept2_NS","oid":"827282342","speedLimit":6.9444447},"geometry":{"type":"Polygon","coordinates":[[[-121.036954455628,50.4451703868991],[-121.036721846791,50.4452458813694],[-121.036892605065,50.4451111596896],[-121.036959668546,50.4450453716512],[-121.038446899854,50.4463473816411],[-121.039043567587,50.4467294375856],[-121.038818144122,50.446845824894],[-121.038851253193,50.4467844406996],[-121.038763338042,50.4467103842192],[-121.038373073669,50.4464324027946],[-121.037846709879,50.4460421682825],[-121.036954455628,50.4451703868991]]]}},{"type":"Feature","id":"834847043","properties":{"name":"SP_25KPH_%TR_Gate_1_INT-1320_Sept2_NS","oid":"834847043","speedLimit":6.9444447},"geometry":{"type":"Polygon","coordinates":[[[-121.0437535091,50.4526228594865],[-121.043934411431,50.4526251063458],[-121.044156453543,50.4532810993682],[-121.044371732952,50.453882179151],[-121.044391034836,50.4541500047719],[-121.044373564518,50.4542832884618],[-121.044189139946,50.4543000949688],[-121.044487403367,50.4543129470037],[-121.044521075997,50.4540659722365],[-121.044495574968,50.4537731615409],[-121.044134615645,50.4528357718677],[-121.044032752417,50.452579180543],[-121.0437535091,50.4526228594865]]]}},{"type":"Feature","id":"834888244","properties":{"name":"SP_25KPH_%TR_Gate_1_INT-1320_2_Sept2_NS","oid":"834888244","speedLimit":6.9444447},"geometry":{"type":"Polygon","coordinates":[[[-121.044192521298,50.4543057570541],[-121.044355953309,50.4543393700683],[-121.044259302999,50.4547157639274],[-121.044180263897,50.455416065014],[-121.044011478078,50.4560736757752],[-121.043873687985,50.456687427844],[-121.043790422193,50.456952107862],[-121.043618255021,50.4572826657927],[-121.043173889017,50.4577834457792],[-121.042974107471,50.4578698150482],[-121.042744316427,50.4578738593948],[-121.04308428319,50.4580097494414],[-121.043386491522,50.4577272742983],[-121.043594867337,50.4575024985004],[-121.043760271804,50.4572679263962],[-121.043869461295,50.4570619343414],[-121.043974846765,50.456798602439],[-121.044042192025,50.4565661873196],[-121.044124894258,50.4561909618273],[-121.044241269122,50.455723794855],[-121.044361166227,50.4549835895484],[-121.044464861021,50.4543785552934],[-121.044487403367,50.4543129470037],[-121.044192521298,50.4543057570541]]]}},{"type":"Feature","id":"855316169","properties":{"name":"SP_30KPH_TR%_CRUSHER YARD EMPTY_SEP_1_NS","oid":"855316169","speedLimit":8.333333},"geometry":{"type":"Polygon","coordinates":[[[-121.037911800905,50.4622347435483],[-121.037770347681,50.462119344858],[-121.037595785385,50.4622031976446],[-121.037545346885,50.4622374397794],[-121.037608465455,50.462226385232],[-121.037904897311,50.4624611370849],[-121.037719204732,50.462513713591],[-121.038122430954,50.4625062540184],[-121.038120740278,50.4624940311041],[-121.037911800905,50.4622347435483]]]}},{"type":"Feature","id":"859339791","properties":{"name":"SP_25KPH_TR%_1230_to_1215_Ramp1_Sept2_NS","oid":"859339791","speedLimit":6.9444447},"geometry":{"type":"Polygon","coordinates":[[[-121.040703247845,50.4473790495278],[-121.040681269057,50.4475608653772],[-121.040630126108,50.4474349513856],[-121.04016223153,50.4474147296525],[-121.039901444759,50.4473929800551],[-121.039487229143,50.4472142199343],[-121.039189951949,50.4470090367488],[-121.038965796491,50.4468504983612],[-121.038843926931,50.4468598452956],[-121.039046103601,50.4467556809014],[-121.039455528968,50.4470183836833],[-121.039718710863,50.447173776468],[-121.040159836405,50.4472748851336],[-121.040552073234,50.447309037394],[-121.04068859532,50.4473277312628],[-121.040703247845,50.4473790495278]]]}},{"type":"Feature","id":"872232587","properties":{"name":"SP_25KPH_%TR_Gate_1_INT-1320_1__Sept2_NS","oid":"872232587","speedLimit":6.9444447},"geometry":{"type":"Polygon","coordinates":[[[-121.042510721362,50.4485416643707],[-121.042151593605,50.4481518792305],[-121.041860515556,50.4478703927055],[-121.041615367538,50.4476768931881],[-121.041315131662,50.447504873645],[-121.041100697591,50.4474168866373],[-121.040961498601,50.4473765330454],[-121.040853295338,50.4473529859607],[-121.040731284888,50.4473529859607],[-121.040704093183,50.4475488222116],[-121.040832302778,50.4474397147272],[-121.041201433702,50.4475418120108],[-121.041507023386,50.4476796792935],[-121.042193296946,50.4484067629422],[-121.042294033057,50.4484934917087],[-121.042067482475,50.4485994535903],[-121.042510721362,50.4485416643707]]]}},{"type":"Feature","id":"883050998","properties":{"name":"iSP_22kph_%TR_4CR_Brake_Temp_CTRL_NOREMOVE","oid":"883050998","speedLimit":6.111111},"geometry":{"type":"Polygon","coordinates":[[[-121.031798739213,50.4745588563307],[-121.032188017359,50.474312241061],[-121.032489662132,50.4745745843454],[-121.032791306906,50.4748019665],[-121.032969109664,50.4748843812968],[-121.033177908148,50.474934531195],[-121.033461800824,50.4749593365209],[-121.033665668169,50.4749217690345],[-121.033826845947,50.4748623620763],[-121.03391800156,50.4748103248164],[-121.034007325608,50.4747471431347],[-121.034057764108,50.4746579877602],[-121.034051987632,50.4745478017833],[-121.034055791653,50.4744834517348],[-121.03399365931,50.4743794670894],[-121.033875311992,50.4742593949318],[-121.033508435303,50.4739374649405],[-121.033060124388,50.4735598128402],[-121.032946849097,50.4734252709091],[-121.032821879963,50.4732207168443],[-121.032605050768,50.4728147543176],[-121.032251558598,50.4722088213189],[-121.03248656256,50.4721559751897],[-121.032429502245,50.4722054959672],[-121.032902046183,50.4730486973012],[-121.033041245172,50.4733094228469],[-121.033249057429,50.4735467810566],[-121.033742030368,50.4739614613971],[-121.034097072325,50.4742709887255],[-121.034202457794,50.4743942963603],[-121.034255150529,50.4744615223886],[-121.034262195013,50.4745926490936],[-121.034237257542,50.4746786588652],[-121.034182733241,50.4747914511988],[-121.034085237593,50.474875663483],[-121.033972384971,50.4749374970492],[-121.033789791965,50.4750159573737],[-121.033530273201,50.47506421991],[-121.033262301057,50.4750679047592],[-121.033070691113,50.4750261131774],[-121.032806945659,50.4749163765723],[-121.032656193717,50.4748349503936],[-121.032494593271,50.4747051718042],[-121.032144059783,50.4744129003548],[-121.031798739213,50.4745588563307]]]}},{"type":"Feature","id":"883053336","properties":{"name":"iSP_22kph_%TR_Brake_Temp_CTRL_NOREMOVE","oid":"883053336","speedLimit":6.111111},"geometry":{"type":"Polygon","coordinates":[[[-121.03246528822,50.472145100391],[-121.032250431481,50.4722253582029],[-121.031487795722,50.4710081896177],[-121.030815892908,50.4699232262299],[-121.030660632497,50.4696600740762],[-121.03059582325,50.4694575871219],[-121.030549470551,50.4692566280319],[-121.03059582325,50.4689728047732],[-121.030722060391,50.4686241820942],[-121.030883801726,50.4683754098396],[-121.031088232631,50.4680976980381],[-121.031687577267,50.467536432601],[-121.032431474701,50.4668935612364],[-121.032787784664,50.4665560829792],[-121.033146912421,50.4662222895712],[-121.033483779611,50.4658706111636],[-121.033778802571,50.4660340027672],[-121.033586769957,50.4659931998035],[-121.032918671164,50.4666519789314],[-121.03255390782,50.4669911648016],[-121.032177873303,50.4673076124564],[-121.031773660853,50.4676682783009],[-121.031381283135,50.4680343366076],[-121.031146420063,50.4682862544651],[-121.031008066411,50.4684697779275],[-121.030904371618,50.4686543798823],[-121.030827868529,50.4688529123644],[-121.030767004194,50.4691911994909],[-121.030775739353,50.4694005168973],[-121.030872953222,50.4696302357856],[-121.031026945627,50.4699349997723],[-121.031329858407,50.4704036946089],[-121.031529921732,50.4707108852036],[-121.03174956872,50.4710827853443],[-121.03214532779,50.4717287124374],[-121.032380613532,50.4721450105166],[-121.03246528822,50.472145100391]]]}},{"type":"Feature","id":"883059532","properties":{"name":"iSP_22kph_%TR_Brake_CTRL_NOREMOVE","oid":"883059532","speedLimit":6.111111},"geometry":{"type":"Polygon","coordinates":[[[-121.02726152843,50.4773218640701],[-121.027029342261,50.4772097008571],[-121.027333804828,50.4769439423467],[-121.027715756711,50.4766323479079],[-121.028032476679,50.4763226408308],[-121.028189709545,50.476168686036],[-121.028620550142,50.4756922620036],[-121.028906556163,50.4753256644507],[-121.029263147906,50.4748875268998],[-121.02947194639,50.4746566396447],[-121.02969074804,50.4745403422106],[-121.029800782869,50.474488125202],[-121.029951534811,50.4745925592193],[-121.029787961909,50.4745419599493],[-121.029555353072,50.4747914511988],[-121.029251172284,50.4751729678971],[-121.029072242409,50.4754779116325],[-121.028852454531,50.4757746768004],[-121.028695362554,50.4759746472724],[-121.028408229416,50.4762705136965],[-121.028040930058,50.4765698852211],[-121.027243212773,50.4772193174146],[-121.02726152843,50.4773218640701]]]}},{"type":"Feature","id":"903864124","properties":{"name":"SP_15KPH_%TR_OLD_GARBAGEDUMP_SEP_1_NS","oid":"903864124","speedLimit":4.1666665},"geometry":{"type":"Polygon","coordinates":[[[-121.042484656774,50.4669869407063],[-121.042131446383,50.4673286430589],[-121.04202296134,50.4669790317618],[-121.041685812371,50.4668097084498],[-121.041834310078,50.4667102175228],[-121.042484656774,50.4669869407063]]]}},{"type":"Feature","id":"910445950","properties":{"name":"SP_22KPH_%TR_1635_FLATS_SEP_1_NS","oid":"910445950","speedLimit":6.111111},"geometry":{"type":"Polygon","coordinates":[[[-121.018916069991,50.4576034274172],[-121.015248007552,50.4587004339705],[-121.014497347415,50.4578796113545],[-121.017900678172,50.4565670860633],[-121.018228669313,50.4542746605223],[-121.01844042648,50.4540100703787],[-121.01921926455,50.4539290036975],[-121.01924462469,50.4568507295733],[-121.019157273098,50.4570730787632],[-121.019195313307,50.4574050746839],[-121.018916069991,50.4576034274172]]]}},{"type":"Feature","id":"917291012","properties":{"name":"SP_20KPH_%TR_CORNER_RUTS_SEP_1_NS","oid":"917291012","speedLimit":5.5555553},"geometry":{"type":"Polygon","coordinates":[[[-121.040609697107,50.4662213009531],[-121.040683945961,50.4661071605039],[-121.040422032073,50.4659261535239],[-121.040120246409,50.4658980228463],[-121.040016128947,50.4663104563276],[-121.039933144934,50.4664858012224],[-121.039994291049,50.4668199541279],[-121.040666475642,50.4667391570698],[-121.040548550992,50.4666222305151],[-121.040531080674,50.4663772329841],[-121.040609697107,50.4662213009531]]]}},{"type":"Feature","id":"921770139","properties":{"name":"SP_25KPH HIGHMONT_SEPT 2_DS","oid":"921770139","speedLimit":6.9444447},"geometry":{"type":"Polygon","coordinates":[[[-121.003358469581,50.4283910218753],[-121.002159780308,50.4285132510177],[-121.002603441864,50.4286544436521],[-121.002696288153,50.4286974036006],[-121.003358469581,50.4283910218753]]]}},{"type":"Feature","id":"922262468","properties":{"name":"SP_20kph_HMT_DUMP_SEP_1_NS","oid":"922262468","speedLimit":5.5555553},"geometry":{"type":"Polygon","coordinates":[[[-121.012500940857,50.4364265094972],[-121.012481075414,50.4374171946715],[-121.016363431033,50.4384077899713],[-121.017179745754,50.4369599138798],[-121.016522777245,50.4359057774008],[-121.014770673366,50.435308831839],[-121.012899235941,50.4352072738016],[-121.012500940857,50.4364265094972]]]}},{"type":"Feature","id":"923351007","properties":{"name":"iSP_17KPH_PERMISSIONS_AUG 18_NS","oid":"923351007","speedLimit":4.7222223},"geometry":{"type":"Polygon","coordinates":[[[-121.038853084759,50.4608771911981],[-121.038872527533,50.4611347711409],[-121.038783203485,50.4608895039867],[-121.038538478136,50.4608895039867],[-121.038534674115,50.4608300970285],[-121.038880276464,50.4608226374558],[-121.038853084759,50.4608771911981]]]}},{"type":"Feature","id":"926367691","properties":{"name":"SP_15KPH_%TR_24SH_SEP_1_NS","oid":"926367691","speedLimit":4.1666665},"geometry":{"type":"Polygon","coordinates":[[[-121.038600610479,50.4501822311103],[-121.037733152809,50.4501786361355],[-121.038244723184,50.4520114441513],[-121.038476627573,50.4519885261871],[-121.039663482114,50.4519356800579],[-121.039537526753,50.4510982306835],[-121.038600610479,50.4501822311103]]]}},{"type":"Feature","id":"929009157","properties":{"name":"iSP_22kph_Long_Single_Lane_Aug30","oid":"929009157","speedLimit":6.111111},"geometry":{"type":"Polygon","coordinates":[[[-121.005868418969,50.4378882262416],[-121.004809069575,50.4381071602056],[-121.005174537367,50.4381975738212],[-121.007934847692,50.4431705024305],[-121.008523625603,50.4445348852328],[-121.008210709656,50.4465096947523],[-121.007832702684,50.4466801864311],[-121.008934178088,50.4466469329144],[-121.008823438811,50.4465929184184],[-121.009403481564,50.444817629999],[-121.008764546931,50.4430684051468],[-121.008262838833,50.441540181369],[-121.007259281746,50.4401562059542],[-121.006439585673,50.4389840644281],[-121.005689348205,50.4380215099315],[-121.005868418969,50.4378882262416]]]}},{"type":"Feature","id":"930116666","properties":{"name":"SP_9023 Rough_15KM_SEP_1_NS","oid":"930116666","speedLimit":4.1666665},"geometry":{"type":"Polygon","coordinates":[[[-121.043597262461,50.4685541699604],[-121.043297026584,50.4689178016591],[-121.042548479792,50.4684624981036],[-121.042343907998,50.4680405379391],[-121.043035817145,50.4679072542492],[-121.043597262461,50.4685541699604]]]}},{"type":"Feature","id":"930772612","properties":{"name":"New Zone4734","oid":"930772612","speedLimit":4.7222223},"geometry":{"type":"Polygon","coordinates":[[[-121.034992144369,50.4649748333235],[-121.034842378655,50.4647738742334],[-121.03443999777,50.4649791472932],[-121.03458750925,50.4651103638726],[-121.034992144369,50.4649748333235]]]}},{"type":"Feature","id":"930976872","properties":{"name":"DWIGHT\u0027S TRACTION ZONE","oid":"930976872","speedLimit":3.3333333},"geometry":{"type":"Polygon","coordinates":[[[-121.03742094131,50.4477202126341],[-121.0373706437,50.4478713813235],[-121.036651542848,50.4476395953248],[-121.036179421579,50.4474713505052],[-121.035601914841,50.4470799476263],[-121.035752103224,50.4469531348911],[-121.03742094131,50.4477202126341]]]}}]}