{"type":"FeatureCollection","features":[{"type":"Feature","id":"702602533","properties":{"name":"iSP_4KPH_%TR_CR01_Slow Bump","oid":"702602533","speedLimit":1.1111112},"geometry":{"type":"Polygon","coordinates":[[[-121.033358225748,50.4648080444093],[-121.033652938683,50.4646910267203],[-121.033696328541,50.464731740248],[-121.033368509708,50.4648698786413],[-121.033358225748,50.4648080444093]]]}},{"type":"Feature","id":"707947583","properties":{"name":"iSP_25KPH_%TR_Permission Gate 1 From West Dump","oid":"707947583","speedLimit":6.9444447},"geometry":{"type":"Polygon","coordinates":[[[-121.038627276034,50.4619781396667],[-121.038853945782,50.461799647247],[-121.038138999249,50.4614084199042],[-121.037991361029,50.4616711255148],[-121.038190841678,50.4615670498743],[-121.038665735226,50.4618462026717],[-121.038627276034,50.4619781396667]]]}},{"type":"Feature","id":"742345972","properties":{"name":"iSP_4KPH_%TR_CR01_Pit Side_Slow Bump","oid":"742345972","speedLimit":1.1111112},"geometry":{"type":"Polygon","coordinates":[[[-121.033398093702,50.4648830004406],[-121.033705344616,50.4647445025459],[-121.03375549653,50.4647765880413],[-121.033474025954,50.4649185011988],[-121.033398093702,50.4648830004406]]]}},{"type":"Feature","id":"776427243","properties":{"name":"iSP_7KPH_%TR_CR1_PermissionBlocker","oid":"776427243","speedLimit":1.9444444},"geometry":{"type":"Polygon","coordinates":[[[-121.03409923437,50.4652130226788],[-121.03405077297,50.465233334505],[-121.034029641545,50.4652747670354],[-121.034115294253,50.4652256951013],[-121.03409923437,50.4652130226788]]]}},{"type":"Feature","id":"794004438","properties":{"name":"iSP_11KPH_%TR_Lower_Fuel_Bay","oid":"794004438","speedLimit":3.0555556},"geometry":{"type":"Polygon","coordinates":[[[-121.03677574061,50.4606956186048],[-121.036777853753,50.4607254572167],[-121.036748128882,50.4606709927624],[-121.03712426824,50.4605992722433],[-121.037534217877,50.4605562219568],[-121.037541966066,50.4605815668019],[-121.036943524122,50.4606504113102],[-121.03677574061,50.4606956186048]]]}},{"type":"Feature","id":"801543391","properties":{"name":"iSP_4KPH_%TR_CR01_PermissionBlocker_2","oid":"801543391","speedLimit":1.1111112},"geometry":{"type":"Polygon","coordinates":[[[-121.033154800567,50.4645234990917],[-121.03315395531,50.4644740676563],[-121.033175509363,50.4644320059985],[-121.033107466176,50.464459597727],[-121.033154800567,50.4645234990917]]]}},{"type":"Feature","id":"806473874","properties":{"name":"iSP_4KPH_%TR_CR04_PermissionBlocker","oid":"806473874","speedLimit":1.1111112},"geometry":{"type":"Polygon","coordinates":[[[-121.022719821347,50.4815454385819],[-121.022686715448,50.4815431018232],[-121.022679108135,50.4815717720557],[-121.022701225693,50.4815728505598],[-121.022705311102,50.4815487639694],[-121.022719821347,50.4815454385819]]]}},{"type":"Feature","id":"824566967","properties":{"name":"iSP_3KPH_%TR_CR04","oid":"824566967","speedLimit":0.8333333},"geometry":{"type":"Polygon","coordinates":[[[-121.023302626037,50.4810685600427],[-121.023282480746,50.4810685600427],[-121.023279804099,50.4811866562358],[-121.023304880056,50.4811859372331],[-121.023302626037,50.4810685600427]]]}},{"type":"Feature","id":"826307302","properties":{"name":"iSP_4KPH_%TR_CR04_Pockets","oid":"826307302","speedLimit":1.1111112},"geometry":{"type":"Polygon","coordinates":[[[-121.023297836248,50.4813217388676],[-121.023337281574,50.4814774029517],[-121.02354197464,50.4814379476786],[-121.023460970846,50.4811890828699],[-121.023052711722,50.4811898018726],[-121.023058065017,50.481360475138],[-121.023282903374,50.4813265022605],[-121.023297836248,50.4813217388676]]]}},{"type":"Feature","id":"883050998","properties":{"name":"iSP_22KPH_%TR_4CR_Brake_Temp_Ctrl","oid":"883050998","speedLimit":6.111111},"geometry":{"type":"Polygon","coordinates":[[[-121.031798585736,50.4745592488702],[-121.032187826577,50.4743126309449],[-121.032489442444,50.4745749770542],[-121.032791058311,50.4748023616574],[-121.03296884403,50.4748847773416],[-121.033177622505,50.4749349277797],[-121.033461487976,50.4749597333728],[-121.033665335785,50.4749221654819],[-121.033826498117,50.474862757884],[-121.033917644995,50.4748107200637],[-121.034006960483,50.4747475377017],[-121.03405739415,50.4746583813672],[-121.034051618227,50.4745481942037],[-121.034055421883,50.4744838434623],[-121.033993295495,50.4743798576972],[-121.033874959517,50.4742597842466],[-121.033508117986,50.4739378507888],[-121.033059850032,50.4735601946218],[-121.032946585596,50.473425651242],[-121.032821628439,50.4732210949746],[-121.032604820023,50.4728151280764],[-121.032251361727,50.4722091885529],[-121.032486343169,50.4721563418547],[-121.032429288322,50.4722058631655],[-121.032901786976,50.4730490735791],[-121.033040972626,50.4733098019324],[-121.033248764968,50.4735471626979],[-121.033741690666,50.4739618475038],[-121.034096698599,50.4742713781652],[-121.03420207397,50.4743946871278],[-121.034254761655,50.47446191388],[-121.034261805464,50.474593041997],[-121.034236870383,50.4746790526947],[-121.034182351307,50.4747918462429],[-121.034084865002,50.4748760594339],[-121.033972023194,50.4749378936659],[-121.033789447686,50.4750163548353],[-121.033529953792,50.4750646178913],[-121.033262007328,50.4750683027802],[-121.033070415745,50.4750265107484],[-121.032806695566,50.4749167729616],[-121.03265595807,50.4748353459061],[-121.03249437311,50.4747055659192],[-121.032143873214,50.4744132913226],[-121.031798585736,50.4745592488702]]]}},{"type":"Feature","id":"883053336","properties":{"name":"iSP_22KPH_%TR_Brake_Temp_Ctrl","oid":"883053336","speedLimit":6.111111},"geometry":{"type":"Polygon","coordinates":[[[-121.032465070868,50.4721454669389],[-121.032250234718,50.472225725615],[-121.031487672042,50.4710085439232],[-121.030815833616,50.4699235688524],[-121.030660588083,50.4696604138651],[-121.030595785048,50.4694579247304],[-121.03054943679,50.4692569634764],[-121.030595785048,50.4689731371615],[-121.030722010091,50.4686245107285],[-121.030883735927,50.4683757357951],[-121.031088147241,50.4680980210031],[-121.031687434443,50.4675367495223],[-121.032431260589,50.4668938712352],[-121.032787536407,50.466556389344],[-121.033146629749,50.4662225923416],[-121.033483464658,50.4658709101471],[-121.033778459345,50.4660343035102],[-121.033586445133,50.4659935001071],[-121.032918410364,50.4666522863288],[-121.032553681975,50.4669914758514],[-121.032177683493,50.4673079269137],[-121.031773509779,50.4676685966419],[-121.031381169662,50.4680346588904],[-121.031146329097,50.4682865794606],[-121.031007988704,50.4684701048992],[-121.030904303847,50.4686547088418],[-121.03082780809,50.4688532434617],[-121.030766949587,50.4691915342309],[-121.030775683909,50.4694008538913],[-121.030872888462,50.4696305752532],[-121.03102686611,50.4699353425216],[-121.031329749862,50.4704040424052],[-121.031529794015,50.4707112363077],[-121.031749419955,50.4710831404531],[-121.032145141099,50.4717290745016],[-121.032380404293,50.4721453770635],[-121.032465070868,50.4721454669389]]]}},{"type":"Feature","id":"883059532","properties":{"name":"iSP_22KPH_%TR_Brake_Ctrl","oid":"883059532","speedLimit":6.111111},"geometry":{"type":"Polygon","coordinates":[[[-121.02726180975,50.477322286362],[-121.027029645832,50.4772101219411],[-121.027334079223,50.476944360569],[-121.027715994503,50.4766327627749],[-121.02803268412,50.4763230523629],[-121.028189901919,50.4761690959103],[-121.028620701228,50.4756926667477],[-121.028906679841,50.4753260652473],[-121.029263237412,50.4748879229784],[-121.029472015888,50.4746570332371],[-121.02969079657,50.4745407345508],[-121.029800820854,50.4744885169798],[-121.02995155835,50.4745929521217],[-121.029788001123,50.4745423523068],[-121.029555414577,50.4747918462429],[-121.029251262939,50.4751733670494],[-121.02907235021,50.4754783140685],[-121.028852583394,50.4757750824319],[-121.028695506472,50.4759750550572],[-121.028408400849,50.4762709246673],[-121.02804113669,50.4765702994156],[-121.027243495849,50.4772197386022],[-121.02726180975,50.477322286362]]]}},{"type":"Feature","id":"884401102","properties":{"name":"iSP_30KPH_%TR_Maint_Limit_Policy","oid":"884401102","speedLimit":8.333333},"geometry":{"type":"Polygon","coordinates":[[[-121.036991281141,50.4611014956276],[-121.0371073631,50.4611079666519],[-121.038293540401,50.4609922970929],[-121.038277198766,50.4603981312386],[-121.038118713082,50.4605660183685],[-121.0370317126,50.4607086505287],[-121.036744043473,50.4605379772633],[-121.036991281141,50.4611014956276]]]}},{"type":"Feature","id":"908328496","properties":{"name":"SP_25KPH_%TR_1445_SOFT_GROUND_SEPT_17_NS","oid":"908328496","speedLimit":6.9444447},"geometry":{"type":"Polygon","coordinates":[[[-121.039330248092,50.4644969858673],[-121.039939255749,50.4647092714137],[-121.039187540538,50.4666749349138],[-121.03882534792,50.4674280003642],[-121.038450617324,50.4678944533643],[-121.037913738263,50.4682381366538],[-121.037178787315,50.468026030858],[-121.038311713426,50.4667054026531],[-121.038792382898,50.4655661428787],[-121.039330248092,50.4644969858673]]]}},{"type":"Feature","id":"910445950","properties":{"name":"SP_22KPH_%TR_1635_FLATS_SEP_17_NS","oid":"910445950","speedLimit":6.111111},"geometry":{"type":"Polygon","coordinates":[[[-121.017913971888,50.4571011443686],[-121.017758162851,50.4573818250466],[-121.016600160783,50.457135386872],[-121.017123093103,50.4561458594094],[-121.017773800105,50.4542399630086],[-121.018180650467,50.453993255208],[-121.018533122629,50.4537516703016],[-121.019042671714,50.4536553239401],[-121.018866999138,50.4543417917656],[-121.018262217766,50.4560722515082],[-121.018042310074,50.4566100655261],[-121.017987227493,50.4569257975857],[-121.017913971888,50.4571011443686]]]}},{"type":"Feature","id":"915576987","properties":{"name":"iSP_15KPH_%TR_Preventing Shifting","oid":"915576987","speedLimit":4.1666665},"geometry":{"type":"Polygon","coordinates":[[[-121.036996775312,50.4448633589532],[-121.037510832434,50.4453132748912],[-121.037980090936,50.4457957257014],[-121.038524013806,50.4462190385396],[-121.039456614011,50.4468501431575],[-121.03991389804,50.4470999067196],[-121.040469795383,50.4471952644523],[-121.041222919355,50.4473229773065],[-121.041641321563,50.4475098281326],[-121.042319781168,50.4480952760791],[-121.04270240083,50.4485280258278],[-121.042845812765,50.4487950454546],[-121.043007256849,50.4493918176937],[-121.043186451329,50.4501983589698],[-121.043323946465,50.4505015084822],[-121.043685575578,50.4511689227362],[-121.043856035737,50.451489238438],[-121.044124968334,50.4522538079317],[-121.044382067333,50.4529383883752],[-121.04469579855,50.4537983156016],[-121.044734680372,50.4541949354646],[-121.044570277888,50.4550720288804],[-121.04421470645,50.456839517262],[-121.044050303967,50.4572075567678],[-121.043004157573,50.4583992138638],[-121.041904337361,50.4595375748849],[-121.041342523219,50.4600008822482],[-121.040371182068,50.4605977443626],[-121.039922773238,50.4607312092383],[-121.039133725843,50.4608074235243],[-121.038496402077,50.4608389697676],[-121.038644181173,50.4611437370361],[-121.038757022981,50.4609497860584],[-121.039877974618,50.4608799529214],[-121.040705903834,50.4606320767414],[-121.041509884102,50.460058132838],[-121.042872720112,50.4587004759941],[-121.044241472922,50.4571426667743],[-121.044426865953,50.4562903789516],[-121.044812444014,50.4544217808158],[-121.044809344739,50.4537868115584],[-121.044259505071,50.4523015317357],[-121.043832086789,50.4511860889256],[-121.043344937014,50.4503375758671],[-121.043049097069,50.4493098513861],[-121.042926534807,50.4486920483182],[-121.042239059126,50.4478873944242],[-121.041545666647,50.4473916420641],[-121.041091341018,50.4472219574275],[-121.040457820909,50.4471304643342],[-121.039916856439,50.4470198277941],[-121.038819994626,50.4463334498439],[-121.038195349715,50.4458719399873],[-121.037152302597,50.4449071282424],[-121.037376436574,50.4446974490807],[-121.036996775312,50.4448633589532]]]}},{"type":"Feature","id":"917773475","properties":{"name":"SP_15KPH_%TR_1200_CORNER_Sept_17_NS","oid":"917773475","speedLimit":4.1666665},"geometry":{"type":"Polygon","coordinates":[[[-121.037097642645,50.4446826196501],[-121.036923519706,50.4448621905738],[-121.036627961514,50.444820668168],[-121.036413407116,50.4448700097281],[-121.03632183761,50.4449677042197],[-121.036253230918,50.4450822053993],[-121.036240974692,50.44514502826],[-121.036262106116,50.4452673485939],[-121.036314793802,50.4453515617849],[-121.036182933712,50.4453953310741],[-121.036087842301,50.4451943698201],[-121.036161802288,50.4449317540848],[-121.036258584212,50.4447914586834],[-121.036515401459,50.4447151545221],[-121.036712487213,50.4447118291347],[-121.036921829192,50.4447701582285],[-121.037092430227,50.4446836981541],[-121.037097642645,50.4446826196501]]]}},{"type":"Feature","id":"921770139","properties":{"name":"SP_20KPH_%TR_HIGHMONT_SEPT 17_NS","oid":"921770139","speedLimit":5.5555553},"geometry":{"type":"Polygon","coordinates":[[[-121.001747023307,50.4283060749563],[-121.001110826551,50.4282402862095],[-121.001000520514,50.4285433458466],[-121.001095611925,50.4288873886374],[-121.0015827617,50.4287564402711],[-121.001924949902,50.4286884945162],[-121.002548045176,50.4285670729356],[-121.002401393089,50.4281875293866],[-121.001747023307,50.4283060749563]]]}},{"type":"Feature","id":"926367691","properties":{"name":"SP_25KPH_%TR_24SH_EMPTY_LANE_SEP_17_NS","oid":"926367691","speedLimit":6.9444447},"geometry":{"type":"Polygon","coordinates":[[[-121.038782803319,50.4508575945682],[-121.03861163878,50.4512056817492],[-121.038637559994,50.4520122230253],[-121.038864511494,50.4535986126023],[-121.039043705974,50.4535756943913],[-121.038780831052,50.4517187800493],[-121.038782803319,50.4508575945682]]]}},{"type":"Feature","id":"929009157","properties":{"name":"iSP_22KPH_%TR_Long_Single_Lane","oid":"929009157","speedLimit":6.111111},"geometry":{"type":"Polygon","coordinates":[[[-121.005682117196,50.4380560211625],[-121.00475247539,50.4382240880431],[-121.005176935272,50.4381975748186],[-121.007936981077,50.4431705569769],[-121.008525702567,50.444534954471],[-121.008212816606,50.4465097852555],[-121.007834845858,50.4466802787701],[-121.008936215709,50.4466470248954],[-121.008825487044,50.4465930098177],[-121.009405474211,50.4448177022819],[-121.008766600807,50.4430684585938],[-121.008264940787,50.44154021836],[-121.007261479871,50.4401562280423],[-121.006441862349,50.4389840738945],[-121.005862861315,50.4383130646269],[-121.005682117196,50.4380560211625]]]}},{"type":"Feature","id":"932281958","properties":{"name":"SP_15KPH_%TR_1185-1170_22shl_SEPT_17_NS","oid":"932281958","speedLimit":4.1666665},"geometry":{"type":"Polygon","coordinates":[[[-121.037373759926,50.4481143296506],[-121.037407288453,50.4479621707047],[-121.036980715429,50.4479088746298],[-121.035922876313,50.447380138021],[-121.035631826159,50.4472469427712],[-121.035474185731,50.4475380489884],[-121.035549413603,50.4474435001337],[-121.036813354546,50.4479515654149],[-121.037214851613,50.4480556410554],[-121.037333187591,50.4481912629393],[-121.037373759926,50.4481143296506]]]}},{"type":"Feature","id":"933274269","properties":{"name":"SP_15KPH_%TR_21SH_EMPTY_LANE_SEP_17_NS","oid":"933274269","speedLimit":4.1666665},"geometry":{"type":"Polygon","coordinates":[[[-121.039408152611,50.4523696572413],[-121.039604815736,50.4523825992899],[-121.039537054301,50.4510066977526],[-121.039310948058,50.4510519949225],[-121.039417450438,50.4515134149038],[-121.039408152611,50.4523696572413]]]}},{"type":"Feature","id":"934051091","properties":{"name":"iSP_17KPH_%TR_Ramp_Permission Blocker","oid":"934051091","speedLimit":4.7222223},"geometry":{"type":"Polygon","coordinates":[[[-121.039511555715,50.4610298649839],[-121.039463516943,50.4607718328907],[-121.039016094246,50.460792414343],[-121.039074980483,50.4610451437912],[-121.039162464581,50.4609000849969],[-121.03937842774,50.4608869631977],[-121.039511555715,50.4610298649839]]]}},{"type":"Feature","id":"934773555","properties":{"name":"SP_10KPH_NEW RAMP_SEPT 17_NS","oid":"934773555","speedLimit":2.7777777},"geometry":{"type":"Polygon","coordinates":[[[-121.033902148617,50.4443402844906],[-121.034413669968,50.4442042132301],[-121.035774111084,50.4443192536617],[-121.036276052857,50.4444736594911],[-121.035931047131,50.4447857066618],[-121.034621884939,50.444610899131],[-121.03434421802,50.4446011027192],[-121.033902148617,50.4443402844906]]]}},{"type":"Feature","id":"936169885","properties":{"name":"SP_10KPH_%TR_24shl_loadplan_Sept_17_NS","oid":"936169885","speedLimit":2.7777777},"geometry":{"type":"Polygon","coordinates":[[[-121.039051454164,50.4535939390848],[-121.038510489694,50.4536892069422],[-121.038691656441,50.4545086902668],[-121.039188385795,50.4544623145928],[-121.039180355854,50.4543766633965],[-121.039098929431,50.4539211751875],[-121.039076389245,50.4537567931958],[-121.039051454164,50.4535939390848]]]}},{"type":"Feature","id":"936513295","properties":{"name":"SP_30KPH_%TR_1635_FLATS_SEP_17_NS","oid":"936513295","speedLimit":8.333333},"geometry":{"type":"Polygon","coordinates":[[[-121.017434429426,50.4574539949424],[-121.015227604317,50.4585171303062],[-121.01449885192,50.4578798242901],[-121.016652425839,50.456926965965],[-121.017434429426,50.4574539949424]]]}},{"type":"Feature","id":"937786749","properties":{"name":"SP_30KPH_%TR_24SH_Loaded_LANE_SEP_17_NS","oid":"937786749","speedLimit":8.333333},"geometry":{"type":"Polygon","coordinates":[[[-121.03840891798,50.451085428548],[-121.038211832226,50.4510393225],[-121.038252404561,50.4516609003321],[-121.038331717842,50.452788296562],[-121.038494429811,50.4527610643349],[-121.038402437676,50.4516753702614],[-121.03840891798,50.451085428548]]]}},{"type":"Feature","id":"937793793","properties":{"name":"SP_10KPH_%TR_21SH_LOAD_AREA_SEP_17_NS","oid":"937793793","speedLimit":2.7777777},"geometry":{"type":"Polygon","coordinates":[[[-121.039609464649,50.4523983274739],[-121.039001865754,50.4524050681242],[-121.039057511839,50.4534374661227],[-121.039657221669,50.4534069983834],[-121.039617353714,50.4529280527114],[-121.039609464649,50.4523983274739]]]}},{"type":"Feature","id":"938065675","properties":{"name":"SP_8KPH_CR01_YARD_RUTIING_SEP_17_NS","oid":"938065675","speedLimit":2.2222223},"geometry":{"type":"Polygon","coordinates":[[[-121.034288290182,50.4648013936344],[-121.034098107361,50.4648581948475],[-121.033939903429,50.4649071769063],[-121.033828470383,50.4650051410238],[-121.034043306533,50.4650690423886],[-121.033963288872,50.4650115221728],[-121.034241660172,50.4648883030855],[-121.034318296805,50.4649375547702],[-121.034288290182,50.4648013936344]]]}},{"type":"Feature","id":"938165680","properties":{"name":"SP_22SH_10kph_%TR_Sept17_NS","oid":"938165680","speedLimit":2.7777777},"geometry":{"type":"Polygon","coordinates":[[[-121.034630337509,50.4470558678043],[-121.035054233886,50.4472507175354],[-121.035496021536,50.4474474546485],[-121.035794115499,50.4469123368908],[-121.034870531368,50.4467191947912],[-121.034630337509,50.4470558678043]]]}},{"type":"Feature","id":"938217281","properties":{"name":"SP_25KPH_CRUSHER_YARD_WEATHER_SEPT_17_NS","oid":"938217281","speedLimit":6.9444447},"geometry":{"type":"Polygon","coordinates":[[[-121.036882383866,50.4639827191878],[-121.03724105458,50.4642847003208],[-121.034291107706,50.4654993655031],[-121.032878542409,50.4644545647081],[-121.036882383866,50.4639827191878]]]}},{"type":"Feature","id":"939481274","properties":{"name":"SP_10KPH_%TR_LRNX_PIT_BOTTOM_SEP_17_NS1","oid":"939481274","speedLimit":2.7777777},"geometry":{"type":"Polygon","coordinates":[[[-121.03405443575,50.4452364314779],[-121.034061479558,50.4449962845769],[-121.033302016158,50.4447664733397],[-121.033468250032,50.4448877151696],[-121.033357098738,50.4469938538217],[-121.033814664519,50.4469741711228],[-121.03366294089,50.4469200661698],[-121.03405443575,50.4452364314779]]]}},{"type":"Feature","id":"939584863","properties":{"name":"SP_40KPH_%TR_HMT EMPTY2_ROUGH_SECTION_SEPT 17_NS","oid":"939584863","speedLimit":11.111111},"geometry":{"type":"Polygon","coordinates":[[[-121.005961192877,50.43017008945],[-121.005669720094,50.4303973841778],[-121.005922311056,50.4302830627489],[-121.006321694981,50.430557092652],[-121.006714457726,50.4308738133403],[-121.007137649723,50.4312429313502],[-121.007265001775,50.4315321501854],[-121.007411794738,50.4321903971551],[-121.007318957346,50.4325924994137],[-121.007053405777,50.4326145188713],[-121.007547740236,50.4326902837806],[-121.007644944789,50.4323019324485],[-121.007586622057,50.4319287700484],[-121.007418275041,50.4313516805082],[-121.007305996739,50.4311740868419],[-121.007118208812,50.4309840005037],[-121.006684310227,50.4306466084879],[-121.005961192877,50.43017008945]]]}},{"type":"Feature","id":"939585115","properties":{"name":"SP_40KPH_%TR_HMT EMPTY22_ROUGH_SECTION_SEPT 17_NS","oid":"939585115","speedLimit":11.111111},"geometry":{"type":"Polygon","coordinates":[[[-121.00751970588,50.4327113146095],[-121.007046221092,50.4338271169209],[-121.006949580044,50.4340181918878],[-121.006753198671,50.434299681444],[-121.005790169214,50.43529010766],[-121.005290904089,50.4350887869046],[-121.005661267524,50.4351667986973],[-121.00661147725,50.4341291879293],[-121.006756297947,50.4339277772986],[-121.006962540651,50.4334119827384],[-121.007226542582,50.4327832148793],[-121.00703016121,50.4326537943937],[-121.00751970588,50.4327113146095]]]}},{"type":"Feature","id":"940771585","properties":{"name":"SP_15KPH_%TR_1660_HMT_SEPT17_NS","oid":"940771585","speedLimit":4.1666665},"geometry":{"type":"Polygon","coordinates":[[[-121.002710475393,50.4281185051276],[-121.002605240898,50.42771136985],[-121.002233609578,50.4276979784248],[-121.002507050212,50.427796391919],[-121.002535084569,50.4281140113607],[-121.002675397228,50.428082644868],[-121.002710475393,50.4281185051276]]]}},{"type":"Feature","id":"940772885","properties":{"name":"SP_11KPH_%TR_1654_HMT_SEPT17_NS","oid":"940772885","speedLimit":3.0555556},"geometry":{"type":"Polygon","coordinates":[[[-121.0040638727,50.4264900538928],[-121.004414513473,50.4266376291964],[-121.004610753969,50.4261544593836],[-121.004379435308,50.4258055633246],[-121.003972725822,50.4255504971176],[-121.003537841104,50.4259173682441],[-121.003839456971,50.4258323461751],[-121.004183053935,50.426109791341],[-121.00414797577,50.4264900538928],[-121.0040638727,50.4264900538928]]]}},{"type":"Feature","id":"940778315","properties":{"name":"SP_25KPH_%TR_HMT_SPILLING_ROCK_IN_CORNER_SEPT17_NS","oid":"940778315","speedLimit":6.9444447},"geometry":{"type":"Polygon","coordinates":[[[-121.004786144793,50.4367080708551],[-121.004772057177,50.4370436653642],[-121.004989429098,50.4372762627369],[-121.005122697949,50.4371688617089],[-121.004891379288,50.4369362643362],[-121.00488433548,50.4367573225399],[-121.005199898087,50.4367975866909],[-121.004800091533,50.4366991731967],[-121.004786144793,50.4367080708551]]]}}]}