{"type":"FeatureCollection","features":[{"type":"Feature","id":"702602533","properties":{"name":"iSP_4KPH_%TR_CR01_SLOW BUMP","oid":"702602533","speedLimit":1.1111112},"geometry":{"type":"Polygon","coordinates":[[[-121.033358664277,50.4648077518539],[-121.033653406711,50.464690735441],[-121.033696800913,50.4647314485247],[-121.033368949266,50.4648695854116],[-121.033358664277,50.4648077518539]]]}},{"type":"Feature","id":"707947583","properties":{"name":"iSP_22KPH_%TR_Permission Gate 1 from west dump_Jun","oid":"707947583","speedLimit":6.111111},"geometry":{"type":"Polygon","coordinates":[[[-121.038628241971,50.4619778779719],[-121.038854934407,50.4617993874987],[-121.038139916312,50.4614081644223],[-121.037992263314,50.4616708671681],[-121.038191763929,50.4615667926626],[-121.038666705013,50.4618459424157],[-121.038628241971,50.4619778779719]]]}},{"type":"Feature","id":"715433879","properties":{"name":"SP_25KPH_%TR_Gate_1_INT-1320_AUGUST 20_DS","oid":"715433879","speedLimit":6.9444447},"geometry":{"type":"Polygon","coordinates":[[[-121.043618434269,50.4514240220922],[-121.043056423001,50.4502924140619],[-121.042828039882,50.4494409444028],[-121.042730966489,50.4489824953072],[-121.042718286365,50.448952746895],[-121.042593598481,50.4489747661125],[-121.042624312558,50.4490554732852],[-121.042687572287,50.4493154798002],[-121.042875519901,50.4500806700766],[-121.043109115961,50.4506633255337],[-121.043251415128,50.4509333081024],[-121.043476135101,50.4513982281517],[-121.043920502997,50.4525746834861],[-121.04374664441,50.4526183624236],[-121.044031242745,50.4525679429093],[-121.043760733436,50.4518554190062],[-121.043618434269,50.4514240220922]]]}},{"type":"Feature","id":"742345972","properties":{"name":"iSP_4KPH_%TR_CR01_PITSIDE_SLOW BUMP","oid":"742345972","speedLimit":1.1111112},"geometry":{"type":"Polygon","coordinates":[[[-121.033398536222,50.4648827070677],[-121.03370581789,50.4647442106834],[-121.033755974824,50.4647762958289],[-121.033474476075,50.4649182074388],[-121.033398536222,50.4648827070677]]]}},{"type":"Feature","id":"776427243","properties":{"name":"iSP_7KPH_%TR_CR1_PermissionBlocker_DO_NOT_DELETE","oid":"776427243","speedLimit":1.9444444},"geometry":{"type":"Polygon","coordinates":[[[-121.034099747071,50.465212725707],[-121.03405128082,50.4652330373117],[-121.03403014728,50.4652744693903],[-121.034115808561,50.4652253979914],[-121.034099747071,50.465212725707]]]}},{"type":"Feature","id":"794004438","properties":{"name":"iSP_11KPH_%TR_LOWER_FUEL_BAY","oid":"794004438","speedLimit":3.0555556},"geometry":{"type":"Polygon","coordinates":[[[-121.036776521217,50.4606953708961],[-121.036778634571,50.4607252091827],[-121.036748906725,50.4606707453223],[-121.037125083733,50.4605990255853],[-121.037535074404,50.4605559757683],[-121.037542823369,50.460581320337],[-121.036944321523,50.4606501640945],[-121.036776521217,50.4606953708961]]]}},{"type":"Feature","id":"801543391","properties":{"name":"iSP_4KPH_%TR_CR1_PermissionBlocker_DO_NOT_DELETE_","oid":"801543391","speedLimit":1.1111112},"geometry":{"type":"Polygon","coordinates":[[[-121.033155218734,50.4645232096393],[-121.033154373392,50.4644737787429],[-121.033175929603,50.4644317175438],[-121.033107879605,50.4644593089714],[-121.033155218734,50.4645232096393]]]}},{"type":"Feature","id":"806473874","properties":{"name":"iSP_4KPH_%TR_Permission Blocker - DO NOT DELETE","oid":"806473874","speedLimit":1.1111112},"geometry":{"type":"Polygon","coordinates":[[[-121.02271919502,50.4815449635021],[-121.022686085808,50.4815426267688],[-121.022678477734,50.4815712966888],[-121.022700597505,50.481572375181],[-121.022704683323,50.4815482888533],[-121.02271919502,50.4815449635021]]]}},{"type":"Feature","id":"824566967","properties":{"name":"iSP_4Cr_3KPH","oid":"824566967","speedLimit":0.8333333},"geometry":{"type":"Polygon","coordinates":[[[-121.023302058047,50.4810680901634],[-121.023281910739,50.4810680901634],[-121.023279233824,50.4811861850686],[-121.023304312291,50.4811854660737],[-121.023302058047,50.4810680901634]]]}},{"type":"Feature","id":"826307302","properties":{"name":"iSP_4KPH_TR%_CRUSHER POCKETS","oid":"826307302","speedLimit":1.1111112},"geometry":{"type":"Polygon","coordinates":[[[-121.023297267778,50.4813212662273],[-121.023336717052,50.4814769286138],[-121.023541430607,50.481437473771],[-121.023460418705,50.4811886116762],[-121.023052118717,50.4811893306711],[-121.023057472547,50.4813600020752],[-121.02328233341,50.4813260295682],[-121.023297267778,50.4813212662273]]]}},{"type":"Feature","id":"827282342","properties":{"name":"SP_25KPH_%TR_1230 to 1215 ramp2_AUG 20_DS","oid":"827282342","speedLimit":6.9444447},"geometry":{"type":"Polygon","coordinates":[[[-121.036954606512,50.4451703845765],[-121.036721996684,50.4452458790364],[-121.036892755686,50.4451111573751],[-121.036959819452,50.4450453693458],[-121.03844705709,50.446347379157],[-121.039043727362,50.4467294350491],[-121.038818302938,50.4468458223415],[-121.03885141215,50.4467844381556],[-121.038763496625,50.4467103816854],[-121.038373230591,50.4464324002989],[-121.03784686456,50.4460421658403],[-121.036954606512,50.4451703845765]]]}},{"type":"Feature","id":"834847043","properties":{"name":"SP_25KPH_%TR_Gate_1_INT-1320_AUG 20_DS.","oid":"834847043","speedLimit":6.9444447},"geometry":{"type":"Polygon","coordinates":[[[-121.043753688923,50.4526228561415],[-121.043934592024,50.4526251030004],[-121.044156635081,50.4532810959329],[-121.044371915406,50.4538821756332],[-121.044391217373,50.4541500012173],[-121.04437374698,50.4542832848889],[-121.044189321623,50.4543000913937],[-121.044487586314,50.4543129434267],[-121.044521259087,50.4540659686934],[-121.044495757949,50.453773158038],[-121.04413479709,50.4528357684935],[-121.044032933429,50.4525791772039],[-121.043753688923,50.4526228561415]]]}},{"type":"Feature","id":"834888244","properties":{"name":"SP_25KPH_%TR_Gate_1_INT-1320_2_AUG 20_DS","oid":"834888244","speedLimit":6.9444447},"geometry":{"type":"Polygon","coordinates":[[[-121.044192702989,50.4543057534782],[-121.044356135697,50.4543393664877],[-121.044259484975,50.4547157602953],[-121.044180445536,50.4554160612858],[-121.044011658998,50.4560736719567],[-121.043873868319,50.4566874239413],[-121.043790602173,50.456952103923],[-121.043618434269,50.4572826618084],[-121.043174066373,50.4577834417261],[-121.042974283977,50.4578698109833],[-121.042744491955,50.4578738553294],[-121.043084460164,50.4580097453573],[-121.043386669783,50.4577272702529],[-121.043595046485,50.4575024944858],[-121.043760451656,50.4572679224138],[-121.043869641611,50.4570619303873],[-121.04397502753,50.456798598521],[-121.044042373076,50.4565661834336],[-121.044125075662,50.4561909579927],[-121.044241451021,50.4557237910845],[-121.044361348636,50.4549835858794],[-121.044465043871,50.4543785517074],[-121.044487586314,50.4543129434267],[-121.044192702989,50.4543057534782]]]}},{"type":"Feature","id":"855316169","properties":{"name":"SP_30KPH_TR%_CRUSHER YARD EMPTY_SEP_1_NS","oid":"855316169","speedLimit":8.333333},"geometry":{"type":"Polygon","coordinates":[[[-121.037911955863,50.4622347388845],[-121.037770502037,50.46211934021],[-121.037595938998,50.4622031929852],[-121.037545500284,50.4622374351152],[-121.037608619122,50.4622263805693],[-121.03790505224,50.4624611323901],[-121.037719358871,50.462513708889],[-121.038122586809,50.4625062493173],[-121.038120896126,50.4624940264048],[-121.037911955863,50.4622347388845]]]}},{"type":"Feature","id":"859339791","properties":{"name":"SP_25KPH_TR%_1230_to_1215_Ramp1_AUG 28_DS","oid":"859339791","speedLimit":6.9444447},"geometry":{"type":"Polygon","coordinates":[[[-121.040703414685,50.4473790469022],[-121.040681435803,50.4475608627266],[-121.040630292637,50.4474349487523],[-121.040162396067,50.447414727022],[-121.039901608186,50.4473929774275],[-121.039487390807,50.4472142173313],[-121.039190112348,50.447009034174],[-121.038965955936,50.4468504958081],[-121.038844085857,50.4468598427412],[-121.039046263387,50.4467556783614],[-121.039455690497,50.4470183811072],[-121.039718873512,50.4471737738706],[-121.040160000932,50.4472748825223],[-121.04055223943,50.447309034778],[-121.040688762097,50.4473277286443],[-121.040703414685,50.4473790469022]]]}},{"type":"Feature","id":"872232587","properties":{"name":"SP_25KPH_%TR_Gate_1_INT-1320_AUG 20_DS","oid":"872232587","speedLimit":6.9444447},"geometry":{"type":"Polygon","coordinates":[[[-121.042510895895,50.4485416615856],[-121.042151766609,50.4481518764989],[-121.041860687322,50.4478703900124],[-121.041615538261,50.4476768905216],[-121.041315301106,50.4475048710021],[-121.041100866122,50.4474168840065],[-121.04096166654,50.4473765304202],[-121.040853462817,50.4473529833386],[-121.040731451847,50.4473529833386],[-121.040704260026,50.4475488195628],[-121.040832470167,50.4474397120932],[-121.041201602662,50.4475418093629],[-121.041507193647,50.4476796766267],[-121.042193470128,50.4484067601756],[-121.042294206667,50.4484934889302],[-121.042067655121,50.4485994507972],[-121.042510895895,50.4485416615856]]]}},{"type":"Feature","id":"883050998","properties":{"name":"iSP_22kph_%TR_4CR_Brake_Temp_CTRL_NOREMOVE","oid":"883050998","speedLimit":6.111111},"geometry":{"type":"Polygon","coordinates":[[[-121.031798868152,50.4745588499761],[-121.032188147955,50.4743122347402],[-121.032489794012,50.4745745779886],[-121.03279144007,50.4748019601121],[-121.032969243584,50.4748843748975],[-121.033178042957,50.4749345247888],[-121.033461936841,50.4749593301113],[-121.033665805055,50.4749217626301],[-121.033826983518,50.47486235568],[-121.033918139519,50.4748103184273],[-121.034007463947,50.4747471367542],[-121.034057902662,50.474657981392],[-121.034052126161,50.4745477954302],[-121.034055930199,50.4744834453905],[-121.033993797592,50.4743794607593],[-121.033875449769,50.4742593886182],[-121.033508571519,50.4739374586711],[-121.033060258695,50.4735598066226],[-121.032946982922,50.47342526471],[-121.032822013257,50.4732207106732],[-121.032605183139,50.4728147482022],[-121.032251689464,50.4722088152867],[-121.032486694426,50.4721559691647],[-121.032429633869,50.4722054899355],[-121.032902179818,50.4730486911538],[-121.0330413794,50.4733094166637],[-121.033249192541,50.4735467748408],[-121.033742167578,50.4739614551245],[-121.034097211046,50.4742709824103],[-121.034202596964,50.4743942900282],[-121.034255289924,50.4744615160474],[-121.034262334437,50.4745926427344],[-121.03423739686,50.4746786524941],[-121.034182872327,50.4747914448123],[-121.034085376264,50.4748756570849],[-121.033972523162,50.4749374906426],[-121.033789929378,50.4750159509563],[-121.03353040951,50.4750642134861],[-121.033262436226,50.4750678983347],[-121.033070825465,50.4750261067587],[-121.032807078889,50.4749163701686],[-121.032656326305,50.4748349440011],[-121.032494725171,50.4747051654295],[-121.032144190192,50.4744128940202],[-121.031798868152,50.4745588499761]]]}},{"type":"Feature","id":"883053336","properties":{"name":"iSP_22kph_%TR_Brake_Temp_CTRL_NOREMOVE","oid":"883053336","speedLimit":6.111111},"geometry":{"type":"Polygon","coordinates":[[[-121.032465419996,50.4721450943675],[-121.032250562342,50.4722253521684],[-121.031487923337,50.4710081837502],[-121.030816017663,50.4699232205113],[-121.030660756591,50.4696600683937],[-121.030595947069,50.4694575814672],[-121.030549594172,50.4692566224047],[-121.030595947069,50.468972799185],[-121.030722184747,50.4686241765538],[-121.030883926771,50.4683754043333],[-121.031088358546,50.4680976925699],[-121.031687705733,50.4675364272098],[-121.032431606333,50.4668935559335],[-121.032787917813,50.4665560777226],[-121.033147047099,50.4662222843603],[-121.033483915722,50.465870606001],[-121.033778939937,50.4660339975822],[-121.033586906506,50.4659931946241],[-121.032918804869,50.4666519736616],[-121.032554039973,50.4669911594853],[-121.032178003856,50.4673076070966],[-121.031773789685,50.4676682728917],[-121.031381410297,50.4680343311481],[-121.031146546225,50.4682862489711],[-121.031008191985,50.4684697724083],[-121.03090449675,50.4686543743378],[-121.030827993336,50.4688529067926],[-121.030767128741,50.4691911938727],[-121.030775863938,50.4694005112504],[-121.030873078221,50.4696302301071],[-121.03102707128,50.4699349940521],[-121.03132998535,50.4704036888243],[-121.031530049527,50.4707108793769],[-121.03174969745,50.4710827794666],[-121.032145458204,50.471728706471],[-121.032380744947,50.4721450044931],[-121.032465419996,50.4721450943675]]]}},{"type":"Feature","id":"883059532","properties":{"name":"iSP_22kph_%TR_Brake_CTRL_NOREMOVE","oid":"883059532","speedLimit":6.111111},"geometry":{"type":"Polygon","coordinates":[[[-121.027261638056,50.4773218573364],[-121.027029450899,50.4772096941387],[-121.027333914762,50.4769439356648],[-121.027715868271,50.4766323412687],[-121.028032589587,50.4763226342342],[-121.028189823122,50.4761686794605],[-121.028620665553,50.4756922554935],[-121.028906672791,50.4753256579909],[-121.029263266052,50.4748875205],[-121.029472065425,50.4746566332766],[-121.029690868006,50.4745403358585],[-121.029800903303,50.4744881188571],[-121.029951655887,50.47459255286],[-121.029788082289,50.474541953597],[-121.029555472462,50.4747914448123],[-121.029251290379,50.4751729614582],[-121.029072359743,50.4754779051518],[-121.028852570929,50.4757746702789],[-121.028695478284,50.4759746407235],[-121.028408343924,50.476270507107],[-121.028041043003,50.4765698785905],[-121.027243322322,50.477219310695],[-121.027261638056,50.4773218573364]]]}},{"type":"Feature","id":"903864124","properties":{"name":"SP_15KPH_%TR_OLD_GARBAGEDUMP_SEP_1_NS","oid":"903864124","speedLimit":4.1666665},"geometry":{"type":"Polygon","coordinates":[[[-121.042484831196,50.4669869353905],[-121.042131619302,50.4673286376962],[-121.042023133797,50.4669790264471],[-121.041685983393,50.4668097031583],[-121.041834481733,50.466710212245],[-121.042484831196,50.4669869353905]]]}},{"type":"Feature","id":"910445950","properties":{"name":"SP_22KPH_%TR_1635_FLATS_SEP_1_NS","oid":"910445950","speedLimit":6.111111},"geometry":{"type":"Polygon","coordinates":[[[-121.018916144096,50.4576034233889],[-121.015248066045,50.4587004297916],[-121.014497402713,50.4578796072882],[-121.017900747955,50.4565670821771],[-121.018228740492,50.4542746569506],[-121.018440498561,50.4540100668433],[-121.019219339946,50.4539290001732],[-121.019244700194,50.4568507256481],[-121.019157348229,50.4570730748076],[-121.019195388601,50.4574050706827],[-121.018916144096,50.4576034233889]]]}},{"type":"Feature","id":"917291012","properties":{"name":"SP_20KPH_%TR_CORNER_RUTS_SEP_1_NS","oid":"917291012","speedLimit":5.5555553},"geometry":{"type":"Polygon","coordinates":[[[-121.040609863549,50.4662212957424],[-121.040684112718,50.4661071553089],[-121.040422197716,50.4659261483537],[-121.040120410768,50.4658980176799],[-121.040016292862,50.4663104511046],[-121.039933308496,50.4664857959753],[-121.039994454871,50.466819948835],[-121.040666642325,50.466739151788],[-121.040548717174,50.4666222252494],[-121.040531246781,50.4663772277519],[-121.040609863549,50.4662212957424]]]}},{"type":"Feature","id":"921770139","properties":{"name":"SP_25KPH HIGHMONT_SEPT 2_DS","oid":"921770139","speedLimit":6.9444447},"geometry":{"type":"Polygon","coordinates":[[[-121.003358477467,50.4283910218548],[-121.002159783091,50.4285132509804],[-121.002603446536,50.4286544435954],[-121.002696293221,50.4286974035381],[-121.003358477467,50.4283910218548]]]}},{"type":"Feature","id":"922262468","properties":{"name":"SP_20kph_HMT_DUMP_SEP_1_NS","oid":"922262468","speedLimit":5.5555553},"geometry":{"type":"Polygon","coordinates":[[[-121.012500987657,50.4364265083743],[-121.012481122129,50.4374171934126],[-121.016363494273,50.4384077885766],[-121.017179812469,50.4369599126837],[-121.016522841163,50.4359057763493],[-121.014770729827,50.4353088308694],[-121.012899284436,50.4352072728459],[-121.012500987657,50.4364265083743]]]}},{"type":"Feature","id":"923351007","properties":{"name":"iSP_17KPH_PERMISSIONS_AUG 18_NS","oid":"923351007","speedLimit":4.7222223},"geometry":{"type":"Polygon","coordinates":[[[-121.038853243724,50.4608771867205],[-121.03887268658,50.461134766628],[-121.038783362152,50.4608894995075],[-121.038538635762,50.4608894995075],[-121.038534831725,50.4608300925574],[-121.038880435545,50.4608226329858],[-121.038853243724,50.4608771867205]]]}},{"type":"Feature","id":"926367691","properties":{"name":"SP_15KPH_%TR_24SH_SEP_1_NS","oid":"926367691","speedLimit":4.1666665},"geometry":{"type":"Polygon","coordinates":[[[-121.038600768369,50.4501822281001],[-121.037733307007,50.4501786331258],[-121.038244879559,50.4520114408901],[-121.038476784936,50.4519885229291],[-121.039663644528,50.4519356768071],[-121.039537688632,50.4510982275477],[-121.038600768369,50.4501822281001]]]}},{"type":"Feature","id":"929009157","properties":{"name":"iSP_22kph_Long_Single_Lane_Aug30","oid":"929009157","speedLimit":6.111111},"geometry":{"type":"Polygon","coordinates":[[[-121.005868437539,50.4378882249182],[-121.004809083636,50.4381071588521],[-121.005174552983,50.4381975724553],[-121.007934875056,50.4431705003823],[-121.008523655474,50.4445348829974],[-121.008210738195,50.446509692246],[-121.007832729614,50.4466801839014],[-121.008934209706,50.4466469303893],[-121.008823469958,50.4465929159006],[-121.009403515179,50.4448176277249],[-121.008764577827,50.4430684031126],[-121.008262867593,50.4415401795445],[-121.007259306235,50.4401562043196],[-121.006439606673,50.4389840629543],[-121.005689366012,50.4380215085897],[-121.005868437539,50.4378882249182]]]}},{"type":"Feature","id":"930116666","properties":{"name":"SP_9023 Rough_15KM_SEP_1_NS","oid":"930116666","speedLimit":4.1666665},"geometry":{"type":"Polygon","coordinates":[[[-121.043597441619,50.4685541644296],[-121.043297204464,50.4689177960784],[-121.042548654486,50.4684624925854],[-121.042344081821,50.4680405324788],[-121.043035993913,50.4679072488072],[-121.043597441619,50.4685541644296]]]}},{"type":"Feature","id":"930772612","properties":{"name":"New Zone4734","oid":"930772612","speedLimit":4.7222223},"geometry":{"type":"Polygon","coordinates":[[[-121.0349922869,50.4649748282838],[-121.034842520548,50.4647738692213],[-121.034440137951,50.4649791422529],[-121.034587650059,50.4651103588143],[-121.0349922869,50.4649748282838]]]}},{"type":"Feature","id":"930976872","properties":{"name":"DWIGHT\u0027S TRACTION ZONE","oid":"930976872","speedLimit":3.3333333},"geometry":{"type":"Polygon","coordinates":[[[-121.03742109418,50.4477202099617],[-121.037370796355,50.4478713786304],[-121.036651692442,50.4476395926634],[-121.036179569164,50.4474713478669],[-121.035602059967,50.4470799450418],[-121.03575224899,50.4469531323239],[-121.03742109418,50.4477202099617]]]}},{"type":"Feature","id":"931036868","properties":{"name":"SP_25KPH_%TR_Aug2_NS","oid":"931036868","speedLimit":6.9444447},"geometry":{"type":"Polygon","coordinates":[[[-121.043547002904,50.45139076858],[-121.042560489268,50.4485693428876],[-121.042023133797,50.4486231776275],[-121.042494975295,50.4486952568619],[-121.043330454567,50.4513639860216],[-121.043036557474,50.4515310624514],[-121.043547002904,50.45139076858]]]}}]}