{"type":"FeatureCollection","features":[{"type":"Feature","id":"702602533","properties":{"name":"iSP_4KPH_%TR_CR01_SLOW BUMP","oid":"702602533","speedLimit":1.1111112},"geometry":{"type":"Polygon","coordinates":[[[-121.033359702756,50.4648079282247],[-121.033654439009,50.4646909105608],[-121.0336978323,50.4647316240798],[-121.03336998753,50.4648697624434],[-121.033359702756,50.4648079282247]]]}},{"type":"Feature","id":"707947583","properties":{"name":"iSP_25KPH_%TR_Permission Gate 1 from west dump_Jun","oid":"707947583","speedLimit":6.9444447},"geometry":{"type":"Polygon","coordinates":[[[-121.038629169926,50.46197802409],[-121.038855857608,50.4617995317087],[-121.03814085451,50.4614083044499],[-121.037993204609,50.4616710100041],[-121.03819270104,50.461566934386],[-121.038667632162,50.4618460871234],[-121.038629169926,50.46197802409]]]}},{"type":"Feature","id":"742345972","properties":{"name":"iSP_4KPH_%TR_CR01_PITSIDE_SLOW BUMP","oid":"742345972","speedLimit":1.1111112},"geometry":{"type":"Polygon","coordinates":[[[-121.033399573865,50.4648828842398],[-121.033706849088,50.4647443863749],[-121.033757004971,50.4647764718634],[-121.033475512125,50.4649183849904],[-121.033399573865,50.4648828842398]]]}},{"type":"Feature","id":"776427243","properties":{"name":"iSP_7KPH_%TR_CR1_PermissionBlocker_DO_NOT_DELETE","oid":"776427243","speedLimit":1.9444444},"geometry":{"type":"Polygon","coordinates":[[[-121.034100770007,50.4652129064071],[-121.034052304772,50.465233218229],[-121.034031171676,50.4652746507505],[-121.03411683116,50.4652255788269],[-121.034100770007,50.4652129064071]]]}},{"type":"Feature","id":"794004438","properties":{"name":"iSP_11KPH_%TR_LOWER_FUEL_BAY","oid":"794004438","speedLimit":3.0555556},"geometry":{"type":"Polygon","coordinates":[[[-121.036777488011,50.4606955033036],[-121.03677960132,50.4607253419092],[-121.036749874098,50.4606708774665],[-121.037126043216,50.4605991569629],[-121.037536025288,50.4605561066856],[-121.03754377409,50.4605814515252],[-121.036945284797,50.4606502960187],[-121.036777488011,50.4606955033036]]]}},{"type":"Feature","id":"801543391","properties":{"name":"iSP_4KPH_%TR_CR1_PermissionBlocker_DO_NOT_DELETE_","oid":"801543391","speedLimit":1.1111112},"geometry":{"type":"Polygon","coordinates":[[[-121.033156261481,50.4645233829682],[-121.033155416157,50.4644739515434],[-121.033176971915,50.4644318898946],[-121.033108923344,50.4644594816172],[-121.033156261481,50.4645233829682]]]}},{"type":"Feature","id":"806473874","properties":{"name":"iSP_4KPH_%TR_Permission Blocker - DO NOT DELETE","oid":"806473874","speedLimit":1.1111112},"geometry":{"type":"Polygon","coordinates":[[[-121.022720456651,50.4815453188014],[-121.022687348134,50.4815429820431],[-121.022679740219,50.4815716522695],[-121.022701859527,50.4815727307733],[-121.022705945259,50.4815486441881],[-121.022720456651,50.4815453188014]]]}},{"type":"Feature","id":"824566967","properties":{"name":"iSP_4Cr_3KPH","oid":"824566967","speedLimit":0.8333333},"geometry":{"type":"Polygon","coordinates":[[[-121.023303307453,50.4810684403646],[-121.023283160568,50.4810684403646],[-121.023280483709,50.4811865365323],[-121.02330556165,50.4811858175298],[-121.023303307453,50.4810684403646]]]}},{"type":"Feature","id":"826307302","properties":{"name":"iSP_4KPH_TR%_CRUSHER POCKETS","oid":"826307302","speedLimit":1.1111112},"geometry":{"type":"Polygon","coordinates":[[[-121.023298517285,50.4813216191351],[-121.023337965731,50.4814772831857],[-121.023542674993,50.4814378279212],[-121.02346166479,50.4811889631659],[-121.023053373365,50.4811896821685],[-121.023058727083,50.4813603553972],[-121.02328358323,50.481326382527],[-121.023298517285,50.4813216191351]]]}},{"type":"Feature","id":"835348611","properties":{"name":"SP_35KPH_%TR_switchback to 1 gate_SEP_6_NS","oid":"835348611","speedLimit":9.722222},"geometry":{"type":"Polygon","coordinates":[[[-121.039920965672,50.4634034466319],[-121.039548741399,50.4634579110745],[-121.039801915895,50.4633742371536],[-121.039545641878,50.4629227934318],[-121.039365728783,50.4625823457276],[-121.039179616647,50.4622612212167],[-121.038987446356,50.4620180186065],[-121.038746529056,50.4618370097163],[-121.03856351644,50.461730058088],[-121.038077314333,50.4614748121851],[-121.038039979196,50.4615169637092],[-121.037959391654,50.4615574076023],[-121.038034202816,50.4613738822031],[-121.038145644678,50.4613856558698],[-121.038484196884,50.4615704395234],[-121.038867973917,50.4617908138029],[-121.039055494927,50.4619262559069],[-121.039240057303,50.4621305425045],[-121.039454206014,50.4625356105623],[-121.039582272579,50.4627535582082],[-121.03975922704,50.4630610216707],[-121.0398629201,50.4632594663726],[-121.039944916515,50.4633239069756],[-121.039920965672,50.4634034466319]]]}},{"type":"Feature","id":"859384545","properties":{"name":"SP_30KPH_MAINT_CREW_L1590_ROUGH_SEP_6_NS","oid":"859384545","speedLimit":8.333333},"geometry":{"type":"Polygon","coordinates":[[[-121.013973608895,50.4518293031931],[-121.013917676633,50.4511529914259],[-121.01383821619,50.4497616316295],[-121.012656594321,50.4498957256038],[-121.013142373766,50.4500387172346],[-121.013401747304,50.451796768328],[-121.013225215504,50.4523054626273],[-121.012545434233,50.4524639128127],[-121.013761291719,50.452443061739],[-121.013973608895,50.4518293031931]]]}},{"type":"Feature","id":"875953603","properties":{"name":"SP_35_KPH_%TR_CR01_YARD_LOADED_Sept_06_NS","oid":"875953603","speedLimit":9.722222},"geometry":{"type":"Polygon","coordinates":[[[-121.038111549949,50.4622577160793],[-121.038365428882,50.462896010587],[-121.038316400098,50.4633433200442],[-121.038102251387,50.4637140557306],[-121.037626193166,50.4639750536537],[-121.037928959996,50.4642050445922],[-121.037829634442,50.4640213394424],[-121.038275683666,50.4637269977763],[-121.038557035624,50.4631644681616],[-121.038356552982,50.4621661331304],[-121.038111549949,50.4622577160793]]]}},{"type":"Feature","id":"878230085","properties":{"name":"SP_35KPH_TR%_PUNCH_OUT_L1590_DMP_Sep 6_NS","oid":"878230085","speedLimit":9.722222},"geometry":{"type":"Polygon","coordinates":[[[-121.013763264141,50.4533975376151],[-121.013625758126,50.4529077171325],[-121.013786087885,50.452512894861],[-121.0130986987,50.4524617558051],[-121.013066294618,50.4528629592242],[-121.013205773055,50.4533674293836],[-121.013611105846,50.4545820044296],[-121.013329753888,50.4549546274976],[-121.013045020635,50.4549500438564],[-121.013784115463,50.4551889324514],[-121.014084205433,50.4546990220935],[-121.013992487795,50.4541360431022],[-121.013763264141,50.4533975376151]]]}},{"type":"Feature","id":"883050998","properties":{"name":"iSP_22kph_%TR_4CR_Brake_Temp_CTRL_NOREMOVE","oid":"883050998","speedLimit":6.111111},"geometry":{"type":"Polygon","coordinates":[[[-121.031799939347,50.4745591305906],[-121.032189210985,50.4743125127183],[-121.032490850715,50.4745748587712],[-121.032792490446,50.4748022433255],[-121.032970290231,50.474884658992],[-121.033179085225,50.4749348094194],[-121.033462973155,50.4749596150071],[-121.033666837092,50.4749220471242],[-121.033828012175,50.4748626395391],[-121.033919166265,50.4748106017301],[-121.034008488819,50.4747474193816],[-121.034058926476,50.4746582630662],[-121.034053150096,50.4745480759265],[-121.034056954054,50.4744837251989],[-121.03399482275,50.4743797394561],[-121.03387647741,50.4742596660314],[-121.033509606854,50.4739377326426],[-121.033061303434,50.4735600765568],[-121.032948030036,50.473425533206],[-121.032823062992,50.4732209769824],[-121.032606237422,50.4728150101715],[-121.032252751161,50.4722090707782],[-121.032487751195,50.4721562240913],[-121.032430691834,50.4722057453914],[-121.032903227872,50.473048955624],[-121.033042424534,50.4733096839212],[-121.033250233316,50.4735470446357],[-121.033743198014,50.4739617293525],[-121.034098234036,50.4742712599474],[-121.034203617743,50.4743945688835],[-121.034256309597,50.4744617956213],[-121.034263353963,50.4745929237101],[-121.034238416909,50.4746789343893],[-121.03418389352,50.4747917279133],[-121.034086399502,50.4748759410862],[-121.033973548766,50.4749377753049],[-121.033790958812,50.4750162364574],[-121.033531444387,50.4750644995031],[-121.033263476724,50.4750681843912],[-121.033071869982,50.4750263923683],[-121.032808128938,50.4749166546052],[-121.032657379516,50.4748352275672],[-121.032495781771,50.4747054476081],[-121.032145254144,50.4744131730743],[-121.031799939347,50.4745591305906]]]}},{"type":"Feature","id":"883053336","properties":{"name":"iSP_22kph_%TR_Brake_Temp_CTRL_NOREMOVE","oid":"883053336","speedLimit":6.111111},"geometry":{"type":"Polygon","coordinates":[[[-121.032466477211,50.4721453491778],[-121.032251624063,50.4722256078367],[-121.031489001054,50.4710084264064],[-121.030817109472,50.4699234515688],[-121.030661851656,50.469660296638],[-121.030597043494,50.4694578075467],[-121.030550691569,50.4692568463359],[-121.030597043494,50.468973020082],[-121.030723278524,50.4686243937239],[-121.030885017156,50.4683756188439],[-121.031089444642,50.4680979041116],[-121.031688779259,50.4675366327514],[-121.032432664256,50.4668937546024],[-121.032788968263,50.4665562727837],[-121.033148090017,50.4662224758531],[-121.033484951575,50.4658707937341],[-121.033779969602,50.4660341870621],[-121.033587940199,50.4659933836677],[-121.032919852574,50.4666521697479],[-121.032555095329,50.4669913591977],[-121.032179067098,50.467307810192],[-121.031774861406,50.4676684798427],[-121.031382490247,50.4680345420125],[-121.031147631101,50.4682864625286],[-121.031009279763,50.4684699879277],[-121.030905586703,50.4686545918307],[-121.030829084893,50.4688531264079],[-121.030768221575,50.4691914171045],[-121.030776956589,50.4694007367199],[-121.030874168833,50.4696304580324],[-121.031028158663,50.4699352252354],[-121.031331066379,50.4704039250182],[-121.031531126359,50.4707111188548],[-121.031750769676,50.4710830229203],[-121.03214652213,50.47172895683],[-121.032381803937,50.4721452593025],[-121.032466477211,50.4721453491778]]]}},{"type":"Feature","id":"883059532","properties":{"name":"iSP_22kph_%TR_Brake_CTRL_NOREMOVE","oid":"883059532","speedLimit":6.111111},"geometry":{"type":"Polygon","coordinates":[[[-121.027262804414,50.4773221674887],[-121.027030622127,50.477210003092],[-121.027335079604,50.476944241777],[-121.027717025102,50.4766326440498],[-121.028033739775,50.4763229337043],[-121.028190970013,50.4761689772848],[-121.028621803407,50.4756925482246],[-121.028907804646,50.4753259468029],[-121.029264390428,50.4748878046281],[-121.029473185422,50.4746569149365],[-121.029691983414,50.4745406162751],[-121.029802016403,50.4744883987154],[-121.029952765825,50.4745928338348],[-121.029789195658,50.4745422340308],[-121.029556590709,50.4747917279133],[-121.029252415007,50.4751732486378],[-121.029073488123,50.4754781955914],[-121.028853703919,50.4757749638911],[-121.028696614569,50.4759749364734],[-121.028409486231,50.4762708060199],[-121.028042193014,50.4765701807039],[-121.027244489064,50.477219619751],[-121.027262804414,50.4773221674887]]]}},{"type":"Feature","id":"884401102","properties":{"name":"SP_30KPH_MAIN INT_LIMIT_POLICY_SEPT_6_NS","oid":"884401102","speedLimit":8.333333},"geometry":{"type":"Polygon","coordinates":[[[-121.036993045595,50.4611013802393],[-121.037109136738,50.4611078512622],[-121.038295407889,50.460992181728],[-121.038279064961,50.4603980160014],[-121.038120566737,50.4605659030952],[-121.037033480253,50.4607085352247],[-121.036745788366,50.460537861996],[-121.036993045595,50.4611013802393]]]}},{"type":"Feature","id":"891249991","properties":{"name":"SP_20KPH_TR%_1590_rough section_ #1_SEPT 6_NS","oid":"891249991","speedLimit":5.5555553},"geometry":{"type":"Polygon","coordinates":[[[-121.01295781139,50.4498606742298],[-121.013848360076,50.4497487794591],[-121.013379768883,50.4450040816766],[-121.011853395766,50.4421437996845],[-121.007783724928,50.4388899536754],[-121.006732564708,50.4393240514608],[-121.010931006547,50.4427669052635],[-121.01109373139,50.4430957590517],[-121.01145722065,50.4435198806769],[-121.011775203309,50.444510576306],[-121.01295781139,50.4498606742298]]]}},{"type":"Feature","id":"901482363","properties":{"name":"SP_25KPH_1200-1185_%TRAC_RAMP_SEPT_6_NS","oid":"901482363","speedLimit":6.9444447},"geometry":{"type":"Polygon","coordinates":[[[-121.036667173247,50.4451090560479],[-121.036261981343,50.4451194815848],[-121.039069160996,50.4482665557163],[-121.039088039895,50.4482638594568],[-121.03880443374,50.4476152292875],[-121.038216510995,50.4469312781183],[-121.036577287143,50.4451796081725],[-121.036694928047,50.4451090560479],[-121.036667173247,50.4451090560479]]]}},{"type":"Feature","id":"903864124","properties":{"name":"SP_15KPH_%TR_OLD_GARBAGEDUMP_SEP_6_NS","oid":"903864124","speedLimit":4.1666665},"geometry":{"type":"Polygon","coordinates":[[[-121.042485678264,50.4669871350577],[-121.042132473778,50.4673288410164],[-121.042023990549,50.4669792260298],[-121.041686847216,50.4668099009308],[-121.041835342441,50.4667104089539],[-121.042485678264,50.4669871350577]]]}},{"type":"Feature","id":"908328496","properties":{"name":"SP_15KPH_%TR_1445_SOFT_GROUND_SEPT_6_NS","oid":"908328496","speedLimit":4.1666665},"geometry":{"type":"Polygon","coordinates":[[[-121.039332197604,50.4644968697494],[-121.039941253445,50.4647091552503],[-121.039189478758,50.466674818328],[-121.038827257484,50.4674278836167],[-121.03845249724,50.4678943365166],[-121.037915575701,50.4682380197322],[-121.037180566605,50.468025913982],[-121.038313582352,50.4667052860608],[-121.038794289854,50.4655660265311],[-121.039332197604,50.4644968697494]]]}},{"type":"Feature","id":"910445950","properties":{"name":"SP_22KPH_%TR_1635_FLATS_SEP_6_NS","oid":"910445950","speedLimit":6.111111},"geometry":{"type":"Polygon","coordinates":[[[-121.018917485492,50.457603522742],[-121.015249484375,50.4587005408723],[-121.014498836787,50.4578797095939],[-121.017481702915,50.456415820416],[-121.017774044083,50.4542398490944],[-121.018441849933,50.4540101277818],[-121.019220674983,50.4539290602451],[-121.019246034699,50.4568508169546],[-121.019158684566,50.4570731684911],[-121.01919672414,50.4574051679154],[-121.018917485492,50.457603522742]]]}},{"type":"Feature","id":"917773475","properties":{"name":"SP_15KPH_%TR_1200_CORNER_Sept_6_NS","oid":"917773475","speedLimit":4.1666665},"geometry":{"type":"Polygon","coordinates":[[[-121.037099415514,50.4446825077892],[-121.036925278799,50.4448620786744],[-121.036629697222,50.4448205562775],[-121.036415125849,50.444869897827],[-121.036323549098,50.4449675922976],[-121.036254936978,50.4450820934526],[-121.036242679782,50.4451449162998],[-121.036263812878,50.4452672366074],[-121.036316504732,50.4453514497803],[-121.03618463421,50.4453952190601],[-121.036089535276,50.4451942578493],[-121.036163501113,50.4449316421704],[-121.036260290695,50.4447913467992],[-121.036517128262,50.4447150426543],[-121.036714229608,50.4447117172675],[-121.036923588151,50.4447700463488],[-121.037094202684,50.444683586293],[-121.037099415514,50.4446825077892]]]}},{"type":"Feature","id":"921770139","properties":{"name":"SP_30KPH_%TR_HIGHMONT_SEPT 6_NS","oid":"921770139","speedLimit":8.333333},"geometry":{"type":"Polygon","coordinates":[[[-121.002514116871,50.4281368212656],[-121.002136961542,50.4281569533368],[-121.00146929658,50.4282385601254],[-121.001504800182,50.4285897928678],[-121.002055528677,50.4286074084301],[-121.002474104875,50.4285801762087],[-121.002750807552,50.4285621112698],[-121.002514116871,50.4281368212656]]]}},{"type":"Feature","id":"922262468","properties":{"name":"SP_20kph_HMT_DUMP_SEP_6_NS","oid":"922262468","speedLimit":5.5555553},"geometry":{"type":"Polygon","coordinates":[[[-121.012502463604,50.4364263813365],[-121.012482598493,50.4374170769657],[-121.01476314138,50.4387148765561],[-121.017332925916,50.4379497679749],[-121.016524232756,50.4359056437446],[-121.014772158168,50.4353086918831],[-121.013004022427,50.4354273273028],[-121.012502463604,50.4364263813365]]]}},{"type":"Feature","id":"925542039","properties":{"name":"SP_12KPH_DRAINAGE DITCHSEPT_6_NS","oid":"925542039","speedLimit":3.3333333},"geometry":{"type":"Polygon","coordinates":[[[-121.018172332509,50.4555314472879],[-121.018489047182,50.4557207247074],[-121.018469041184,50.455835675239],[-121.018124994373,50.4556371406617],[-121.018172332509,50.4555314472879]]]}},{"type":"Feature","id":"926367691","properties":{"name":"SP_20KPH_%TR_24SH_SEP_6_NS","oid":"926367691","speedLimit":5.5555553},"geometry":{"type":"Polygon","coordinates":[[[-121.038554781427,50.4504036110253],[-121.038074637474,50.4496787665864],[-121.037543210541,50.449859595726],[-121.038245815556,50.4520114804624],[-121.038397410301,50.453130338295],[-121.038777806039,50.4530969046767],[-121.038843318638,50.4508309681619],[-121.038554781427,50.4504036110253]]]}},{"type":"Feature","id":"927549571","properties":{"name":"SP_40_KPH_TR%_CRUSHER YARD EMPTY_SEPT_6_NS","oid":"927549571","speedLimit":11.111111},"geometry":{"type":"Polygon","coordinates":[[[-121.037755527717,50.4619283230392],[-121.037449097818,50.4612608190532],[-121.036779178658,50.4614646562742],[-121.037247628964,50.4615093243072],[-121.037920647644,50.4626184756054],[-121.037947698008,50.4632583878688],[-121.037501789671,50.4637414677025],[-121.03707814153,50.4639814348013],[-121.036452460986,50.4642045952156],[-121.036236903402,50.4641031259817],[-121.036399487358,50.4643263762714],[-121.036721133087,50.4642316476863],[-121.037431486904,50.4639642686156],[-121.03784752713,50.4637352663056],[-121.037980524751,50.4635590208072],[-121.038210875503,50.4632688134057],[-121.038184529576,50.4627772852921],[-121.038027017563,50.4623109222675],[-121.037755527717,50.4619283230392]]]}},{"type":"Feature","id":"929009157","properties":{"name":"iSP_22kph_Long_Single_Lane_Aug30","oid":"929009157","speedLimit":6.111111},"geometry":{"type":"Polygon","coordinates":[[[-121.005870052596,50.4378881135068],[-121.004810720912,50.4381070497812],[-121.005176182594,50.438197464351],[-121.007936446772,50.4431704454409],[-121.008525214841,50.4445348426419],[-121.008212304126,50.446509673002],[-121.007834303473,50.4466801664801],[-121.008935760463,50.4466469126125],[-121.008825023037,50.4465928975464],[-121.009405056092,50.444817590392],[-121.008766132141,50.4430683470798],[-121.00826443243,50.4415401071742],[-121.007260892121,50.4401561171539],[-121.006441209751,50.4389839632579],[-121.005690984825,50.4380213986032],[-121.005870052596,50.4378881135068]]]}},{"type":"Feature","id":"930116666","properties":{"name":"SP_15KPH_9023 Rough_SEP_6_NS","oid":"930116666","speedLimit":4.1666665},"geometry":{"type":"Polygon","coordinates":[[[-121.043598265351,50.4685543808512],[-121.043298034494,50.4689180163874],[-121.042549500216,50.468462708027],[-121.042344931841,50.4680407434094],[-121.043036829421,50.467907458313],[-121.043598265351,50.4685543808512]]]}},{"type":"Feature","id":"930976872","properties":{"name":"SP_13KPH_%TR_21SH_SEP_6_NS","oid":"930976872","speedLimit":3.6111112},"geometry":{"type":"Polygon","coordinates":[[[-121.036323126436,50.4472476392373],[-121.036212811672,50.4473474008402],[-121.036121375808,50.4473525237333],[-121.036018809846,50.4473181913618],[-121.035311273775,50.4469667788689],[-121.035515842149,50.4467739064367],[-121.036323126436,50.4472476392373]]]}},{"type":"Feature","id":"931933206","properties":{"name":"SP_15KPH_PUNCH_OUT_SEPT_6_NS","oid":"931933206","speedLimit":4.1666665},"geometry":{"type":"Polygon","coordinates":[[[-121.012903992437,50.4365389052345],[-121.012960770023,50.4368160807149],[-121.013593494932,50.4368185073485],[-121.013568276104,50.4365706312217],[-121.013503467941,50.4366690446948],[-121.013008389934,50.4366706624505],[-121.012903992437,50.4365389052345]]]}},{"type":"Feature","id":"932114358","properties":{"name":"SP_35KPH_%TR_23SH_LOADED_LANES_SEP_6_NS","oid":"932114358","speedLimit":9.722222},"geometry":{"type":"Polygon","coordinates":[[[-121.042099083485,50.4671398332228],[-121.041266298596,50.4667317992796],[-121.040735153437,50.4664969550739],[-121.040511987938,50.4663968339698],[-121.040355039474,50.4663121714203],[-121.040361097629,50.466065823174],[-121.040451547282,50.4657770537776],[-121.040517905205,50.4655114722132],[-121.040445489127,50.46513031099],[-121.04023429905,50.4644142743323],[-121.039984083187,50.4634788520236],[-121.03986503341,50.4631628504059],[-121.039698222835,50.4628771367703],[-121.038921651982,50.4631294167876],[-121.039550572934,50.4630533822687],[-121.039764862533,50.4635153414027],[-121.039914484856,50.46422562604],[-121.040083408741,50.4647222770467],[-121.040276565243,50.4653843885137],[-121.040246415358,50.4657154891848],[-121.040101583204,50.4659579727925],[-121.039980842779,50.4662197795935],[-121.040161882972,50.4664854510332],[-121.041767152983,50.4671898937749],[-121.04183956906,50.4675478671661],[-121.042099083485,50.4671398332228]]]}},{"type":"Feature","id":"932118723","properties":{"name":"SP_35KPH_%TR_1635_TO_1620_SEP_6_NS","oid":"932118723","speedLimit":9.722222},"geometry":{"type":"Polygon","coordinates":[[[-121.018237845108,50.4539384971535],[-121.018530468051,50.4537443664668],[-121.018241789953,50.453642357981],[-121.017621463127,50.4534681796149],[-121.017126103344,50.4534432841519],[-121.016412086457,50.453440767643],[-121.016060995281,50.4534805824088],[-121.015776262027,50.4535129375232],[-121.01550322242,50.4536050597241],[-121.015897143339,50.4538315455252],[-121.015823036614,50.4536672534441],[-121.01625217936,50.4536050597241],[-121.016614964184,50.453607576233],[-121.017325036226,50.4535950835638],[-121.017742485326,50.4536548506502],[-121.018120908641,50.4537145278613],[-121.018265177246,50.4537692619299],[-121.018237845108,50.4539384971535]]]}},{"type":"Feature","id":"932281958","properties":{"name":"SP_15KPH_%TR_1185-1170_22shl_SEPT_6_NS","oid":"932281958","speedLimit":4.1666665},"geometry":{"type":"Polygon","coordinates":[[[-121.037375554642,50.4481142170525],[-121.037409085821,50.4479620581393],[-121.036982479047,50.4479087620758],[-121.035924556236,50.4473800255806],[-121.03545399262,50.4469919439579],[-121.03509839305,50.4474260417433],[-121.035349031574,50.4473476704661],[-121.036815104922,50.4479514528518],[-121.037216633756,50.4480555284699],[-121.037334979096,50.4481911503246],[-121.037375554642,50.4481142170525]]]}},{"type":"Feature","id":"932364856","properties":{"name":"SP_35km_%_1170rOUGH_SEPT_6_NS","oid":"932364856","speedLimit":9.722222},"geometry":{"type":"Polygon","coordinates":[[[-121.038074355699,50.4473201686188],[-121.037832311301,50.4473891029877],[-121.037706780708,50.4473851484737],[-121.037727913804,50.4480410585437],[-121.038325416886,50.4498588767235],[-121.038776960715,50.4502069638297],[-121.038722578213,50.4496640270343],[-121.038331615928,50.4483823151258],[-121.038104646471,50.4473256510132],[-121.038074355699,50.4473201686188]]]}},{"type":"Feature","id":"933252285","properties":{"name":"SP_17KPH_%TR1645_PATCH_SEP_6_NS","oid":"933252285","speedLimit":4.7222223},"geometry":{"type":"Polygon","coordinates":[[[-121.004300427075,50.4287925515849],[-121.004057255578,50.4290157119993],[-121.005062063873,50.4295096667464],[-121.005320169425,50.4293123005483],[-121.00513447995,50.4293871666881],[-121.004309021201,50.4289749086049],[-121.004300427075,50.4287925515849]]]}},{"type":"Feature","id":"933252378","properties":{"name":"SP_20KPH_%TR_1615_ROUGH_SECTION_SEP_6_NS","oid":"933252378","speedLimit":5.5555553},"geometry":{"type":"Polygon","coordinates":[[[-121.007363035421,50.4314117879744],[-121.007545484487,50.432145619945],[-121.007054210437,50.4322076339144],[-121.007399525234,50.4321238701181],[-121.007258497037,50.4314846768572],[-121.006910646268,50.431455197753],[-121.007363035421,50.4314117879744]]]}},{"type":"Feature","id":"933252478","properties":{"name":"SP_20KPH_%TR_1605_PATCH_SEP_6_NS","oid":"933252478","speedLimit":5.5555553},"geometry":{"type":"Polygon","coordinates":[[[-121.006594354257,50.4333408717978],[-121.007212426886,50.4334383865177],[-121.006981512585,50.4339627191223],[-121.006679309305,50.4343787519688],[-121.006275103613,50.4347752818714],[-121.005741845144,50.4345239006072],[-121.00621395852,50.4346040693908],[-121.006702978373,50.433977908051],[-121.006896557537,50.4335510901663],[-121.006594354257,50.4333408717978]]]}},{"type":"Feature","id":"933252549","properties":{"name":"SP_35KPH_%TR_1590_ROUGH_SEP_6_NS","oid":"933252549","speedLimit":9.722222},"geometry":{"type":"Polygon","coordinates":[[[-121.004363685477,50.4363928578429],[-121.004780289253,50.4364500185451],[-121.004884545862,50.4362112198254],[-121.005082492533,50.4359569625511],[-121.004585019441,50.4358323953605],[-121.004799027265,50.4359808693857],[-121.004627849184,50.4363681421305],[-121.004363685477,50.4363928578429]]]}},{"type":"Feature","id":"933371104","properties":{"name":"SP_12KPH_1590_HMT_INTERSECT_SEPT_6_NS","oid":"933371104","speedLimit":3.3333333},"geometry":{"type":"Polygon","coordinates":[[[-121.00626214198,50.4373387955638],[-121.006005586188,50.4376215433139],[-121.006184231298,50.437748806764],[-121.006388940559,50.4379884143616],[-121.006554764923,50.4382643315875],[-121.007088305166,50.4381536950712],[-121.006746371665,50.4380710097787],[-121.006308634792,50.4375951199704],[-121.00626214198,50.4373387955638]]]}}]}