{"type":"FeatureCollection","features":[{"type":"Feature","id":"702602533","properties":{"name":"iSP_4KPH_%TR_CR01_Slow Bump","oid":"702602533","speedLimit":1.1111112},"geometry":{"type":"Polygon","coordinates":[[[-121.033359201358,50.464807916701],[-121.033653917376,50.4646908993488],[-121.033697307689,50.4647316127594],[-121.033369485425,50.464869750755],[-121.033359201358,50.464807916701]]]}},{"type":"Feature","id":"707947583","properties":{"name":"iSP_25KPH_%TR_Permission Gate 1 From West Dump","oid":"707947583","speedLimit":6.9444447},"geometry":{"type":"Polygon","coordinates":[[[-121.038628306775,50.4619780201048],[-121.038854978895,50.4617995281989],[-121.038140024882,50.4614083019823],[-121.037992385117,50.4616710068367],[-121.038191867853,50.4615669314958],[-121.038666766371,50.4618460834896],[-121.038628306775,50.4619780201048]]]}},{"type":"Feature","id":"742345972","properties":{"name":"iSP_4KPH_%TR_CR01_Pit Side_Slow Bump","oid":"742345972","speedLimit":1.1111112},"geometry":{"type":"Polygon","coordinates":[[[-121.033399069729,50.4648828725165],[-121.033706323858,50.4647443750205],[-121.033756476297,50.4647764604236],[-121.033475002776,50.4649183731725],[-121.033399069729,50.4648828725165]]]}},{"type":"Feature","id":"776427243","properties":{"name":"iSP_7KPH_%TR_CR1_PermissionBlocker","oid":"776427243","speedLimit":1.9444444},"geometry":{"type":"Polygon","coordinates":[[[-121.034100217734,50.4652128938047],[-121.034051755826,50.4652332055724],[-121.03403062418,50.4652746379836],[-121.034116277784,50.4652255661907],[-121.034100217734,50.4652128938047]]]}},{"type":"Feature","id":"794004438","properties":{"name":"iSP_11KPH_%TR_Lower_Fuel_Bay","oid":"794004438","speedLimit":3.0555556},"geometry":{"type":"Polygon","coordinates":[[[-121.036776751979,50.4606955027348],[-121.036778865143,50.4607253412609],[-121.036749139962,50.4606708769633],[-121.037125283255,50.4605991566507],[-121.037535237182,50.4605561064881],[-121.037542985452,50.4605814512602],[-121.036944537246,50.4606502955703],[-121.036776751979,50.4606955027348]]]}},{"type":"Feature","id":"801543391","properties":{"name":"iSP_4KPH_%TR_CR01_PermissionBlocker_2","oid":"801543391","speedLimit":1.1111112},"geometry":{"type":"Polygon","coordinates":[[[-121.033155774048,50.4645233722026],[-121.033154928782,50.4644739409094],[-121.033176483061,50.4644318793727],[-121.033108439162,50.4644594710218],[-121.033155774048,50.4645233722026]]]}},{"type":"Feature","id":"806473874","properties":{"name":"iSP_4KPH_%TR_CR04_PermissionBlocker","oid":"806473874","speedLimit":1.1111112},"geometry":{"type":"Polygon","coordinates":[[[-121.022720685644,50.4815452626921],[-121.022687579399,50.4815429259401],[-121.022679972006,50.4815715960901],[-121.022702089795,50.4815726745911],[-121.022706175247,50.48154858807],[-121.022720685644,50.4815452626921]]]}},{"type":"Feature","id":"824566967","properties":{"name":"iSP_3KPH_%TR_CR04","oid":"824566967","speedLimit":0.8333333},"geometry":{"type":"Polygon","coordinates":[[[-121.023303496432,50.4810683855257],[-121.02328335093,50.4810683855257],[-121.023280674255,50.4811864813788],[-121.023305750474,50.4811857623782],[-121.023303496432,50.4810683855257]]]}},{"type":"Feature","id":"826307302","properties":{"name":"iSP_4KPH_%TR_CR04_Pockets","oid":"826307302","speedLimit":1.1111112},"geometry":{"type":"Polygon","coordinates":[[[-121.023298706592,50.4813215636218],[-121.023338152331,50.4814772272577],[-121.023542847539,50.4814377720983],[-121.023461842897,50.4811889080059],[-121.023053579502,50.4811896270066],[-121.023058932852,50.4813602997806],[-121.023283773563,50.4813263270009],[-121.023298706592,50.4813215636218]]]}},{"type":"Feature","id":"883050998","properties":{"name":"iSP_22KPH_%TR_4CR_Brake_Temp_Ctrl","oid":"883050998","speedLimit":6.111111},"geometry":{"type":"Polygon","coordinates":[[[-121.031799545027,50.4745590930914],[-121.032188789941,50.474312475876],[-121.032490408964,50.4745748212301],[-121.032792027987,50.4748022051787],[-121.032969815566,50.4748846206256],[-121.033178596226,50.4749347709194],[-121.033462464666,50.4749595764411],[-121.033666314609,50.4749220086583],[-121.033827478626,50.4748626012314],[-121.033918626458,50.474810563561],[-121.034007942881,50.4747473813808],[-121.034058377075,50.4746582253029],[-121.034052601092,50.4745480384567],[-121.034056404788,50.4744836879005],[-121.03399427775,50.4743797024347],[-121.033875940534,50.4742596293299],[-121.033509095164,50.4739376967987],[-121.03306082252,50.4735600417189],[-121.032947556899,50.4734254987264],[-121.032822598434,50.4732209430478],[-121.032605787749,50.4728149773183],[-121.032252325756,50.4722090395392],[-121.032487309656,50.472156192993],[-121.032430254212,50.4722057141613],[-121.03290275781,50.4730489221476],[-121.033041944917,50.4733096497503],[-121.033249739433,50.4735470098326],[-121.033742670288,50.4739616934447],[-121.034097681936,50.474271223215],[-121.034203058409,50.4743945318227],[-121.034255746646,50.4744617583814],[-121.034262790528,50.4745928861209],[-121.034237855186,50.474678896571],[-121.03418333554,50.4747916897945],[-121.034085848215,50.474875902743],[-121.033973005227,50.474937736797],[-121.033790427808,50.4750161977405],[-121.033530931198,50.4750644606577],[-121.033262981931,50.4750681455359],[-121.033071388343,50.4750263536244],[-121.032807665405,50.4749166161536],[-121.032656926332,50.4748351893325],[-121.032495339681,50.4747054097191],[-121.032144836118,50.4744131359639],[-121.031799545027,50.4745590930914]]]}},{"type":"Feature","id":"883053336","properties":{"name":"iSP_22KPH_%TR_Brake_Temp_Ctrl","oid":"883053336","speedLimit":6.111111},"geometry":{"type":"Polygon","coordinates":[[[-121.032466037132,50.4721453181085],[-121.032251198734,50.4722255765536],[-121.03148862808,50.4710083983657],[-121.030816782624,50.4699234264182],[-121.030661535467,50.4696602721884],[-121.030596731753,50.4694577836366],[-121.03055038301,50.4692568229611],[-121.030596731753,50.4689729974632],[-121.030722958117,50.4686243720338],[-121.030884685645,50.4683755978166],[-121.031089099098,50.468097883824],[-121.03168839257,50.4675366139589],[-121.032432226499,50.4668937375225],[-121.032788506046,50.4665562566028],[-121.033147603145,50.4662224605613],[-121.033484441578,50.4658707793792],[-121.033779439352,50.4660341722719],[-121.033587423131,50.4659933689862],[-121.032919381372,50.4666521533115],[-121.032554649167,50.4669913418577],[-121.032178646751,50.4673077920091],[-121.031774468807,50.467668460699],[-121.031382124585,50.4680345218937],[-121.031147281563,50.4682864417387],[-121.031008939722,50.468469966649],[-121.030905253781,50.4686545700602],[-121.030828757223,50.4688531041085],[-121.030767898084,50.469191393904],[-121.030776632497,50.4694007129618],[-121.030873838067,50.4696304336624],[-121.031027817326,50.4699352000535],[-121.031330704248,50.4704038985878],[-121.031530750494,50.4707110916061],[-121.031750378731,50.4710829946808],[-121.032146104016,50.4717289268699],[-121.032381369672,50.4721452282334],[-121.032466037132,50.4721453181085]]]}},{"type":"Feature","id":"883059532","properties":{"name":"iSP_22KPH_%TR_Brake_Ctrl","oid":"883059532","speedLimit":6.111111},"geometry":{"type":"Polygon","coordinates":[[[-121.027262721572,50.4773221226292],[-121.027030555224,50.4772099585313],[-121.0273349918,50.4769441979242],[-121.027716911077,50.4766326010271],[-121.028033604007,50.4763228915066],[-121.028190823451,50.4761689354972],[-121.028621627268,50.4756925077061],[-121.028907608873,50.475325907261],[-121.029264170175,50.4748877662534],[-121.029472950835,50.4746568771768],[-121.029691733807,50.4745405788252],[-121.029801759242,50.4744883614046],[-121.029952498315,50.4745927962458],[-121.029788939377,50.4745421965766],[-121.029556350396,50.4747916897945],[-121.029252195576,50.4751732095027],[-121.029073280976,50.475478155644],[-121.02885351186,50.4757749231531],[-121.028696433294,50.4759748952027],[-121.028409324668,50.4762707639611],[-121.028042056665,50.4765701378475],[-121.027244407479,50.4772195751647],[-121.027262721572,50.4773221226292]]]}},{"type":"Feature","id":"884401102","properties":{"name":"iSP_30KPH_%TR_Maint_Limit_Policy","oid":"884401102","speedLimit":8.333333},"geometry":{"type":"Polygon","coordinates":[[[-121.036992294765,50.4611013785892],[-121.037108377939,50.4611078495949],[-121.038294567651,50.4609921803689],[-121.038278225845,50.460398016225],[-121.038119738502,50.4605659028716],[-121.037032726647,50.4607085346212],[-121.03674505451,50.4605378618472],[-121.036992294765,50.4611013785892]]]}},{"type":"Feature","id":"908328496","properties":{"name":"SP_25KPH_%TR_1445_SOFT_GROUND_SEPT_21_DS","oid":"908328496","speedLimit":6.9444447},"geometry":{"type":"Polygon","coordinates":[[[-121.039331286189,50.4644968590544],[-121.039940300218,50.4647091439898],[-121.039188577142,50.4666748018313],[-121.038826380735,50.4674278651139],[-121.038451646217,50.4678943167713],[-121.037914761539,50.4682379990714],[-121.037179802901,50.4680258938862],[-121.038312740866,50.4667052694829],[-121.038793415367,50.465566012988],[-121.039331286189,50.4644968590544]]]}},{"type":"Feature","id":"910445950","properties":{"name":"SP_22KPH_%TR_1635_FLATS_SEP_21_DS","oid":"910445950","speedLimit":6.111111},"geometry":{"type":"Polygon","coordinates":[[[-121.017370998217,50.4554938926924],[-121.018004102322,50.4544142233746],[-121.018149347167,50.4539985511366],[-121.018533943119,50.4537515744209],[-121.018949954784,50.4536881226155],[-121.018867823121,50.4543416941863],[-121.018263035421,50.4560721489474],[-121.018277123185,50.4557008749982],[-121.017370998217,50.4554938926924]]]}},{"type":"Feature","id":"915576987","properties":{"name":"iSP_15KPH_%TR_Preventing Shifting","oid":"915576987","speedLimit":4.1666665},"geometry":{"type":"Polygon","coordinates":[[[-121.036997788993,50.4448632886591],[-121.037511851494,50.445313203302],[-121.037981114906,50.4457956527233],[-121.038525043467,50.446218964343],[-121.039457653431,50.4468500671441],[-121.039914942244,50.4470998299872],[-121.040470845403,50.4471951874455],[-121.041223977256,50.447322899932],[-121.041642383841,50.4475097502202],[-121.042320850546,50.4480951964814],[-121.042703474211,50.4485279449843],[-121.042846887646,50.4487949638425],[-121.04300833342,50.4493917343636],[-121.043187529775,50.450198273318],[-121.04332502635,50.4505014219577],[-121.043686659247,50.4511688342905],[-121.043857121189,50.4514891490702],[-121.0441260566,50.4522537163629],[-121.044383158289,50.4529382948357],[-121.044696892789,50.4537982195867],[-121.044735775017,50.454194838308],[-121.044571370814,50.455071929199],[-121.044215795655,50.4568394124924],[-121.044051391452,50.4572074509388],[-121.043005234112,50.4583991046044],[-121.041905402391,50.4595374623485],[-121.041343582371,50.4600007683781],[-121.040372231057,50.4605976287743],[-121.039923817535,50.4607310932659],[-121.039134761884,50.4608073073324],[-121.03849743145,50.460838853485],[-121.038645212092,50.4611436198761],[-121.03875805508,50.4609496694568],[-121.039879018446,50.4608798365208],[-121.040706956325,50.4606319610543],[-121.041510945005,50.4600580188031],[-121.042873795275,50.4587003658675],[-121.044242562407,50.4571425611322],[-121.044427957378,50.4562902757629],[-121.044813539474,50.4544216830061],[-121.044810440165,50.4537867155766],[-121.044260594744,50.4523014400296],[-121.04383317199,50.4511860004305],[-121.043346017118,50.4503374898145],[-121.043050174078,50.4493097682921],[-121.042927610533,50.4486919670026],[-121.042240127659,50.4478873154249],[-121.041546727925,50.447391564492],[-121.041092397542,50.4472218803438],[-121.040458870804,50.4471303875139],[-121.039917900674,50.4470197512923],[-121.038821027384,50.4463333753179],[-121.038196375937,50.4458718667899],[-121.037153317905,50.4449070578224],[-121.037377454227,50.4446973792642],[-121.036997788993,50.4448632886591]]]}},{"type":"Feature","id":"917773475","properties":{"name":"SP_15KPH_%TR_1200_CORNER_Sept_21_DS","oid":"917773475","speedLimit":4.1666665},"geometry":{"type":"Polygon","coordinates":[[[-121.037098657382,50.4446825498763],[-121.036924532621,50.4448621202831],[-121.036628971336,50.4448205979968],[-121.036414414694,50.4448699394149],[-121.036322844229,50.4449676336253],[-121.036254236819,50.4450821344752],[-121.036241980465,50.4451449571551],[-121.03626311211,50.4452672771369],[-121.036315800347,50.4453514900855],[-121.036183938878,50.4453952592487],[-121.036088846472,50.4451942985732],[-121.036162807232,50.4449316835939],[-121.03625959017,50.4447913885963],[-121.036516410104,50.4447150846547],[-121.036713497919,50.4447117592768],[-121.036922842089,50.4447700882027],[-121.037093444909,50.4446836283772],[-121.037098657382,50.4446825498763]]]}},{"type":"Feature","id":"921770139","properties":{"name":"SP_20KPH_%TR_HIGHMONT_SEPT 21_DS","oid":"921770139","speedLimit":5.5555553},"geometry":{"type":"Polygon","coordinates":[[[-121.002081689038,50.4283003003203],[-121.00158594063,50.4284272938062],[-121.001001157554,50.4285433225325],[-121.001189651834,50.4289620505232],[-121.001583404832,50.4287564163436],[-121.001925596615,50.4286884707843],[-121.002548698408,50.4285670495532],[-121.002408102526,50.4282228280026],[-121.002081689038,50.4283003003203]]]}},{"type":"Feature","id":"926078125","properties":{"name":"EX_NewLandfill_SEP15_DS","oid":"926078125","speedLimit":4.1666665},"geometry":{"type":"Polygon","coordinates":[[[-121.011165620016,50.4603918148446],[-121.010849490597,50.4601114944748],[-121.01039065213,50.4596572658282],[-121.01004352963,50.4593950103491],[-121.009792344801,50.4591367093736],[-121.00954425928,50.4588334708588],[-121.009342240747,50.4588742741444],[-121.009485372428,50.4595403383511],[-121.009693307821,50.4600622429318],[-121.010015072347,50.4603631446946],[-121.010301335707,50.4606070656576],[-121.010573088671,50.4606652148334],[-121.010855689213,50.460566352247],[-121.011165620016,50.4603918148446]]]}},{"type":"Feature","id":"926367691","properties":{"name":"SP_30KPH_%TR_24SH_EMPTY_LANE_SEP_21_DS","oid":"926367691","speedLimit":8.333333},"geometry":{"type":"Polygon","coordinates":[[[-121.038783835688,50.4508575070187],[-121.038612669358,50.4512055931976],[-121.038638590843,50.452012132152],[-121.038865544718,50.4535985171623],[-121.039044741074,50.4535755990173],[-121.038781863401,50.4517186900207],[-121.038783835688,50.4508575070187]]]}},{"type":"Feature","id":"929009157","properties":{"name":"iSP_22KPH_%TR_Long_Single_Lane","oid":"929009157","speedLimit":6.111111},"geometry":{"type":"Polygon","coordinates":[[[-121.005682803222,50.4380559704646],[-121.004753151688,50.4382240368613],[-121.005177616012,50.4381975237132],[-121.007937690696,50.4431704915559],[-121.008526418345,50.4445348851223],[-121.008213529111,50.4465097102219],[-121.007835554409,50.4466802032458],[-121.008936935783,50.4466469494667],[-121.008826205959,50.4465929345446],[-121.009406199195,50.4448176321193],[-121.008767319107,50.4430683934667],[-121.008265653837,50.4415401576322],[-121.007262182422,50.4401561712986],[-121.006442556324,50.438984020525],[-121.005863549231,50.438313013189],[-121.005682803222,50.4380559704646]]]}},{"type":"Feature","id":"929572873","properties":{"name":"SP_11KPH_%TR_1665_FLATS_WATERHOLE_SEPT 20_NS","oid":"929572873","speedLimit":3.0555556},"geometry":{"type":"Polygon","coordinates":[[[-121.053569789066,50.4666491874339],[-121.053361290161,50.4670037446186],[-121.053260985283,50.4671268734761],[-121.053006278514,50.4671859214026],[-121.052782423947,50.4671268734761],[-121.052273010408,50.4664177591068],[-121.052257654745,50.4654280547426],[-121.052736216081,50.4650982132045],[-121.053562040796,50.4651129527174],[-121.053623745201,50.4653296415316],[-121.053361290161,50.4654232014883],[-121.053369038432,50.4663439716674],[-121.053554292526,50.4666344479211],[-121.053569789066,50.4666491874339]]]}},{"type":"Feature","id":"934051091","properties":{"name":"iSP_17KPH_%TR_Ramp_Permission Blocker","oid":"934051091","speedLimit":4.7222223},"geometry":{"type":"Polygon","coordinates":[[[-121.039512595709,50.4610297481517],[-121.039464556435,50.4607717168014],[-121.039017129056,50.4607922981943],[-121.039076015909,50.461045026915],[-121.039163500922,50.4608999685384],[-121.039379466341,50.4608868467769],[-121.039512595709,50.4610297481517]]]}},{"type":"Feature","id":"934773555","properties":{"name":"SP_10KPH_NEW RAMP_SEPT 20_NS","oid":"934773555","speedLimit":2.7777777},"geometry":{"type":"Polygon","coordinates":[[[-121.033903129918,50.4443402157024],[-121.034414656622,50.4442041448335],[-121.035775111972,50.444319184934],[-121.036277058997,50.4444735903188],[-121.035932049661,50.4447856365913],[-121.034622873771,50.4446108295637],[-121.034345203946,50.4446010331801],[-121.033903129918,50.4443402157024]]]}},{"type":"Feature","id":"936169885","properties":{"name":"SP_20KPH_%TR_24shl_loadplan_Sept_21_DS","oid":"936169885","speedLimit":5.5555553},"geometry":{"type":"Polygon","coordinates":[[[-121.039052489344,50.4535938436582],[-121.038507433762,50.4536748211039],[-121.038611964969,50.4545480473665],[-121.039163500922,50.4545295331003],[-121.039144200686,50.4542340238422],[-121.039099965108,50.453921078819],[-121.039077424686,50.4537566973004],[-121.039052489344,50.4535938436582]]]}},{"type":"Feature","id":"936513295","properties":{"name":"SP_30KPH_%TR_1635_FLATS_SEP_21_DS","oid":"936513295","speedLimit":8.333333},"geometry":{"type":"Polygon","coordinates":[[[-121.017287176022,50.455555277371],[-121.018051296331,50.4557852676969],[-121.01743523842,50.457453888404],[-121.01522839022,50.4585170207074],[-121.014499630198,50.4578797165259],[-121.016178609888,50.4566194881754],[-121.017287176022,50.455555277371]]]}},{"type":"Feature","id":"937786749","properties":{"name":"SP_30KPH_%TR_24SH_Loaded_LANE_SEP_21_DS","oid":"937786749","speedLimit":8.333333},"geometry":{"type":"Polygon","coordinates":[[[-121.038409946436,50.4510853403426],[-121.038212858621,50.4510392344274],[-121.038253431381,50.4516608104702],[-121.038479117357,50.4536763489802],[-121.038646339113,50.4536486674561],[-121.038403466065,50.4516752803578],[-121.038409946436,50.4510853403426]]]}},{"type":"Feature","id":"938065675","properties":{"name":"SP_8KPH_CR01_YARD_RUTIING_SEP_20_NS","oid":"938065675","speedLimit":2.2222223},"geometry":{"type":"Polygon","coordinates":[[[-121.034289275524,50.4648012659452],[-121.034099090713,50.4648580669948],[-121.033940885125,50.4649070489126],[-121.033829450913,50.4650050127482],[-121.034044289311,50.465068913929],[-121.033964270813,50.4650113938787],[-121.034242645026,50.4648881751461],[-121.034319282461,50.4649374266891],[-121.034289275524,50.4648012659452]]]}},{"type":"Feature","id":"938165680","properties":{"name":"SP_10KPH_%TR_22SH_Sept20_NS","oid":"938165680","speedLimit":2.7777777},"geometry":{"type":"Polygon","coordinates":[[[-121.034631326429,50.4470557911988],[-121.035055227242,50.4472506403689],[-121.035497019515,50.4474473769157],[-121.035795116597,50.4469122606984],[-121.034871522802,50.4467191191548],[-121.034631326429,50.4470557911988]]]}},{"type":"Feature","id":"939481274","properties":{"name":"SP_10KPH_%TR_LRNX_PIT_BOTTOM_SEP_20_NS","oid":"939481274","speedLimit":2.7777777},"geometry":{"type":"Polygon","coordinates":[[[-121.034055418645,50.4452363601099],[-121.034062462527,50.4449962139002],[-121.03330299118,50.4447664033245],[-121.033469226793,50.4448876448054],[-121.033358074336,50.4469937773946],[-121.033815644905,50.4469740947524],[-121.033663919689,50.4469199899552],[-121.034055418645,50.4452363601099]]]}},{"type":"Feature","id":"939584863","properties":{"name":"SP_40KPH_%TR_HMT EMPTY2_ROUGH_SECTION_SEPT 21_DS","oid":"939584863","speedLimit":11.111111},"geometry":{"type":"Polygon","coordinates":[[[-121.005961881823,50.4301700614531],[-121.00567040599,50.4303973555266],[-121.005922999595,50.4302830344267],[-121.006322387698,50.430557063541],[-121.006715154553,50.4308737833176],[-121.007138350978,50.431242900265],[-121.007265704363,50.4315321182675],[-121.007412498862,50.4321903633423],[-121.007319660498,50.4325924644435],[-121.00705410615,50.4326144838377],[-121.007548445782,50.4326902485289],[-121.007645651352,50.4323018983147],[-121.00758732801,50.4319287369889],[-121.007418979233,50.4313516491099],[-121.007306699755,50.4311740559548],[-121.007118909864,50.4309839701638],[-121.006685006739,50.4306465791192],[-121.005961881823,50.4301700614531]]]}},{"type":"Feature","id":"939585115","properties":{"name":"SP_40KPH_%TR_HMT EMPTY22_ROUGH_SECTION_SEPT 21_DS","oid":"939585115","speedLimit":11.111111},"geometry":{"type":"Polygon","coordinates":[[[-121.007520411132,50.4327112792972],[-121.007046921391,50.4338270783966],[-121.006950279331,50.4340181528135],[-121.006753895904,50.4342996415593],[-121.00579085637,50.4352900649242],[-121.005291586021,50.4350887447484],[-121.005661953331,50.4351667563165],[-121.006612173,50.4341291485354],[-121.006756995212,50.4339277384845],[-121.006963240074,50.4334119454091],[-121.007227244768,50.43278317936],[-121.00703086134,50.432653759247],[-121.007520411132,50.4327112792972]]]}},{"type":"Feature","id":"940771585","properties":{"name":"SP_15KPH_%TR_1660_HMT_SEPT20_NS","oid":"940771585","speedLimit":4.1666665},"geometry":{"type":"Polygon","coordinates":[[[-121.002711130325,50.4281184830365],[-121.002605894729,50.427711348931],[-121.00223425952,50.4276979575443],[-121.002507703016,50.4277963707552],[-121.002535737666,50.4281139892826],[-121.002676051793,50.4280826228802],[-121.002711130325,50.4281184830365]]]}},{"type":"Feature","id":"940772885","properties":{"name":"SP_11KPH_%TR_1654_HMT_SEPT20_NS","oid":"940772885","speedLimit":3.0555556},"geometry":{"type":"Polygon","coordinates":[[[-121.004064541794,50.4264900364895],[-121.004415186235,50.4266376113683],[-121.004611428784,50.4261544429464],[-121.004380107703,50.4258055478917],[-121.003973393962,50.425550482419],[-121.003538504693,50.4259173524894],[-121.003840123716,50.4258323306651],[-121.004183724275,50.4261097750324],[-121.004148645743,50.4264900364895],[-121.004064541794,50.4264900364895]]]}},{"type":"Feature","id":"940778315","properties":{"name":"SP_25KPH_%TR_HMT_SPILLING_ROCK_IN_CORNER_SEPT21_DS","oid":"940778315","speedLimit":6.9444447},"geometry":{"type":"Polygon","coordinates":[[[-121.004786821444,50.4367080240374],[-121.00477273368,50.4370436175805],[-121.004990107875,50.4372762142836],[-121.005123378121,50.4371688135648],[-121.004892057039,50.4369362168617],[-121.004885013157,50.4367572755804],[-121.005200579067,50.4367975396156],[-121.00480076833,50.4366991264047],[-121.004786821444,50.4367080240374]]]}},{"type":"Feature","id":"941544052","properties":{"name":"SP_11KPH_%TR_TEMP_LOADED_SPILL_SEPT20_NS","oid":"941544052","speedLimit":3.0555556},"geometry":{"type":"Polygon","coordinates":[[[-121.012794729023,50.4562997126461],[-121.012427601898,50.4565454311107],[-121.012324761222,50.4564643637899],[-121.012556786692,50.4564001031088],[-121.012778528094,50.4563099584051],[-121.012794729023,50.4562997126461]]]}}]}