{"type":"FeatureCollection","features":[{"type":"Feature","id":"702602533","properties":{"name":"iSP_4KPH_%TR_CR01_SLOW BUMP","oid":"702602533","speedLimit":1.1111112},"geometry":{"type":"Polygon","coordinates":[[[-121.033359484519,50.464807842129],[-121.033654227617,50.464690825641],[-121.033697621916,50.4647315387509],[-121.033369769531,50.4648696757264],[-121.033359484519,50.464807842129]]]}},{"type":"Feature","id":"707947583","properties":{"name":"iSP_22KPH_%TR_Permission Gate 1 from west dump_Jun","oid":"707947583","speedLimit":6.111111},"geometry":{"type":"Polygon","coordinates":[[[-121.038629074076,50.4619779664305],[-121.038855767023,50.4617994758428],[-121.03798154096,50.461351002513],[-121.03774442211,50.4615422552676],[-121.037960548263,50.4614965091905],[-121.038667537205,50.4618460307896],[-121.038629074076,50.4619779664305]]]}},{"type":"Feature","id":"742345972","properties":{"name":"iSP_4KPH_%TR_CR01_PITSIDE_SLOW BUMP","oid":"742345972","speedLimit":1.1111112},"geometry":{"type":"Polygon","coordinates":[[[-121.033399356553,50.464882797391],[-121.033706638913,50.4647443009178],[-121.033756795961,50.4647763860839],[-121.033475296577,50.4649182977848],[-121.033399356553,50.464882797391]]]}},{"type":"Feature","id":"776427243","properties":{"name":"iSP_7KPH_%TR_CR1_PermissionBlocker_DO_NOT_DELETE","oid":"776427243","speedLimit":1.9444444},"geometry":{"type":"Polygon","coordinates":[[[-121.034100568981,50.4652128162421],[-121.034052102621,50.4652331278598],[-121.034030969034,50.465274559965],[-121.034116630508,50.4652254885346],[-121.034100568981,50.4652128162421]]]}},{"type":"Feature","id":"794004438","properties":{"name":"iSP_11KPH_%TR_LOWER_FUEL_BAY","oid":"794004438","speedLimit":3.0555556},"geometry":{"type":"Polygon","coordinates":[[[-121.036777349153,50.4606954585315],[-121.036779462512,50.4607252968372],[-121.036749734599,50.4606708329418],[-121.037125912454,50.4605991131588],[-121.037535904048,50.4605560633141],[-121.03754365303,50.4605814078991],[-121.036945149837,50.4606502517008],[-121.036777349153,50.4606954585315]]]}},{"type":"Feature","id":"801543391","properties":{"name":"iSP_4KPH_%TR_CR1_PermissionBlocker_DO_NOT_DELETE_","oid":"801543391","speedLimit":1.1111112},"geometry":{"type":"Polygon","coordinates":[[[-121.033156038518,50.4645232997318],[-121.033155193174,50.4644738688037],[-121.033176749433,50.4644318075776],[-121.033108699282,50.4644593990229],[-121.033156038518,50.4645232997318]]]}},{"type":"Feature","id":"806473874","properties":{"name":"iSP_4KPH_%TR_Permission Blocker - DO NOT DELETE","oid":"806473874","speedLimit":1.1111112},"geometry":{"type":"Polygon","coordinates":[[[-121.022719991309,50.481545064521],[-121.022686882023,50.4815427277862],[-121.022679273931,50.4815713977246],[-121.022701393752,50.4815724762175],[-121.022705479579,50.4815483898744],[-121.022719991309,50.481545064521]]]}},{"type":"Feature","id":"824566967","properties":{"name":"iSP_4Cr_3KPH","oid":"824566967","speedLimit":0.8333333},"geometry":{"type":"Polygon","coordinates":[[[-121.023302855648,50.4810681908761],[-121.023282708295,50.4810681908761],[-121.023280031374,50.4811862858572],[-121.023305109897,50.4811855668619],[-121.023302855648,50.4810681908761]]]}},{"type":"Feature","id":"826307302","properties":{"name":"iSP_4KPH_TR%_CRUSHER POCKETS","oid":"826307302","speedLimit":1.1111112},"geometry":{"type":"Polygon","coordinates":[[[-121.023298065368,50.4813213671026],[-121.023337514731,50.481477029589],[-121.023542228747,50.4814375747209],[-121.023461216663,50.4811887124664],[-121.023052915755,50.4811894314617],[-121.023058269597,50.4813601029754],[-121.023283130967,50.4813261304466],[-121.023298065368,50.4813213671026]]]}},{"type":"Feature","id":"853029148","properties":{"name":"SP_15KPH_%TR_1635 Flats_AUG_29_DS","oid":"853029148","speedLimit":4.1666665},"geometry":{"type":"Polygon","coordinates":[[[-121.017602845362,50.4567739681909],[-121.016439089153,50.4570839450475],[-121.014801517915,50.4577460498613],[-121.013837403661,50.4588994981007],[-121.014982703204,50.4587965918958],[-121.019118687136,50.4574577327387],[-121.019253378533,50.4570347837426],[-121.018435649594,50.4568996126228],[-121.017981418357,50.4568029976269],[-121.017602845362,50.4567739681909]]]}},{"type":"Feature","id":"855316169","properties":{"name":"SP_25KPH_TR%_CRUSHER YARD EMPTY_AUG_29_DS","oid":"855316169","speedLimit":6.9444447},"geometry":{"type":"Polygon","coordinates":[[[-121.037912786356,50.462234827508],[-121.037771332211,50.4621194287594],[-121.03759676878,50.4622032815884],[-121.037546329951,50.4622375237404],[-121.037609448932,50.4622264691874],[-121.037905882717,50.4624612211589],[-121.03772018893,50.4625137976915],[-121.038123417776,50.4625063381151],[-121.038121727089,50.4624941151947],[-121.037912786356,50.462234827508]]]}},{"type":"Feature","id":"883050998","properties":{"name":"iSP_22kph_%TR_4CR_Brake_Temp_CTRL_NOREMOVE","oid":"883050998","speedLimit":6.111111},"geometry":{"type":"Polygon","coordinates":[[[-121.031799684882,50.4745589465105],[-121.032188965561,50.4743123311164],[-121.032490612298,50.4745746745331],[-121.032792259034,50.4748020568025],[-121.032970062949,50.4748844716409],[-121.033178862792,50.4749346215644],[-121.033462757315,50.4749594269028],[-121.033666625988,50.4749218593975],[-121.033827804814,50.4748624524093],[-121.033918961021,50.4748104151231],[-121.03400828565,50.4747472334095],[-121.034058724478,50.47465807799],[-121.034052947964,50.4745478919575],[-121.03405675201,50.4744835418765],[-121.033994619263,50.4743795571786],[-121.033876271174,50.4742594849605],[-121.033509392098,50.4739375548067],[-121.033061078265,50.4735599025157],[-121.032947802237,50.4734253605168],[-121.032822832291,50.4732208063487],[-121.032606001685,50.4728148436171],[-121.032252507214,50.4722089103126],[-121.032487512705,50.4721560641567],[-121.032430452019,50.4722055849593],[-121.032902999032,50.4730487867188],[-121.033042198927,50.4733095123961],[-121.033250012536,50.4735468707256],[-121.033742988683,50.4739615512754],[-121.034098032951,50.47427107876],[-121.034203419106,50.4743943864571],[-121.034256112184,50.4744616125193],[-121.034263156713,50.4745927392905],[-121.03423821908,50.4746787491054],[-121.034183694425,50.474791541496],[-121.034086198142,50.4748757538227],[-121.033973344785,50.47493758742],[-121.033790750591,50.4750160477842],[-121.033531230138,50.4750643103449],[-121.033263256251,50.4750679951959],[-121.033071645059,50.475026203593],[-121.032807897889,50.4749164669326],[-121.032657144966,50.4748350407128],[-121.032495543468,50.4747052620578],[-121.0321450077,50.4744129904609],[-121.031799684882,50.4745589465105]]]}},{"type":"Feature","id":"883053336","properties":{"name":"iSP_22kph_%TR_Brake_Temp_CTRL_NOREMOVE","oid":"883053336","speedLimit":6.111111},"geometry":{"type":"Polygon","coordinates":[[[-121.032466238227,50.4721451893525],[-121.032251380089,50.4722254472049],[-121.031488739367,50.4710082780054],[-121.030816832181,50.4699233140701],[-121.030661570759,50.4696601617836],[-121.030596761091,50.469457674727],[-121.03055040809,50.4692567155356],[-121.030596761091,50.4689728921337],[-121.030722999053,50.4686242692787],[-121.030884741441,50.4683754968986],[-121.031089173676,50.4680977849568],[-121.031688522213,50.4675365192365],[-121.032432424487,50.4668936475475],[-121.03278873677,50.46655616912],[-121.033147866864,50.4662223755434],[-121.033484736246,50.4658706969584],[-121.033779761125,50.4660340886444],[-121.033587727262,50.4659932856601],[-121.032919624121,50.4666520651205],[-121.032554858403,50.466991251162],[-121.032178821439,50.4673076989764],[-121.031774606359,50.467668365003],[-121.031382226087,50.4680344234944],[-121.031147361487,50.4682863414791],[-121.031009006935,50.4684698650341],[-121.030905311466,50.4686544670821],[-121.03082880788,50.4688529996643],[-121.030767943149,50.4691912869616],[-121.030776678365,50.4694006044736],[-121.030873892867,50.4696303234778],[-121.031027886273,50.4699350876184],[-121.031330801025,50.4704037826915],[-121.031530865652,50.4707109734413],[-121.031750514069,50.4710828737697],[-121.032146275715,50.4717288011888],[-121.032381562987,50.4721450994781],[-121.032466238227,50.4721451893525]]]}},{"type":"Feature","id":"883059532","properties":{"name":"iSP_22kph_%TR_Brake_CTRL_NOREMOVE","oid":"883059532","speedLimit":6.111111},"geometry":{"type":"Polygon","coordinates":[[[-121.027262444572,50.4773219556444],[-121.027030256892,50.4772097923748],[-121.02733472144,50.4769440337302],[-121.027716675809,50.4766324391342],[-121.028033397838,50.4763227319008],[-121.028190631728,50.4761687770283],[-121.028621475128,50.4756923527555],[-121.02890748301,50.4753257550175],[-121.029264077074,50.4748876172454],[-121.029472876917,50.4746567298738],[-121.029691679991,50.4745404323811],[-121.029801715536,50.4744882153461],[-121.029952468459,50.4745926494161],[-121.029788894493,50.4745420501206],[-121.029556284141,50.474791541496],[-121.029252101374,50.4751730583868],[-121.029073170335,50.4754780022762],[-121.028853381026,50.4757747675938],[-121.028696288027,50.4759747381667],[-121.028409153021,50.4762706047402],[-121.028041851273,50.4765699764159],[-121.027244128796,50.4772194089372],[-121.027262444572,50.4773219556444]]]}},{"type":"Feature","id":"891249991","properties":{"name":"SP_30KPH_TR%_1590 #1_AUG_29_DS","oid":"891249991","speedLimit":8.333333},"geometry":{"type":"Polygon","coordinates":[[[-121.012957119303,50.4498607383308],[-121.013847688673,50.4497488446844],[-121.013379086597,50.4450041945788],[-121.012138967692,50.443083847958],[-121.011299682493,50.4419103577241],[-121.010529856352,50.4421497831651],[-121.011008884332,50.4427017019463],[-121.01124093112,50.4430299233091],[-121.011456493711,50.443520008493],[-121.011774483755,50.4445106941672],[-121.012957119303,50.4498607383308]]]}},{"type":"Feature","id":"893804793","properties":{"name":"SP_35KPH_%TR_1590Dynamic_AUG_29_DS","oid":"893804793","speedLimit":9.722222},"geometry":{"type":"Polygon","coordinates":[[[-121.011186688246,50.4418408848014],[-121.010484348694,50.4421101485482],[-121.005982049247,50.4380482743717],[-121.006514615648,50.4376817665082],[-121.010067453461,50.4407334522624],[-121.011186688246,50.4418408848014]]]}},{"type":"Feature","id":"903864124","properties":{"name":"SP_15KPH_%TR_OLD_GARBAGEDUMP_AUG_29_DS","oid":"903864124","speedLimit":4.1666665},"geometry":{"type":"Polygon","coordinates":[[[-121.042485671984,50.4669870270645],[-121.042132459294,50.4673287295895],[-121.042023973546,50.466979118116],[-121.041014210743,50.4664999976107],[-121.041217374962,50.4664449944689],[-121.042485671984,50.4669870270645]]]}},{"type":"Feature","id":"908328496","properties":{"name":"SP_15KPH_%TR_9019_SOFT_GROUND_AUG_29_DS","oid":"908328496","speedLimit":4.1666665},"geometry":{"type":"Polygon","coordinates":[[[-121.038886340279,50.4644515799488],[-121.038900711118,50.464753018736],[-121.039380020879,50.4648989747856],[-121.038731360639,50.4665301055397],[-121.038276002277,50.4671547327225],[-121.037820643915,50.4675725588768],[-121.037502794761,50.4696996166517],[-121.03546974366,50.4697242422413],[-121.035228961654,50.4668159061787],[-121.037881790428,50.4651399280917],[-121.038520870109,50.4648144029613],[-121.038886340279,50.4644515799488]]]}},{"type":"Feature","id":"910445950","properties":{"name":"SP_25KPH_%TR_1635_FLATS_AUG_29_DS","oid":"910445950","speedLimit":6.9444447},"geometry":{"type":"Polygon","coordinates":[[[-121.020225805332,50.4571641130255],[-121.019044719581,50.4569612664714],[-121.018651071294,50.456922620473],[-121.017843063805,50.4571469470123],[-121.018449034199,50.4564124932946],[-121.018505390432,50.4561073696564],[-121.019236189882,50.4561250749161],[-121.019236753444,50.4564588684927],[-121.019424560591,50.4568918834231],[-121.019757907708,50.4570619258159],[-121.020225805332,50.4571641130255]]]}},{"type":"Feature","id":"917291012","properties":{"name":"SP_20KPH_%TR_CORNER_RUTS_AUG_29_DS","oid":"917291012","speedLimit":5.5555553},"geometry":{"type":"Polygon","coordinates":[[[-121.040610700115,50.4662213869249],[-121.040684949452,50.4661072464181],[-121.04042303386,50.4659262393467],[-121.040121246233,50.4658981086549],[-121.040017128092,50.4663105423443],[-121.039934143539,50.4664858873276],[-121.039995290052,50.4668200404018],[-121.04066747902,50.4667392433029],[-121.040549553603,50.4666223166892],[-121.04053208317,50.4663773190345],[-121.040610700115,50.4662213869249]]]}},{"type":"Feature","id":"917665392","properties":{"name":"SP_15KPH_%TR_22SH RUTS_AUG 29_DS","oid":"917665392","speedLimit":4.1666665},"geometry":{"type":"Polygon","coordinates":[[[-121.035647970246,50.4455197142221],[-121.03521571794,50.4452078500027],[-121.033734253467,50.4447560513196],[-121.033078266916,50.4452864002413],[-121.035586541952,50.4459567735012],[-121.036391027177,50.4468446428449],[-121.036872732078,50.4466102503711],[-121.035647970246,50.4455197142221]]]}},{"type":"Feature","id":"920440343","properties":{"name":"iSP_17KPH_CAL_PAD_ROAD_LIMIT_AUG_23_NS","oid":"920440343","speedLimit":4.7222223},"geometry":{"type":"Polygon","coordinates":[[[-121.005955561818,50.4378308681623],[-121.005969228204,50.4376131923297],[-121.005586992055,50.4375784109312],[-121.005286754224,50.4376828450012],[-121.005191230409,50.4378351821342],[-121.005286754224,50.4381616958832],[-121.005989657339,50.4392587928645],[-121.007470558249,50.4413701226168],[-121.007675272265,50.4416487333026],[-121.007784462466,50.4421537376393],[-121.007934651827,50.442663055948],[-121.008118936708,50.4432333091098],[-121.008323650724,50.4436512251386],[-121.008685316849,50.4445611137139],[-121.008760411529,50.4449224088614],[-121.008760411529,50.4451792699388],[-121.008692220488,50.445618935576],[-121.00849426922,50.4462283739827],[-121.008944696411,50.4462153421925],[-121.00913574404,50.4457321773386],[-121.009320028922,50.4449180948894],[-121.009217601469,50.4444522757976],[-121.008999221066,50.4437992482997],[-121.008774077916,50.443377018299],[-121.008460173699,50.4427370225913],[-121.008296317951,50.4420753671496],[-121.008241793296,50.4417445394288],[-121.00792098544,50.4411959460009],[-121.006815417041,50.4398333599983],[-121.006603940277,50.4394938144592],[-121.006228607766,50.4387798521081],[-121.005989657339,50.438388089534],[-121.005935132684,50.4380572618132],[-121.005955561818,50.4378308681623]]]}},{"type":"Feature","id":"922262468","properties":{"name":"SP_20kph_HMT_DUMP_AUG_29_DS","oid":"922262468","speedLimit":5.5555553},"geometry":{"type":"Polygon","coordinates":[[[-121.012501760941,50.4364265804312],[-121.012481895369,50.4374172661055],[-121.016364276253,50.4384078619053],[-121.017180596287,50.436959985083],[-121.016523623502,50.435905848072],[-121.014771508221,50.4353089022089],[-121.012900058617,50.4352073441202],[-121.012501760941,50.4364265804312]]]}},{"type":"Feature","id":"923351007","properties":{"name":"iSP_17KPH_PERMISSIONS_AUG 18_NS","oid":"923351007","speedLimit":4.7222223},"geometry":{"type":"Polygon","coordinates":[[[-121.038854076336,50.4608772744726],[-121.038873519236,50.4611348545454],[-121.038784194607,50.4608895872674],[-121.038539467666,50.4608895872674],[-121.03853566362,50.4608301802792],[-121.038881268218,50.4608227207028],[-121.038854076336,50.4608772744726]]]}},{"type":"Feature","id":"923607825","properties":{"name":"MRK_CROSS DITCH ","oid":"923607825","speedLimit":2.7777777},"geometry":{"type":"Polygon","coordinates":[[[-121.035186130917,50.4458454191013],[-121.03561753788,50.4454861011909],[-121.035587105515,50.4454714516613],[-121.035137805448,50.4458266353486],[-121.035186130917,50.4458454191013]]]}},{"type":"Feature","id":"924266047","properties":{"name":"SP_12KPH_%TR_CROSS DITCH_AUG_29_DS ","oid":"924266047","speedLimit":3.3333333},"geometry":{"type":"Polygon","coordinates":[[[-121.03761621168,50.4473123492995],[-121.037894188799,50.4474715168881],[-121.037657774402,50.4477507566948],[-121.037463063617,50.447692068702],[-121.037268211942,50.4475133983654],[-121.03761621168,50.4473123492995]]]}},{"type":"Feature","id":"926023128","properties":{"name":"SP_10KPH_TR%_4CR_1_AUG_27_DS","oid":"926023128","speedLimit":2.7777777},"geometry":{"type":"Polygon","coordinates":[[[-121.022862431688,50.4811967112893],[-121.022835944259,50.4815102831225],[-121.022151638701,50.4816162450575],[-121.021885919062,50.4812730146674],[-121.021893527154,50.4811096229814],[-121.022493298362,50.4810276575151],[-121.022510346123,50.4812221457487],[-121.022822559653,50.4810186700736],[-121.022982047792,50.4812602525006],[-121.022862431688,50.4811967112893]]]}},{"type":"Feature","id":"926367691","properties":{"name":"SP_20KPH_%TR_AUG_27_NS","oid":"926367691","speedLimit":5.5555553},"geometry":{"type":"Polygon","coordinates":[[[-121.038604559115,50.4502033396],[-121.037911800122,50.450261398472],[-121.038245710802,50.4520115229512],[-121.0384776167,50.4519886049754],[-121.039664478965,50.4519357588195],[-121.039538522784,50.4510983090225],[-121.038604559115,50.4502033396]]]}},{"type":"Feature","id":"927804884","properties":{"name":"ATT_Rut/Hole_10x10 4239","oid":"927804884","speedLimit":3.3333333},"geometry":{"type":"Polygon","coordinates":[[[-121.013584645956,50.4366503677241],[-121.014653582804,50.436505400293],[-121.014586096215,50.4372812861159],[-121.013566330181,50.4370265820244],[-121.013584645956,50.4366503677241]]]}},{"type":"Feature","id":"928024354","properties":{"name":"SP_15KPH_BOUNCING TRUCKS_AUG 29_DS","oid":"928024354","speedLimit":4.1666665},"geometry":{"type":"Polygon","coordinates":[[[-121.039959785625,50.4633924998449],[-121.039603614233,50.4634726678229],[-121.039851581658,50.4634927098174],[-121.039195031545,50.4648204245471],[-121.038940160482,50.4647669492703],[-121.039366213602,50.4649273751007],[-121.039980778322,50.4639494515934],[-121.040040093257,50.4635662270887],[-121.039998248754,50.4634459751217],[-121.039959785625,50.4633924998449]]]}},{"type":"Feature","id":"928367549","properties":{"name":"SP_10KPH_PUNCH OUT_AIG 29_DS","oid":"928367549","speedLimit":2.7777777},"geometry":{"type":"Polygon","coordinates":[[[-121.041885055432,50.466759195423],[-121.041872234389,50.4667734854549],[-121.04160383783,50.4669815447252],[-121.042057646395,50.4672322943424],[-121.042393388652,50.4670794179629],[-121.041885055432,50.466759195423]]]}}]}