{"type":"FeatureCollection","features":[{"type":"Feature","id":"702602533","properties":{"name":"iSP_4KPH_%TR_CR01_Slow Bump","oid":"702602533","speedLimit":1.1111112},"geometry":{"type":"Polygon","coordinates":[[[-121.033359201358,50.4648079653144],[-121.033653917376,50.4646909478192],[-121.033697307689,50.4647316612795],[-121.033369485425,50.464869799444],[-121.033359201358,50.4648079653144]]]}},{"type":"Feature","id":"707947583","properties":{"name":"iSP_25KPH_%TR_Permission Gate 1 From West Dump","oid":"707947583","speedLimit":6.9444447},"geometry":{"type":"Polygon","coordinates":[[[-121.038628306775,50.4619780652594],[-121.038854978895,50.4617995731353],[-121.038140024882,50.4614083464405],[-121.037992385117,50.461671051616],[-121.038191867853,50.4615669761479],[-121.038666766371,50.4618461284829],[-121.038628306775,50.4619780652594]]]}},{"type":"Feature","id":"742345972","properties":{"name":"iSP_4KPH_%TR_CR01_Pit Side_Slow Bump","oid":"742345972","speedLimit":1.1111112},"geometry":{"type":"Polygon","coordinates":[[[-121.033399069729,50.4648829212215],[-121.033706323858,50.4647444235563],[-121.033756476297,50.4647765089985],[-121.033475002776,50.4649184219209],[-121.033399069729,50.4648829212215]]]}},{"type":"Feature","id":"776427243","properties":{"name":"iSP_7KPH_%TR_CR1_PermissionBlocker","oid":"776427243","speedLimit":1.9444444},"geometry":{"type":"Polygon","coordinates":[[[-121.034100217734,50.4652129429131],[-121.034051755826,50.4652332547056],[-121.03403062418,50.4652746871675],[-121.034116277784,50.4652256153146],[-121.034100217734,50.4652129429131]]]}},{"type":"Feature","id":"794004438","properties":{"name":"iSP_11KPH_%TR_Lower_Fuel_Bay","oid":"794004438","speedLimit":3.0555556},"geometry":{"type":"Polygon","coordinates":[[[-121.036776751979,50.4606955463218],[-121.036778865143,50.4607253848844],[-121.036749139962,50.4606709205202],[-121.037125283255,50.46059920012],[-121.037535237182,50.4605561499047],[-121.037542985452,50.4605814947078],[-121.036944537246,50.4606503391021],[-121.036776751979,50.4606955463218]]]}},{"type":"Feature","id":"801543391","properties":{"name":"iSP_4KPH_%TR_CR01_PermissionBlocker_2","oid":"801543391","speedLimit":1.1111112},"geometry":{"type":"Polygon","coordinates":[[[-121.033155774048,50.4645234204682],[-121.033154928782,50.4644739891146],[-121.033176483061,50.4644319275264],[-121.033108439162,50.4644595192093],[-121.033155774048,50.4645234204682]]]}},{"type":"Feature","id":"806473874","properties":{"name":"iSP_4KPH_%TR_CR04_PermissionBlocker","oid":"806473874","speedLimit":1.1111112},"geometry":{"type":"Polygon","coordinates":[[[-121.022720685644,50.4815453317627],[-121.022687579399,50.4815429950078],[-121.022679972006,50.4815716651929],[-121.022702089795,50.4815727436951],[-121.022706175247,50.4815486571446],[-121.022720685644,50.4815453317627]]]}},{"type":"Feature","id":"824566967","properties":{"name":"iSP_3KPH_%TR_CR04","oid":"824566967","speedLimit":0.8333333},"geometry":{"type":"Polygon","coordinates":[[[-121.023303496432,50.4810684540134],[-121.02328335093,50.4810684540134],[-121.023280674255,50.4811865500109],[-121.023305750474,50.4811858310094],[-121.023303496432,50.4810684540134]]]}},{"type":"Feature","id":"826307302","properties":{"name":"iSP_4KPH_%TR_CR04_Pockets","oid":"826307302","speedLimit":1.1111112},"geometry":{"type":"Polygon","coordinates":[[[-121.023298706592,50.4813216324189],[-121.023338152331,50.4814772962451],[-121.023542847539,50.4814378410374],[-121.023461842897,50.4811889766409],[-121.023053579502,50.4811896956424],[-121.023058932852,50.4813603686251],[-121.023283773563,50.4813263958039],[-121.023298706592,50.4813216324189]]]}},{"type":"Feature","id":"883050998","properties":{"name":"iSP_22KPH_%TR_4CR_Brake_Temp_Ctrl","oid":"883050998","speedLimit":6.111111},"geometry":{"type":"Polygon","coordinates":[[[-121.031799545027,50.4745591536231],[-121.032188789941,50.4743125361063],[-121.032490408964,50.4745748817811],[-121.032792027987,50.4748022660076],[-121.032969815566,50.4748846815552],[-121.033178596226,50.4749348319103],[-121.033462464666,50.4749596374623],[-121.033666314609,50.4749220696336],[-121.033827478626,50.4748626621341],[-121.033918626458,50.4748106244001],[-121.034007942881,50.4747474421427],[-121.034058377075,50.4746582859558],[-121.034052601092,50.4745480989749],[-121.034056404788,50.4744837483401],[-121.03399427775,50.4743797627472],[-121.033875940534,50.4742596894956],[-121.033509095164,50.473937756571],[-121.03306082252,50.4735601010296],[-121.032947556899,50.4734255578726],[-121.032822598434,50.473221001944],[-121.032605787749,50.4728150357183],[-121.032252325756,50.4722090971986],[-121.032487309656,50.4721562505878],[-121.032430254212,50.4722057718166],[-121.03290275781,50.4730489808335],[-121.033041944917,50.4733097087549],[-121.033249739433,50.4735470691273],[-121.033742670288,50.4739617532462],[-121.034097681936,50.4742712833949],[-121.034203058409,50.4743945921533],[-121.034255746646,50.4744618187941],[-121.034262790528,50.4745929466939],[-121.034237855186,50.4746789572492],[-121.03418333554,50.4747917506105],[-121.034085848215,50.474875963662],[-121.033973005227,50.4749377977916],[-121.033790427808,50.475016258831],[-121.033530931198,50.4750645218071],[-121.033262981931,50.4750682066898],[-121.033071388343,50.4750264147273],[-121.032807665405,50.4749166771223],[-121.032656926332,50.4748352502017],[-121.032495339681,50.4747054704297],[-121.032144836118,50.4744131963172],[-121.031799545027,50.4745591536231]]]}},{"type":"Feature","id":"883053336","properties":{"name":"iSP_22KPH_%TR_Brake_Temp_Ctrl","oid":"883053336","speedLimit":6.111111},"geometry":{"type":"Polygon","coordinates":[[[-121.032466037132,50.47214537569],[-121.032251198734,50.4722256342332],[-121.03148862808,50.4710084545576],[-121.030816782624,50.469923481284],[-121.030661535467,50.4696603267326],[-121.030596731753,50.4694578379333],[-121.03055038301,50.4692568770122],[-121.030596731753,50.4689730511674],[-121.030722958117,50.4686244253118],[-121.030884685645,50.4683756507905],[-121.031089099098,50.4680979364586],[-121.03168839257,50.4675366659074],[-121.032432226499,50.4668937886853],[-121.032788506046,50.4665563073531],[-121.033147603145,50.4662225109036],[-121.033484441578,50.4658708292917],[-121.033779439352,50.4660342223841],[-121.033587423131,50.4659934190486],[-121.032919381372,50.466652204179],[-121.032554649167,50.4669913931398],[-121.032178646751,50.467307843678],[-121.031774468807,50.4676685128087],[-121.031382124585,50.4680345744508],[-121.031147281563,50.4682864946037],[-121.031008939722,50.4684700197383],[-121.030905253781,50.4686546233751],[-121.030828757223,50.4688531576662],[-121.030767898084,50.469191447875],[-121.030776632497,50.4694007671887],[-121.030873838067,50.4696304881701],[-121.031027817326,50.4699352549337],[-121.031330704248,50.4704039540409],[-121.031530750494,50.4707111474346],[-121.031750378731,50.4710830509639],[-121.032146104016,50.4717289839425],[-121.032381369672,50.4721452858148],[-121.032466037132,50.47214537569]]]}},{"type":"Feature","id":"883059532","properties":{"name":"iSP_22KPH_%TR_Brake_Ctrl","oid":"883059532","speedLimit":6.111111},"geometry":{"type":"Polygon","coordinates":[[[-121.027262721572,50.4773221865381],[-121.027030555224,50.477210022303],[-121.0273349918,50.4769442613711],[-121.027716911077,50.4766326640932],[-121.028033604007,50.4763229541942],[-121.028190823451,50.4761689979965],[-121.028621627268,50.4756925696232],[-121.028907608873,50.47532596873],[-121.029264170175,50.4748878271868],[-121.029472950835,50.474656937828],[-121.029691733807,50.4745406393343],[-121.029801759242,50.4744884218499],[-121.029952498315,50.4745928568187],[-121.029788939377,50.4745422570877],[-121.029556350396,50.4747917506105],[-121.029252195576,50.475173270785],[-121.029073280976,50.475478217299],[-121.02885351186,50.4757749851709],[-121.028696433294,50.4759749574649],[-121.028409324668,50.4762708265849],[-121.028042056665,50.4765702008373],[-121.027244407479,50.4772196389482],[-121.027262721572,50.4773221865381]]]}},{"type":"Feature","id":"884401102","properties":{"name":"iSP_30KPH_%TR_Maint_Limit_Policy","oid":"884401102","speedLimit":8.333333},"geometry":{"type":"Polygon","coordinates":[[[-121.036992294765,50.4611014226724],[-121.037108377939,50.4611078936859],[-121.038294567651,50.4609922243185],[-121.038278225845,50.4603980594485],[-121.038119738502,50.4605659463003],[-121.037032726647,50.4607085782242],[-121.03674505451,50.4605379052415],[-121.036992294765,50.4611014226724]]]}},{"type":"Feature","id":"908328496","properties":{"name":"SP_25KPH_%TR_1445_SOFT_GROUND_SEPT_21_DS","oid":"908328496","speedLimit":6.9444447},"geometry":{"type":"Polygon","coordinates":[[[-121.039331286189,50.4644969072876],[-121.039940300218,50.4647091924825],[-121.039188577142,50.4666748527265],[-121.038826380735,50.4674279169296],[-121.038451646217,50.467894369157],[-121.037914761539,50.4682380518772],[-121.037179802901,50.4680259464327],[-121.038312740866,50.4667053204154],[-121.038793415367,50.465566062528],[-121.039331286189,50.4644969072876]]]}},{"type":"Feature","id":"910445950","properties":{"name":"SP_22KPH_%TR_1635_FLATS_SEP_21_DS","oid":"910445950","speedLimit":6.111111},"geometry":{"type":"Polygon","coordinates":[[[-121.017370998217,50.4554939299218],[-121.018004102322,50.4544142592844],[-121.018149347167,50.4539985865383],[-121.018533943119,50.4537516095208],[-121.018949954784,50.4536881576378],[-121.018867823121,50.4543417300074],[-121.018263035421,50.4560721868836],[-121.018277123185,50.4557009124806],[-121.017370998217,50.4554939299218]]]}},{"type":"Feature","id":"915576987","properties":{"name":"iSP_15KPH_%TR_Preventing Shifting","oid":"915576987","speedLimit":4.1666665},"geometry":{"type":"Polygon","coordinates":[[[-121.036997788993,50.4448633128953],[-121.037511851494,50.4453132280881],[-121.037981114906,50.4457956780991],[-121.038525043467,50.4462189902361],[-121.039457653431,50.4468500938086],[-121.039914942244,50.447099856957],[-121.040470845403,50.4471952145318],[-121.041223977256,50.4473229271744],[-121.041642383841,50.447509777691],[-121.042320850546,50.4480952246678],[-121.042703474211,50.4485279736996],[-121.042846887646,50.4487949928842],[-121.04300833342,50.4493917641347],[-121.043187529775,50.4501983040748],[-121.04332502635,50.4505014530851],[-121.043686659247,50.4511688662336],[-121.043857121189,50.4514891814048],[-121.0441260566,50.452253749632],[-121.044383158289,50.4529383289416],[-121.044696892789,50.4537982547435],[-121.044735775017,50.4541948739496],[-121.044571370814,50.4550719659126],[-121.044215795655,50.4568394513664],[-121.044051391452,50.4572074902626],[-121.043005234112,50.4583991453847],[-121.041905402391,50.4595375045202],[-121.041343582371,50.460000811116],[-121.040372231057,50.4605976722417],[-121.039923817535,50.4607311368964],[-121.039134761884,50.4608073510561],[-121.03849743145,50.4608388972472],[-121.038645212092,50.4611436640109],[-121.03875805508,50.4609497133544],[-121.039879018446,50.4608798803331],[-121.040706956325,50.4606320045637],[-121.041510945005,50.460058061611],[-121.042873795275,50.458700407016],[-121.044242562407,50.4571426003766],[-121.044427957378,50.4562903139656],[-121.044813539474,50.454421718925],[-121.044810440165,50.4537867507194],[-121.044260594744,50.452301473357],[-121.04383317199,50.4511860323946],[-121.043346017118,50.4503375207415],[-121.043050174078,50.4493097979629],[-121.042927610533,50.4486919959183],[-121.042240127659,50.4478873433572],[-121.041546727925,50.4473915918183],[-121.041092397542,50.4472219074628],[-121.040458870804,50.447130414521],[-121.039917900674,50.4470197781642],[-121.038821027384,50.4463334013509],[-121.038196375937,50.4458718922588],[-121.037153317905,50.444907082112],[-121.037377454227,50.4446974032976],[-121.036997788993,50.4448633128953]]]}},{"type":"Feature","id":"917773475","properties":{"name":"SP_15KPH_%TR_1200_CORNER_Sept_21_DS","oid":"917773475","speedLimit":4.1666665},"geometry":{"type":"Polygon","coordinates":[[[-121.037098657382,50.4446825738916],[-121.036924532621,50.4448621445179],[-121.036628971336,50.4448206221808],[-121.036414414694,50.4448699636592],[-121.036322844229,50.444967657989],[-121.036254236819,50.4450821589789],[-121.036241980465,50.4451449817356],[-121.03626311211,50.4452673018669],[-121.036315800347,50.4453515149183],[-121.036183938878,50.4453952841351],[-121.036088846472,50.445194323214],[-121.036162807232,50.4449317079136],[-121.03625959017,50.4447914127446],[-121.036516410104,50.4447151087098],[-121.036713497919,50.4447117833278],[-121.036922842089,50.444770112325],[-121.037093444909,50.4446836523938],[-121.037098657382,50.4446825738916]]]}},{"type":"Feature","id":"921770139","properties":{"name":"SP_20KPH_%TR_HIGHMONT_SEPT 21_DS","oid":"921770139","speedLimit":5.5555553},"geometry":{"type":"Polygon","coordinates":[[[-121.002081689038,50.4283003043124],[-121.00158594063,50.4284272979536],[-121.001001157554,50.4285433268217],[-121.001189651834,50.4289620553241],[-121.001583404832,50.4287564208932],[-121.001925596615,50.4286884752508],[-121.002548698408,50.4285670538714],[-121.002408102526,50.4282228319001],[-121.002081689038,50.4283003043124]]]}},{"type":"Feature","id":"926078125","properties":{"name":"EX_NewLandfill_SEP15_DS","oid":"926078125","speedLimit":4.1666665},"geometry":{"type":"Polygon","coordinates":[[[-121.011165620016,50.4603918580605],[-121.010849490597,50.460111537348],[-121.01039065213,50.4596573081462],[-121.01004352963,50.4593950523466],[-121.009792344801,50.4591367510554],[-121.00954425928,50.4588335121699],[-121.009342240747,50.4588743155054],[-121.009485372428,50.4595403805262],[-121.009693307821,50.4600622857448],[-121.010015072347,50.4603631878754],[-121.010301335707,50.4606071091365],[-121.010573088671,50.4606652583834],[-121.010855689213,50.4605663956762],[-121.011165620016,50.4603918580605]]]}},{"type":"Feature","id":"926367691","properties":{"name":"SP_30KPH_%TR_24SH_EMPTY_LANE_SEP_21_DS","oid":"926367691","speedLimit":8.333333},"geometry":{"type":"Polygon","coordinates":[[[-121.038783835688,50.4508575385812],[-121.038612669358,50.4512056251857],[-121.038638590843,50.4520121651258],[-121.038865544718,50.453598552075],[-121.039044741074,50.453575633902],[-121.038781863401,50.4517187226359],[-121.038783835688,50.4508575385812]]]}},{"type":"Feature","id":"929009157","properties":{"name":"iSP_22KPH_%TR_Long_Single_Lane","oid":"929009157","speedLimit":6.111111},"geometry":{"type":"Polygon","coordinates":[[[-121.005682803222,50.4380559863805],[-121.004753151688,50.4382240529827],[-121.005177616012,50.4381975398021],[-121.007937690696,50.443170513723],[-121.008526418345,50.4445349089571],[-121.008213529111,50.4465097364704],[-121.007835554409,50.4466802297027],[-121.008936935783,50.446646975883],[-121.008826205959,50.4465929608948],[-121.009406199195,50.4448176562996],[-121.008767319107,50.4430684155091],[-121.008265653837,50.4415401778067],[-121.007262182422,50.4401561897815],[-121.006442556324,50.4389840375753],[-121.005863549231,50.4383130294192],[-121.005682803222,50.4380559863805]]]}},{"type":"Feature","id":"929572873","properties":{"name":"SP_11KPH_%TR_1665_FLATS_WATERHOLE_SEPT 20_NS","oid":"929572873","speedLimit":3.0555556},"geometry":{"type":"Polygon","coordinates":[[[-121.053569789066,50.4666492382978],[-121.053361290161,50.4670037959158],[-121.053260985283,50.4671269249238],[-121.053006278514,50.4671859729226],[-121.052782423947,50.4671269249238],[-121.052273010408,50.4664178096879],[-121.052257654745,50.4654281041139],[-121.052736216081,50.4650982621728],[-121.053562040796,50.4651130017036],[-121.053623745201,50.4653296907827],[-121.053361290161,50.4654232508538],[-121.053369038432,50.4663440221583],[-121.053554292526,50.466634498767],[-121.053569789066,50.4666492382978]]]}},{"type":"Feature","id":"934051091","properties":{"name":"iSP_17KPH_%TR_Ramp_Permission Blocker","oid":"934051091","speedLimit":4.7222223},"geometry":{"type":"Polygon","coordinates":[[[-121.039512595709,50.4610297921473],[-121.039464556435,50.4607717604816],[-121.039017129056,50.4607923418997],[-121.039076015909,50.4610450709293],[-121.039163500922,50.4609000123753],[-121.039379466341,50.4608868905978],[-121.039512595709,50.4610297921473]]]}},{"type":"Feature","id":"934773555","properties":{"name":"SP_10KPH_NEW RAMP_SEPT 20_NS","oid":"934773555","speedLimit":2.7777777},"geometry":{"type":"Polygon","coordinates":[[[-121.033903129918,50.4443402392992],[-121.034414656622,50.4442041682641],[-121.035775111972,50.4443192085051],[-121.036277058997,50.4444736140787],[-121.035932049661,50.4447856607326],[-121.034622873771,50.4446108534913],[-121.034345203946,50.4446010570958],[-121.033903129918,50.4443402392992]]]}},{"type":"Feature","id":"936169885","properties":{"name":"SP_20KPH_%TR_24shl_loadplan_Sept_21_DS","oid":"936169885","speedLimit":5.5555553},"geometry":{"type":"Polygon","coordinates":[[[-121.039052489344,50.4535938785653],[-121.038507433762,50.45367485611],[-121.038611964969,50.4545480834398],[-121.039163500922,50.454529569151],[-121.039144200686,50.4542340595318],[-121.039099965108,50.453921114126],[-121.039077424686,50.4537567324065],[-121.039052489344,50.4535938785653]]]}},{"type":"Feature","id":"936513295","properties":{"name":"SP_30KPH_%TR_1635_FLATS_SEP_21_DS","oid":"936513295","speedLimit":8.333333},"geometry":{"type":"Polygon","coordinates":[[[-121.017287176022,50.4555553146755],[-121.018051296331,50.4557853052824],[-121.01743523842,50.457453928029],[-121.01522839022,50.4585170616318],[-121.014499630198,50.4578797566713],[-121.016178609888,50.4566195267805],[-121.017287176022,50.4555553146755]]]}},{"type":"Feature","id":"937786749","properties":{"name":"SP_30KPH_%TR_24SH_Loaded_LANE_SEP_21_DS","oid":"937786749","speedLimit":8.333333},"geometry":{"type":"Polygon","coordinates":[[[-121.038409946436,50.4510853721837],[-121.038212858621,50.4510392662121],[-121.038253431381,50.4516608430146],[-121.038479117357,50.4536763839881],[-121.038646339113,50.4536487024301],[-121.038403466065,50.4516753129199],[-121.038409946436,50.4510853721837]]]}},{"type":"Feature","id":"938065675","properties":{"name":"SP_8KPH_CR01_YARD_RUTIING_SEP_20_NS","oid":"938065675","speedLimit":2.2222223},"geometry":{"type":"Polygon","coordinates":[[[-121.034289275524,50.4648013145505],[-121.034099090713,50.4648581156695],[-121.033940885125,50.4649070976472],[-121.033829450913,50.4650050616025],[-121.034044289311,50.4650689628614],[-121.033964270813,50.4650114427408],[-121.034242645026,50.4648882238576],[-121.034319282461,50.4649374754608],[-121.034289275524,50.4648013145505]]]}},{"type":"Feature","id":"938165680","properties":{"name":"SP_10KPH_%TR_22SH_Sept20_NS","oid":"938165680","speedLimit":2.7777777},"geometry":{"type":"Polygon","coordinates":[[[-121.034631326429,50.4470558181147],[-121.035055227242,50.447250667523],[-121.035497019515,50.4474474043103],[-121.035795116597,50.446912287439],[-121.034871522802,50.4467191456592],[-121.034631326429,50.4470558181147]]]}},{"type":"Feature","id":"939481274","properties":{"name":"SP_10KPH_%TR_LRNX_PIT_BOTTOM_SEP_20_NS","oid":"939481274","speedLimit":2.7777777},"geometry":{"type":"Polygon","coordinates":[[[-121.034055418645,50.4452363848021],[-121.034062462527,50.4449962382989],[-121.03330299118,50.4447664274423],[-121.033469226793,50.4448876690714],[-121.033358074336,50.4469938042348],[-121.033815644905,50.4469741215685],[-121.033663919689,50.4469200167051],[-121.034055418645,50.4452363848021]]]}},{"type":"Feature","id":"939584863","properties":{"name":"SP_40KPH_%TR_HMT EMPTY2_ROUGH_SECTION_SEPT 21_DS","oid":"939584863","speedLimit":11.111111},"geometry":{"type":"Polygon","coordinates":[[[-121.005961881823,50.4301700677305],[-121.00567040599,50.4303973620818],[-121.005922999595,50.4302830408423],[-121.006322387698,50.4305570702915],[-121.006715154553,50.4308737904552],[-121.007138350978,50.4312429078537],[-121.007265704363,50.4315321262097],[-121.007412498862,50.4321903720891],[-121.007319660498,50.4325924736817],[-121.00705410615,50.4326144931028],[-121.007548445782,50.4326902578866],[-121.007645651352,50.4323019071978],[-121.00758732801,50.4319287454158],[-121.007418979233,50.4313516568316],[-121.007306699755,50.4311740634594],[-121.007118909864,50.4309839774361],[-121.006685006739,50.4306465859791],[-121.005961881823,50.4301700677305]]]}},{"type":"Feature","id":"939585115","properties":{"name":"SP_40KPH_%TR_HMT EMPTY22_ROUGH_SECTION_SEPT 21_DS","oid":"939585115","speedLimit":11.111111},"geometry":{"type":"Polygon","coordinates":[[[-121.007520411132,50.4327112886807],[-121.007046921391,50.4338270891438],[-121.006950279331,50.4340181637942],[-121.006753895904,50.4342996528841],[-121.00579085637,50.4352900774595],[-121.005291586021,50.4350887570377],[-121.005661953331,50.4351667687012],[-121.006612173,50.4341291596518],[-121.006756995212,50.4339277493548],[-121.006963240074,50.4334119556489],[-121.007227244768,50.4327831888313],[-121.00703086134,50.4326537685601],[-121.007520411132,50.4327112886807]]]}},{"type":"Feature","id":"940771585","properties":{"name":"SP_15KPH_%TR_1660_HMT_SEPT20_NS","oid":"940771585","speedLimit":4.1666665},"geometry":{"type":"Polygon","coordinates":[[[-121.002711130325,50.4281184868064],[-121.002605894729,50.4277113522033],[-121.00223425952,50.4276979608002],[-121.002507703016,50.4277963741314],[-121.002535737666,50.428113993047],[-121.002676051793,50.4280826266063],[-121.002711130325,50.4281184868064]]]}},{"type":"Feature","id":"940772885","properties":{"name":"SP_11KPH_%TR_1654_HMT_SEPT20_NS","oid":"940772885","speedLimit":3.0555556},"geometry":{"type":"Polygon","coordinates":[[[-121.004064541794,50.426490038269],[-121.004415186235,50.4266376133283],[-121.004611428784,50.4261544443158],[-121.004380107703,50.4258055488347],[-121.003973393962,50.4255504830502],[-121.003538504693,50.425917353569],[-121.003840123716,50.4258323316408],[-121.004183724275,50.4261097763472],[-121.004148645743,50.426490038269],[-121.004064541794,50.426490038269]]]}},{"type":"Feature","id":"940778315","properties":{"name":"SP_25KPH_%TR_HMT_SPILLING_ROCK_IN_CORNER_SEPT21_DS","oid":"940778315","speedLimit":6.9444447},"geometry":{"type":"Polygon","coordinates":[[[-121.004786821444,50.4367080383059],[-121.00477273368,50.4370436322591],[-121.004990107875,50.4372762292465],[-121.005123378121,50.4371688283965],[-121.004892057039,50.4369362314091],[-121.004885013157,50.4367572899091],[-121.005200579067,50.4367975539935],[-121.00480076833,50.4366991406622],[-121.004786821444,50.4367080383059]]]}},{"type":"Feature","id":"941544052","properties":{"name":"SP_11KPH_%TR_TEMP_LOADED_SPILL_SEPT20_NS","oid":"941544052","speedLimit":3.0555556},"geometry":{"type":"Polygon","coordinates":[[[-121.012794729023,50.4562997508604],[-121.012427601898,50.4565454696253],[-121.012324761222,50.4564644022055],[-121.012556786692,50.4564001414458],[-121.012778528094,50.4563099966319],[-121.012794729023,50.4562997508604]]]}}]}