{"type":"FeatureCollection","features":[{"type":"Feature","id":"702602533","properties":{"name":"iSP_4KPH_%TR_CR01_SLOW BUMP","oid":"702602533","speedLimit":1.1111112},"geometry":{"type":"Polygon","coordinates":[[[-121.03335595602,50.4648077998818],[-121.033650690229,50.4646907834298],[-121.03369408322,50.4647314965272],[-121.033366240723,50.4648696334601],[-121.03335595602,50.4648077998818]]]}},{"type":"Feature","id":"707947583","properties":{"name":"iSP_25KPH_%TR_Permission Gate 1 from west dump_Jun","oid":"707947583","speedLimit":6.9444447},"geometry":{"type":"Polygon","coordinates":[[[-121.038625386655,50.461977925056],[-121.038852072765,50.4617994345233],[-121.038137074624,50.4614082113163],[-121.037989425747,50.4616709141498],[-121.038188920795,50.4615668396095],[-121.038663848624,50.4618459894558],[-121.038625386655,50.461977925056]]]}},{"type":"Feature","id":"742345972","properties":{"name":"iSP_4KPH_%TR_CR01_PITSIDE_SLOW BUMP","oid":"742345972","speedLimit":1.1111112},"geometry":{"type":"Polygon","coordinates":[[[-121.033395826853,50.4648827551206],[-121.033703099945,50.4647442586901],[-121.03375325548,50.4647763438463],[-121.033471764586,50.4649182555035],[-121.033395826853,50.4648827551206]]]}},{"type":"Feature","id":"776427243","properties":{"name":"iSP_7KPH_%TR_CR1_PermissionBlocker_DO_NOT_DELETE","oid":"776427243","speedLimit":1.9444444},"geometry":{"type":"Polygon","coordinates":[[[-121.034097018133,50.46521277387],[-121.034048553234,50.4652330854814],[-121.034027420284,50.4652745175739],[-121.034113079175,50.4652254461585],[-121.034097018133,50.46521277387]]]}},{"type":"Feature","id":"794004438","properties":{"name":"iSP_11KPH_%TR_LOWER_FUEL_BAY","oid":"794004438","speedLimit":3.0555556},"geometry":{"type":"Polygon","coordinates":[[[-121.036773717577,50.4606954175524],[-121.036775830872,50.460725255849],[-121.036746103856,50.4606707919704],[-121.037122270366,50.4605990722095],[-121.037532249595,50.4605560223781],[-121.037539998344,50.4605813669552],[-121.0369415132,50.4606502107358],[-121.036773717577,50.4606954175524]]]}},{"type":"Feature","id":"801543391","properties":{"name":"iSP_4KPH_%TR_CR1_PermissionBlocker_DO_NOT_DELETE_","oid":"801543391","speedLimit":1.1111112},"geometry":{"type":"Polygon","coordinates":[[[-121.033152516155,50.4645232575723],[-121.033151670837,50.4644738266594],[-121.033173226446,50.4644317654463],[-121.033105178347,50.4644593568831],[-121.033152516155,50.4645232575723]]]}},{"type":"Feature","id":"806473874","properties":{"name":"iSP_4KPH_%TR_Permission Blocker - DO NOT DELETE","oid":"806473874","speedLimit":1.1111112},"geometry":{"type":"Polygon","coordinates":[[[-121.022716783682,50.4815450171122],[-121.022683675394,50.4815426803781],[-121.022676067532,50.4815713503076],[-121.022698186686,50.4815724288003],[-121.02270227239,50.4815483424645],[-121.022716783682,50.4815450171122]]]}},{"type":"Feature","id":"824566967","properties":{"name":"iSP_4Cr_3KPH","oid":"824566967","speedLimit":0.8333333},"geometry":{"type":"Polygon","coordinates":[[[-121.023299630443,50.4810681436144],[-121.023279483697,50.4810681436144],[-121.023276806857,50.481186238559],[-121.023301884624,50.4811855195639],[-121.023299630443,50.4810681436144]]]}},{"type":"Feature","id":"826307302","properties":{"name":"iSP_4KPH_TR%_CRUSHER POCKETS","oid":"826307302","speedLimit":1.1111112},"geometry":{"type":"Polygon","coordinates":[[[-121.023294840307,50.4813213197628],[-121.023334288481,50.4814769822012],[-121.023538996323,50.4814375273453],[-121.023457986681,50.4811886651675],[-121.023049698087,50.4811893841626],[-121.023055051768,50.4813600556236],[-121.023279906356,50.4813260831053],[-121.023294840307,50.4813213197628]]]}},{"type":"Feature","id":"883050998","properties":{"name":"iSP_22kph_%TR_4CR_Brake_Temp_CTRL_NOREMOVE","oid":"883050998","speedLimit":6.111111},"geometry":{"type":"Polygon","coordinates":[[[-121.031796203425,50.4745589012562],[-121.032185472364,50.474312285938],[-121.032487110003,50.4745746292739],[-121.032788747643,50.4748020114732],[-121.032966546195,50.4748844262861],[-121.033175339741,50.4749345761941],[-121.033459225703,50.474959381525],[-121.033663088227,50.4749218140312],[-121.033824262192,50.4748624070613],[-121.033915415649,50.4748103697912],[-121.034004737585,50.4747471880971],[-121.034055174892,50.4746580327051],[-121.034049398552,50.4745478467066],[-121.034053202483,50.4744834966454],[-121.03399107161,50.4743795119796],[-121.03387272709,50.4742594397984],[-121.033505859079,50.4739375097439],[-121.033057558767,50.4735598575694],[-121.032944286155,50.473425315612],[-121.032819319977,50.473220761507],[-121.03260249591,50.4728147989006],[-121.0322490121,50.472208865783],[-121.032484010504,50.4721560196434],[-121.032426951539,50.4722055404306],[-121.032899484301,50.4730487419302],[-121.033038679998,50.4733094675271],[-121.033246487339,50.4735468257833],[-121.033739448619,50.4739615062053],[-121.034094482179,50.4742710335944],[-121.034199865156,50.4743943412534],[-121.034252556645,50.474461567295],[-121.034259600961,50.4745926940257],[-121.03423466408,50.4746787038141],[-121.03418014107,50.4747914961699],[-121.034082647727,50.4748757084706],[-121.033969797774,50.4749375420489],[-121.033787209086,50.4750160023888],[-121.03352769646,50.4750642649347],[-121.033259730655,50.4750679497846],[-121.033068125242,50.4750261581946],[-121.032804386026,50.474916421568],[-121.032653637649,50.4748349953733],[-121.032492041025,50.4747052167583],[-121.032141515828,50.4744129452516],[-121.031796203425,50.4745589012562]]]}},{"type":"Feature","id":"883053336","properties":{"name":"iSP_22kph_%TR_Brake_Temp_CTRL_NOREMOVE","oid":"883053336","speedLimit":6.111111},"geometry":{"type":"Polygon","coordinates":[[[-121.032462736668,50.4721451448425],[-121.03224788501,50.4722254026702],[-121.031485267288,50.471008233846],[-121.030813380365,50.4699232702453],[-121.030658123626,50.4696601180399],[-121.030593315913,50.4694576310458],[-121.030546964309,50.4692566719164],[-121.030593315913,50.468972848602],[-121.030719550067,50.4686242258545],[-121.030881287578,50.4683754535511],[-121.031085713647,50.468097741695],[-121.031685044108,50.4675364761478],[-121.032428923948,50.466893604657],[-121.032785225484,50.4665561263335],[-121.033144344748,50.46622233286],[-121.033481203971,50.4658706543833],[-121.033776219952,50.466034046019],[-121.03358419188,50.4659932430473],[-121.032916108888,50.4666520223046],[-121.032551354171,50.4669912082414],[-121.032175328548,50.4673076559583],[-121.031771125658,50.4676683218736],[-121.03137875722,50.4680343802521],[-121.031143899703,50.4682862981591],[-121.031005549323,50.4684698216575],[-121.030901856982,50.4686544236486],[-121.030825355703,50.4688529561696],[-121.030764492807,50.4691912433626],[-121.03077322776,50.46940056081],[-121.03087043933,50.4696302797434],[-121.031024428092,50.46993504379],[-121.031327333708,50.4704037387186],[-121.031527392302,50.4707109293736],[-121.031747034095,50.4710828295873],[-121.032142783805,50.4717287568072],[-121.032378063982,50.4721450549681],[-121.032462736668,50.4721451448425]]]}},{"type":"Feature","id":"883059532","properties":{"name":"iSP_22kph_%TR_Brake_CTRL_NOREMOVE","oid":"883059532","speedLimit":6.111111},"geometry":{"type":"Polygon","coordinates":[[[-121.027259099951,50.477321909538],[-121.027026919274,50.4772097463029],[-121.02733137464,50.4769439877403],[-121.027713317489,50.4766323932404],[-121.028030029966,50.4763226861025],[-121.028187259114,50.4761687312774],[-121.028618089521,50.4756923071516],[-121.028904088777,50.4753257095267],[-121.029260672087,50.4748875718897],[-121.029469465633,50.4746566845893],[-121.029688262108,50.4745403871324],[-121.029798294334,50.4744881701135],[-121.029949042711,50.4745926041513],[-121.029785473678,50.4745420048714],[-121.029552870342,50.4747914961699],[-121.029248696748,50.475173012943],[-121.029069771105,50.4754779567384],[-121.028849988425,50.4757747219645],[-121.028692900164,50.4759746924757],[-121.028405773817,50.476270558958],[-121.028038483146,50.4765699305413],[-121.027240784728,50.4772193628623],[-121.027259099951,50.477321909538]]]}},{"type":"Feature","id":"884401102","properties":{"name":"iSP_30KPH_MAIN INT_LIMIT_POLICY_SEPT_8_NS","oid":"884401102","speedLimit":8.333333},"geometry":{"type":"Polygon","coordinates":[[[-121.036989273667,50.4611012902845],[-121.037105364006,50.4611077612403],[-121.038291626931,50.4609920929042],[-121.038275284117,50.4603979333312],[-121.038116786992,50.4605658186863],[-121.037029708045,50.4607084493386],[-121.036742018153,50.4605377778775],[-121.036989273667,50.4611012902845]]]}},{"type":"Feature","id":"910445950","properties":{"name":"SP_22KPH_%TR_1635_FLATS_SEP_11_DS","oid":"910445950","speedLimit":6.111111},"geometry":{"type":"Polygon","coordinates":[[[-121.01891383889,50.4576034690139],[-121.018251391351,50.4578016420374],[-121.017438195436,50.4564353716051],[-121.017478066268,50.4564157789888],[-121.01777040541,50.4542398302033],[-121.01817728514,50.4539931250108],[-121.018529782746,50.4537515426583],[-121.019039368613,50.4536551973154],[-121.019217026279,50.4539290445728],[-121.019242385819,50.4568507710222],[-121.019155036292,50.4570731202558],[-121.019193075602,50.4574051162417],[-121.01891383889,50.4576034690139]]]}},{"type":"Feature","id":"917773475","properties":{"name":"SP_15KPH_%TR_1200_CORNER_Sept_12_DS","oid":"917773475","speedLimit":4.1666665},"geometry":{"type":"Polygon","coordinates":[[[-121.037095642849,50.4446825878818],[-121.036921507341,50.4448621569072],[-121.036625927814,50.4448206349404],[-121.036411357928,50.4448699759789],[-121.036319781812,50.4449676694376],[-121.036251170168,50.4450821694068],[-121.036238913057,50.4451449916033],[-121.036260046007,50.4452673106442],[-121.036312737495,50.4453515229448],[-121.036180867887,50.4453952917714],[-121.036085769612,50.4451943326418],[-121.036159734937,50.4449317196828],[-121.036256523848,50.4447914257646],[-121.036513359634,50.44471512241],[-121.036710459614,50.4447117970576],[-121.036919816705,50.4447701255349],[-121.037090430055,50.4446836663745],[-121.037095642849,50.4446825878818]]]}},{"type":"Feature","id":"926367691","properties":{"name":"SP_25KPH_%TR_24SH_SEP_12_DS","oid":"926367691","speedLimit":6.9444447},"geometry":{"type":"Polygon","coordinates":[[[-121.038550998671,50.4504036318654],[-121.038070998934,50.451154442495],[-121.038242034942,50.4520114846502],[-121.038393628637,50.4531303308949],[-121.038774021736,50.4530968976229],[-121.038839533881,50.450830984576],[-121.038550998671,50.4504036318654]]]}},{"type":"Feature","id":"929009157","properties":{"name":"iSP_22kph_Long_Single_Lane_Aug30","oid":"929009157","speedLimit":6.111111},"geometry":{"type":"Polygon","coordinates":[[[-121.005677849658,50.4380560594485],[-121.004748140745,50.4382241245523],[-121.005172631267,50.4381976116081],[-121.007932876307,50.4431705411937],[-121.008521640294,50.4445349242639],[-121.008208731748,50.4465097341711],[-121.007830733716,50.4466802258833],[-121.008932183069,50.4466469723601],[-121.008821446411,50.4465929578535],[-121.009401475445,50.4448176690856],[-121.008762555924,50.44306844389],[-121.008260859691,50.4415402198122],[-121.00725732634,50.4401562441256],[-121.006437649653,50.4389841023694],[-121.005858606824,50.4383131001955],[-121.005677849658,50.4380560594485]]]}},{"type":"Feature","id":"930116666","properties":{"name":"SP_25KPH_9023 Rough_SEP_12_DS","oid":"930116666","speedLimit":6.9444447},"geometry":{"type":"Polygon","coordinates":[[[-121.043594447627,50.468554213707],[-121.043294218851,50.4689178454771],[-121.042545689763,50.4684625418322],[-121.042341122807,50.4680405815848],[-121.043033015589,50.4679072978688],[-121.043594447627,50.468554213707]]]}},{"type":"Feature","id":"933252378","properties":{"name":"SP_20KPH_%TR_1615_ROUGH_SECTION_SEP_12_DS","oid":"933252378","speedLimit":5.5555553},"geometry":{"type":"Polygon","coordinates":[[[-121.007359468931,50.4314120055097],[-121.007541916733,50.4321458298801],[-121.007050646089,50.4322078432072],[-121.007395958492,50.4321240802784],[-121.007254931272,50.4314848936376],[-121.006907082915,50.4314554148386],[-121.007359468931,50.4314120055097]]]}},{"type":"Feature","id":"933252478","properties":{"name":"SP_30KPH_%TR_1605_PATCH_SEP_12_DS","oid":"933252478","speedLimit":8.333333},"geometry":{"type":"Polygon","coordinates":[[[-121.006590793097,50.4333410693538],[-121.007208861441,50.4334385830638],[-121.006977948741,50.433962910238],[-121.006675747556,50.4343789387757],[-121.006271544666,50.4347754645715],[-121.005738289895,50.4345240859109],[-121.006210399998,50.4346042538641],[-121.00669941646,50.4339780990094],[-121.006892994282,50.4335512855452],[-121.006590793097,50.4333410693538]]]}},{"type":"Feature","id":"933252549","properties":{"name":"SP_35KPH_%TR_1590_ROUGH_SEP_12_DS","oid":"933252549","speedLimit":9.722222},"geometry":{"type":"Polygon","coordinates":[[[-121.004360139784,50.4363930237901],[-121.004776740671,50.4364501839003],[-121.004880996558,50.4362113876538],[-121.005078941856,50.4359571330128],[-121.004581472213,50.4358325671123],[-121.004795478553,50.4359810395997],[-121.004624301658,50.4363683083336],[-121.004360139784,50.4363930237901]]]}},{"type":"Feature","id":"933371104","properties":{"name":"SP_25KPH_1590_HMT_INTERSECT_SEPT_12_DS","oid":"933371104","speedLimit":6.9444447},"geometry":{"type":"Polygon","coordinates":[[[-121.006357626216,50.4374889520661],[-121.005859874801,50.4376813731288],[-121.00606585062,50.4377780779693],[-121.006385380823,50.4379885637838],[-121.006551204038,50.4382644781521],[-121.007084740581,50.4381538427816],[-121.006742809451,50.4380711583455],[-121.006114456405,50.4376598032759],[-121.006357626216,50.4374889520661]]]}},{"type":"Feature","id":"934051091","properties":{"name":"iSP_17KPH_PERMISSIONS BLOCKER_SEPT 7_NS","oid":"934051091","speedLimit":4.7222223},"geometry":{"type":"Polygon","coordinates":[[[-121.039509730168,50.461029660398],[-121.039461687929,50.4607716310327],[-121.039014232934,50.4607922122673],[-121.039073123422,50.4610449390438],[-121.039160613835,50.460899881783],[-121.039376592583,50.4608867601225],[-121.039509730168,50.461029660398]]]}},{"type":"Feature","id":"934773555","properties":{"name":"SP_10KPH_NEW RAMP_SEPT 12_DS","oid":"934773555","speedLimit":2.7777777},"geometry":{"type":"Polygon","coordinates":[[[-121.035772015748,50.4443192257349],[-121.036273993754,50.4444736299319],[-121.035928963124,50.4447856738038],[-121.034505306727,50.4446691067238],[-121.034737064745,50.4441517897518],[-121.035772015748,50.4443192257349]]]}},{"type":"Feature","id":"934888580","properties":{"name":"SP_12KPH_RUTS_SEPT 12_DS","oid":"934888580","speedLimit":3.3333333},"geometry":{"type":"Polygon","coordinates":[[[-121.038713440613,50.4531205345867],[-121.038174550389,50.4531794023102],[-121.038458859009,50.4532006126656],[-121.03850492884,50.453617719696],[-121.038296417067,50.4537115485561],[-121.038739363698,50.4536385705538],[-121.038713440613,50.4531205345867]]]}},{"type":"Feature","id":"935505135","properties":{"name":"SP_15KPH_%TR_1590_WATERHOLES_AUG_12_DS","oid":"935505135","speedLimit":4.1666665},"geometry":{"type":"Polygon","coordinates":[[[-121.013400393126,50.4441737191022],[-121.012716530865,50.4442020295342],[-121.012965195243,50.445261468809],[-121.013107349553,50.4462075764817],[-121.013275990494,50.4469893937749],[-121.013702312538,50.4470970632906],[-121.013791211815,50.4467741446178],[-121.013435896482,50.4437487930001],[-121.013382641448,50.4441623949295],[-121.013400393126,50.4441737191022]]]}},{"type":"Feature","id":"936169885","properties":{"name":"SP_12KPH_%TR_Sept_12_DS","oid":"936169885","speedLimit":3.3333333},"geometry":{"type":"Polygon","coordinates":[[[-121.039477467198,50.4535462695582],[-121.038608902954,50.45361493359],[-121.039069178604,50.4545171825618],[-121.039588908288,50.4544390817194],[-121.03966681843,50.454207026052],[-121.039444077137,50.4538991164019],[-121.039444077137,50.4538967796678],[-121.039477467198,50.4535462695582]]]}},{"type":"Feature","id":"936513295","properties":{"name":"SP_27KPH_%TR_1635_FLATS_SEP_12_DS1","oid":"936513295","speedLimit":7.5},"geometry":{"type":"Polygon","coordinates":[[[-121.018251391351,50.4578016420374],[-121.015245863205,50.4587004757826],[-121.014495220822,50.4578796530054],[-121.017438195436,50.4564353716051],[-121.018251391351,50.4578016420374]]]}}]}