{"type":"FeatureCollection","features":[{"type":"Feature","id":"702602533","properties":{"name":"iSP_4KPH_%TR_CR01_Slow Bump","oid":"702602533","speedLimit":1.1111112},"geometry":{"type":"Polygon","coordinates":[[[-121.033345799778,50.4648076848859],[-121.033640446258,50.4646906675666],[-121.033683826332,50.4647313809657],[-121.03335608142,50.4648695189226],[-121.033345799778,50.4648076848859]]]}},{"type":"Feature","id":"707947583","properties":{"name":"iSP_25KPH_%TR_Permission Gate 1 From West Dump","oid":"707947583","speedLimit":6.9444447},"geometry":{"type":"Polygon","coordinates":[[[-121.03861366193,50.461977789083],[-121.038840280566,50.4617992972271],[-121.038125495249,50.4614080711202],[-121.03797789032,50.4616707759009],[-121.038177325987,50.4615667005892],[-121.038652112451,50.4618458525047],[-121.03861366193,50.461977789083]]]}},{"type":"Feature","id":"742345972","properties":{"name":"iSP_4KPH_%TR_CR01_Pit Side_Slow Bump","oid":"742345972","speedLimit":1.1111112},"geometry":{"type":"Polygon","coordinates":[[[-121.033385658743,50.4648826406804],[-121.033692840374,50.4647441432233],[-121.033742980979,50.4647762286173],[-121.033461573873,50.4649181413264],[-121.033385658743,50.4648826406804]]]}},{"type":"Feature","id":"776427243","properties":{"name":"iSP_7KPH_%TR_CR1_PermissionBlocker","oid":"776427243","speedLimit":1.9444444},"geometry":{"type":"Polygon","coordinates":[[[-121.034086641309,50.4652126618761],[-121.034038190836,50.4652329736381],[-121.034017064177,50.4652744060377],[-121.03410269757,50.4652253342586],[-121.034086641309,50.4652126618761]]]}},{"type":"Feature","id":"794004438","properties":{"name":"iSP_11KPH_%TR_Lower_Fuel_Bay","oid":"794004438","speedLimit":3.0555556},"geometry":{"type":"Polygon","coordinates":[[[-121.036762544015,50.4606952720725],[-121.036764656681,50.4607251105902],[-121.036734938513,50.4606706463079],[-121.037110993054,50.4605989260154],[-121.037520850251,50.4605558758648],[-121.037528596693,50.4605812206299],[-121.036930289692,50.4606500649207],[-121.036762544015,50.4606952720725]]]}},{"type":"Feature","id":"801543391","properties":{"name":"iSP_4KPH_%TR_CR01_PermissionBlocker_2","oid":"801543391","speedLimit":1.1111112},"geometry":{"type":"Polygon","coordinates":[[[-121.033142420469,50.4645231404672],[-121.033141575402,50.4644737091879],[-121.033163124595,50.464431647663],[-121.033095096751,50.4644592393043],[-121.033142420469,50.4645231404672]]]}},{"type":"Feature","id":"806473874","properties":{"name":"iSP_4KPH_%TR_CR04_PermissionBlocker","oid":"806473874","speedLimit":1.1111112},"geometry":{"type":"Polygon","coordinates":[[[-121.022709794264,50.4815450261853],[-121.02267669583,50.4815426894339],[-121.022669090233,50.4815713595759],[-121.022691202803,50.4815724380765],[-121.022695287291,50.4815483515622],[-121.022709794264,50.4815450261853]]]}},{"type":"Feature","id":"824566967","properties":{"name":"iSP_3KPH_%TR_CR04","oid":"824566967","speedLimit":0.8333333},"geometry":{"type":"Polygon","coordinates":[[[-121.023292467536,50.4810681491525],[-121.023272326787,50.4810681491525],[-121.023269650744,50.4811862449725],[-121.023294721046,50.4811855259721],[-121.023292467536,50.4810681491525]]]}},{"type":"Feature","id":"826307302","properties":{"name":"iSP_4KPH_%TR_CR04_Pockets","oid":"826307302","speedLimit":1.1111112},"geometry":{"type":"Polygon","coordinates":[[[-121.023287678826,50.4813213271776],[-121.023327115258,50.4814769907699],[-121.023531762167,50.4814375356215],[-121.023450776639,50.481188671599],[-121.023042609575,50.4811893905994],[-121.023047961662,50.4813600633256],[-121.02327274932,50.4813260905554],[-121.023287678826,50.4813213271776]]]}},{"type":"Feature","id":"883050998","properties":{"name":"iSP_22KPH_%TR_4CR_Brake_Temp_Ctrl","oid":"883050998","speedLimit":6.111111},"geometry":{"type":"Polygon","coordinates":[[[-121.031786511455,50.4745588585428],[-121.032175664525,50.4743122413966],[-121.03247721238,50.4745745866772],[-121.032778760235,50.474801970562],[-121.032956505864,50.4748843859859],[-121.033165237261,50.4749345362656],[-121.033449038722,50.4749593417803],[-121.033652840565,50.474921774008],[-121.033813966555,50.4748623665978],[-121.033905092881,50.474810328942],[-121.033994388229,50.4747471467795],[-121.034044810523,50.4746579907266],[-121.034039035903,50.4745478039113],[-121.034042838701,50.4744834533731],[-121.033980726322,50.4743794679365],[-121.033862417028,50.4742593948653],[-121.033495658217,50.4739374624244],[-121.033047491345,50.4735598074505],[-121.032934252449,50.4734252644957],[-121.032809323469,50.4732207088744],[-121.032592563941,50.4728147432587],[-121.032239185348,50.4722088056494],[-121.032474113803,50.4721559591181],[-121.032417071822,50.4722054802724],[-121.032889463931,50.4730486880224],[-121.033028618196,50.473309415552],[-121.033236363682,50.4735467755677],[-121.033729178228,50.4739614590636],[-121.03408410611,50.4742709887472],[-121.034189457719,50.4743942973203],[-121.034242133524,50.4744615238601],[-121.034249175743,50.4745926515629],[-121.034224246285,50.4746786619889],[-121.034169739503,50.4747914551808],[-121.03407227518,50.4748756681057],[-121.033959458818,50.4749375021424],[-121.033776924479,50.4750159630639],[-121.033517489099,50.4750642259675],[-121.033249603055,50.4750679108447],[-121.033058054675,50.4750261189449],[-121.032794393963,50.4749163815048],[-121.032643690457,50.4748349547066],[-121.032482141934,50.4747051751296],[-121.032131721073,50.4744129014563],[-121.031786511455,50.4745588585428]]]}},{"type":"Feature","id":"883053336","properties":{"name":"iSP_22KPH_%TR_Brake_Temp_Ctrl","oid":"883053336","speedLimit":6.111111},"geometry":{"type":"Polygon","coordinates":[[[-121.032452846299,50.4721450842366],[-121.032238058593,50.4722253426592],[-121.03147566787,50.4710081648125],[-121.030803980938,50.4699231931692],[-121.030648770413,50.4696600390131],[-121.03058398199,50.469457550518],[-121.030537644183,50.4692565898989],[-121.03058398199,50.4689727644806],[-121.03071017857,50.4686241391489],[-121.030871867938,50.4683753650014],[-121.031076233159,50.4680976510867],[-121.031675385225,50.4675363813789],[-121.032419043644,50.4668935051227],[-121.032775239125,50.4665560242976],[-121.033134251494,50.4662222283497],[-121.033471010448,50.4658705472662],[-121.033765938616,50.466033940113],[-121.033573967702,50.4659931368388],[-121.03290608357,50.4666519209795],[-121.032541437425,50.4669911094306],[-121.032165523728,50.4673075594932],[-121.031761441152,50.4676682280821],[-121.031369189505,50.4680342891741],[-121.031134401895,50.4682862089485],[-121.030996092697,50.4684697338073],[-121.03089243122,50.4686543371668],[-121.030815952712,50.4688528711595],[-121.030755107933,50.4691911608601],[-121.030763840285,50.4694004798592],[-121.030861022919,50.4696302004954],[-121.031014965846,50.4699349668011],[-121.0313177813,50.470403665204],[-121.031517780345,50.4707108581362],[-121.03173735676,50.4710827611067],[-121.032132988672,50.4717286931147],[-121.032368198816,50.4721449943616],[-121.032452846299,50.4721450842366]]]}},{"type":"Feature","id":"883059532","properties":{"name":"iSP_22KPH_%TR_Brake_Ctrl","oid":"883059532","speedLimit":6.111111},"geometry":{"type":"Polygon","coordinates":[[[-121.027250758481,50.4773218873062],[-121.027018646914,50.4772097232397],[-121.027323011657,50.4769439627071],[-121.027704840818,50.4766323658973],[-121.028021459023,50.4763226564637],[-121.028178641371,50.4761687004974],[-121.028609343538,50.4756922728399],[-121.028895257665,50.4753256724975],[-121.029251734835,50.4748875316127],[-121.029460466232,50.4746566426008],[-121.029679197581,50.4745403442819],[-121.029789197055,50.4744881268759],[-121.02993990056,50.4745925616878],[-121.029776380215,50.4745419620328],[-121.029543846115,50.4747914551808],[-121.029239763061,50.475172974782],[-121.029060890676,50.4754779208378],[-121.028841173416,50.4757746882638],[-121.028684131913,50.4759746602573],[-121.028397091031,50.4762705289328],[-121.028029909687,50.4765699027353],[-121.027232448709,50.4772193398704],[-121.027250758481,50.4773218873062]]]}},{"type":"Feature","id":"884401102","properties":{"name":"iSP_30KPH_%TR_Maint_Limit_Policy","oid":"884401102","speedLimit":8.333333},"geometry":{"type":"Polygon","coordinates":[[[-121.036978035943,50.4611011478132],[-121.037094091727,50.461107618817],[-121.038280001553,50.4609919496234],[-121.038263663603,50.4603977856461],[-121.038105213656,50.4605656722457],[-121.037018458285,50.4607083039552],[-121.036730854026,50.460537631229],[-121.036978035943,50.4611011478132]]]}},{"type":"Feature","id":"910445950","properties":{"name":"SP_22KPH_%TR_1635_FLATS_OCT_4_NS","oid":"910445950","speedLimit":6.111111},"geometry":{"type":"Polygon","coordinates":[[[-121.017361369117,50.4554936634882],[-121.017994323839,50.454413994473],[-121.018139534412,50.4539983223516],[-121.018524039617,50.4537513457051],[-121.018939953123,50.4536878939175],[-121.018857840839,50.454341465305],[-121.018253195841,50.4560719195811],[-121.018267280281,50.455700645736],[-121.017361369117,50.4554936634882]]]}},{"type":"Feature","id":"915576987","properties":{"name":"iSP_15KPH_%TR_Preventing Shifting","oid":"915576987","speedLimit":4.1666665},"geometry":{"type":"Polygon","coordinates":[[[-121.036983528875,50.4448630624349],[-121.037497470081,50.4453129769516],[-121.037966622769,50.4457954262377],[-121.038510422987,50.4462187377387],[-121.039442812898,50.4468498403629],[-121.039899993812,50.447099603136],[-121.040455765804,50.4471949605676],[-121.041208719953,50.4473226730183],[-121.041627027813,50.4475095232541],[-121.042305334431,50.4480949693512],[-121.042687867814,50.4485277177328],[-121.042831247411,50.4487947365161],[-121.04299265509,50.44939150687],[-121.043171809164,50.4501980455982],[-121.043309273295,50.450501194153],[-121.043670820864,50.4511686062987],[-121.043841242584,50.4514889209886],[-121.044110114539,50.452253488067],[-121.044367155564,50.4529380663479],[-121.044680816037,50.4537979908578],[-121.044719689091,50.454194609468],[-121.044555323679,50.455071700113],[-121.04419983242,50.4568391829111],[-121.044035467009,50.4572072212543],[-121.042989556513,50.4583988745859],[-121.041889984303,50.4595372320108],[-121.041328296846,50.4600005379106],[-121.040357174726,50.4605973981395],[-121.039908867009,50.4607308625936],[-121.039119997539,50.4608070766388],[-121.038482817485,50.4608386227825],[-121.038630563258,50.4611433890882],[-121.03874337962,50.4609494387232],[-121.039864078491,50.4608796058068],[-121.040691821014,50.4606317304098],[-121.04149561999,50.4600577883195],[-121.042858148691,50.4587001357645],[-121.044226592856,50.4571423314658],[-121.044411944083,50.4562900463354],[-121.044797435198,50.4544214541025],[-121.044794336622,50.453786486851],[-121.044244620939,50.4523012117203],[-121.043817299037,50.4511857724339],[-121.043330259111,50.4503372620558],[-121.043034485876,50.4493095408214],[-121.04291195125,50.4486917397051],[-121.042224630591,50.447887088353],[-121.041531394467,50.447391337559],[-121.041077171285,50.4472216534584],[-121.04044379403,50.4471301606541],[-121.039902951544,50.4470195244635],[-121.038806337066,50.4463331486816],[-121.038181833008,50.4458716402829],[-121.037139021089,50.4449068315858],[-121.037363104526,50.4446971530865],[-121.036983528875,50.4448630624349]]]}},{"type":"Feature","id":"917773475","properties":{"name":"SP_15KPH_%TR_1200_CORNER_OCT_4_NS","oid":"917773475","speedLimit":4.1666665},"geometry":{"type":"Polygon","coordinates":[[[-121.037084373463,50.4446823237027],[-121.036910289788,50.4448618940592],[-121.036614798242,50.4448203717846],[-121.036400292225,50.4448697131888],[-121.036308743367,50.4449674073717],[-121.036240152145,50.4450819081896],[-121.036227898683,50.4451447308519],[-121.036249025342,50.4452670507994],[-121.036301701147,50.4453512637244],[-121.036169870791,50.4453950328753],[-121.036074800823,50.4451940722561],[-121.036148744131,50.4449314573504],[-121.036245504232,50.4447911623922],[-121.036502263569,50.444714858472],[-121.036699304881,50.444711533095],[-121.036908599655,50.4447698620046],[-121.037079162221,50.4446834022033],[-121.037084373463,50.4446823237027]]]}},{"type":"Feature","id":"929009157","properties":{"name":"iSP_22KPH_%TR_Long_Single_Lane","oid":"929009157","speedLimit":6.111111},"geometry":{"type":"Polygon","coordinates":[[[-121.005675931997,50.4380557461485],[-121.004746499818,50.4382238124982],[-121.005170863988,50.4381972993574],[-121.007930287422,50.4431702658061],[-121.008518876159,50.4445346589902],[-121.008206060752,50.4465094835361],[-121.007828175234,50.4466799765122],[-121.008929296733,50.4466467227425],[-121.008818593036,50.4465927078355],[-121.00939844942,50.4448174059078],[-121.008759720078,50.4430681677456],[-121.008258173179,50.4415399323394],[-121.007254938536,50.4401559463938],[-121.006435505832,50.4389837959488],[-121.005856635359,50.4383127888009],[-121.005675931997,50.4380557461485]]]}},{"type":"Feature","id":"933371104","properties":{"name":"SP_25KPH_%TR_1590_HMT_INTERSECT_OCT_5_DS","oid":"933371104","speedLimit":6.9444447},"geometry":{"type":"Polygon","coordinates":[[[-121.00619522529,50.438046489018],[-121.006347196395,50.4381866941012],[-121.006600575466,50.4383161141779],[-121.007157615058,50.4382765691544],[-121.006786208382,50.438183009224],[-121.006647194962,50.4380653627792],[-121.00619522529,50.438046489018]]]}},{"type":"Feature","id":"934051091","properties":{"name":"iSP_17KPH_%TR_Ramp_Permission Blocker","oid":"934051091","speedLimit":4.7222223},"geometry":{"type":"Polygon","coordinates":[[[-121.039497742213,50.4610295173957],[-121.039449714273,50.4607714861177],[-121.039002392467,50.4607920675049],[-121.039061265425,50.4610447961548],[-121.039148729796,50.4608997378187],[-121.039364644257,50.460886616061],[-121.039497742213,50.4610295173957]]]}},{"type":"Feature","id":"936513295","properties":{"name":"SP_30KPH_%TR_1635_FLATS_OCT_4_NS","oid":"936513295","speedLimit":8.333333},"geometry":{"type":"Polygon","coordinates":[[[-121.0172775667,50.4555550481496],[-121.018041506712,50.455785038411],[-121.017425594162,50.4574536586504],[-121.015219266677,50.4585167906558],[-121.014490678609,50.4578794866529],[-121.016169262137,50.4566192586556],[-121.0172775667,50.4555550481496]]]}},{"type":"Feature","id":"938065675","properties":{"name":"iSP_8KPH_CR01_YARD_RUTIING_OCT_4_NS","oid":"938065675","speedLimit":2.2222223},"geometry":{"type":"Polygon","coordinates":[[[-121.03427565449,50.464801034132],[-121.034085514554,50.4648578351657],[-121.033927346295,50.4649068170697],[-121.033815938377,50.4650047808778],[-121.034030726083,50.4650686820407],[-121.033950726465,50.4650111620066],[-121.034229034995,50.4648879433085],[-121.034305654347,50.4649371948377],[-121.03427565449,50.464801034132]]]}},{"type":"Feature","id":"938165680","properties":{"name":"SP_10KPH_%TR_22SH_OCT_4_NS","oid":"938165680","speedLimit":2.7777777},"geometry":{"type":"Polygon","coordinates":[[[-121.034066923093,50.4466112220964],[-121.035041425479,50.4472504134754],[-121.035483113509,50.4474471499671],[-121.035781140254,50.4469120338998],[-121.034841144746,50.4461951904748],[-121.034066923093,50.4466112220964]]]}},{"type":"Feature","id":"944724443","properties":{"name":"SP_10KPH_%TR_21SH_EMPTY_OCT_4_NS","oid":"944724443","speedLimit":2.7777777},"geometry":{"type":"Polygon","coordinates":[[[-121.039119575006,50.4501829465893],[-121.039025913482,50.450342744434],[-121.0389361956,50.4506115607184],[-121.038936477289,50.4512094095729],[-121.039422108771,50.4515125581277],[-121.039927035936,50.4513548274091],[-121.039695628591,50.4511093786386],[-121.039490418304,50.4509151586484],[-121.039089434305,50.4503564054421],[-121.039069575245,50.4502968182818],[-121.039119575006,50.4501829465893]]]}},{"type":"Feature","id":"948333262","properties":{"name":"SP_15KPH_%TR_19SH_LOADAREA_OCT_4_NS","oid":"948333262","speedLimit":4.1666665},"geometry":{"type":"Polygon","coordinates":[[[-121.001825105327,50.4258158423909],[-121.001353276596,50.4259954127474],[-121.001486937929,50.4262928092987],[-121.00151130401,50.4266961685379],[-121.001607500733,50.4268352951204],[-121.001751443708,50.4269522225647],[-121.00194496391,50.4270054285963],[-121.002353412662,50.4268575841336],[-121.001825105327,50.4258158423909]]]}},{"type":"Feature","id":"950375436","properties":{"name":"SP_22KPH_%TR_1445_RAC_OCT_4_NS","oid":"950375436","speedLimit":6.111111},"geometry":{"type":"Polygon","coordinates":[[[-121.039791402781,50.4640111222886],[-121.03973210729,50.4638808933364],[-121.039075349865,50.4641958155231],[-121.038229579259,50.4645745489977],[-121.03779915878,50.4648372537785],[-121.037680426953,50.4647591523572],[-121.037825074149,50.4649248819554],[-121.03856338048,50.464517747964],[-121.038997462913,50.4643259546003],[-121.039509432298,50.4641223876046],[-121.039784078873,50.464001685408],[-121.039791402781,50.4640111222886]]]}},{"type":"Feature","id":"950380359","properties":{"name":"SP_20KPH_%TR_EMPTY_23SH_SOFT_OCT_4_NS","oid":"950380359","speedLimit":5.5555553},"geometry":{"type":"Polygon","coordinates":[[[-121.038885773306,50.464730302465],[-121.038771407655,50.4646500440425],[-121.038294367681,50.4649202084527],[-121.038363099747,50.4649519343465],[-121.038767464012,50.4647035196992],[-121.038878167709,50.4647278758386],[-121.038885773306,50.464730302465]]]}},{"type":"Feature","id":"950427531","properties":{"name":"SP_15KPH_%TR_1590_DUMP_HEAD_OCT_4_NS","oid":"950427531","speedLimit":4.1666665},"geometry":{"type":"Polygon","coordinates":[[[-121.014462368885,50.4503497546882],[-121.014245609357,50.4491357224683],[-121.014354059543,50.4478525763325],[-121.014442650669,50.447399695939],[-121.013683640212,50.4470536769838],[-121.013545753547,50.4483117479798],[-121.013939977015,50.4505322010464],[-121.014551100855,50.4504252497329],[-121.014462368885,50.4503497546882]]]}},{"type":"Feature","id":"950999947","properties":{"name":"SP_15KPH_%TR_23SH_HEADING_SOFT_OCT_4_NS","oid":"950999947","speedLimit":4.1666665},"geometry":{"type":"Polygon","coordinates":[[[-121.038032256258,50.4652780010398],[-121.037517188296,50.4649771892364],[-121.037185499741,50.4652222785068],[-121.036731558248,50.4653225790662],[-121.037368738302,50.4658350466201],[-121.038032256258,50.4652835732931],[-121.038032256258,50.4652780010398]]]}},{"type":"Feature","id":"951141721","properties":{"name":"SP_8KPH_%TR_CR1_SHOPSIDE_OCT_4_NS","oid":"951141721","speedLimit":2.2222223},"geometry":{"type":"Polygon","coordinates":[[[-121.03376030484,50.464708283077],[-121.03381636091,50.4646112180194],[-121.033587911298,50.4645574727376],[-121.033267208605,50.4644628343065],[-121.033355518042,50.4646852750634],[-121.033551855132,50.464629103155],[-121.033724248674,50.4646342260331],[-121.03376030484,50.464713405955],[-121.03376030484,50.464708283077]]]}},{"type":"Feature","id":"951524646","properties":{"name":"SP_15KPH_%TR_TEMP_NEWCULVERT_OCT_4_NS","oid":"951524646","speedLimit":4.1666665},"geometry":{"type":"Polygon","coordinates":[[[-121.039073659732,50.4509928106945],[-121.038247184808,50.4508244747197],[-121.038115354452,50.4514809221089],[-121.039038448633,50.4514809221089],[-121.039073659732,50.4509928106945]]]}},{"type":"Feature","id":"951556849","properties":{"name":"SP_12KPH_%TR_22SH_Oct4_NS","oid":"951556849","speedLimit":3.3333333},"geometry":{"type":"Polygon","coordinates":[[[-121.039631403546,50.4531055035722],[-121.039847881385,50.4530146398933],[-121.038930843513,50.4531963672511],[-121.038902392945,50.4542504218761],[-121.03967126251,50.4543958397123],[-121.039773797232,50.4536979599235],[-121.039659854114,50.4534072141261],[-121.039654220338,50.4532290817705],[-121.039631403546,50.4531055035722]]]}},{"type":"Feature","id":"951577996","properties":{"name":"SP_15KPH_%TR_CALPAD_HMT_OCT_4_NS","oid":"951577996","speedLimit":4.1666665},"geometry":{"type":"Polygon","coordinates":[[[-121.001955245551,50.4387285507974],[-121.001947921642,50.438645146748],[-121.001902851435,50.438122343563],[-121.001888626151,50.4379566139647],[-121.002006653756,50.4374081065145],[-121.00055173113,50.4367848230199],[-121.000084972797,50.4370287439146],[-121.000607646356,50.4385989509706],[-121.001299755725,50.43866545851],[-121.001369192013,50.438672199139],[-121.001664542714,50.4390082419633],[-121.001992287627,50.4395129802626],[-121.002257779316,50.4394806252434],[-121.001988766517,50.4389543169313],[-121.001955245551,50.4387285507974]]]}}]}