{"type":"FeatureCollection","features":[{"type":"Feature","id":"702602533","properties":{"name":"iSP_4KPH_%TR_CR01_SLOW BUMP","oid":"702602533","speedLimit":1.1111112},"geometry":{"type":"Polygon","coordinates":[[[-121.033349715331,50.4648093938419],[-121.033644521248,50.464692381115],[-121.033687924796,50.4647330929163],[-121.033360002535,50.4648712254518],[-121.033349715331,50.4648093938419]]]}},{"type":"Feature","id":"707947583","properties":{"name":"iSP_22KPH_%TR_Permission Gate 1 from west dump_Jun","oid":"707947583","speedLimit":6.111111},"geometry":{"type":"Polygon","coordinates":[[[-121.038620427998,50.461979609101],[-121.03884716926,50.4618011242502],[-121.037972756873,50.4613526653352],[-121.037735587486,50.4615439119427],[-121.037951759702,50.4614981673359],[-121.038658899325,50.4618476777007],[-121.038620427998,50.461979609101]]]}},{"type":"Feature","id":"742345972","properties":{"name":"iSP_4KPH_%TR_CR01_PITSIDE_SLOW BUMP","oid":"742345972","speedLimit":1.1111112},"geometry":{"type":"Polygon","coordinates":[[[-121.033389595864,50.4648843466946],[-121.033696943715,50.464745854673],[-121.033747111452,50.4647779388078],[-121.033465552073,50.4649198459474],[-121.033389595864,50.4648843466946]]]}},{"type":"Feature","id":"776427243","properties":{"name":"iSP_7KPH_%TR_CR1_PermissionBlocker_DO_NOT_DELETE","oid":"776427243","speedLimit":1.9444444},"geometry":{"type":"Polygon","coordinates":[[[-121.034090957741,50.4652143549383],[-121.034042481051,50.4652346659032],[-121.03402134296,50.4652760966767],[-121.034107022691,50.4652270268235],[-121.034090957741,50.4652143549383]]]}},{"type":"Feature","id":"794004438","properties":{"name":"iSP_11KPH_%TR_LOWER_FUEL_BAY","oid":"794004438","speedLimit":3.0555556},"geometry":{"type":"Polygon","coordinates":[[[-121.036768308417,50.4606971424242],[-121.036770422226,50.4607269797708],[-121.036740687977,50.460672517626],[-121.037116946007,50.4606008001483],[-121.037527024983,50.4605577516873],[-121.037534775616,50.4605830954576],[-121.036936144864,50.4606519370466],[-121.036768308417,50.4606971424242]]]}},{"type":"Feature","id":"801543391","properties":{"name":"iSP_4KPH_%TR_CR1_PermissionBlocker_DO_NOT_DELETE_","oid":"801543391","speedLimit":1.1111112},"geometry":{"type":"Polygon","coordinates":[[[-121.03314622597,50.4645248605904],[-121.033145380446,50.4644754312511],[-121.033166941299,50.4644333713769],[-121.033098876645,50.4644609619354],[-121.03314622597,50.4645248605904]]]}},{"type":"Feature","id":"806473874","properties":{"name":"iSP_4KPH_%TR_Permission Blocker - DO NOT DELETE","oid":"806473874","speedLimit":1.1111112},"geometry":{"type":"Polygon","coordinates":[[[-121.022707954522,50.4815460782676],[-121.022674838178,50.4815437416079],[-121.022667228465,50.4815724106247],[-121.022689353001,50.481573489083],[-121.022693439699,50.481549403514],[-121.022707954522,50.4815460782676]]]}},{"type":"Feature","id":"824566967","properties":{"name":"iSP_4Cr_3KPH","oid":"824566967","speedLimit":0.8333333},"geometry":{"type":"Polygon","coordinates":[[[-121.023290943087,50.4810692199503],[-121.023270791439,50.4810692199503],[-121.023268113948,50.4811873111356],[-121.023293197816,50.4811865921634],[-121.023290943087,50.4810692199503]]]}},{"type":"Feature","id":"826307302","properties":{"name":"iSP_4KPH_TR%_CRUSHER POCKETS","oid":"826307302","speedLimit":1.1111112},"geometry":{"type":"Polygon","coordinates":[[[-121.023286151786,50.4813223880392],[-121.023325609557,50.4814780455224],[-121.023530367204,50.4814385919224],[-121.023449337853,50.4811897376668],[-121.023040949924,50.481190456639],[-121.023046304907,50.481361122667],[-121.023271214201,50.4813271512301],[-121.023286151786,50.4813223880392]]]}},{"type":"Feature","id":"849417440","properties":{"name":"iSP_Permissions_35_KPH_June_19_NS","oid":"849417440","speedLimit":9.722222},"geometry":{"type":"Polygon","coordinates":[[[-121.032686120177,50.4660356009434],[-121.0330007959,50.4660162785653],[-121.033207808276,50.4658154157045],[-121.033796715507,50.4653809767476],[-121.033717518124,50.4652521908508],[-121.033953701067,50.4654016471986],[-121.033417357224,50.4658099335415],[-121.033014887961,50.466189460996],[-121.032686120177,50.4660356009434]]]}},{"type":"Feature","id":"853029148","properties":{"name":"SP_30KPH_%TR_1635 Flats_AUG_4_DS","oid":"853029148","speedLimit":8.333333},"geometry":{"type":"Polygon","coordinates":[[[-121.018577571433,50.4569726866414],[-121.017396093036,50.4572914609443],[-121.016417399398,50.4584592515539],[-121.018336597189,50.4588947689692],[-121.02068024786,50.4589888644569],[-121.020228456383,50.45723349381],[-121.019410553161,50.4570983270348],[-121.018956225113,50.4570017151443],[-121.018577571433,50.4569726866414]]]}},{"type":"Feature","id":"883050998","properties":{"name":"iSP_22kph_%TR_4CR_Brake_Temp_CTRL_NOREMOVE","oid":"883050998","speedLimit":6.111111},"geometry":{"type":"Polygon","coordinates":[[[-121.031789583254,50.4745601848043],[-121.0321789469,50.4743135773368],[-121.032480657927,50.4745759123213],[-121.032782368954,50.4748032872823],[-121.032960210764,50.4748856994716],[-121.033169055108,50.4749358477832],[-121.033453010138,50.4749606523244],[-121.033656922261,50.4749230860265],[-121.03381813544,50.4748636809478],[-121.033909311074,50.4748116453342],[-121.033998654741,50.4747484656514],[-121.03404910432,50.4746593130975],[-121.034043326575,50.4745491306066],[-121.034047131431,50.4744847825939],[-121.033984985442,50.4743808012383],[-121.03386661213,50.4742607328795],[-121.03349965486,50.4739388130731],[-121.033051245478,50.4735611729206],[-121.032937945308,50.4734266352461],[-121.032812948726,50.4732220876528],[-121.032596071907,50.4728161379696],[-121.032242502096,50.472210224141],[-121.032477557674,50.4721573796837],[-121.032420484826,50.4722068988945],[-121.032893132553,50.473050073552],[-121.033032362116,50.4733107908491],[-121.033240220017,50.4735481415494],[-121.033733301232,50.4739628087706],[-121.03408842117,50.4742723263063],[-121.034193829787,50.4743956300401],[-121.034246534095,50.4744628539416],[-121.034253580126,50.4745939764981],[-121.034228637177,50.4746799835485],[-121.034174100901,50.4747927723137],[-121.034076583839,50.4748769819336],[-121.03396370643,50.4749388135435],[-121.033781073319,50.4750172713858],[-121.033521497555,50.4750655323953],[-121.033253466554,50.4750692171278],[-121.033061814524,50.4750274268682],[-121.032798011141,50.4749176937349],[-121.032647226088,50.4748362701323],[-121.032485590148,50.4747064956487],[-121.03213497967,50.474414233446],[-121.031789583254,50.4745601848043]]]}},{"type":"Feature","id":"883053336","properties":{"name":"iSP_22kph_%TR_Brake_Temp_CTRL_NOREMOVE","oid":"883053336","speedLimit":6.111111},"geometry":{"type":"Polygon","coordinates":[[[-121.032456278661,50.472146505229],[-121.032241374731,50.4722267605018],[-121.031478571467,50.4710096304244],[-121.030806521076,50.4699247013619],[-121.030651226564,50.4696615575336],[-121.030586403083,50.4694590769854],[-121.030540040202,50.4692581242531],[-121.030586403083,50.4689743099738],[-121.03071266795,50.4686256983243],[-121.030874444811,50.4683769339402],[-121.031078920616,50.4680992309246],[-121.031678396892,50.4675379832444],[-121.032422457715,50.4668951322186],[-121.032778845938,50.4665576646382],[-121.033138052574,50.4662238817905],[-121.033474993753,50.465872214509],[-121.033770081511,50.4660356009434],[-121.03357800672,50.4659947992706],[-121.032909761185,50.4666535575565],[-121.032544917725,50.4669927326959],[-121.032168800616,50.4673091703391],[-121.031764499385,50.4676698247732],[-121.031372035486,50.4680358714988],[-121.031137120828,50.4682877813863],[-121.030998736789,50.4684712990425],[-121.03089501922,50.468655895157],[-121.030818499328,50.4688544213581],[-121.030757621625,50.4691926977822],[-121.030766358702,50.4694020085664],[-121.030863593924,50.4696317201869],[-121.031017620151,50.4699364745318],[-121.031320599463,50.4704051545402],[-121.03152070673,50.4707123354162],[-121.031740401961,50.471084223791],[-121.032136247955,50.4717301304488],[-121.032371585375,50.4721464153575],[-121.032456278661,50.472146505229]]]}},{"type":"Feature","id":"883059532","properties":{"name":"iSP_22kph_%TR_Brake_CTRL_NOREMOVE","oid":"883059532","speedLimit":6.111111},"geometry":{"type":"Polygon","coordinates":[[[-121.027251375919,50.4773231051298],[-121.027019138753,50.4772109454653],[-121.027323668192,50.4769451953627],[-121.027705703967,50.4766336107819],[-121.028022493499,50.4763239135031],[-121.0281797609,50.476169963579],[-121.028610696126,50.4756935546194],[-121.028896764965,50.4753269686646],[-121.02925343503,50.4748888449751],[-121.029462279375,50.4746579650246],[-121.029681129082,50.4745416712699],[-121.029791188079,50.4744894559133],[-121.029941973132,50.4745938866265],[-121.029778364303,50.4745432889574],[-121.029545704376,50.4747927723137],[-121.029241456778,50.4751742769418],[-121.029062487603,50.4754792110297],[-121.028842651451,50.4757759668088],[-121.02868552497,50.4759759309542],[-121.028398328767,50.476271788018],[-121.028030948735,50.4765711500713],[-121.02723305624,50.4772205617186],[-121.027251375919,50.4773231051298]]]}},{"type":"Feature","id":"884401102","properties":{"name":"SP_25KPH_MAIN INT. DUST_aug4_DS","oid":"884401102","speedLimit":6.9444447},"geometry":{"type":"Polygon","coordinates":[[[-121.036548613185,50.4607700282318],[-121.036670509513,50.4610419794697],[-121.038286587072,50.4609938083317],[-121.038270240282,50.4603996676729],[-121.038111704595,50.4605675476836],[-121.036679246591,50.4607393820414],[-121.036546217535,50.4606139213911],[-121.036548613185,50.4607700282318]]]}},{"type":"Feature","id":"886231481","properties":{"name":"SP_15KPH_%TR_1200_SWITCHBACK_AUG_4_DS","oid":"886231481","speedLimit":4.1666665},"geometry":{"type":"Polygon","coordinates":[[[-121.03690063287,50.4452298034325],[-121.036959678606,50.4446828453249],[-121.036275086281,50.4447480920528],[-121.036031152704,50.4452775252128],[-121.03651507408,50.4453477148747],[-121.036609490889,50.4451043427821],[-121.036763517116,50.4451335510281],[-121.03690063287,50.4452298034325]]]}},{"type":"Feature","id":"908328496","properties":{"name":"SP_12KPH_%TR_9019_SOFT_GROUND_AUG_4_DS","oid":"908328496","speedLimit":3.3333333},"geometry":{"type":"Polygon","coordinates":[[[-121.038991753806,50.4644905296674],[-121.039316434893,50.4647041542849],[-121.039495544988,50.4648798531183],[-121.039383513103,50.4652170510841],[-121.039343773491,50.466149827653],[-121.03809676701,50.4665995447694],[-121.036659658626,50.46597062383],[-121.037872985081,50.4651414691307],[-121.038512200969,50.4648159544633],[-121.038991753806,50.4644905296674]]]}},{"type":"Feature","id":"910445950","properties":{"name":"SP_30KPH_%TR_1635_FLATS_AUG_4_DS","oid":"910445950","speedLimit":8.333333},"geometry":{"type":"Polygon","coordinates":[[[-121.020213236957,50.4571659104224],[-121.019031899481,50.4569630703881],[-121.018638167296,50.4569244256319],[-121.017441610393,50.45723349381],[-121.018077726028,50.4544709329706],[-121.0187592181,50.4539010576239],[-121.018925927182,50.4535146999334],[-121.019546823391,50.4545192838516],[-121.020213236957,50.4571465880443],[-121.020198158452,50.4571465880443],[-121.020213236957,50.4571659104224]]]}},{"type":"Feature","id":"913788494","properties":{"name":"SP_20KPH_%TR_ROUGH GROUND_21SH_AUG_4_DS","oid":"913788494","speedLimit":5.5555553},"geometry":{"type":"Polygon","coordinates":[[[-121.040482271102,50.4520550066072],[-121.041012555358,50.451966303411],[-121.041249301984,50.4530991339969],[-121.040662367642,50.4531582694611],[-121.040569782801,50.4525639490593],[-121.040482271102,50.4520550066072]]]}},{"type":"Feature","id":"915576987","properties":{"name":"iSP_15kph_prevent shifting","oid":"915576987","speedLimit":4.1666665},"geometry":{"type":"Polygon","coordinates":[[[-121.036989412854,50.4448655541374],[-121.037503632161,50.4453154509968],[-121.037973038714,50.4457978813487],[-121.038517133191,50.4462211762364],[-121.039450027631,50.4468522540924],[-121.039907455932,50.4471020070633],[-121.040463528661,50.4471973607524],[-121.041216890243,50.4473250681909],[-121.041635424456,50.4475119110936],[-121.042314098115,50.4480973342143],[-121.042696838493,50.4485300656123],[-121.042840295674,50.4487970739162],[-121.043001790694,50.4493938208492],[-121.04318104171,50.450200327924],[-121.043318580226,50.4505034645814],[-121.043680323432,50.4511708505339],[-121.043850837371,50.4514911526527],[-121.044119854816,50.4522556897249],[-121.04437703493,50.4529402411388],[-121.044690865129,50.4538001319001],[-121.044729759218,50.4541967349446],[-121.044565304865,50.4550737911674],[-121.044209621245,50.4568412045988],[-121.044045166893,50.457209228498],[-121.04299869044,50.458400835062],[-121.041898523236,50.459539147811],[-121.041336531842,50.4600024355278],[-121.040364884233,50.4605992723323],[-121.039916333931,50.4607327315485],[-121.039127037592,50.4608089426026],[-121.038935808324,50.4608070553006],[-121.03899259933,50.4612951475586],[-121.039052349669,50.4609291008329],[-121.039871521177,50.4608814689241],[-121.040699711604,50.4606336032553],[-121.041503945527,50.4600596836899],[-121.042867211511,50.4587020844173],[-121.044236396161,50.4571443412562],[-121.044421847684,50.4562920895746],[-121.044807547394,50.4544235706764],[-121.044804447141,50.4537886283448],[-121.044254433999,50.4523034115052],[-121.043826880867,50.4511880159954],[-121.043339577397,50.4503395389179],[-121.043043644115,50.4493118580174],[-121.042921043184,50.4486940811473],[-121.042233350606,50.4478894613746],[-121.041539739362,50.4473937300368],[-121.041085270393,50.4472240525956],[-121.040451550409,50.4471325633821],[-121.039910415265,50.4470219315336],[-121.038813207393,50.4463355826891],[-121.038188365407,50.4458740924028],[-121.037144989208,50.4449093215706],[-121.037369193899,50.4446996513003],[-121.036989412854,50.4448655541374]]]}}]}