{"type":"FeatureCollection","features":[{"type":"Feature","id":"702602533","properties":{"name":"iSP_4KPH_%TR_CR01_Slow Bump","oid":"702602533","speedLimit":1.1111112},"geometry":{"type":"Polygon","coordinates":[[[-121.033345799778,50.4648076854603],[-121.033640446258,50.4646906681421],[-121.033683826332,50.4647313815408],[-121.03335608142,50.4648695194963],[-121.033345799778,50.4648076854603]]]}},{"type":"Feature","id":"707947583","properties":{"name":"iSP_25KPH_%TR_Permission Gate 1 From West Dump","oid":"707947583","speedLimit":6.9444447},"geometry":{"type":"Polygon","coordinates":[[[-121.03861366193,50.4619777896867],[-121.038840280566,50.4617992978328],[-121.038125495249,50.4614080717298],[-121.03797789032,50.4616707765079],[-121.038177325987,50.4615667011973],[-121.038652112451,50.4618458531099],[-121.03861366193,50.4619777896867]]]}},{"type":"Feature","id":"742345972","properties":{"name":"iSP_4KPH_%TR_CR01_Pit Side_Slow Bump","oid":"742345972","speedLimit":1.1111112},"geometry":{"type":"Polygon","coordinates":[[[-121.033385658743,50.4648826412539],[-121.033692840374,50.4647441437982],[-121.033742980979,50.4647762291919],[-121.033461573873,50.4649181418996],[-121.033385658743,50.4648826412539]]]}},{"type":"Feature","id":"776427243","properties":{"name":"iSP_7KPH_%TR_CR1_PermissionBlocker","oid":"776427243","speedLimit":1.9444444},"geometry":{"type":"Polygon","coordinates":[[[-121.034086641309,50.4652126624462],[-121.034038190836,50.465232974208],[-121.034017064177,50.4652744066071],[-121.03410269757,50.4652253348286],[-121.034086641309,50.4652126624462]]]}},{"type":"Feature","id":"794004438","properties":{"name":"iSP_11KPH_%TR_Lower_Fuel_Bay","oid":"794004438","speedLimit":3.0555556},"geometry":{"type":"Polygon","coordinates":[[[-121.036762544015,50.4606952726896],[-121.036764656681,50.460725111207],[-121.036734938513,50.4606706469253],[-121.037110993054,50.4605989266335],[-121.037520850251,50.4605558764834],[-121.037528596693,50.4605812212482],[-121.036930289692,50.4606500655383],[-121.036762544015,50.4606952726896]]]}},{"type":"Feature","id":"801543391","properties":{"name":"iSP_4KPH_%TR_CR01_PermissionBlocker_2","oid":"801543391","speedLimit":1.1111112},"geometry":{"type":"Polygon","coordinates":[[[-121.033142420469,50.4645231410445],[-121.033141575402,50.4644737097657],[-121.033163124595,50.4644316482412],[-121.033095096751,50.4644592398823],[-121.033142420469,50.4645231410445]]]}},{"type":"Feature","id":"806473874","properties":{"name":"iSP_4KPH_%TR_CR04_PermissionBlocker","oid":"806473874","speedLimit":1.1111112},"geometry":{"type":"Polygon","coordinates":[[[-121.022709794264,50.4815450265854],[-121.02267669583,50.4815426898341],[-121.022669090233,50.4815713599758],[-121.022691202803,50.4815724384764],[-121.022695287291,50.4815483519624],[-121.022709794264,50.4815450265854]]]}},{"type":"Feature","id":"824566967","properties":{"name":"iSP_3KPH_%TR_CR04","oid":"824566967","speedLimit":0.8333333},"geometry":{"type":"Polygon","coordinates":[[[-121.023292467536,50.4810681495576],[-121.023272326787,50.4810681495576],[-121.023269650744,50.4811862453764],[-121.023294721046,50.481185526376],[-121.023292467536,50.4810681495576]]]}},{"type":"Feature","id":"826307302","properties":{"name":"iSP_4KPH_%TR_CR04_Pockets","oid":"826307302","speedLimit":1.1111112},"geometry":{"type":"Polygon","coordinates":[[[-121.023287678826,50.4813213275801],[-121.023327115258,50.4814769911708],[-121.023531762167,50.4814375360228],[-121.023450776639,50.4811886720029],[-121.023042609575,50.4811893910033],[-121.023047961662,50.4813600637277],[-121.02327274932,50.4813260909579],[-121.023287678826,50.4813213275801]]]}},{"type":"Feature","id":"883050998","properties":{"name":"iSP_22KPH_%TR_4CR_Brake_Temp_Ctrl","oid":"883050998","speedLimit":6.111111},"geometry":{"type":"Polygon","coordinates":[[[-121.031786511455,50.4745588590157],[-121.032175664525,50.4743122418721],[-121.03247721238,50.4745745871499],[-121.032778760235,50.4748019710323],[-121.032956505864,50.4748843864554],[-121.033165237261,50.4749345367346],[-121.033449038722,50.474959342249],[-121.033652840565,50.4749217744771],[-121.033813966555,50.4748623670675],[-121.033905092881,50.4748103294122],[-121.033994388229,50.4747471472504],[-121.034044810523,50.4746579911985],[-121.034039035903,50.4745478043843],[-121.034042838701,50.4744834538468],[-121.033980726322,50.4743794684112],[-121.033862417028,50.4742593953413],[-121.033495658217,50.4739374629037],[-121.033047491345,50.4735598079337],[-121.032934252449,50.4734252649804],[-121.032809323469,50.4732207093612],[-121.032592563941,50.4728147437497],[-121.032239185348,50.4722088061467],[-121.032474113803,50.4721559596159],[-121.032417071822,50.4722054807698],[-121.032889463931,50.473048688511],[-121.033028618196,50.4733094160379],[-121.033236363682,50.4735467760511],[-121.033729178228,50.4739614595427],[-121.03408410611,50.474270989223],[-121.034189457719,50.4743942977949],[-121.034242133524,50.474461524334],[-121.034249175743,50.4745926520354],[-121.034224246285,50.4746786624605],[-121.034169739503,50.4747914556512],[-121.03407227518,50.4748756685753],[-121.033959458818,50.4749375026113],[-121.033776924479,50.475015963532],[-121.033517489099,50.4750642264351],[-121.033249603055,50.4750679113123],[-121.033058054675,50.4750261194129],[-121.032794393963,50.474916381974],[-121.032643690457,50.4748349551766],[-121.032482141934,50.474705175601],[-121.032131721073,50.4744129019307],[-121.031786511455,50.4745588590157]]]}},{"type":"Feature","id":"883053336","properties":{"name":"iSP_22KPH_%TR_Brake_Temp_Ctrl","oid":"883053336","speedLimit":6.111111},"geometry":{"type":"Polygon","coordinates":[[[-121.032452846299,50.4721450847346],[-121.032238058593,50.4722253431564],[-121.03147566787,50.4710081653223],[-121.030803980938,50.4699231936903],[-121.030648770413,50.469660039537],[-121.03058398199,50.469457551044],[-121.030537644183,50.4692565904269],[-121.03058398199,50.4689727650116],[-121.03071017857,50.4686241396835],[-121.030871867938,50.4683753655386],[-121.031076233159,50.4680976516268],[-121.031675385225,50.4675363819248],[-121.032419043644,50.4668935056753],[-121.032775239125,50.4665560248537],[-121.033134251494,50.4662222289093],[-121.033471010448,50.4658705478294],[-121.033765938616,50.4660339406746],[-121.033573967702,50.4659931374008],[-121.03290608357,50.4666519215346],[-121.032541437425,50.4669911099822],[-121.032165523728,50.4673075600415],[-121.031761441152,50.4676682286266],[-121.031369189505,50.4680342897149],[-121.031134401895,50.4682862094866],[-121.030996092697,50.4684697343436],[-121.03089243122,50.4686543377011],[-121.030815952712,50.4688528716918],[-121.030755107933,50.4691911613888],[-121.030763840285,50.4694004803858],[-121.030861022919,50.4696302010196],[-121.031014965846,50.4699349673221],[-121.0313177813,50.4704036657202],[-121.031517780345,50.4707108586491],[-121.03173735676,50.4710827616158],[-121.032132988672,50.471728693617],[-121.032368198816,50.4721449948596],[-121.032452846299,50.4721450847346]]]}},{"type":"Feature","id":"883059532","properties":{"name":"iSP_22KPH_%TR_Brake_Ctrl","oid":"883059532","speedLimit":6.111111},"geometry":{"type":"Polygon","coordinates":[[[-121.027250758481,50.4773218877503],[-121.027018646914,50.477209723685],[-121.027323011657,50.4769439631551],[-121.027704840818,50.4766323663486],[-121.028021459023,50.4763226569182],[-121.028178641371,50.4761687009535],[-121.028609343538,50.475692273301],[-121.028895257665,50.4753256729624],[-121.029251734835,50.4748875320822],[-121.029460466232,50.4746566430727],[-121.029679197581,50.4745403447549],[-121.029789197055,50.4744881273495],[-121.02993990056,50.4745925621604],[-121.029776380215,50.4745419625059],[-121.029543846115,50.4747914556512],[-121.029239763061,50.4751729752485],[-121.029060890676,50.4754779213011],[-121.028841173416,50.475774688724],[-121.028684131913,50.4759746607155],[-121.028397091031,50.4762705293878],[-121.028029909687,50.4765699031872],[-121.027232448709,50.4772193403156],[-121.027250758481,50.4773218877503]]]}},{"type":"Feature","id":"884401102","properties":{"name":"iSP_30KPH_%TR_Maint_Limit_Policy","oid":"884401102","speedLimit":8.333333},"geometry":{"type":"Polygon","coordinates":[[[-121.037204795423,50.4610266420076],[-121.037661272115,50.4610798480386],[-121.037980143831,50.4608740341687],[-121.037893242838,50.4604832574411],[-121.037846059964,50.4606705570502],[-121.037186626496,50.4607815527399],[-121.036958317728,50.4606590530435],[-121.037204795423,50.4610266420076]]]}},{"type":"Feature","id":"910445950","properties":{"name":"SP_22KPH_%TR_1635_FLATS_OCT_4_NS","oid":"910445950","speedLimit":6.111111},"geometry":{"type":"Polygon","coordinates":[[[-121.017361369117,50.4554936641595],[-121.017994323839,50.4544139951555],[-121.018139534412,50.4539983230384],[-121.018524039617,50.4537513463945],[-121.018939953123,50.4536878946075],[-121.018857840839,50.4543414659883],[-121.018253195841,50.4560719202463],[-121.018267280281,50.455700646405],[-121.017361369117,50.4554936641595]]]}},{"type":"Feature","id":"915576987","properties":{"name":"iSP_15KPH_%TR_Preventing Shifting","oid":"915576987","speedLimit":4.1666665},"geometry":{"type":"Polygon","coordinates":[[[-121.036983528875,50.4448630632167],[-121.037497470081,50.4453129777288],[-121.037966622769,50.4457954270098],[-121.038510422987,50.4462187385064],[-121.039442812898,50.4468498411241],[-121.039899993812,50.4470996038946],[-121.040455765804,50.4471949613251],[-121.041208719953,50.4473226737745],[-121.041627027813,50.4475095240084],[-121.042305334431,50.4480949700994],[-121.042687867814,50.4485277184765],[-121.042831247411,50.4487947372571],[-121.04299265509,50.4493915076047],[-121.043171809164,50.4501980463245],[-121.043309273295,50.4505011948761],[-121.043670820864,50.4511686070149],[-121.043841242584,50.4514889217015],[-121.044110114539,50.4522534887719],[-121.044367155564,50.4529380670457],[-121.044680816037,50.4537979915467],[-121.044719689091,50.4541946101527],[-121.044555323679,50.4550717007886],[-121.04419983242,50.4568391835683],[-121.044035467009,50.4572072219077],[-121.042989556513,50.4583988752269],[-121.041889984303,50.45953723264],[-121.041328296846,50.4600005385349],[-121.040357174726,50.4605973987576],[-121.039908867009,50.4607308632103],[-121.039119997539,50.4608070772547],[-121.038482817485,50.4608386233981],[-121.038630563258,50.4611433897007],[-121.03874337962,50.4609494393377],[-121.039864078491,50.460879606422],[-121.040691821014,50.4606317310276],[-121.04149561999,50.4600577889432],[-121.042858148691,50.4587001364024],[-121.044226592856,50.4571423321199],[-121.044411944083,50.4562900469984],[-121.044797435198,50.4544214547849],[-121.044794336622,50.45378648754],[-121.044244620939,50.4523012124247],[-121.043817299037,50.4511857731499],[-121.043330259111,50.4503372627806],[-121.043034485876,50.449309541557],[-121.04291195125,50.4486917404471],[-121.042224630591,50.4478870891033],[-121.041531394467,50.4473913383145],[-121.041077171285,50.4472216542157],[-121.04044379403,50.4471301614124],[-121.039902951544,50.4470195252229],[-121.038806337066,50.4463331494481],[-121.038181833008,50.4458716410542],[-121.037139021089,50.4449068323672],[-121.037363104526,50.44469715387],[-121.036983528875,50.4448630632167]]]}},{"type":"Feature","id":"917773475","properties":{"name":"SP_15KPH_%TR_1200_CORNER_OCT_2_DS","oid":"917773475","speedLimit":4.1666665},"geometry":{"type":"Polygon","coordinates":[[[-121.037084373463,50.4446823244864],[-121.036910289788,50.444861894841],[-121.036614798242,50.4448203725668],[-121.036400292225,50.4448697139706],[-121.036308743367,50.4449674081525],[-121.036240152145,50.4450819089692],[-121.036227898683,50.4451447316308],[-121.036249025342,50.445267051577],[-121.036301701147,50.4453512645011],[-121.036169870791,50.4453950336516],[-121.036074800823,50.4451940730345],[-121.036148744131,50.4449314581315],[-121.036245504232,50.4447911631748],[-121.036502263569,50.4447148592554],[-121.036699304881,50.4447115338784],[-121.036908599655,50.4447698627874],[-121.037079162221,50.444683402987],[-121.037084373463,50.4446823244864]]]}},{"type":"Feature","id":"929009157","properties":{"name":"iSP_22KPH_%TR_Long_Single_Lane","oid":"929009157","speedLimit":6.111111},"geometry":{"type":"Polygon","coordinates":[[[-121.005675931997,50.4380557470012],[-121.004746499818,50.4382238133491],[-121.005170863988,50.4381973002086],[-121.007930287422,50.4431702666056],[-121.008518876159,50.4445346597754],[-121.008206060752,50.4465094843008],[-121.007828175234,50.4466799772751],[-121.008929296733,50.4466467235058],[-121.008818593036,50.4465927085993],[-121.00939844942,50.4448174066901],[-121.008759720078,50.4430681685461],[-121.008258173179,50.4415399331558],[-121.007254938536,50.4401559472246],[-121.006435505832,50.4389837967918],[-121.005856635359,50.4383127896509],[-121.005675931997,50.4380557470012]]]}},{"type":"Feature","id":"933371104","properties":{"name":"SP_25KPH_%TR_1590_HMT_INTERSECT_OCT_5_DS","oid":"933371104","speedLimit":6.9444447},"geometry":{"type":"Polygon","coordinates":[[[-121.00619522529,50.4380464898708],[-121.006347196395,50.4381866949524],[-121.006600575466,50.4383161150278],[-121.007157615058,50.4382765700048],[-121.006786208382,50.4381830100753],[-121.006647194962,50.4380653636318],[-121.00619522529,50.4380464898708]]]}},{"type":"Feature","id":"934051091","properties":{"name":"iSP_17KPH_%TR_Ramp_Permission Blocker","oid":"934051091","speedLimit":4.7222223},"geometry":{"type":"Polygon","coordinates":[[[-121.039497742213,50.4610295180093],[-121.039449714273,50.460771486734],[-121.039002392467,50.460792068121],[-121.039061265425,50.4610447967682],[-121.039148729796,50.4608997384337],[-121.039364644257,50.4608866166761],[-121.039497742213,50.4610295180093]]]}},{"type":"Feature","id":"936513295","properties":{"name":"SP_30KPH_%TR_1635_FLATS_OCT_5_DS","oid":"936513295","speedLimit":8.333333},"geometry":{"type":"Polygon","coordinates":[[[-121.0172775667,50.4555550488202],[-121.018041506712,50.4557850390792],[-121.017425594162,50.4574536593012],[-121.015219266677,50.4585167912956],[-121.014490678609,50.4578794872993],[-121.016169262137,50.4566192593152],[-121.0172775667,50.4555550488202]]]}},{"type":"Feature","id":"938065675","properties":{"name":"iSP_8KPH_CR01_YARD_RUTIING_OCT_4_NS","oid":"938065675","speedLimit":2.2222223},"geometry":{"type":"Polygon","coordinates":[[[-121.03427565449,50.4648010347064],[-121.034085514554,50.4648578357395],[-121.033927346295,50.464906817643],[-121.033815938377,50.4650047814501],[-121.034030726083,50.4650686826123],[-121.033950726465,50.4650111625788],[-121.034229034995,50.464887943882],[-121.034305654347,50.4649371954107],[-121.03427565449,50.4648010347064]]]}},{"type":"Feature","id":"938165680","properties":{"name":"SP_10KPH_%TR_22SH_OCT_5_DS","oid":"938165680","speedLimit":2.7777777},"geometry":{"type":"Polygon","coordinates":[[[-121.034066923093,50.4466112228601],[-121.035041425479,50.4472504142324],[-121.035483113509,50.447447150722],[-121.035781140254,50.4469120346603],[-121.034841144746,50.4461951912427],[-121.034066923093,50.4466112228601]]]}},{"type":"Feature","id":"944724443","properties":{"name":"SP_10KPH_%TR_21SH_EMPTY_OCT_5_DS","oid":"944724443","speedLimit":2.7777777},"geometry":{"type":"Polygon","coordinates":[[[-121.039119575006,50.4501829473157],[-121.039025913482,50.4503427451588],[-121.0389361956,50.4506115614404],[-121.038936477289,50.4512094102887],[-121.039422108771,50.4515125588403],[-121.039927035936,50.4513548281234],[-121.039695628591,50.4511093793554],[-121.039490418304,50.4509151593673],[-121.039089434305,50.4503564061668],[-121.039069575245,50.4502968190071],[-121.039119575006,50.4501829473157]]]}},{"type":"Feature","id":"948333262","properties":{"name":"SP_15KPH_%TR_19SH_LOADAREA_OCT_5_DS","oid":"948333262","speedLimit":4.1666665},"geometry":{"type":"Polygon","coordinates":[[[-121.002087920973,50.4257052970565],[-121.001353276596,50.4259954137255],[-121.001486937929,50.4262928102738],[-121.00151130401,50.4266961695087],[-121.001607500733,50.4268352960898],[-121.001751443708,50.4269522235329],[-121.00194496391,50.4270054295639],[-121.00228608904,50.4266843060018],[-121.002087920973,50.4257052970565]]]}},{"type":"Feature","id":"950375436","properties":{"name":"SP_22KPH_%TR_1445_RAC_OCT_5_DS","oid":"950375436","speedLimit":6.111111},"geometry":{"type":"Polygon","coordinates":[[[-121.039791402781,50.4640111228712],[-121.03973210729,50.4638808939204],[-121.039075349865,50.4641958161038],[-121.038229579259,50.4645745495744],[-121.03779915878,50.4648372543525],[-121.037680426953,50.464759152932],[-121.037825074149,50.4649248825285],[-121.03856338048,50.4645177485414],[-121.038997462913,50.4643259551796],[-121.039509432298,50.464122388186],[-121.039784078873,50.4640016859907],[-121.039791402781,50.4640111228712]]]}},{"type":"Feature","id":"950380359","properties":{"name":"SP_20KPH_%TR_EMPTY_23SH_SOFT_OCT_5_DS","oid":"950380359","speedLimit":5.5555553},"geometry":{"type":"Polygon","coordinates":[[[-121.038885773306,50.4647303030402],[-121.038771407655,50.4646500446184],[-121.038294367681,50.4649202090258],[-121.038363099747,50.4649519349193],[-121.038767464012,50.4647035202746],[-121.038878167709,50.4647278764138],[-121.038885773306,50.4647303030402]]]}},{"type":"Feature","id":"950427531","properties":{"name":"SP_15KPH_%TR_1590_DUMP_HEAD_OCT_5_DS","oid":"950427531","speedLimit":4.1666665},"geometry":{"type":"Polygon","coordinates":[[[-121.014462368885,50.4503497554129],[-121.014245609357,50.4491357232057],[-121.014354059543,50.4478525770832],[-121.014442650669,50.4473996966944],[-121.013683640212,50.4470536777428],[-121.013545753547,50.4483117487257],[-121.013939977015,50.4505322017692],[-121.014551100855,50.4504252504569],[-121.014462368885,50.4503497554129]]]}},{"type":"Feature","id":"950999947","properties":{"name":"SP_15KPH_%TR_23SH_HEADING_SOFT_OCT_5_DS","oid":"950999947","speedLimit":4.1666665},"geometry":{"type":"Polygon","coordinates":[[[-121.038032256258,50.4652780016092],[-121.037517188296,50.464977189809],[-121.037185499741,50.4652222790768],[-121.036731558248,50.4653225796352],[-121.037368738302,50.4658350471837],[-121.038032256258,50.4652835738625],[-121.038032256258,50.4652780016092]]]}},{"type":"Feature","id":"951141721","properties":{"name":"SP_8KPH_%TR_CR1_SHOPSIDE_OCT_5_DS","oid":"951141721","speedLimit":2.2222223},"geometry":{"type":"Polygon","coordinates":[[[-121.03376030484,50.4647082836524],[-121.03381636091,50.4646112185958],[-121.033587911298,50.4645574733145],[-121.033267208605,50.4644628348844],[-121.033355518042,50.464685275639],[-121.033551855132,50.4646291037312],[-121.033724248674,50.4646342266092],[-121.03376030484,50.4647134065303],[-121.03376030484,50.4647082836524]]]}},{"type":"Feature","id":"951524646","properties":{"name":"SP_15KPH_%TR_TEMP_NEWCULVERT_OCT_5_DS","oid":"951524646","speedLimit":4.1666665},"geometry":{"type":"Polygon","coordinates":[[[-121.039073659732,50.4509928114125],[-121.038247184808,50.4508244754395],[-121.038115354452,50.4514809228219],[-121.039038448633,50.4514809228219],[-121.039073659732,50.4509928114125]]]}},{"type":"Feature","id":"951556849","properties":{"name":"SP_12KPH_%TR_22SH_Oct_5_DS","oid":"951556849","speedLimit":3.3333333},"geometry":{"type":"Polygon","coordinates":[[[-121.039631403546,50.4531055042683],[-121.039847881385,50.4530146405903],[-121.038930843513,50.4531963679462],[-121.038902392945,50.4542504225602],[-121.03967126251,50.4543958403949],[-121.039773797232,50.4536979606134],[-121.039659854114,50.453407214819],[-121.039654220338,50.4532290824652],[-121.039631403546,50.4531055042683]]]}},{"type":"Feature","id":"951577996","properties":{"name":"SP_15KPH_%TR_CALPAD_HMT_OCT_5_DS","oid":"951577996","speedLimit":4.1666665},"geometry":{"type":"Polygon","coordinates":[[[-121.001955245551,50.4387285516431],[-121.001947921642,50.4386451475945],[-121.001902851435,50.438122344415],[-121.001888626151,50.4379566148184],[-121.002006653756,50.4374081073739],[-121.00055173113,50.4367848238858],[-121.000084972797,50.4370287447779],[-121.000607646356,50.4385989518176],[-121.001299755725,50.4386654593563],[-121.001369192013,50.4386721999853],[-121.001664542714,50.439008242806],[-121.001992287627,50.4395129811],[-121.002257779316,50.4394806260812],[-121.001988766517,50.4389543177746],[-121.001955245551,50.4387285516431]]]}},{"type":"Feature","id":"952131703","properties":{"name":"SP_15KPH_05 AMT DOWN ","oid":"952131703","speedLimit":4.1666665},"geometry":{"type":"Polygon","coordinates":[[[-121.033435376815,50.466257729555],[-121.032955379109,50.4666933539337],[-121.03254383178,50.4664984149452],[-121.032970871993,50.4660608133153],[-121.033435376815,50.466257729555]]]}}]}