{"type":"FeatureCollection","features":[{"type":"Feature","id":"702602533","properties":{"name":"iSP_4KPH_%TR_CR01_Slow Bump","oid":"702602533","speedLimit":1.1111112},"geometry":{"type":"Polygon","coordinates":[[[-121.033359153188,50.4648078523037],[-121.033653889531,50.4646908350336],[-121.033697282836,50.4647315484156],[-121.033369437965,50.4648696863144],[-121.033359153188,50.4648078523037]]]}},{"type":"Feature","id":"707947583","properties":{"name":"iSP_25KPH_%TR_Permission Gate 1 From West Dump","oid":"707947583","speedLimit":6.9444447},"geometry":{"type":"Polygon","coordinates":[[[-121.038628621975,50.4619779576923],[-121.038855309726,50.4617994659116],[-121.038140306409,50.4614082399693],[-121.037992656462,50.4616709446395],[-121.038192152955,50.4615668693716],[-121.038667084222,50.4618460211696],[-121.038628621975,50.4619779576923]]]}},{"type":"Feature","id":"742345972","properties":{"name":"iSP_4KPH_%TR_CR01_Pit Side_Slow Bump","oid":"742345972","speedLimit":1.1111112},"geometry":{"type":"Polygon","coordinates":[[[-121.033399024309,50.4648828080666],[-121.033706299627,50.4647443106678],[-121.033756455524,50.4647763960483],[-121.033474962593,50.4649183086977],[-121.033399024309,50.4648828080666]]]}},{"type":"Feature","id":"776427243","properties":{"name":"iSP_7KPH_%TR_CR1_PermissionBlocker","oid":"776427243","speedLimit":1.9444444},"geometry":{"type":"Polygon","coordinates":[[[-121.034100220666,50.4652128291233],[-121.034051755417,50.4652331408768],[-121.034030622314,50.465274573259],[-121.034116281825,50.4652255015005],[-121.034100220666,50.4652128291233]]]}},{"type":"Feature","id":"794004438","properties":{"name":"iSP_11KPH_%TR_Lower_Fuel_Bay","oid":"794004438","speedLimit":3.0555556},"geometry":{"type":"Polygon","coordinates":[[[-121.036776939491,50.4606954412218],[-121.036779052801,50.4607252797269],[-121.03674932557,50.4606708154676],[-121.037125494803,50.4605990952052],[-121.037535477001,50.4605560450728],[-121.037543225805,50.4605813898272],[-121.036944736329,50.460650234089],[-121.036776939491,50.4606954412218]]]}},{"type":"Feature","id":"801543391","properties":{"name":"iSP_4KPH_%TR_CR01_PermissionBlocker_2","oid":"801543391","speedLimit":1.1111112},"geometry":{"type":"Polygon","coordinates":[[[-121.03315571185,50.4645233080048],[-121.033154866526,50.4644738767463],[-121.033176422291,50.4644318152391],[-121.033108373699,50.4644594068688],[-121.03315571185,50.4645233080048]]]}},{"type":"Feature","id":"806473874","properties":{"name":"iSP_4KPH_%TR_CR04_PermissionBlocker","oid":"806473874","speedLimit":1.1111112},"geometry":{"type":"Polygon","coordinates":[[[-121.022719903819,50.4815451865559],[-121.022686795291,50.4815428498055],[-121.022679187374,50.4815715199354],[-121.022701306689,50.4815725984356],[-121.022705392422,50.4815485119315],[-121.022719903819,50.4815451865559]]]}},{"type":"Feature","id":"824566967","properties":{"name":"iSP_3KPH_%TR_CR04","oid":"824566967","speedLimit":0.8333333},"geometry":{"type":"Polygon","coordinates":[[[-121.0233027548,50.4810683097239],[-121.023282607908,50.4810683097239],[-121.023279931048,50.4811864054942],[-121.023305008997,50.4811856864941],[-121.0233027548,50.4810683097239]]]}},{"type":"Feature","id":"826307302","properties":{"name":"iSP_4KPH_%TR_CR04_Pockets","oid":"826307302","speedLimit":1.1111112},"geometry":{"type":"Polygon","coordinates":[[[-121.02329796463,50.4813214876424],[-121.023337413089,50.4814771511692],[-121.023542122413,50.4814376960374],[-121.023461112185,50.4811888321196],[-121.023052820635,50.4811895511198],[-121.023058174354,50.4813602237741],[-121.02328303057,50.4813262510183],[-121.02329796463,50.4813214876424]]]}},{"type":"Feature","id":"883050998","properties":{"name":"iSP_22KPH_%TR_4CR_Brake_Temp_Ctrl","oid":"883050998","speedLimit":6.111111},"geometry":{"type":"Polygon","coordinates":[[[-121.0317993893,50.474559021855],[-121.032188661057,50.4743124048126],[-121.032490300881,50.4745747499827],[-121.032791940704,50.4748021337718],[-121.032969740544,50.4748845491609],[-121.033178535601,50.4749346994196],[-121.033462423618,50.4749595049238],[-121.033666287618,50.4749219371674],[-121.033827462751,50.4748625297821],[-121.033918616868,50.4748104921482],[-121.03400793945,50.4747473100123],[-121.034058377122,50.474658153997],[-121.034052600741,50.4745479672281],[-121.0340564047,50.474483616717],[-121.033994273377,50.4743796313241],[-121.033875928,50.4742595583035],[-121.033509057332,50.4739376259982],[-121.033060753774,50.4735599711832],[-121.032947480342,50.4734254282851],[-121.03282251326,50.4732208727499],[-121.032605687623,50.4728149073052],[-121.032252201254,50.472208969951],[-121.032487201359,50.4721561234419],[-121.032430141981,50.4722056445754],[-121.032902678164,50.4730488519704],[-121.033041874869,50.4733095793902],[-121.033249683715,50.473546939306],[-121.033742648564,50.4739616226273],[-121.034097684694,50.4742711521805],[-121.034203068434,50.4743944607017],[-121.034255760304,50.4744616872132],[-121.034262804672,50.4745928148608],[-121.034237867611,50.4746788252506],[-121.034183344205,50.474791618395],[-121.034085850156,50.4748758312844],[-121.033972999386,50.4749376652951],[-121.033790409377,50.4750161261836],[-121.033530894872,50.4750643890668],[-121.033262927126,50.4750680739425],[-121.033071320326,50.4750262820603],[-121.0328075792,50.4749165446664],[-121.032656829732,50.4748351179024],[-121.032495231938,50.4747053383801],[-121.032144704203,50.4744130648299],[-121.0317993893,50.474559021855]]]}},{"type":"Feature","id":"883053336","properties":{"name":"iSP_22KPH_%TR_Brake_Temp_Ctrl","oid":"883053336","speedLimit":6.111111},"geometry":{"type":"Polygon","coordinates":[[[-121.032465927369,50.472145248565],[-121.032251074155,50.4722255069538],[-121.031488450912,50.4710083296196],[-121.030816559124,50.4699233584331],[-121.030661301261,50.4696602043879],[-121.030596493078,50.469457715978],[-121.030550141139,50.4692567554435],[-121.030596493078,50.4689729301447],[-121.030722728147,50.4686243049598],[-121.030884466828,50.468375530917],[-121.031088894378,50.4680978171193],[-121.031688229179,50.4675365476478],[-121.032432114404,50.4668936716623],[-121.03278841852,50.4665561909793],[-121.033147540384,50.4662223951719],[-121.033484402045,50.4658707142364],[-121.033779420163,50.4660341070145],[-121.033587390701,50.4659933037575],[-121.032919302871,50.4666520876208],[-121.032554545514,50.4669912759291],[-121.032178517168,50.4673077258585],[-121.031774311351,50.4676683942955],[-121.031381940073,50.4680344552334],[-121.031147080855,50.4682863749017],[-121.031008729474,50.4684698996832],[-121.030905036382,50.468654502965],[-121.030828534549,50.4688530368741],[-121.030767671212,50.4691913264322],[-121.030776406228,50.4694006453432],[-121.030873618502,50.4696303658827],[-121.031027608379,50.4699351320601],[-121.031330516189,50.4704038302657],[-121.03153057623,50.4707110230685],[-121.031750219614,50.4710829258824],[-121.032145972189,50.4717288576185],[-121.032381254069,50.47214515869],[-121.032465927369,50.472145248565]]]}},{"type":"Feature","id":"883059532","properties":{"name":"iSP_22KPH_%TR_Brake_Ctrl","oid":"883059532","speedLimit":6.111111},"geometry":{"type":"Polygon","coordinates":[[[-121.027262252976,50.4773220494549],[-121.027030070618,50.4772098854357],[-121.027334528188,50.476944125015],[-121.027716473803,50.4766325283364],[-121.028033188573,50.4763228190332],[-121.028190418859,50.4761688631317],[-121.028621252385,50.4756924356748],[-121.028907253713,50.4753258354868],[-121.029263839604,50.4748876947865],[-121.029472634661,50.4746568058718],[-121.029691432721,50.4745405076018],[-121.029801465744,50.4744882902178],[-121.029952215212,50.4745927249858],[-121.029788644995,50.4745421253521],[-121.029556039974,50.474791618395],[-121.029251864179,50.4751731378355],[-121.02907293724,50.475478083763],[-121.028853152969,50.475774851064],[-121.02869606357,50.4759748229733],[-121.028408935144,50.4762706915242],[-121.028041641814,50.4765700652007],[-121.02724393762,50.4772195020623],[-121.027262252976,50.4773220494549]]]}},{"type":"Feature","id":"884401102","properties":{"name":"iSP_30KPH_%TR_Maint_Limit_Policy","oid":"884401102","speedLimit":8.333333},"geometry":{"type":"Polygon","coordinates":[[[-121.036992497142,50.4611013167916],[-121.037108588321,50.4611077877927],[-121.038294859835,50.4609921186478],[-121.038278516902,50.4603979549207],[-121.03812001863,50.4605658414495],[-121.037032931812,50.460708473099],[-121.036745239837,50.4605378004447],[-121.036992497142,50.4611013167916]]]}},{"type":"Feature","id":"910445950","properties":{"name":"SP_22KPH_%TR_1635_FLATS_SEP_28_DS","oid":"910445950","speedLimit":6.111111},"geometry":{"type":"Polygon","coordinates":[[[-121.017369847466,50.4554938348276],[-121.018002995232,50.454414166267],[-121.018148250093,50.4539984943206],[-121.018532872568,50.4537515177781],[-121.018948912922,50.4536880660172],[-121.018866775595,50.4543416371296],[-121.018261946187,50.456072090677],[-121.018276034923,50.4557008169882],[-121.017369847466,50.4554938348276]]]}},{"type":"Feature","id":"915576987","properties":{"name":"iSP_15KPH_%TR_Preventing Shifting","oid":"915576987","speedLimit":4.1666665},"geometry":{"type":"Polygon","coordinates":[[[-121.036997991748,50.4448632382502],[-121.0375120897,50.4453131525776],[-121.037981385474,50.4457956016605],[-121.038525351545,50.4462189129833],[-121.039458025824,50.4468500153418],[-121.039915346172,50.4470997780097],[-121.040471287668,50.4471951354011],[-121.041224471459,50.447322847798],[-121.041642906898,50.4475096979552],[-121.042321420391,50.4480951438058],[-121.042704070443,50.4485278920052],[-121.042847493768,50.4487949106761],[-121.043008950675,50.4493916807787],[-121.043188159389,50.4501982191673],[-121.043325665445,50.4505013675944],[-121.043687323281,50.4511687794592],[-121.043857796979,50.4514890940142],[-121.044126750936,50.4522536607707],[-121.044383870356,50.4529382387633],[-121.044697626491,50.4537981629112],[-121.044736511401,50.4541947813543],[-121.04457209586,50.4550718716301],[-121.04421649618,50.4568393536839],[-121.044052080639,50.4572073918722],[-121.043005851154,50.4583990447021],[-121.041905943587,50.4595374016477],[-121.041344084822,50.4600007073524],[-121.040372666521,50.46059756733],[-121.039924222076,50.4607310317279],[-121.03913511201,50.460807245741],[-121.038497737624,50.4608387918714],[-121.038645528457,50.4611435580488],[-121.038758379227,50.4609496077655],[-121.039879419897,50.4608797748785],[-121.040707414872,50.4606318995859],[-121.041511458997,50.4600579577372],[-121.042874403253,50.4587003057538],[-121.044243264777,50.4571425021111],[-121.044428672534,50.4562902173395],[-121.04481428122,50.4544216258933],[-121.044811181698,50.4537866589092],[-121.044261298358,50.4523013844039],[-121.043833846129,50.4511859455871],[-121.043346657661,50.4503374355663],[-121.043050794219,50.4493097147646],[-121.042928222222,50.4486919139084],[-121.042240691938,50.4478872628951],[-121.041547244385,50.4473915123098],[-121.041092882671,50.4472218282807],[-121.040459312243,50.447130335515],[-121.039918304807,50.4470196993709],[-121.038821355874,50.4463333238779],[-121.03819666135,50.4458718156736],[-121.037153531386,50.4449070073828],[-121.037377683165,50.4446973289717],[-121.036997991748,50.4448632382502]]]}},{"type":"Feature","id":"917773475","properties":{"name":"SP_15KPH_%TR_1200_CORNER_Sept_28_DS","oid":"917773475","speedLimit":4.1666665},"geometry":{"type":"Polygon","coordinates":[[[-121.037098867093,50.4446824995942],[-121.036924730325,50.444862069875],[-121.036629148657,50.4448205476179],[-121.036414577218,50.4448698890014],[-121.036323000439,50.4449675831432],[-121.036254388298,50.4450820839129],[-121.036242131098,50.4451449065487],[-121.036263264201,50.4452672264447],[-121.036315956071,50.4453514393342],[-121.036184085509,50.4453952084667],[-121.036088986545,50.4451942479321],[-121.036162952406,50.444931633137],[-121.036259742017,50.4447913382379],[-121.036516579662,50.4447150343498],[-121.036713681069,50.4447117089742],[-121.036923039676,50.4447700378592],[-121.037093654261,50.4446835780944],[-121.037098867093,50.4446824995942]]]}},{"type":"Feature","id":"926367691","properties":{"name":"SP_30KPH_%TR_24SH_EMPTY_LANE_SEP_28_DS","oid":"926367691","speedLimit":6.9444447},"geometry":{"type":"Polygon","coordinates":[[[-121.038923499205,50.4549415528577],[-121.039203442376,50.454623485178],[-121.039439006031,50.4538306976668],[-121.039920981666,50.4514269005035],[-121.039502546227,50.4515917312819],[-121.039433229649,50.453047077407],[-121.0392042877,50.4540991543379],[-121.038923499205,50.4549415528577]]]}},{"type":"Feature","id":"929009157","properties":{"name":"iSP_22KPH_%TR_Long_Single_Lane","oid":"929009157","speedLimit":6.111111},"geometry":{"type":"Polygon","coordinates":[[[-121.005680846428,50.43805592483],[-121.004751130784,50.4382239911089],[-121.00517562438,50.4381974779794],[-121.007935889405,50.4431704423342],[-121.008524657654,50.4445348349438],[-121.008211746842,50.4465096586583],[-121.007833746074,50.4466801515626],[-121.008935203401,50.4466468978068],[-121.008824465942,50.4465928829226],[-121.009404499175,50.4448175817424],[-121.008765575028,50.4430683443167],[-121.008263875163,50.441540109554],[-121.007260334546,50.4401561241911],[-121.006440651925,50.4389839742396],[-121.005861604903,50.4383129673742],[-121.005680846428,50.43805592483]]]}},{"type":"Feature","id":"932268643","properties":{"name":"SP_35KPH_%traction_1185_1170_SEP_28_DS","oid":"932268643","speedLimit":9.722222},"geometry":{"type":"Polygon","coordinates":[[[-121.038729074658,50.4481974215734],[-121.038467305956,50.4482556605834],[-121.038947168281,50.4498292822289],[-121.039506350186,50.4497913549724],[-121.03910580744,50.4497305994619],[-121.038622000269,50.4483441874736],[-121.038852069317,50.4481594943169],[-121.038729074658,50.4481974215734]]]}},{"type":"Feature","id":"934051091","properties":{"name":"iSP_17KPH_%TR_Ramp_Permission Blocker","oid":"934051091","speedLimit":4.7222223},"geometry":{"type":"Polygon","coordinates":[[[-121.039512971891,50.4610296864043],[-121.039464929304,50.4607716552349],[-121.03901747107,50.4607922366134],[-121.039076361984,50.4610449651569],[-121.03916385303,50.460899906882],[-121.039379833343,50.4608867851297],[-121.039512971891,50.4610296864043]]]}},{"type":"Feature","id":"934181442","properties":{"name":"SP_30KPH_TR%_1590_3_SEPT 28_DS_Rough_section ","oid":"934181442","speedLimit":8.333333},"geometry":{"type":"Polygon","coordinates":[[[-121.011062320661,50.4415091925487],[-121.010401277199,50.4418073079749],[-121.011607132056,50.4432053138402],[-121.012272683913,50.4429312849181],[-121.011824521242,50.4429214885414],[-121.010901427304,50.441773065594],[-121.011062320661,50.4415091925487]]]}},{"type":"Feature","id":"934181877","properties":{"name":"SP_30KPH_TR%_1590_7_SEPT 28_DS","oid":"934181877","speedLimit":8.333333},"geometry":{"type":"Polygon","coordinates":[[[-121.013995595356,50.4497858725964],[-121.013325394216,50.4498807806128],[-121.013673949528,50.451505361392],[-121.014402900694,50.451382861746],[-121.013984465255,50.4512795953532],[-121.013707198944,50.4500005840084],[-121.013995595356,50.4497858725964]]]}},{"type":"Feature","id":"934182273","properties":{"name":"SP_30KPH_TR%_1590_17_SEPT 28_DS","oid":"934182273","speedLimit":8.333333},"geometry":{"type":"Polygon","coordinates":[[[-121.008849684778,50.4413697065247],[-121.009440707225,50.4411107766052],[-121.007219758988,50.4391735206472],[-121.00629821481,50.4396569583553],[-121.007075913,50.4394768488243],[-121.008913788524,50.441115270356],[-121.008849684778,50.4413697065247]]]}},{"type":"Feature","id":"936169885","properties":{"name":"SP_15KPH_%TR_24shl_loadplan_Sept_28_DS","oid":"936169885","speedLimit":4.1666665},"geometry":{"type":"Polygon","coordinates":[[[-121.039168924975,50.4546366968053],[-121.038619041635,50.4545682120435],[-121.038154536031,50.4553922760602],[-121.038670042857,50.455519359332],[-121.038842066315,50.4552446114098],[-121.039002114348,50.4549473947337],[-121.039087492085,50.454791731207],[-121.039168924975,50.4546366968053]]]}},{"type":"Feature","id":"936513295","properties":{"name":"SP_30KPH_%TR_1635_FLATS_SEP_28_DS","oid":"936513295","speedLimit":8.333333},"geometry":{"type":"Polygon","coordinates":[[[-121.017286019491,50.4555552194632],[-121.018050192495,50.4557852096277],[-121.0174340921,50.4574538291646],[-121.015227091711,50.4585169607223],[-121.014498281432,50.4578796569878],[-121.016177376908,50.4566194295211],[-121.017286019491,50.4555552194632]]]}},{"type":"Feature","id":"937786749","properties":{"name":"SP_15KPH_%TR_24SH_Loaded_LANE_SEP_28_DS","oid":"937786749","speedLimit":4.1666665},"geometry":{"type":"Polygon","coordinates":[[[-121.03828020755,50.4554284058164],[-121.038456457629,50.4555012045789],[-121.038969710257,50.4539575113136],[-121.039134266686,50.4529388678884],[-121.038910819344,50.4529279930116],[-121.038490693256,50.4548541044677],[-121.03828020755,50.4554284058164]]]}},{"type":"Feature","id":"938065675","properties":{"name":"iSP_8KPH_CR01_YARD_RUTIING_SEP_28_DS","oid":"938065675","speedLimit":2.2222223},"geometry":{"type":"Polygon","coordinates":[[[-121.034289291494,50.4648012015526],[-121.034099093568,50.4648580025624],[-121.03394087707,50.4649069844458],[-121.033829435173,50.4650049482126],[-121.034044288387,50.4650688493486],[-121.033964264371,50.4650113293387],[-121.034242657781,50.4648881106925],[-121.034319300501,50.464937362201],[-121.034289291494,50.4648012015526]]]}},{"type":"Feature","id":"938165680","properties":{"name":"SP_10KPH_%TR_22SH_Sept_28_DS","oid":"938165680","speedLimit":2.7777777},"geometry":{"type":"Polygon","coordinates":[[[-121.034080496437,50.4466113971757],[-121.035055296034,50.4472505882856],[-121.035497118774,50.4474473246944],[-121.035795236414,50.4469122088524],[-121.034854954218,50.4461953657292],[-121.034080496437,50.4466113971757]]]}},{"type":"Feature","id":"944724443","properties":{"name":"SP_12KPH_%TR_21SH_EMPTY_SEPT 28_DS","oid":"944724443","speedLimit":3.3333333},"geometry":{"type":"Polygon","coordinates":[[[-121.039134689348,50.4501831201647],[-121.038912791767,50.450167302162],[-121.038927866713,50.4505369581006],[-121.039265573699,50.4511709364595],[-121.039344893279,50.4515559610257],[-121.039732474388,50.4514983511408],[-121.039710918623,50.451109551824],[-121.039407306376,50.450958651673],[-121.039104539454,50.4503565789445],[-121.039084674337,50.4502969918093],[-121.039134689348,50.4501831201647]]]}},{"type":"Feature","id":"944724972","properties":{"name":"SP_20KPH_%TR_21SH_LOADED_SEPT 28_DS","oid":"944724972","speedLimit":5.5555553},"geometry":{"type":"Polygon","coordinates":[[[-121.038746685577,50.4528630133754],[-121.039145678561,50.4529208030103],[-121.039173996919,50.4521842772587],[-121.039258811106,50.4516355004144],[-121.039213445378,50.4512646761006],[-121.038913073541,50.4506402244933],[-121.038818538127,50.4509653922992],[-121.038886023169,50.4509782444264],[-121.039058187515,50.4512926272304],[-121.039102003482,50.4515746550289],[-121.039046916527,50.4519345145908],[-121.038989998036,50.4528594183748],[-121.038746685577,50.4528630133754]]]}},{"type":"Feature","id":"945606742","properties":{"name":"SP_20KPH_19SH_SEPT 28_DS","oid":"945606742","speedLimit":5.5555553},"geometry":{"type":"Polygon","coordinates":[[[-121.003173333315,50.4271972254634],[-121.002724043545,50.427602112408],[-121.002069480902,50.4273943213723],[-121.002381264615,50.4270466848126],[-121.003173333315,50.4271972254634]]]}},{"type":"Feature","id":"947937278","properties":{"name":"SP_20KM_HDH_RAMP_SEPT_28_DS","oid":"947937278","speedLimit":5.5555553},"geometry":{"type":"Polygon","coordinates":[[[-121.035683935404,50.4530870717889],[-121.034802825897,50.4533740427132],[-121.033880577283,50.4522901500269],[-121.033033562515,50.4504454653348],[-121.032908877207,50.4481652463179],[-121.033815487325,50.448201016574],[-121.033429596865,50.4497292513367],[-121.034151221888,50.4518553347022],[-121.03525887826,50.4531885406814],[-121.035683935404,50.4530870717889]]]}},{"type":"Feature","id":"948238095","properties":{"name":"SP_30KPH_CRUSHER YARD_sep28 ds","oid":"948238095","speedLimit":8.333333},"geometry":{"type":"Polygon","coordinates":[[[-121.035558968322,50.4644268721132],[-121.035668296908,50.4645727392633],[-121.036764964066,50.4642007465744],[-121.036576034125,50.4640972105566],[-121.035956552433,50.4643169549694],[-121.035558968322,50.4644268721132]]]}},{"type":"Feature","id":"948301528","properties":{"name":"SP_25KPH_%TR_24SH__LANE_SEP_28_DS","oid":"948301528","speedLimit":6.9444447},"geometry":{"type":"Polygon","coordinates":[[[-121.038886586719,50.4508956492872],[-121.038355018735,50.4507935512697],[-121.038184685925,50.4515245047703],[-121.038308525908,50.4527592077326],[-121.038334308294,50.4539972360704],[-121.03814340593,50.4547939780823],[-121.038721466741,50.4548071897096],[-121.039005354758,50.4538325850421],[-121.03884023478,50.4523641171646],[-121.038767959567,50.4514783988874],[-121.03887108911,50.4509812103019],[-121.038886586719,50.4508956492872]]]}},{"type":"Feature","id":"948333262","properties":{"name":"SP_15KPH_19SH_SEP 28 DS","oid":"948333262","speedLimit":4.1666665},"geometry":{"type":"Polygon","coordinates":[[[-121.001735718762,50.4276537905419],[-121.002115973729,50.4274007024984],[-121.001864771578,50.4271371889531],[-121.001669924368,50.4267522542619],[-121.002057223702,50.4262431122994],[-121.00173797296,50.4261428117822],[-121.001735718762,50.4276537905419]]]}}]}