{"type":"FeatureCollection","features":[{"type":"Feature","id":"702602533","properties":{"name":"iSP_4KPH_%TR_CR01_SLOW BUMP","oid":"702602533","speedLimit":1.1111112},"geometry":{"type":"Polygon","coordinates":[[[-121.033360220742,50.4648054552252],[-121.033654953407,50.4646884447664],[-121.03369834617,50.4647291557786],[-121.03337050539,50.4648672856366],[-121.033360220742,50.4648054552252]]]}},{"type":"Feature","id":"707947583","properties":{"name":"iSP_25KPH_%TR_Permission Gate 1 from west dump_Jun","oid":"707947583","speedLimit":6.9444447},"geometry":{"type":"Polygon","coordinates":[[[-121.038629623777,50.4619757253366],[-121.0388563087,50.4617972439456],[-121.038141314303,50.4614060407759],[-121.0379936662,50.4616687301545],[-121.038193160203,50.4615646609446],[-121.038668085544,50.4618437964937],[-121.038629623777,50.4619757253366]]]}},{"type":"Feature","id":"742345972","properties":{"name":"iSP_4KPH_%TR_CR01_PITSIDE_SLOW BUMP","oid":"742345972","speedLimit":1.1111112},"geometry":{"type":"Polygon","coordinates":[[[-121.033400091365,50.464880406625],[-121.033707362848,50.4647419172879],[-121.03375751812,50.4647740008008],[-121.033476028701,50.4649159051897],[-121.033400091365,50.464880406625]]]}},{"type":"Feature","id":"776427243","properties":{"name":"iSP_7KPH_%TR_CR1_PermissionBlocker_DO_NOT_DELETE","oid":"776427243","speedLimit":1.9444444},"geometry":{"type":"Polygon","coordinates":[[[-121.034101278973,50.4652104084718],[-121.034052814328,50.465230719043],[-121.034031681489,50.4652721490134],[-121.034117339931,50.4652230801114],[-121.034101278973,50.4652104084718]]]}},{"type":"Feature","id":"794004438","properties":{"name":"iSP_11KPH_%TR_LOWER_FUEL_BAY","oid":"794004438","speedLimit":3.0555556},"geometry":{"type":"Polygon","coordinates":[[[-121.036777964398,50.4606932835191],[-121.036780077682,50.4607231202874],[-121.036750350821,50.4606686591982],[-121.037126515361,50.4605969431106],[-121.037536492443,50.4605538954841],[-121.037544241151,50.4605792387632],[-121.036945759142,50.4606480790177],[-121.036777964398,50.4606932835191]]]}},{"type":"Feature","id":"801543391","properties":{"name":"iSP_4KPH_%TR_CR1_PermissionBlocker_DO_NOT_DELETE_","oid":"801543391","speedLimit":1.1111112},"geometry":{"type":"Polygon","coordinates":[[[-121.033156781942,50.4645209274891],[-121.033155936628,50.4644714991079],[-121.033177492125,50.464429440049],[-121.033109444382,50.4644570300726],[-121.033156781942,50.4645209274891]]]}},{"type":"Feature","id":"806473874","properties":{"name":"iSP_4KPH_%TR_Permission Blocker - DO NOT DELETE","oid":"806473874","speedLimit":1.1111112},"geometry":{"type":"Polygon","coordinates":[[[-121.022721104127,50.4815418152282],[-121.022687996013,50.4815394786138],[-121.02268038819,50.4815681470749],[-121.022702507229,50.4815692255123],[-121.022706592911,50.4815451404102],[-121.022721104127,50.4815418152282]]]}},{"type":"Feature","id":"824566967","properties":{"name":"iSP_4Cr_3KPH","oid":"824566967","speedLimit":0.8333333},"geometry":{"type":"Polygon","coordinates":[[[-121.023303947835,50.4810649661543],[-121.023283801195,50.4810649661543],[-121.023281124369,50.4811830550505],[-121.023306202005,50.4811823360922],[-121.023303947835,50.4810649661543]]]}},{"type":"Feature","id":"826307302","properties":{"name":"iSP_4KPH_TR%_CRUSHER POCKETS","oid":"826307302","speedLimit":1.1111112},"geometry":{"type":"Polygon","coordinates":[[[-121.023299157725,50.4813181293358],[-121.023338605692,50.4814737838017],[-121.023543312462,50.4814343309665],[-121.023462303244,50.4811854815346],[-121.023054016789,50.4811862004929],[-121.023059370442,50.4813568632127],[-121.023284223852,50.4813228924344],[-121.023299157725,50.4813181293358]]]}},{"type":"Feature","id":"883050998","properties":{"name":"iSP_22kph_%TR_4CR_Brake_Temp_CTRL_NOREMOVE","oid":"883050998","speedLimit":6.111111},"geometry":{"type":"Polygon","coordinates":[[[-121.031800476316,50.4745560571789],[-121.032189743216,50.4743094544916],[-121.032491379275,50.4745717843911],[-121.032793015335,50.4747991549446],[-121.032970812956,50.4748815655365],[-121.033179605408,50.474931712876],[-121.033463489883,50.4749565169364],[-121.033667351339,50.4749189513667],[-121.03382852446,50.4748595474395],[-121.033919677441,50.4748075128345],[-121.034008998908,50.4747443343764],[-121.034059435951,50.4746551835507],[-121.034053659642,50.4745450031955],[-121.034057463553,50.4744806564302],[-121.033995333005,50.4743766770901],[-121.033876989105,50.4742566110587],[-121.033510123015,50.4739346974924],[-121.033061825051,50.4735570646601],[-121.032948553032,50.4734225295934],[-121.032823587509,50.4732179859651],[-121.032606764578,50.4728120441508],[-121.032253282619,50.4722061420671],[-121.032488279792,50.4721532986341],[-121.032431221126,50.4722028168851],[-121.032903751413,50.4730459751985],[-121.033042946381,50.4733066874419],[-121.033250752634,50.4735440335414],[-121.033743711332,50.4739586927247],[-121.034098743032,50.4742682042608],[-121.034204125457,50.4743915056044],[-121.03425681667,50.4744587282029],[-121.03426386095,50.4745898482177],[-121.034238924199,50.474675853601],[-121.034184401474,50.4747886401799],[-121.034086908642,50.4748728481675],[-121.03397405928,50.4749346785789],[-121.033791471549,50.4750131349003],[-121.033531960282,50.4750613949743],[-121.03326399588,50.4750650796354],[-121.03307239147,50.4750232901859],[-121.032808653636,50.4749135591796],[-121.032657906049,50.4748321371553],[-121.032496310271,50.4747023651873],[-121.03214578691,50.4744101086497],[-121.031800476316,50.4745560571789]]]}},{"type":"Feature","id":"883053336","properties":{"name":"iSP_22kph_%TR_Brake_Temp_CTRL_NOREMOVE","oid":"883053336","speedLimit":6.111111},"geometry":{"type":"Polygon","coordinates":[[[-121.032467006067,50.4721424243903],[-121.032252155535,50.4722226781074],[-121.031489541807,50.4710055716228],[-121.030817658403,50.4699206635904],[-121.030662402477,50.4696575248629],[-121.030597595103,50.4694550482396],[-121.030551243743,50.4692540994026],[-121.030597595103,50.4689702906247],[-121.030723828597,50.4686216857326],[-121.03088556526,50.4683729261705],[-121.031089990259,50.468095228538],[-121.031689317581,50.4675339917369],[-121.032433193525,50.466891153172],[-121.032789493195,50.4665536921332],[-121.033148610577,50.4662199157554],[-121.033485468036,50.4658682552907],[-121.033780482472,50.466031638558],[-121.033588455406,50.465990837676],[-121.032920375913,50.4666495831927],[-121.032555623107,50.4669887517575],[-121.032179599453,50.4673051832669],[-121.03177539868,50.4676658307101],[-121.031383032297,50.4680318703403],[-121.03114817601,50.4682837753448],[-121.031009826355,50.4684672894437],[-121.030906134557,50.46865188198],[-121.030829633679,50.4688504043329],[-121.030768771102,50.4691886741998],[-121.030777506009,50.4693979809267],[-121.030874717069,50.4696276880946],[-121.031028705025,50.4699324365321],[-121.031331609055,50.4704011074556],[-121.0315316666,50.4707082823773],[-121.031751307243,50.4710801635435],[-121.032147054881,50.471726057681],[-121.032382333825,50.4721423345205],[-121.032467006067,50.4721424243903]]]}},{"type":"Feature","id":"883059532","properties":{"name":"iSP_22kph_%TR_Brake_CTRL_NOREMOVE","oid":"883059532","speedLimit":6.111111},"geometry":{"type":"Polygon","coordinates":[[[-121.027263396605,50.4773189239482],[-121.027031217144,50.4772067664578],[-121.027335670916,50.4769410215065],[-121.027717611764,50.4766294429654],[-121.028034322583,50.4763197516898],[-121.028191550907,50.4761658047498],[-121.028622379057,50.4756894050248],[-121.028908376816,50.4753228261759],[-121.029264958258,50.474884710979],[-121.02947375071,50.4746538355039],[-121.029692546039,50.4745375440034],[-121.029802577689,50.4744853296589],[-121.029953325276,50.4745897583479],[-121.0297897571,50.4745391616595],[-121.029557154982,50.4747886401799],[-121.029252982982,50.4751701374129],[-121.029074058276,50.47547506559],[-121.028854276747,50.4757718156168],[-121.028697189309,50.4759717758861],[-121.028410064465,50.476267627215],[-121.028042775718,50.4765669834655],[-121.027245081478,50.4772163825246],[-121.027263396605,50.4773189239482]]]}},{"type":"Feature","id":"884401102","properties":{"name":"iSP_30KPH_MAIN INT_LIMIT_POLICY_SEPT_8_NS","oid":"884401102","speedLimit":8.333333},"geometry":{"type":"Polygon","coordinates":[[[-121.036993519359,50.4610991354636],[-121.037109609089,50.461105606088],[-121.038295865802,50.460989943676],[-121.038279523072,50.460395814534],[-121.038121026778,50.4605636912905],[-121.037033953524,50.4607063146378],[-121.036746265139,50.4605356519179],[-121.036993519359,50.4610991354636]]]}},{"type":"Feature","id":"903864124","properties":{"name":"SP_15KPH_%TR_OLD_GARBAGEDUMP_SEP_8_NS","oid":"903864124","speedLimit":4.1666665},"geometry":{"type":"Polygon","coordinates":[[[-121.042486085177,50.4669845278776],[-121.042132884989,50.4673262127964],[-121.042024403081,50.4669766193366],[-121.041687263851,50.4668073046636],[-121.041835757269,50.4667078188127],[-121.042486085177,50.4669845278776]]]}},{"type":"Feature","id":"910445950","properties":{"name":"SP_22KPH_%TR_1635_FLATS_SEP_7_NS","oid":"910445950","speedLimit":6.111111},"geometry":{"type":"Polygon","coordinates":[[[-121.018918179254,50.4576014933404],[-121.01525022278,50.4586984439238],[-121.014499584328,50.4578776631866],[-121.017482414152,50.456413864145],[-121.017774751762,50.4542380268047],[-121.018181629361,50.4539913342477],[-121.018534125121,50.4537497642683],[-121.019043708319,50.4536534238599],[-121.019221365055,50.4539272570917],[-121.019246724462,50.4568488338995],[-121.019159375393,50.4570711717451],[-121.019197414504,50.4574031507271],[-121.018918179254,50.4576014933404]]]}},{"type":"Feature","id":"917773475","properties":{"name":"SP_15KPH_%TR_1200_CORNER_Sept_8_NS","oid":"917773475","speedLimit":4.1666665},"geometry":{"type":"Polygon","coordinates":[[[-121.037099887983,50.444681273975],[-121.036925753387,50.4448608338035],[-121.036630175408,50.4448193139633],[-121.036415606647,50.4448686524747],[-121.03632403101,50.4449663409299],[-121.036255419725,50.4450808350347],[-121.036243162678,50.4451436540137],[-121.036264295517,50.4452659667897],[-121.03631698673,50.4453501747773],[-121.036185117813,50.4453939413621],[-121.036090020036,50.4451929925251],[-121.036163984974,50.4449303930163],[-121.036260773378,50.4447901062835],[-121.036517607818,50.4447138068368],[-121.036714706766,50.4447104816548],[-121.03692406276,50.4447688071447],[-121.037094675216,50.4446823524125],[-121.037099887983,50.444681273975]]]}},{"type":"Feature","id":"922262468","properties":{"name":"SP_20kph_HMT_DUMP_SEP_8_NS","oid":"922262468","speedLimit":5.5555553},"geometry":{"type":"Polygon","coordinates":[[[-121.012503235443,50.436425655878],[-121.012483370574,50.4374162905069],[-121.014763885705,50.4387140101878],[-121.017333638963,50.4379489487167],[-121.016524955646,50.4359049503496],[-121.014772902383,50.4353080352443],[-121.013004788162,50.4354266633592],[-121.012503235443,50.436425655878]]]}},{"type":"Feature","id":"925542039","properties":{"name":"SP_12KPH_DRAINAGE DITCHSEPT_7_NS","oid":"925542039","speedLimit":3.3333333},"geometry":{"type":"Polygon","coordinates":[[[-121.01817303534,50.4555295454705],[-121.018489746158,50.4557188112356],[-121.018469740404,50.4558337546893],[-121.01812569778,50.4556352323364],[-121.01817303534,50.4555295454705]]]}},{"type":"Feature","id":"929009157","properties":{"name":"iSP_22kph_Long_Single_Lane_Aug30","oid":"929009157","speedLimit":6.111111},"geometry":{"type":"Polygon","coordinates":[[[-121.005870905159,50.4378872980448],[-121.004811586368,50.4381062208386],[-121.005177043602,50.4381966298413],[-121.007937274185,50.4431693047292],[-121.008526035088,50.44453361792],[-121.008213128181,50.4465083266836],[-121.007835132129,50.4466788096638],[-121.008936575713,50.4466455578438],[-121.008825839635,50.4465915461036],[-121.009405865631,50.4448163482604],[-121.008766949456,50.4430672126546],[-121.008265255851,50.4415390668476],[-121.007261727756,50.4401551620439],[-121.006442055362,50.438983080321],[-121.005691839568,50.4380205749345],[-121.005870905159,50.4378872980448]]]}},{"type":"Feature","id":"930116666","properties":{"name":"SP_15KPH_9023 Rough_SEP_8_NS","oid":"930116666","speedLimit":4.1666665},"geometry":{"type":"Polygon","coordinates":[[[-121.043598658723,50.4685516771709],[-121.043298431519,50.4689152903169],[-121.042549906351,50.4684600099912],[-121.042345340467,50.4680380713554],[-121.043037229626,50.4679047944657],[-121.043598658723,50.4685516771709]]]}},{"type":"Feature","id":"933252378","properties":{"name":"SP_20KPH_%TR_1615_ROUGH_SECTION_SEP_8_DS","oid":"933252378","speedLimit":5.5555553},"geometry":{"type":"Polygon","coordinates":[[[-121.007363869812,50.4314113712802],[-121.007546316658,50.4321451580665],[-121.007055048588,50.4322071682174],[-121.007400359182,50.4321234095788],[-121.007259332701,50.431484255675],[-121.006911486166,50.4314547783859],[-121.007363869812,50.4314113712802]]]}},{"type":"Feature","id":"933252478","properties":{"name":"SP_30KPH_%TR_1605_PATCH_SEP_8_NS","oid":"933252478","speedLimit":8.333333},"geometry":{"type":"Polygon","coordinates":[[[-121.006595198005,50.4333403363238],[-121.007213263111,50.4334378450394],[-121.00698235162,50.4339621453592],[-121.006680152018,50.4343781525893],[-121.006275951246,50.4347746580763],[-121.005742699267,50.4345232922905],[-121.006214806897,50.4346034561378],[-121.006703820798,50.4339773333527],[-121.006897397606,50.4335505417485],[-121.006595198005,50.4333403363238]]]}},{"type":"Feature","id":"933252549","properties":{"name":"SP_35KPH_%TR_1590_ROUGH_SEP_8_NS","oid":"933252549","speedLimit":9.722222},"geometry":{"type":"Polygon","coordinates":[[[-121.004364556374,50.4363921344486],[-121.00478115508,50.4364492916312],[-121.00488541042,50.4362105076151],[-121.005083354681,50.4359562659962],[-121.004585887644,50.4358317064756],[-121.004799892864,50.4359801713588],[-121.004628716865,50.436367420258],[-121.004364556374,50.4363921344486]]]}},{"type":"Feature","id":"933371104","properties":{"name":"SP_12KPH_1590_HMT_INTERSECT_SEPT_8_NS","oid":"933371104","speedLimit":3.3333333},"geometry":{"type":"Polygon","coordinates":[[[-121.006262989771,50.4373380139251],[-121.006006437102,50.4376207442655],[-121.006185080037,50.4377479998797],[-121.006389786807,50.4379875927238],[-121.006555609152,50.4382634929606],[-121.007089142902,50.4381528632565],[-121.006747213562,50.4380701830553],[-121.006309482017,50.437594322549],[-121.006262989771,50.4373380139251]]]}},{"type":"Feature","id":"934773555","properties":{"name":"SP_10KPH_NEW RAMP_SEPT 8_NS","oid":"934773555","speedLimit":2.7777777},"geometry":{"type":"Polygon","coordinates":[[[-121.035776267815,50.4443179304384],[-121.036278243191,50.4444723267273],[-121.035933214368,50.4447843546173],[-121.034509565428,50.4446677935074],[-121.034741322232,50.4441505030308],[-121.035776267815,50.4443179304384]]]}},{"type":"Feature","id":"934888580","properties":{"name":"SP_12KPH_RUTS_SEPT 8_NS","oid":"934888580","speedLimit":3.3333333},"geometry":{"type":"Polygon","coordinates":[[[-121.038717677274,50.4531187885149],[-121.038178789872,50.4531776532234],[-121.038463097003,50.4531988624924],[-121.038509166593,50.4536159481599],[-121.038300655912,50.4537097722144],[-121.038743600223,50.4536367979498],[-121.038717677274,50.4531187885149]]]}}]}