{"type":"FeatureCollection","features":[{"type":"Feature","id":"702602533","properties":{"name":"iSP_4KPH_%TR_CR01_Slow Bump","oid":"702602533","speedLimit":1.1111112},"geometry":{"type":"Polygon","coordinates":[[[-121.03335885748,50.4648079489219],[-121.033653592411,50.4646909315907],[-121.033696985508,50.464731644994],[-121.033369142207,50.4648697829648],[-121.03335885748,50.4648079489219]]]}},{"type":"Feature","id":"707947583","properties":{"name":"iSP_25KPH_%TR_Permission Gate 1 From West Dump","oid":"707947583","speedLimit":6.9444447},"geometry":{"type":"Polygon","coordinates":[[[-121.038628301033,50.4619780528341],[-121.038854987699,50.4617995609603],[-121.038139987805,50.4614083348139],[-121.037992338566,50.4616710396211],[-121.038191834103,50.461566964299],[-121.038666763096,50.4618461162426],[-121.038628301033,50.4619780528341]]]}},{"type":"Feature","id":"742345972","properties":{"name":"iSP_4KPH_%TR_CR01_Pit Side_Slow Bump","oid":"742345972","speedLimit":1.1111112},"geometry":{"type":"Polygon","coordinates":[[[-121.03339872841,50.4648829047239],[-121.033706002256,50.4647444072528],[-121.033756157913,50.4647764926501],[-121.033474666329,50.4649184053735],[-121.03339872841,50.4648829047239]]]}},{"type":"Feature","id":"776427243","properties":{"name":"iSP_7KPH_%TR_CR1_PermissionBlocker","oid":"776427243","speedLimit":1.9444444},"geometry":{"type":"Polygon","coordinates":[[[-121.034099921409,50.4652129259528],[-121.034051456392,50.4652332377169],[-121.03403032339,50.4652746701206],[-121.03411598249,50.4652255983366],[-121.034099921409,50.4652129259528]]]}},{"type":"Feature","id":"794004438","properties":{"name":"iSP_11KPH_%TR_Lower_Fuel_Bay","oid":"794004438","speedLimit":3.0555556},"geometry":{"type":"Polygon","coordinates":[[[-121.036776627416,50.4606955356945],[-121.036778740716,50.4607253742152],[-121.036749013627,50.4606709099274],[-121.037125181059,50.4605991896277],[-121.037535161294,50.4605561394728],[-121.037542910061,50.4605814842404],[-121.03694442345,50.4606503285382],[-121.036776627416,50.4606955356945]]]}},{"type":"Feature","id":"801543391","properties":{"name":"iSP_4KPH_%TR_CR01_PermissionBlocker_2","oid":"801543391","speedLimit":1.1111112},"geometry":{"type":"Polygon","coordinates":[[[-121.033155417116,50.4645234044746],[-121.033154571796,50.4644739731903],[-121.033176127458,50.4644319116611],[-121.033108079192,50.4644595033052],[-121.033155417116,50.4645234044746]]]}},{"type":"Feature","id":"806473874","properties":{"name":"iSP_4KPH_%TR_CR04_PermissionBlocker","oid":"806473874","speedLimit":1.1111112},"geometry":{"type":"Polygon","coordinates":[[[-121.022719659058,50.481545291906],[-121.022686550688,50.4815429551544],[-121.022678942808,50.4815716252993],[-121.022701062016,50.4815727038],[-121.02270514773,50.4815486172833],[-121.022719659058,50.481545291906]]]}},{"type":"Feature","id":"824566967","properties":{"name":"iSP_3KPH_%TR_CR04","oid":"824566967","speedLimit":0.8333333},"geometry":{"type":"Polygon","coordinates":[[[-121.023302507247,50.4810684148252],[-121.023282360452,50.4810684148252],[-121.023279683605,50.4811865106572],[-121.023304761434,50.4811857916567],[-121.023302507247,50.4810684148252]]]}},{"type":"Feature","id":"826307302","properties":{"name":"iSP_4KPH_%TR_CR04_Pockets","oid":"826307302","speedLimit":1.1111112},"geometry":{"type":"Polygon","coordinates":[[[-121.0232977171,50.4813215928758],[-121.02333716537,50.4814772564838],[-121.023541873714,50.4814378013314],[-121.023460863874,50.4811889372838],[-121.023052574279,50.4811896562843],[-121.023057927973,50.4813603290277],[-121.023282783112,50.4813263562542],[-121.0232977171,50.4813215928758]]]}},{"type":"Feature","id":"827282342","properties":{"name":"SP_30KPH_%TR_1230 to 1215 ramp2_Sept_27_DS","oid":"827282342","speedLimit":8.333333},"geometry":{"type":"Polygon","coordinates":[[[-121.036954708178,50.4451704275512],[-121.036722104271,50.4452459226036],[-121.036892858926,50.4451111998852],[-121.036959920985,50.4450454113395],[-121.038447120764,50.4463474313676],[-121.039043775848,50.4467294902576],[-121.038818357162,50.4468458784633],[-121.038851465532,50.4467844937958],[-121.038763552244,50.4467104367444],[-121.038373296145,50.4464324531766],[-121.037846943513,50.4460422156559],[-121.036954708178,50.4451704275512]]]}},{"type":"Feature","id":"859339791","properties":{"name":"SP_30KPH_%TR_1230_to_1215_Ramp1_Sept_27_DS","oid":"859339791","speedLimit":8.333333},"geometry":{"type":"Polygon","coordinates":[[[-121.040703420922,50.4473791072082],[-121.0406814426,50.4475609244593],[-121.040630300736,50.447435009497],[-121.040162416076,50.4474147876079],[-121.039901634834,50.4473930378428],[-121.039487427999,50.4472142763439],[-121.039190157107,50.4470090915765],[-121.038966006402,50.4468505519666],[-121.038844139425,50.4468598989731],[-121.039046311808,50.4467557337758],[-121.039455728496,50.447018438583],[-121.039718904812,50.4471738325658],[-121.040160021003,50.4472749420109],[-121.040552249516,50.4473090945346],[-121.040688768708,50.4473277885476],[-121.040703420922,50.4473791072082]]]}},{"type":"Feature","id":"872232587","properties":{"name":"SP_30KPH_%TR_Gate_1_INT-1320_1_Sept_27_DS","oid":"872232587","speedLimit":8.333333},"geometry":{"type":"Polygon","coordinates":[[[-121.042510856122,50.4485417310146],[-121.042151735978,50.4481519428692],[-121.0418606641,50.447870454174],[-121.041615521279,50.4476769531648],[-121.041315291767,50.4475049322955],[-121.041100862243,50.4474169446094],[-121.040961666204,50.4473765907064],[-121.040853465235,50.4473530434401],[-121.040731457371,50.4473530434401],[-121.040704266242,50.4475488812009],[-121.04083247312,50.4474397728753],[-121.041201596218,50.4475418709461],[-121.041507179424,50.4476797392917],[-121.042193438435,50.448406828546],[-121.04229417241,50.4484935579812],[-121.042067626631,50.4485995206797],[-121.042510856122,50.4485417310146]]]}},{"type":"Feature","id":"883050998","properties":{"name":"iSP_22KPH_%TR_4CR_Brake_Temp_Ctrl","oid":"883050998","speedLimit":6.111111},"geometry":{"type":"Polygon","coordinates":[[[-121.031799101061,50.4745591235604],[-121.032188370954,50.4743125063893],[-121.032490009333,50.4745748516963],[-121.032791647712,50.474802235604],[-121.0329694467,50.4748846510362],[-121.033178240758,50.4749348013209],[-121.033462127415,50.4749596068382],[-121.033665990439,50.4749220390621],[-121.033827164799,50.4748626316459],[-121.03391831848,50.4748105939848],[-121.034007640635,50.474747411816],[-121.034058078066,50.4746582557541],[-121.034052301712,50.4745480689277],[-121.034056105652,50.4744837183831],[-121.033993974627,50.4743797329359],[-121.033875629817,50.4742596598527],[-121.033508760906,50.4739377273794],[-121.033060459494,50.4735600723674],[-121.032947186605,50.4734255293991],[-121.032822220121,50.4732209737572],[-121.032605395522,50.4728150081006],[-121.032251910846,50.4722090704304],[-121.032486909826,50.4721562238937],[-121.032429850721,50.4722057450531],[-121.032902384641,50.4730489528879],[-121.033041580679,50.4733096804438],[-121.03324938853,50.4735470404834],[-121.033742351019,50.473961724021],[-121.034097385449,50.4742712537357],[-121.034202768685,50.4743945623212],[-121.034255460302,50.4744617888679],[-121.034262504636,50.4745929165838],[-121.034237567694,50.4746789270185],[-121.03418304455,50.4747917202217],[-121.034085550968,50.4748759331551],[-121.033972700738,50.474937767198],[-121.033790111603,50.4750162281274],[-121.033530598341,50.4750644910359],[-121.033262631878,50.4750681759134],[-121.033071025995,50.4750263840095],[-121.032807286133,50.4749166465584],[-121.032656537387,50.4748352197519],[-121.032494940366,50.4747054401619],[-121.03214441431,50.4744131664591],[-121.031799101061,50.4745591235604]]]}},{"type":"Feature","id":"883053336","properties":{"name":"iSP_22KPH_%TR_Brake_Temp_Ctrl","oid":"883053336","speedLimit":6.111111},"geometry":{"type":"Polygon","coordinates":[[[-121.032465635937,50.4721453490112],[-121.032250783752,50.4722256074418],[-121.031488164161,50.4710084294726],[-121.030816275591,50.46992345772],[-121.030661018471,50.4696603035375],[-121.030596210599,50.4694578150221],[-121.030549858882,50.4692568543827],[-121.030596210599,50.4689730289358],[-121.030722445063,50.468624403569],[-121.03088418297,50.4683756293965],[-121.031088609541,50.4680979154538],[-121.031687941471,50.4675366456896],[-121.032431823134,50.4668937693686],[-121.032788125545,50.4665562885096],[-121.033147245688,50.466222492528],[-121.033484105737,50.4658708114091],[-121.033779122442,50.4660342042724],[-121.033587093899,50.4659934009941],[-121.032919009269,50.4666521852011],[-121.032554253658,50.4669913736864],[-121.032178227113,50.4673078237808],[-121.031774023232,50.467668492406],[-121.031381653832,50.4680345535349],[-121.031146795739,50.4682864733346],[-121.03100844502,50.4684699982119],[-121.030904752425,50.46865460159],[-121.030828250958,50.4688531356027],[-121.030767387913,50.4691914253373],[-121.030776122887,50.4694007443575],[-121.030873334696,50.4696304650168],[-121.031027323835,50.4699352313532],[-121.031330230194,50.4704039298033],[-121.031530289278,50.4707111227664],[-121.03174993161,50.4710830257743],[-121.03214568229,50.4717289578474],[-121.032380963043,50.4721452591361],[-121.032465635937,50.4721453490112]]]}},{"type":"Feature","id":"883059532","properties":{"name":"iSP_22KPH_%TR_Brake_Ctrl","oid":"883059532","speedLimit":6.111111},"geometry":{"type":"Polygon","coordinates":[[[-121.027261986463,50.4773221526018],[-121.027029805217,50.477209988524],[-121.027334261329,50.4769442279647],[-121.027716205115,50.4766326311236],[-121.028032918368,50.4763229216588],[-121.028190147902,50.476168965677],[-121.028620979365,50.4756925379715],[-121.028906979322,50.4753259375922],[-121.029263563506,50.4748877966633],[-121.029472357564,50.4746569076282],[-121.029691154575,50.4745406092975],[-121.029801187071,50.4744883918863],[-121.029951935818,50.4745928267088],[-121.029788366384,50.4745422270486],[-121.029555762477,50.4747917202217],[-121.029251588138,50.4751732398613],[-121.029072662056,50.4754781859478],[-121.028852878838,50.4757749534037],[-121.028695790191,50.4759749254174],[-121.02840866314,50.4762707941226],[-121.028041371569,50.4765701679552],[-121.027243671195,50.4772196051557],[-121.027261986463,50.4773221526018]]]}},{"type":"Feature","id":"884401102","properties":{"name":"iSP_30KPH_%TR_Maint_Limit_Policy","oid":"884401102","speedLimit":8.333333},"geometry":{"type":"Polygon","coordinates":[[[-121.036992184034,50.461101411476],[-121.037108274657,50.4611078824805],[-121.038294540491,50.4609922132753],[-121.038278197637,50.4603980492382],[-121.038119700123,50.4605659358546],[-121.037032618511,50.4607085675786],[-121.036744927913,50.4605378948352],[-121.036992184034,50.461101411476]]]}},{"type":"Feature","id":"910445950","properties":{"name":"SP_22KPH_%TR_1635_FLATS_SEP_26_NS","oid":"910445950","speedLimit":6.111111},"geometry":{"type":"Polygon","coordinates":[[[-121.017369628324,50.4554939265867],[-121.018002773058,50.4544142574628],[-121.018148027224,50.4539985852995],[-121.018532647856,50.4537516086282],[-121.018948686218,50.4536881568342],[-121.018866549285,50.4543417282875],[-121.018261722773,50.4560721827377],[-121.018275811441,50.4557009088552],[-121.017369628324,50.4554939265867]]]}},{"type":"Feature","id":"915576987","properties":{"name":"iSP_15KPH_%TR_Preventing Shifting","oid":"915576987","speedLimit":4.1666665},"geometry":{"type":"Polygon","coordinates":[[[-121.036997678615,50.4448633244632],[-121.037511774105,50.4453132390253],[-121.037981067631,50.4457956883599],[-121.038525031098,50.4462189999035],[-121.03945770091,50.4468501025913],[-121.039915019069,50.4470998653895],[-121.040470957902,50.4471952228306],[-121.041224138086,50.4473229352942],[-121.041642571522,50.4475097855488],[-121.042321081766,50.4480952317049],[-121.042703729985,50.44852798013],[-121.042847152624,50.4487949989403],[-121.043008608758,50.4493917693542],[-121.043187816613,50.4501983081636],[-121.043325322011,50.4505014567489],[-121.043686978115,50.4511688689618],[-121.043857450996,50.451489183684],[-121.044126403666,50.4522537508393],[-121.044383521854,50.4529383291891],[-121.044697276487,50.4537982537855],[-121.044736161211,50.4541948724356],[-121.044571746457,50.455071963169],[-121.04421614848,50.4568394461449],[-121.044051733726,50.4572074845252],[-121.043005509251,50.4583991379767],[-121.041905606951,50.4595374955163],[-121.041343750876,50.4600008014627],[-121.040372337227,50.4605976617516],[-121.039923894929,50.4607311262192],[-121.039134788643,50.4608073402721],[-121.038497417309,50.460838886419],[-121.038645207434,50.4611436527553],[-121.038758057664,50.4609497023708],[-121.039879092966,50.4608798694474],[-121.040707083976,50.4606319940254],[-121.041511124251,50.4600580518774],[-121.042874061979,50.4587003991857],[-121.044242916949,50.4571425947302],[-121.044428323818,50.456290309514],[-121.044813930657,50.454421717093],[-121.04481083115,50.4537867497776],[-121.044260950444,50.4523014744974],[-121.043833500261,50.4511860350987],[-121.043346314126,50.4503375246352],[-121.043050452101,50.4493098032973],[-121.042927880691,50.4486920021188],[-121.042240353699,50.4478873506857],[-121.041546909467,50.4473915998418],[-121.041092549928,50.4472219157242],[-121.040458982535,50.4471304229107],[-121.039917977689,50.447019786709],[-121.038821034009,50.4463334108579],[-121.038196342476,50.4458719024128],[-121.037153217508,50.4449070936186],[-121.037377368214,50.4446974150982],[-121.036997678615,50.4448633244632]]]}},{"type":"Feature","id":"917773475","properties":{"name":"SP_15KPH_%TR_1200_CORNER_Sept_26_NS","oid":"917773475","speedLimit":4.1666665},"geometry":{"type":"Polygon","coordinates":[[[-121.037098553477,50.4446825857129],[-121.036924417542,50.4448621560874],[-121.03662883729,50.4448206338086],[-121.036414266879,50.4448699752178],[-121.036322690538,50.4449676694106],[-121.036254078725,50.44508217024],[-121.036241821584,50.4451449929086],[-121.036262954586,50.4452673128684],[-121.036315646204,50.4453515258018],[-121.036183776272,50.4453952949572],[-121.036088677764,50.4451943343178],[-121.036162643271,50.4449317193857],[-121.036259432419,50.4447914244134],[-121.036516268834,50.4447151204854],[-121.036713369297,50.4447117951081],[-121.036922726902,50.4447701240236],[-121.03709334067,50.4446836642136],[-121.037098553477,50.4446825857129]]]}},{"type":"Feature","id":"926367691","properties":{"name":"SP_30KPH_%TR_24SH_EMPTY_LANE_SEP_26_NS","oid":"926367691","speedLimit":8.333333},"geometry":{"type":"Polygon","coordinates":[[[-121.038923176851,50.4549416443286],[-121.039203118682,50.454623576483],[-121.039438681208,50.4538307885581],[-121.039920654536,50.4514269901408],[-121.0395022211,50.4515918210051],[-121.039432904854,50.4530471678896],[-121.039203964002,50.4540992453693],[-121.038923176851,50.4549416443286]]]}},{"type":"Feature","id":"927549571","properties":{"name":"SP_30KPH_TR70%_CRUSHER YARD EMPTY_SEPT_27_DS","oid":"927549571","speedLimit":8.333333},"geometry":{"type":"Polygon","coordinates":[[[-121.037754662739,50.4619283519246],[-121.037448234213,50.4612608498366],[-121.036778318056,50.461464686478],[-121.037246766263,50.461509354384],[-121.037728176043,50.4623116690655],[-121.037506843071,50.4624618502946],[-121.038037281416,50.462344203838],[-121.037754662739,50.4619283519246]]]}},{"type":"Feature","id":"929009157","properties":{"name":"iSP_22KPH_%TR_Long_Single_Lane","oid":"929009157","speedLimit":6.111111},"geometry":{"type":"Polygon","coordinates":[[[-121.00568068326,50.4380560074916],[-121.004750972068,50.4382240738582],[-121.005175463631,50.4381975607148],[-121.007935715438,50.4431705276641],[-121.008524480868,50.4445349209854],[-121.008211571555,50.4465097457302],[-121.007833572596,50.4466802387234],[-121.00893502465,50.4466469849504],[-121.00882428772,50.4465929700379],[-121.009404318176,50.4448176679316],[-121.008765397089,50.4430684295933],[-121.008263699626,50.4415401940333],[-121.007260163814,50.4401562079484],[-121.006440485118,50.4389840573853],[-121.005861440869,50.4383130501699],[-121.00568068326,50.4380560074916]]]}},{"type":"Feature","id":"932268643","properties":{"name":"SP_20KPH_%traction_1185_1170_SEP_27_DS","oid":"932268643","speedLimit":5.5555553},"geometry":{"type":"Polygon","coordinates":[[[-121.038728753235,50.4481975095258],[-121.038466985786,50.4482557485662],[-121.038946845813,50.4498293710327],[-121.039506025041,50.4497914437564],[-121.039105484213,50.4497306882142],[-121.038621679359,50.4483442755026],[-121.038851747305,50.4481595822495],[-121.038728753235,50.4481975095258]]]}},{"type":"Feature","id":"932654885","properties":{"name":"SP_11KPH_%TR_LOTS OF MUD_SEPT_26_NS","oid":"932654885","speedLimit":3.0555556},"geometry":{"type":"Polygon","coordinates":[[[-121.036365097428,50.4453591651822],[-121.036057541808,50.4454652177557],[-121.036262531926,50.4454607240026],[-121.038009244967,50.4473915099668],[-121.038175491248,50.4473147566636],[-121.036365097428,50.4453591651822]]]}},{"type":"Feature","id":"934051091","properties":{"name":"iSP_17KPH_%TR_Ramp_Permission Blocker","oid":"934051091","speedLimit":4.7222223},"geometry":{"type":"Polygon","coordinates":[[[-121.039512646715,50.4610297810514],[-121.039464604357,50.4607717497474],[-121.039017148266,50.4607923311367],[-121.039076038898,50.461045059812],[-121.039163529525,50.4609000014613],[-121.039379508803,50.4608868797022],[-121.039512646715,50.4610297810514]]]}},{"type":"Feature","id":"934181442","properties":{"name":"SP_30KPH_TR%_1590_3_SEPT 27_DS_Rough_section ","oid":"934181442","speedLimit":8.333333},"geometry":{"type":"Polygon","coordinates":[[[-121.011062131723,50.4415092770118],[-121.010401091427,50.4418073925936],[-121.011606940509,50.4432053991883],[-121.012272489179,50.4429313701232],[-121.011824328654,50.4429215737414],[-121.010901239136,50.4417731501949],[-121.011062131723,50.4415092770118]]]}},{"type":"Feature","id":"934181723","properties":{"name":"SP_30KPH_TR%_1590_5_SEPT 27_DS","oid":"934181723","speedLimit":8.333333},"geometry":{"type":"Polygon","coordinates":[[[-121.013084137335,50.4446921124695],[-121.012310528582,50.4447888180366],[-121.012875765937,50.4472957930254],[-121.013527366825,50.4472164333454],[-121.013160075254,50.4470993261391],[-121.012786725556,50.4449022403652],[-121.013084137335,50.4446921124695]]]}},{"type":"Feature","id":"934860743","properties":{"name":"SP_30KPH_TR70%_CRUSHER YARD EMPTY1_SEPT_27_DS","oid":"934860743","speedLimit":8.333333},"geometry":{"type":"Polygon","coordinates":[[[-121.037495572137,50.4624817126834],[-121.037861454841,50.4624690402996],[-121.037919781926,50.4626185025283],[-121.037906820352,50.4632761183594],[-121.037748041065,50.4634697092437],[-121.037563620403,50.4634606318624],[-121.037936970101,50.4636155764699],[-121.037979658765,50.4635590450557],[-121.038210008484,50.4632688384794],[-121.038183662675,50.4627773117635],[-121.038037844963,50.462345641839],[-121.037495572137,50.4624817126834]]]}},{"type":"Feature","id":"934860935","properties":{"name":"SP_30KPH_TR%_CRUSHER YARD EMPTY2_SEPT_27_DS","oid":"934860935","speedLimit":8.333333},"geometry":{"type":"Polygon","coordinates":[[[-121.037546573115,50.4634733042462],[-121.037682669646,50.4636379553604],[-121.037077279588,50.4639814578487],[-121.036451601848,50.4642046176284],[-121.03623604523,50.4641031486831],[-121.036398628457,50.4643263983379],[-121.036720272745,50.4642316700222],[-121.037430623378,50.4639642917118],[-121.03784666174,50.4637352900529],[-121.037936970101,50.4636155764699],[-121.037546573115,50.4634733042462]]]}},{"type":"Feature","id":"936169885","properties":{"name":"SP_15KPH_%TR_24shl_loadplan_Sept_26_NS","oid":"936169885","speedLimit":4.1666665},"geometry":{"type":"Polygon","coordinates":[[[-121.039168601445,50.4546367881172],[-121.038618720739,50.4545683033196],[-121.038154217359,50.4553923677662],[-121.038669721716,50.4555194511044],[-121.038841744351,50.4552447030388],[-121.039001791618,50.4549474862076],[-121.039087168945,50.4547918225997],[-121.039168601445,50.4546367881172]]]}},{"type":"Feature","id":"936513295","properties":{"name":"SP_30KPH_%TR_1635_FLATS_SEP_26_NS","oid":"936513295","speedLimit":8.333333},"geometry":{"type":"Polygon","coordinates":[[[-121.017285800751,50.4555553112542],[-121.018049970095,50.4557853015388],[-121.01743387265,50.4574539219461],[-121.01522688283,50.4585170540585],[-121.014498076041,50.4578797499915],[-121.016177163477,50.4566195218674],[-121.017285800751,50.4555553112542]]]}},{"type":"Feature","id":"937786749","properties":{"name":"SP_32KPH_%TR_24SH_Loaded_LANE_SEP_26_NS","oid":"937786749","speedLimit":8.888889},"geometry":{"type":"Polygon","coordinates":[[[-121.038279888277,50.4554284975413],[-121.038456137512,50.4555012963418],[-121.038969387682,50.4539576022711],[-121.039256796506,50.4521235218739],[-121.038991647777,50.4522689397248],[-121.038490372975,50.4548541958929],[-121.038279888277,50.4554284975413]]]}},{"type":"Feature","id":"938065675","properties":{"name":"SP_8KPH_CR01_YARD_RUTIING_SEP_26_NS","oid":"938065675","speedLimit":2.2222223},"geometry":{"type":"Polygon","coordinates":[[[-121.034288991332,50.4648012981673],[-121.034098794316,50.4648580992067],[-121.033940578576,50.4649070811157],[-121.033829137213,50.4650050449336],[-121.034043989398,50.4650689461029],[-121.033963965764,50.465011426063],[-121.034242357841,50.4648882073526],[-121.034319000194,50.4649374588867],[-121.034288991332,50.4648012981673]]]}},{"type":"Feature","id":"938165680","properties":{"name":"SP_10KPH_%TR_22SH_Sept_26_NS","oid":"938165680","speedLimit":2.7777777},"geometry":{"type":"Polygon","coordinates":[[[-121.034080197274,50.4466114843008],[-121.035054992203,50.4472506757441],[-121.035496812828,50.4474474122556],[-121.035794929039,50.4469122961344],[-121.034854651346,50.4461954526372],[-121.034080197274,50.4466114843008]]]}},{"type":"Feature","id":"940771585","properties":{"name":"SP_20KPH_%TR_1660_HMT_SEPT26_DS","oid":"940771585","speedLimit":5.5555553},"geometry":{"type":"Polygon","coordinates":[[[-121.002708819662,50.428118521849],[-121.002603577313,50.4277113878166],[-121.002231918255,50.4276979964323],[-121.002505379298,50.4277964096255],[-121.002533415747,50.4281140280958],[-121.002673738879,50.4280826616991],[-121.002708819662,50.428118521849]]]}},{"type":"Feature","id":"940778315","properties":{"name":"SP_20KPH_%TR_HMT_SPILLING_ROCK_IN_CORNER_SEPT26_NS","oid":"940778315","speedLimit":5.5555553},"geometry":{"type":"Polygon","coordinates":[[[-121.004784643984,50.4367080613067],[-121.004770555317,50.4370436547895],[-121.004987943462,50.4372762514508],[-121.00512122226,50.4371688507513],[-121.004889886333,50.43693625409],[-121.004882841999,50.4367573128409],[-121.00519842816,50.4367975768688],[-121.004798591766,50.4366991636755],[-121.004784643984,50.4367080613067]]]}},{"type":"Feature","id":"944724443","properties":{"name":"SP_12KPH_%TR_21SH_EMPTY_SEPT 26_NS","oid":"944724443","speedLimit":3.3333333},"geometry":{"type":"Polygon","coordinates":[[[-121.039134365982,50.4501832091531],[-121.038912469464,50.4501673911422],[-121.038927544338,50.4505370472736],[-121.039265249707,50.4511710259633],[-121.039344568907,50.4515560507303],[-121.03973214816,50.4514984408154],[-121.039710592498,50.4511096412957],[-121.039406981706,50.450958741066],[-121.039104216233,50.4503566680234],[-121.039084351212,50.4502970808571],[-121.039134365982,50.4501832091531]]]}},{"type":"Feature","id":"944724972","properties":{"name":"SP_20KPH_%TR_21SH_LOADED_SEPT 26_NS","oid":"944724972","speedLimit":5.5555553},"geometry":{"type":"Polygon","coordinates":[[[-121.038847802478,50.4522168121886],[-121.039181422133,50.4521685492802],[-121.039250597492,50.451969296267],[-121.039327380732,50.4516356800356],[-121.039213121636,50.4512647656533],[-121.038912751237,50.4506403137202],[-121.038818216276,50.4509654816957],[-121.038885700995,50.4509783338296],[-121.039057864516,50.4512927167977],[-121.039101680273,50.4515747447433],[-121.039046593582,50.4519346044929],[-121.038996860584,50.4521383512592],[-121.038847802478,50.4522168121886]]]}},{"type":"Feature","id":"945606742","properties":{"name":"SP_20KPH_19SH_SEPT 26_NS","oid":"945606742","speedLimit":5.5555553},"geometry":{"type":"Polygon","coordinates":[[[-121.002893803871,50.4271198301563],[-121.002444516253,50.4275247173121],[-121.001789956744,50.427316926168],[-121.002101738964,50.4269692894268],[-121.002893803871,50.4271198301563]]]}},{"type":"Feature","id":"947290075","properties":{"name":"SPD 15KPH 6206 AMT DOWN","oid":"947290075","speedLimit":4.1666665},"geometry":{"type":"Polygon","coordinates":[[[-121.043484242185,50.4499330868546],[-121.042665408808,50.4499958196482],[-121.042980713195,50.4508002014561],[-121.04370543427,50.4506095764489],[-121.043484242185,50.4499670596282],[-121.043484242185,50.4499330868546]]]}},{"type":"Feature","id":"947290154","properties":{"name":"Sp_30KPH__DRAGGING_CENTER_SLIME_SEPT_27_DS","oid":"947290154","speedLimit":8.333333},"geometry":{"type":"Polygon","coordinates":[[[-121.042355317229,50.4500108287836],[-121.042951831426,50.4498496827968],[-121.043014948658,50.4500332076741],[-121.043127235341,50.4504204793177],[-121.043372941708,50.4508906157688],[-121.043460573223,50.4510472680024],[-121.042885192027,50.4511815413456],[-121.043144846176,50.4510450211259],[-121.042906184142,50.4505324636454],[-121.042762338843,50.449988449893],[-121.042355317229,50.4500108287836]]]}}]}