{"type":"FeatureCollection","features":[{"type":"Feature","id":"702602533","properties":{"name":"iSP_4KPH_%TR_CR01_Slow Bump","oid":"702602533","speedLimit":1.1111112},"geometry":{"type":"Polygon","coordinates":[[[-121.033361152284,50.4648075331695],[-121.033655892448,50.4646905162108],[-121.033699286316,50.4647312294845],[-121.033371437194,50.4648693670156],[-121.033361152284,50.4648075331695]]]}},{"type":"Feature","id":"707947583","properties":{"name":"iSP_25KPH_%TR_Permission Gate 1 From West Dump","oid":"707947583","speedLimit":6.9444447},"geometry":{"type":"Polygon","coordinates":[[[-121.038630689383,50.4619776460885],[-121.038857380074,50.4617991547828],[-121.038142367487,50.4614079298816],[-121.037994715626,50.4616706338527],[-121.038194214705,50.4615665588617],[-121.03866915213,50.4618457099169],[-121.038630689383,50.4619776460885]]]}},{"type":"Feature","id":"742345972","properties":{"name":"iSP_4KPH_%TR_CR01_Pit Side_Slow Bump","oid":"742345972","speedLimit":1.1111112},"geometry":{"type":"Polygon","coordinates":[[[-121.033401023922,50.464882488733],[-121.033708303223,50.4647439917027],[-121.033758459771,50.4647760769978],[-121.03347696319,50.4649179892696],[-121.033401023922,50.464882488733]]]}},{"type":"Feature","id":"776427243","properties":{"name":"iSP_7KPH_%TR_CR1_PermissionBlocker","oid":"776427243","speedLimit":1.9444444},"geometry":{"type":"Polygon","coordinates":[[[-121.03410222937,50.4652125089115],[-121.034053763492,50.465232820611],[-121.034032630115,50.4652742528828],[-121.034118290736,50.465225181255],[-121.03410222937,50.4652125089115]]]}},{"type":"Feature","id":"776901904","properties":{"name":"SP_35KPH_80%TR_1CR-Connector Parking_SPET_15_DS","oid":"776901904","speedLimit":9.722222},"geometry":{"type":"Polygon","coordinates":[[[-121.034269042158,50.4656275506284],[-121.03401290563,50.4654800661205],[-121.033533459751,50.4658614047963],[-121.032602323162,50.4667551195718],[-121.031096781388,50.4680967702322],[-121.030853043107,50.4684460236129],[-121.03062931109,50.4688677160633],[-121.030555907827,50.4691723016801],[-121.030575914091,50.4694256586745],[-121.030722861505,50.4697750019299],[-121.031707676871,50.471353023252],[-121.032178387621,50.4721558746286],[-121.03276927684,50.473122747472],[-121.033374818535,50.4730052811394],[-121.032900444667,50.4730087862556],[-121.031026618577,50.4699117014647],[-121.030746671777,50.469307742968],[-121.030774567834,50.4689799696589],[-121.031221609201,50.4681718156704],[-121.032722501633,50.4668935267273],[-121.03352669707,50.4660552646888],[-121.03409363513,50.4655819841168],[-121.034269042158,50.4656275506284]]]}},{"type":"Feature","id":"776902235","properties":{"name":"SP_35KPH_80%TR_1cr-4cr sec2_SEPT_15_DS","oid":"776902235","speedLimit":9.722222},"geometry":{"type":"Polygon","coordinates":[[[-121.033393838574,50.4730312549497],[-121.032872830387,50.4731799977045],[-121.033049505419,50.4735340144483],[-121.033926117895,50.4743024437856],[-121.034055595051,50.4744916301897],[-121.03406263951,50.4746644593845],[-121.033837780379,50.4749138618887],[-121.033427792866,50.4749661690085],[-121.033188281261,50.4749420825684],[-121.032696296245,50.4747570304041],[-121.032336887948,50.4744794072201],[-121.032084555427,50.4742621798858],[-121.031901681272,50.4741093028913],[-121.031631033158,50.4739598411384],[-121.031248519035,50.4739184987413],[-121.030843885311,50.4739703564872],[-121.030410228415,50.4740616692599],[-121.030504342387,50.474275750977],[-121.030541114463,50.4741269183475],[-121.030909398779,50.4740590628914],[-121.031242742578,50.4740217648592],[-121.031522266711,50.4740405486875],[-121.031857582959,50.474231981961],[-121.032419589896,50.4746880964506],[-121.032799286236,50.4749752463609],[-121.033270137874,50.4751070027829],[-121.033782974488,50.4750933418169],[-121.034190989553,50.4749702133734],[-121.034411622008,50.4746805469694],[-121.034329624506,50.4743627497605],[-121.033825100353,50.4739000744121],[-121.03306303078,50.4732820055756],[-121.033228434677,50.4731566302626],[-121.033311136625,50.4730939875436],[-121.033352417155,50.4730626212466],[-121.033393838574,50.4730312549497]]]}},{"type":"Feature","id":"776902464","properties":{"name":"SP_35KPH_80%TR_SkyWay-4CR_SEPT_15_DS","oid":"776902464","speedLimit":9.722222},"geometry":{"type":"Polygon","coordinates":[[[-121.029522344805,50.4752290527291],[-121.029201258364,50.4750680870048],[-121.028513155611,50.4759387039627],[-121.027004373385,50.4773119006697],[-121.027193587554,50.4773777788807],[-121.027136245658,50.4773064183083],[-121.028524567634,50.4762094067889],[-121.029229999757,50.4752839662175],[-121.029442178862,50.4752400174518],[-121.029522344805,50.4752290527291]]]}},{"type":"Feature","id":"794004438","properties":{"name":"iSP_11KPH_%TR_Lower_Fuel_Bay","oid":"794004438","speedLimit":3.0555556},"geometry":{"type":"Polygon","coordinates":[[[-121.036778982895,50.4606951330308],[-121.036781096232,50.4607249714565],[-121.036751368615,50.4606705073421],[-121.037127542725,50.4605987872706],[-121.037537530238,50.4605557372528],[-121.037545279143,50.4605810819397],[-121.036946781908,50.4606499260183],[-121.036778982895,50.4606951330308]]]}},{"type":"Feature","id":"801543391","properties":{"name":"iSP_4KPH_%TR_CR01_PermissionBlocker_2","oid":"801543391","speedLimit":1.1111112},"geometry":{"type":"Polygon","coordinates":[[[-121.033157708309,50.4645229896278],[-121.033156862974,50.4644735585008],[-121.033178419018,50.4644314971055],[-121.033110369544,50.4644590886619],[-121.033157708309,50.4645229896278]]]}},{"type":"Feature","id":"806473874","properties":{"name":"iSP_4KPH_%TR_CR04_PermissionBlocker","oid":"806473874","speedLimit":1.1111112},"geometry":{"type":"Polygon","coordinates":[[[-121.02272176499,50.4815448228834],[-121.022688656033,50.4815424861393],[-121.022681048017,50.4815711561929],[-121.022703167618,50.4815722346902],[-121.022707253404,50.4815481482502],[-121.02272176499,50.4815448228834]]]}},{"type":"Feature","id":"824566967","properties":{"name":"iSP_3KPH_%TR_CR04","oid":"824566967","speedLimit":0.8333333},"geometry":{"type":"Polygon","coordinates":[[[-121.023304623526,50.4810679473204],[-121.023284476374,50.4810679473204],[-121.023281799479,50.4811860427765],[-121.023306877753,50.4811853237783],[-121.023304623526,50.4810679473204]]]}},{"type":"Feature","id":"826307302","properties":{"name":"iSP_4KPH_%TR_CR04_Pockets","oid":"826307302","speedLimit":1.1111112},"geometry":{"type":"Polygon","coordinates":[[[-121.023299833294,50.4813211245652],[-121.023339282265,50.4814767876778],[-121.023543994243,50.481437332651],[-121.023462982964,50.4811884693954],[-121.023054686122,50.4811891883937],[-121.02306003991,50.4813598605938],[-121.023284899041,50.4813258879284],[-121.023299833294,50.4813211245652]]]}},{"type":"Feature","id":"883050998","properties":{"name":"iSP_22KPH_%TR_4CR_Brake_Temp_Ctrl","oid":"883050998","speedLimit":6.111111},"geometry":{"type":"Polygon","coordinates":[[[-121.031801368176,50.4745586767728],[-121.032190644979,50.4743120603866],[-121.032492288713,50.4745744048586],[-121.032793932447,50.4748017880427],[-121.032971734592,50.4748842032125],[-121.033180532356,50.4749343533377],[-121.033464424053,50.4749591587759],[-121.033668290696,50.4749215911194],[-121.033829467918,50.4748621838923],[-121.033920623217,50.4748101463968],[-121.034009946957,50.4747469644291],[-121.034060385283,50.474657808651],[-121.034054608827,50.4745476221753],[-121.034058412835,50.4744832718355],[-121.033996280706,50.4743792867193],[-121.033877933795,50.4742592140182],[-121.033511058371,50.4739372825695],[-121.033062749002,50.4735596287595],[-121.032949474101,50.4734250862194],[-121.032824505399,50.4732205312286],[-121.032607676951,50.4728145668641],[-121.032254185999,50.4722086311223],[-121.032489189151,50.4721557847539],[-121.032432129033,50.4722053057556],[-121.032904671342,50.4730485109068],[-121.033043869852,50.4733092376328],[-121.033251681392,50.473546596917],[-121.033744652631,50.4739612791348],[-121.034099693364,50.4742708078643],[-121.034205078471,50.4743941160574],[-121.034257771024,50.4744613423901],[-121.034264815483,50.4745924696887],[-121.034239878098,50.4746784798496],[-121.034185353986,50.4747912726938],[-121.034087858673,50.4748754853592],[-121.03397500644,50.4749373192053],[-121.033792414063,50.475015779885],[-121.033532896194,50.4750640426399],[-121.033264924975,50.4750677275057],[-121.03307331569,50.4750259357347],[-121.032809571146,50.4749161986329],[-121.032658819723,50.4748347720856],[-121.032497219834,50.4747049929086],[-121.032146687555,50.4744127201361],[-121.031801368176,50.4745586767728]]]}},{"type":"Feature","id":"883053336","properties":{"name":"iSP_22KPH_%TR_Brake_Temp_Ctrl","oid":"883053336","speedLimit":6.111111},"geometry":{"type":"Polygon","coordinates":[[[-121.032467914885,50.4721449099059],[-121.032253058886,50.4722251680812],[-121.031490425756,50.4710079939859],[-121.030818525258,50.4699230256865],[-121.030663265382,50.4696598723415],[-121.03059845636,50.4694573844705],[-121.030552103819,50.4692564244707],[-121.03059845636,50.4689725999272],[-121.030724693065,50.46862397567],[-121.030886433843,50.4683752022892],[-121.031090864043,50.4680974892304],[-121.031690206613,50.4675362212525],[-121.032434101482,50.4668933469777],[-121.032790410217,50.4665558671927],[-121.033149536736,50.4662220722736],[-121.033486402765,50.465870392274],[-121.033781424707,50.4660337846172],[-121.033589392755,50.4659929814688],[-121.032921296265,50.466651763579],[-121.032556534179,50.4669909509848],[-121.032180500958,50.4673074000721],[-121.031776289902,50.4676680675493],[-121.031383913536,50.4680341275132],[-121.031149051274,50.4682860465111],[-121.031010698099,50.4684695708043],[-121.030907003663,50.4686541735948],[-121.030830500838,50.4688527069756],[-121.030769636713,50.4691909956336],[-121.030778371842,50.4694003139876],[-121.030875585376,50.4696300339158],[-121.031029577249,50.4699347992822],[-121.031332488986,50.4704034962405],[-121.031532551621,50.4707106882259],[-121.031752197852,50.4710825900502],[-121.032147955558,50.4717285200674],[-121.032383240488,50.4721448200312],[-121.032467914885,50.4721449099059]]]}},{"type":"Feature","id":"883059532","properties":{"name":"iSP_22KPH_%TR_Brake_Ctrl","oid":"883059532","speedLimit":6.111111},"geometry":{"type":"Polygon","coordinates":[[[-121.027264173033,50.4773216970203],[-121.027031987665,50.4772095332995],[-121.027336449182,50.476943773586],[-121.027718399748,50.4766321777366],[-121.028035118624,50.4763224692575],[-121.028192350949,50.4761685137657],[-121.02862319006,50.4756920875766],[-121.028909195095,50.4753254883641],[-121.029265785609,50.4748873488297],[-121.029474583373,50.4746564605294],[-121.029693384269,50.4745401625689],[-121.029803418718,50.4744879453238],[-121.029954170141,50.4745923798139],[-121.029790597803,50.4745417803148],[-121.029557989767,50.4747912726938],[-121.029253810028,50.4751727911192],[-121.02907488077,50.4754777362351],[-121.02885509365,50.4757745027464],[-121.028698002215,50.4759744741237],[-121.028410870066,50.4762703418872],[-121.028043571975,50.4765697147671],[-121.027245857439,50.4772191499006],[-121.027264173033,50.4773216970203]]]}},{"type":"Feature","id":"884401102","properties":{"name":"iSP_30KPH_%TR_Maint_Limit_Policy","oid":"884401102","speedLimit":8.333333},"geometry":{"type":"Polygon","coordinates":[[[-121.03699454334,50.4611010075205],[-121.037110636024,50.4611074785044],[-121.038296922917,50.4609918096673],[-121.038280579772,50.4603976475213],[-121.038122079445,50.4605655336034],[-121.037034978534,50.4607081648734],[-121.036747282829,50.4605374926732],[-121.03699454334,50.4611010075205]]]}},{"type":"Feature","id":"908328496","properties":{"name":"SP_25KPH_%TR_1445_SOFT_GROUND_SEPT_16_NS","oid":"908328496","speedLimit":6.9444447},"geometry":{"type":"Polygon","coordinates":[[[-121.03933372639,50.4644964765688],[-121.039942790314,50.4647087607904],[-121.039191005651,50.4666744120227],[-121.03882877957,50.4674274727732],[-121.038454014352,50.4678939228622],[-121.037917085688,50.4682376040067],[-121.037182066838,50.4680254995346],[-121.038315097621,50.4667048795718],[-121.038795811502,50.4655656269076],[-121.03933372639,50.4644964765688]]]}},{"type":"Feature","id":"910445950","properties":{"name":"SP_22KPH_%TR_1635_FLATS_SEP_16_NS","oid":"910445950","speedLimit":6.111111},"geometry":{"type":"Polygon","coordinates":[[[-121.017915471514,50.4571006812278],[-121.017759648081,50.4573813601542],[-121.016601539024,50.4571349235176],[-121.017124519659,50.4561454022306],[-121.01777528678,50.4542395177246],[-121.018182174731,50.4539928114637],[-121.018534679458,50.453751228065],[-121.019044275621,50.4536548823048],[-121.018868586814,50.4543413458461],[-121.018263749566,50.4560717947888],[-121.018043821556,50.4566096054502],[-121.017988733887,50.4569253355393],[-121.017915471514,50.4571006812278]]]}},{"type":"Feature","id":"915576987","properties":{"name":"iSP_15KPH_%TR_Preventing Shifting","oid":"915576987","speedLimit":4.1666665},"geometry":{"type":"Polygon","coordinates":[[[-121.037000038018,50.4448629721889],[-121.037514142634,50.445312885319],[-121.037983444492,50.4457953331182],[-121.038527417615,50.4462186433145],[-121.039460103984,50.4468497439936],[-121.039917430262,50.4470995059969],[-121.040473378965,50.4471948631346],[-121.041226572519,50.4473225751917],[-121.041645013383,50.4475094248516],[-121.042323535673,50.4480948691444],[-121.042706190685,50.4485276161922],[-121.04284961587,50.4487946341526],[-121.04301107487,50.4493914026671],[-121.043190285906,50.4501979389096],[-121.043327793746,50.45050108653],[-121.04368945627,50.4511684966187],[-121.043859932177,50.4514888103214],[-121.044128889621,50.4522533750433],[-121.044386012374,50.4529379512143],[-121.044699772577,50.4537978730739],[-121.044738657991,50.4541944904617],[-121.044574240318,50.4550715784035],[-121.044218636029,50.456839055754],[-121.044054218356,50.4572070929629],[-121.043007975308,50.4583987426218],[-121.041908053482,50.4595370965383],[-121.041346187433,50.4600004010101],[-121.040374756539,50.4605972593994],[-121.03992630628,50.4607307234422],[-121.039137185984,50.4608069372525],[-121.038499803336,50.460838483299],[-121.038647596085,50.4611432486654],[-121.038760448318,50.4609492988981],[-121.039881503521,50.460879466197],[-121.04070950923,50.460631591564],[-121.041513563778,50.4600576512426],[-121.042876525703,50.4587000028719],[-121.044245404973,50.4571422033745],[-121.044430815133,50.4562899208709],[-121.044816428818,50.454421334397],[-121.044813329256,50.4537863691025],[-121.044263438788,50.4523010985496],[-121.043835981017,50.451185662701],[-121.043348786233,50.450337154938],[-121.043052918956,50.4493094368711],[-121.04293034537,50.4486916376589],[-121.042242806173,50.4478869887868],[-121.04154934963,50.4473912395208],[-121.041094982026,50.4472215559431],[-121.040461403384,50.4471300634209],[-121.039920388934,50.4470194275712],[-121.038823425781,50.4463330539047],[-121.038198723158,50.4458715469285],[-121.037155579672,50.444906741205],[-121.037379734357,50.4446970633519],[-121.037000038018,50.4448629721889]]]}},{"type":"Feature","id":"917773475","properties":{"name":"SP_15KPH_%TR_1200_CORNER_Sept_15_DS","oid":"917773475","speedLimit":4.1666665},"geometry":{"type":"Polygon","coordinates":[[[-121.03710091467,50.4446822340138],[-121.036926775644,50.4448618038168],[-121.036631190145,50.4448202816702],[-121.036416615924,50.4448696229224],[-121.036325037958,50.4449673168042],[-121.036256424927,50.4450818172692],[-121.036244167568,50.4451446397378],[-121.036265300945,50.4452669593084],[-121.036317993499,50.4453511719737],[-121.036186121226,50.4453949409898],[-121.03609102103,50.44519398099],[-121.03616498785,50.4449313668937],[-121.036261778716,50.4447910723679],[-121.036518619691,50.4447147686828],[-121.036715723653,50.4447114433161],[-121.036925084974,50.4447697720459],[-121.037095701771,50.4446833125111],[-121.03710091467,50.4446822340138]]]}},{"type":"Feature","id":"921770139","properties":{"name":"SP_20KPH_%TR_HIGHMONT_SEPT 16_DS","oid":"921770139","speedLimit":5.5555553},"geometry":{"type":"Polygon","coordinates":[[[-121.001747029251,50.4283057915267],[-121.000804480639,50.42815381328],[-121.000754746759,50.4285428811866],[-121.0008987355,50.4289670901307],[-121.001626569003,50.4287934520629],[-121.001924972285,50.4286882086998],[-121.002548125127,50.4285667878771],[-121.002401459491,50.4281872466968],[-121.001747029251,50.4283057915267]]]}},{"type":"Feature","id":"926367691","properties":{"name":"SP_25KPH_%TR_24SH_EMPTY_LANE_SEP_15_DS","oid":"926367691","speedLimit":6.9444447},"geometry":{"type":"Polygon","coordinates":[[[-121.038786231038,50.4508571703937],[-121.038615050685,50.4512052554022],[-121.038640974294,50.4520117916447],[-121.038867946762,50.453598171321],[-121.039047157799,50.453575253253],[-121.038784258589,50.4517183505001],[-121.038786231038,50.4508571703937]]]}},{"type":"Feature","id":"929009157","properties":{"name":"iSP_22KPH_%TR_Long_Single_Lane","oid":"929009157","speedLimit":6.111111},"geometry":{"type":"Polygon","coordinates":[[[-121.005682486708,50.4380556768831],[-121.004752759011,50.4382237427148],[-121.005177258109,50.4381972296558],[-121.007937558918,50.4431701807775],[-121.0085263348,50.4445345697564],[-121.008213419932,50.4465093882158],[-121.007835414263,50.4466798806664],[-121.00893688587,50.4466466269992],[-121.008826146974,50.4465926122586],[-121.009406187727,50.4448173158026],[-121.008767255297,50.4430680830316],[-121.008265548928,50.4415398523356],[-121.007261995301,50.4401558706555],[-121.006442302054,50.4389837238231],[-121.005863247525,50.4383127187433],[-121.005682486708,50.4380556768831]]]}},{"type":"Feature","id":"932281958","properties":{"name":"SP_15KPH_%TR_1185-1170_22shl_SEPT_16_DS","oid":"932281958","speedLimit":4.1666665},"geometry":{"type":"Polygon","coordinates":[[[-121.037377057462,50.4481139225969],[-121.037410589087,50.4479617646007],[-121.036983976651,50.4479084688583],[-121.035926039801,50.4473797355494],[-121.035634962755,50.4472465411309],[-121.035477307763,50.4475376455314],[-121.035552542585,50.4474430972667],[-121.036816600306,50.4479511593771],[-121.037218134468,50.448055234368],[-121.037336481379,50.4481908554054],[-121.037377057462,50.4481139225969]]]}},{"type":"Feature","id":"933274269","properties":{"name":"SP_15KPH_%TR_21SH_EMPTY_LANE_SEP_15_NS","oid":"933274269","speedLimit":4.1666665},"geometry":{"type":"Polygon","coordinates":[[[-121.039474897348,50.452365179265],[-121.039652558604,50.4523477435584],[-121.039540551706,50.4510062726475],[-121.039314424573,50.4510515695348],[-121.039420936792,50.4515129866362],[-121.039474897348,50.452365179265]]]}},{"type":"Feature","id":"934051091","properties":{"name":"iSP_17KPH_%TR_Ramp_Permission Blocker","oid":"934051091","speedLimit":4.7222223},"geometry":{"type":"Polygon","coordinates":[[[-121.039515050764,50.4610293773238],[-121.039467007554,50.4607713468411],[-121.039019543519,50.4607919281649],[-121.039078435197,50.4610446560358],[-121.039165927377,50.4608995981469],[-121.03938191049,50.4608864764295],[-121.039515050764,50.4610293773238]]]}},{"type":"Feature","id":"934181339","properties":{"name":"SP_35KPH_TR%_1590_2_SEPT 16_NS_ROUGH_SECTION.","oid":"934181339","speedLimit":9.722222},"geometry":{"type":"Polygon","coordinates":[[[-121.009547781353,50.4401725873639],[-121.008922092506,50.4404382572026],[-121.01038466308,50.4417982423174],[-121.011096294327,50.4414566282927],[-121.010562324336,50.4414846692229],[-121.009363357417,50.4404319659682],[-121.009547781353,50.4401725873639]]]}},{"type":"Feature","id":"934773555","properties":{"name":"SP_10KPH_NEW RAMP_SEPT 15_DS","oid":"934773555","speedLimit":2.7777777},"geometry":{"type":"Polygon","coordinates":[[[-121.033905125407,50.4443399009909],[-121.034416694019,50.4442038305796],[-121.035777260827,50.4443188702933],[-121.036279248974,50.4444732751589],[-121.035934211373,50.4447853203822],[-121.034624928226,50.4446105139423],[-121.034347235653,50.4446007175917],[-121.033905125407,50.4443399009909]]]}},{"type":"Feature","id":"935505135","properties":{"name":"SP_20KPH_%TR_1590_WATERHOLES_SEPT_16_DS","oid":"935505135","speedLimit":5.5555553},"geometry":{"type":"Polygon","coordinates":[[[-121.013405186204,50.4441733630304],[-121.012721310126,50.444201673585],[-121.012969979528,50.4452611174479],[-121.01311213671,50.4462072292179],[-121.013280781058,50.4469890498969],[-121.013707111716,50.4470967198789],[-121.013796012788,50.4467737998076],[-121.013440690277,50.4437484350881],[-121.013387434167,50.4441620388086],[-121.013405186204,50.4441733630304]]]}},{"type":"Feature","id":"936169885","properties":{"name":"SP_10KPH_%TR_24shl_loadplan_Sept_15_DS","oid":"936169885","speedLimit":2.7777777},"geometry":{"type":"Polygon","coordinates":[[[-121.039054906704,50.4535934978326],[-121.038513892253,50.4536887650955],[-121.038720013123,50.4547477595845],[-121.039231159067,50.4546026118208],[-121.039183820303,50.4543762172593],[-121.039102386357,50.4539207318931],[-121.039079844088,50.4537563509272],[-121.039054906704,50.4535934978326]]]}},{"type":"Feature","id":"936513295","properties":{"name":"SP_30KPH_%TR_1635_FLATS_SEP_15_DS","oid":"936513295","speedLimit":8.333333},"geometry":{"type":"Polygon","coordinates":[[[-121.017435884746,50.4574535295995],[-121.015228855746,50.4585166583283],[-121.014500036019,50.4578793562896],[-121.016653808909,50.4569265039114],[-121.017435884746,50.4574535295995]]]}},{"type":"Feature","id":"937786749","properties":{"name":"SP_30KPH_%TR_24SH_Loaded_LANE_SEP_15_DS","oid":"937786749","speedLimit":8.333333},"geometry":{"type":"Polygon","coordinates":[[[-121.038412311155,50.4510850029516],[-121.038215207193,50.4510388971913],[-121.038255783276,50.4516604711441],[-121.038335103884,50.4527878603379],[-121.038497830887,50.4527606282807],[-121.038405830253,50.4516749409831],[-121.038412311155,50.4510850029516]]]}},{"type":"Feature","id":"937793793","properties":{"name":"SP_10KPH_%TR_21SH_LOAD_AREA_SEP_15_DS","oid":"937793793","speedLimit":2.7777777},"geometry":{"type":"Polygon","coordinates":[[[-121.039651008823,50.4523549335405],[-121.039077448972,50.4524098470289],[-121.039163532261,50.4533139872783],[-121.039697079585,50.4532575459188],[-121.039666647522,50.452918807887],[-121.039651008823,50.4523549335405]]]}},{"type":"Feature","id":"938065675","properties":{"name":"SP_8KPH_CR01_YARD_RUTIING_SEP_15_DS","oid":"938065675","speedLimit":2.2222223},"geometry":{"type":"Polygon","coordinates":[[[-121.034291302649,50.4648008824361],[-121.034101102256,50.4648576832947],[-121.033942883707,50.4649066650478],[-121.033831440366,50.465004628554],[-121.034046296365,50.4650685295199],[-121.033966271311,50.4650110096631],[-121.03424466833,50.4648877913448],[-121.034321312044,50.4649370427222],[-121.034291302649,50.4648008824361]]]}},{"type":"Feature","id":"938165680","properties":{"name":"TR_22SH_10kph_%TR_Sept16_DS","oid":"938165680","speedLimit":2.7777777},"geometry":{"type":"Polygon","coordinates":[[[-121.034362310795,50.4471925263904],[-121.035053935778,50.4475031336173],[-121.035420811202,50.4476021756207],[-121.03579726709,50.4469119373388],[-121.034733976451,50.4466103175896],[-121.034362310795,50.4471925263904]]]}},{"type":"Feature","id":"938217281","properties":{"name":"SP_20KPH_CRUSHER_YARD_WEATHER_SEPT_15_DS","oid":"938217281","speedLimit":5.5555553},"geometry":{"type":"Polygon","coordinates":[[[-121.036885636004,50.4639822130989],[-121.037244339855,50.4642841923472],[-121.034294120432,50.4654988499488],[-121.032881424627,50.4644540556744],[-121.036885636004,50.4639822130989]]]}},{"type":"Feature","id":"939481274","properties":{"name":"SP_10KPH_%TR_LRNX_PIT_BOTTOM_SEP_15_NS1","oid":"939481274","speedLimit":2.7777777},"geometry":{"type":"Polygon","coordinates":[[[-121.03405742661,50.4452360423853],[-121.034064471069,50.4449958969831],[-121.033304937502,50.4447660871801],[-121.033471186734,50.4448873282533],[-121.033360025171,50.4469934537609],[-121.033817633226,50.4469737711849],[-121.03366589558,50.4469196665696],[-121.03405742661,50.4452360423853]]]}},{"type":"Feature","id":"939584863","properties":{"name":"SP_35KPH_%TR_HMT EMPTY2_ROUGH_SECTION_SEPT 16_NS","oid":"939584863","speedLimit":9.722222},"geometry":{"type":"Polygon","coordinates":[[[-121.005961588173,50.430169794387],[-121.00567008846,50.4303970876962],[-121.005922702759,50.4302827669808],[-121.006322123584,50.4305567951737],[-121.006714922617,50.4308735138854],[-121.007138153712,50.4312426295916],[-121.007265517531,50.4315318466217],[-121.007412324056,50.4321900894832],[-121.007319478087,50.4325921892324],[-121.007053901983,50.4326142085526],[-121.007548282115,50.432689972989],[-121.007645495649,50.4323016240806],[-121.007587167528,50.4319284640094],[-121.007418804958,50.4313513780709],[-121.007306516282,50.4311737855129],[-121.007118711006,50.4309837003611],[-121.006684772332,50.4306463104509],[-121.005961588173,50.430169794387]]]}},{"type":"Feature","id":"939585115","properties":{"name":"SP_35KPH_%TR_HMT EMPTY22_ROUGH_SECTION_SEPT 16_NS","oid":"939585115","speedLimit":9.722222},"geometry":{"type":"Polygon","coordinates":[[[-121.007520245168,50.4327110036866],[-121.007046716635,50.4338267990343],[-121.006950066658,50.4340178728087],[-121.006753667141,50.434299360608],[-121.005790548709,50.4352897806427],[-121.005291237456,50.4350884611438],[-121.005661635109,50.4351664724497],[-121.006611932626,50.4341288681574],[-121.006756766703,50.4339274587837],[-121.006963028462,50.4334116674426],[-121.007227054785,50.4327829035076],[-121.007030655268,50.4326534838298],[-121.007520245168,50.4327110036866]]]}},{"type":"Feature","id":"940264088","properties":{"name":"SP_15KPH_1430 SINK)SEPT 16_NS","oid":"940264088","speedLimit":4.1666665},"geometry":{"type":"Polygon","coordinates":[[[-121.039401071418,50.464503217177],[-121.03970130626,50.4638341893423],[-121.039143666887,50.4639406010774],[-121.038056706865,50.4645275732414],[-121.038924302434,50.4650992666934],[-121.039401071418,50.464503217177]]]}}]}