{"type":"FeatureCollection","features":[{"type":"Feature","id":"702602533","properties":{"name":"iSP_4KPH_%TR_CR01_SLOW BUMP","oid":"702602533","speedLimit":1.1111112},"geometry":{"type":"Polygon","coordinates":[[[-121.033356629323,50.4648077998818],[-121.033651369415,50.4646907834298],[-121.033694763272,50.4647314965272],[-121.033366914231,50.4648696334601],[-121.033356629323,50.4648077998818]]]}},{"type":"Feature","id":"707947583","properties":{"name":"iSP_25KPH_%TR_Permission Gate 1 from west dump_Jun","oid":"707947583","speedLimit":6.9444447},"geometry":{"type":"Polygon","coordinates":[[[-121.038626165137,50.461977925056],[-121.038852855772,50.4617994345233],[-121.03813784336,50.4614082113163],[-121.037990191535,50.4616709141498],[-121.038189690565,50.4615668396095],[-121.038664627874,50.4618459894558],[-121.038626165137,50.461977925056]]]}},{"type":"Feature","id":"742345972","properties":{"name":"iSP_4KPH_%TR_CR01_PITSIDE_SLOW BUMP","oid":"742345972","speedLimit":1.1111112},"geometry":{"type":"Polygon","coordinates":[[[-121.033396500952,50.4648827551206],[-121.033703780178,50.4647442586901],[-121.033753936713,50.4647763438463],[-121.033472440201,50.4649182555035],[-121.033396500952,50.4648827551206]]]}},{"type":"Feature","id":"776427243","properties":{"name":"iSP_7KPH_%TR_CR1_PermissionBlocker_DO_NOT_DELETE","oid":"776427243","speedLimit":1.9444444},"geometry":{"type":"Polygon","coordinates":[[[-121.034097706228,50.46521277387],[-121.034049240362,50.4652330854814],[-121.03402810699,50.4652745175739],[-121.03411376759,50.4652254461585],[-121.034097706228,50.46521277387]]]}},{"type":"Feature","id":"794004438","properties":{"name":"iSP_11KPH_%TR_LOWER_FUEL_BAY","oid":"794004438","speedLimit":3.0555556},"geometry":{"type":"Polygon","coordinates":[[[-121.0367744591,50.4606954175524],[-121.036776572437,50.460725255849],[-121.036746844828,50.4606707919704],[-121.037123018846,50.4605990722095],[-121.037533006259,50.4605560223781],[-121.037540755162,50.4605813669552],[-121.036942258072,50.4606502107358],[-121.0367744591,50.4606954175524]]]}},{"type":"Feature","id":"801543391","properties":{"name":"iSP_4KPH_%TR_CR1_PermissionBlocker_DO_NOT_DELETE_","oid":"801543391","speedLimit":1.1111112},"geometry":{"type":"Polygon","coordinates":[[[-121.033153185398,50.4645232575723],[-121.033152340063,50.4644738266594],[-121.033173896102,50.4644317654463],[-121.033105846645,50.4644593568831],[-121.033153185398,50.4645232575723]]]}},{"type":"Feature","id":"806473874","properties":{"name":"iSP_4KPH_%TR_Permission Blocker - DO NOT DELETE","oid":"806473874","speedLimit":1.1111112},"geometry":{"type":"Polygon","coordinates":[[[-121.022717244624,50.4815450171122],[-121.022684135675,50.4815426803781],[-121.022676527661,50.4815713503076],[-121.022698647257,50.4815724288003],[-121.022702733042,50.4815483424645],[-121.022717244624,50.4815450171122]]]}},{"type":"Feature","id":"824566967","properties":{"name":"iSP_4Cr_3KPH","oid":"824566967","speedLimit":0.8333333},"geometry":{"type":"Polygon","coordinates":[[[-121.023300103018,50.4810681436144],[-121.023279955871,50.4810681436144],[-121.023277278977,50.481186238559],[-121.023302357245,50.4811855195639],[-121.023300103018,50.4810681436144]]]}},{"type":"Feature","id":"826307302","properties":{"name":"iSP_4KPH_TR%_CRUSHER POCKETS","oid":"826307302","speedLimit":1.1111112},"geometry":{"type":"Polygon","coordinates":[[[-121.023295312788,50.4813213197628],[-121.023334761748,50.4814769822012],[-121.023539473676,50.4814375273453],[-121.023458462418,50.4811886651675],[-121.023050165675,50.4811893841626],[-121.023055519462,50.4813600556236],[-121.023280378538,50.4813260831053],[-121.023295312788,50.4813213197628]]]}},{"type":"Feature","id":"883050998","properties":{"name":"iSP_22kph_%TR_4CR_Brake_Temp_CTRL_NOREMOVE","oid":"883050998","speedLimit":6.111111},"geometry":{"type":"Polygon","coordinates":[[[-121.031796845595,50.4745589012562],[-121.032186122304,50.474312285938],[-121.032487765964,50.4745746292739],[-121.032789409624,50.4748020114732],[-121.032967211726,50.4748844262861],[-121.033176009439,50.4749345761941],[-121.033459901067,50.474959381525],[-121.03366376766,50.4749218140312],[-121.033824944842,50.4748624070613],[-121.03391610012,50.4748103697912],[-121.034005423838,50.4747471880971],[-121.034055862152,50.4746580327051],[-121.034050085697,50.4745478467066],[-121.034053889704,50.4744834966454],[-121.033991757591,50.4743795119796],[-121.033873410708,50.4742594397984],[-121.033506535374,50.4739375097439],[-121.033058226114,50.4735598575694],[-121.032944951241,50.473425315612],[-121.032819982569,50.473220761507],[-121.032603154174,50.4728147989006],[-121.032249663308,50.472208865783],[-121.032484666403,50.4721560196434],[-121.032427606299,50.4722055404306],[-121.032900148493,50.4730487419302],[-121.033039346968,50.4733094675271],[-121.033247158457,50.4735468257833],[-121.033740129577,50.4739615062053],[-121.034095170223,50.4742710335944],[-121.034200555304,50.4743943412534],[-121.034253247844,50.474461567295],[-121.034260292302,50.4745926940257],[-121.034235354923,50.4746787038141],[-121.034180830824,50.4747914961699],[-121.034083335535,50.4748757084706],[-121.03397048333,50.4749375420489],[-121.033787890997,50.4750160023888],[-121.033528373192,50.4750642649347],[-121.033260402037,50.4750679497846],[-121.033068792799,50.4750261581946],[-121.032805048319,50.474916421568],[-121.032654296934,50.4748349953733],[-121.032492697084,50.4747052167583],[-121.032142164891,50.4744129452516],[-121.031796845595,50.4745589012562]]]}},{"type":"Feature","id":"883053336","properties":{"name":"iSP_22kph_%TR_Brake_Temp_CTRL_NOREMOVE","oid":"883053336","speedLimit":6.111111},"geometry":{"type":"Polygon","coordinates":[[[-121.032463392142,50.4721451448425],[-121.032248536195,50.4722254026702],[-121.031485903252,50.471008233846],[-121.030814002918,50.4699232702453],[-121.030658743079,50.4696601180399],[-121.030593934073,50.4694576310458],[-121.030547581544,50.4692566719164],[-121.030593934073,50.468972848602],[-121.030720170747,50.4686242258545],[-121.030881911486,50.4683754535511],[-121.031086341635,50.468097741695],[-121.03168568406,50.4675364761478],[-121.032429578747,50.466893604657],[-121.032785887396,50.4665561263335],[-121.033145013827,50.46622233286],[-121.033481879774,50.4658706543833],[-121.033776901644,50.466034046019],[-121.033584869739,50.4659932430473],[-121.032916773412,50.4666520223046],[-121.032552011414,50.4669912082414],[-121.032175978286,50.4673076559583],[-121.031771767328,50.4676683218736],[-121.031379391058,50.4680343802521],[-121.031144528852,50.4682862981591],[-121.031006175712,50.4684698216575],[-121.030902481301,50.4686544236486],[-121.030825978495,50.4688529561696],[-121.030765114384,50.4691912433626],[-121.030773849511,50.46940056081],[-121.030871063021,50.4696302797434],[-121.031025054857,50.46993504379],[-121.03132796652,50.4704037387186],[-121.031528029106,50.4707109293736],[-121.031747675284,50.4710828295873],[-121.032143432893,50.4717287568072],[-121.032378717766,50.4721450549681],[-121.032463392142,50.4721451448425]]]}},{"type":"Feature","id":"883059532","properties":{"name":"iSP_22kph_%TR_Brake_CTRL_NOREMOVE","oid":"883059532","speedLimit":6.111111},"geometry":{"type":"Polygon","coordinates":[[[-121.027259651559,50.477321909538],[-121.027027466247,50.4772097463029],[-121.027331927691,50.4769439877403],[-121.027713878164,50.4766323932404],[-121.028030596962,50.4763226861025],[-121.028187829248,50.4761687312774],[-121.028618668255,50.4756923071516],[-121.02890467322,50.4753257095267],[-121.029261263647,50.4748875718897],[-121.02947006136,50.4746566845893],[-121.029688862203,50.4745403871324],[-121.029798896625,50.4744881701135],[-121.029949648011,50.4745926041513],[-121.029786075713,50.4745420048714],[-121.029553467734,50.4747914961699],[-121.029249288069,50.475173012943],[-121.029070358855,50.4754779567384],[-121.028850571788,50.4757747219645],[-121.028693480391,50.4759746924757],[-121.028406348313,50.476270558958],[-121.028039050311,50.4765699305413],[-121.02724133597,50.4772193628623],[-121.027259651559,50.477321909538]]]}},{"type":"Feature","id":"884401102","properties":{"name":"iSP_30KPH_MAIN INT_LIMIT_POLICY_SEPT_8_NS","oid":"884401102","speedLimit":8.333333},"geometry":{"type":"Polygon","coordinates":[[[-121.036990019492,50.4611012902845],[-121.037106112148,50.4611077612403],[-121.038292398752,50.4609920929042],[-121.038276055611,50.4603979333312],[-121.038117555323,50.4605658186863],[-121.037030454677,50.4607084493386],[-121.036742759042,50.4605377778775],[-121.036990019492,50.4611012902845]]]}},{"type":"Feature","id":"910445950","properties":{"name":"SP_22KPH_%TR_1635_FLATS_SEP_11_DS","oid":"910445950","speedLimit":6.111111},"geometry":{"type":"Polygon","coordinates":[[[-121.018914223924,50.4576034690139],[-121.018251763163,50.4578016420374],[-121.017438551016,50.4564353716051],[-121.017478422644,50.4564157789888],[-121.017770767621,50.4542398302033],[-121.018177655472,50.4539931250108],[-121.018530160114,50.4537515426583],[-121.019039756153,50.4536551973154],[-121.019217417365,50.4539290445728],[-121.019242777411,50.4568507710222],[-121.019155426141,50.4570731202558],[-121.01919346621,50.4574051162417],[-121.018914223924,50.4576034690139]]]}},{"type":"Feature","id":"917773475","properties":{"name":"SP_15KPH_%TR_1200_CORNER_Sept_12_DS","oid":"917773475","speedLimit":4.1666665},"geometry":{"type":"Polygon","coordinates":[[[-121.037096390797,50.4446825878818],[-121.036922251814,50.4448621569072],[-121.036626666387,50.4448206349404],[-121.036412092218,50.4448699759789],[-121.036320514274,50.4449676694376],[-121.03625190126,50.4450821694068],[-121.036239643904,50.4451449916033],[-121.036260777276,50.4452673106442],[-121.036313469817,50.4453515229448],[-121.036181597577,50.4453952917714],[-121.036086497403,50.4451943326418],[-121.036160464205,50.4449317196828],[-121.036257255048,50.4447914257646],[-121.03651409596,50.44471512241],[-121.036711199874,50.4447117970576],[-121.036920561144,50.4447701255349],[-121.037091177899,50.4446836663745],[-121.037096390797,50.4446825878818]]]}},{"type":"Feature","id":"926367691","properties":{"name":"SP_25KPH_%TR_24SH_SEP_12_DS","oid":"926367691","speedLimit":6.9444447},"geometry":{"type":"Polygon","coordinates":[[[-121.038551775669,50.4504036318654],[-121.03807176635,50.451154442495],[-121.038242805773,50.4520114846502],[-121.038394402493,50.4531303308949],[-121.038774803186,50.4530968976229],[-121.038840316638,50.450830984576],[-121.038551775669,50.4504036318654]]]}},{"type":"Feature","id":"929009157","properties":{"name":"iSP_22kph_Long_Single_Lane_Aug30","oid":"929009157","speedLimit":6.111111},"geometry":{"type":"Polygon","coordinates":[[[-121.005677970498,50.4380560594485],[-121.004748243028,50.4382241245523],[-121.005172742023,50.4381976116081],[-121.007933042158,50.4431705411937],[-121.008521817897,50.4445349242639],[-121.008208903105,50.4465097341711],[-121.007830897528,50.4466802258833],[-121.008932368866,50.4466469723601],[-121.008821629998,50.4465929578535],[-121.009401670609,50.4448176690856],[-121.008762738335,50.44306844389],[-121.008261032089,50.4415402198122],[-121.007257478707,50.4401562441256],[-121.006437785659,50.4389841023694],[-121.005858731272,50.4383131001955],[-121.005677970498,50.4380560594485]]]}},{"type":"Feature","id":"930116666","properties":{"name":"SP_25KPH_9023 Rough_SEP_12_DS","oid":"930116666","speedLimit":6.9444447},"geometry":{"type":"Polygon","coordinates":[[[-121.043512059808,50.4685945673068],[-121.043670278319,50.469289565942],[-121.043313265224,50.4693036762208],[-121.042341975456,50.4680405815848],[-121.042761261553,50.4680240446976],[-121.043512059808,50.4685945673068]]]}},{"type":"Feature","id":"933252378","properties":{"name":"SP_20KPH_%TR_1615_ROUGH_SECTION_SEP_12_DS","oid":"933252378","speedLimit":5.5555553},"geometry":{"type":"Polygon","coordinates":[[[-121.007359623337,50.4314120055097],[-121.00754207478,50.4321458298801],[-121.00705079433,50.4322078432072],[-121.007396113626,50.4321240802784],[-121.007255083591,50.4314848936376],[-121.006907228291,50.4314554148386],[-121.007359623337,50.4314120055097]]]}},{"type":"Feature","id":"933252478","properties":{"name":"SP_30KPH_%TR_1605_PATCH_SEP_12_DS","oid":"933252478","speedLimit":8.333333},"geometry":{"type":"Polygon","coordinates":[[[-121.00659093216,50.4333410693538],[-121.007209012841,50.4334385830638],[-121.006978095531,50.433962910238],[-121.006675888315,50.4343789387757],[-121.006271677357,50.4347754645715],[-121.005738411942,50.4345240859109],[-121.006210531468,50.4346042538641],[-121.006699557691,50.4339780990094],[-121.006893139377,50.4335512855452],[-121.00659093216,50.4333410693538]]]}},{"type":"Feature","id":"933252549","properties":{"name":"SP_35KPH_%TR_1590_ROUGH_SEP_12_DS","oid":"933252549","speedLimit":9.722222},"geometry":{"type":"Polygon","coordinates":[[[-121.004360234322,50.4363930237901],[-121.004776843525,50.4364501839003],[-121.004881101492,50.4362113876538],[-121.005079050741,50.4359571330128],[-121.004581571169,50.4358325671123],[-121.004795581781,50.4359810395997],[-121.004624401469,50.4363683083336],[-121.004360234322,50.4363930237901]]]}},{"type":"Feature","id":"933371104","properties":{"name":"SP_25KPH_1590_HMT_INTERSECT_SEPT_12_DS","oid":"933371104","speedLimit":6.9444447},"geometry":{"type":"Polygon","coordinates":[[[-121.006357760624,50.4374889520661],[-121.005859999274,50.4376813731288],[-121.006065979204,50.4377780779693],[-121.006385515786,50.4379885637838],[-121.00655134231,50.4382644781521],[-121.007084889504,50.4381538427816],[-121.006742951548,50.4380711583455],[-121.00611458596,50.4376598032759],[-121.006357760624,50.4374889520661]]]}},{"type":"Feature","id":"934051091","properties":{"name":"iSP_17KPH_PERMISSIONS BLOCKER_SEPT 7_NS","oid":"934051091","speedLimit":4.7222223},"geometry":{"type":"Polygon","coordinates":[[[-121.039510526303,50.461029660398],[-121.039462483104,50.4607716310327],[-121.039015019178,50.4607922122673],[-121.039073910841,50.4610449390438],[-121.039161403,50.460899881783],[-121.03937738606,50.4608867601225],[-121.039510526303,50.461029660398]]]}},{"type":"Feature","id":"934773555","properties":{"name":"SP_10KPH_NEW RAMP_SEPT 12_DS","oid":"934773555","speedLimit":2.7777777},"geometry":{"type":"Polygon","coordinates":[[[-121.035772737277,50.4443192257349],[-121.036274725302,50.4444736299319],[-121.035929687785,50.4447856738038],[-121.034506002971,50.4446691067238],[-121.034737765615,50.4441517897518],[-121.035772737277,50.4443192257349]]]}},{"type":"Feature","id":"934888580","properties":{"name":"SP_12KPH_RUTS_SEPT 12_DS","oid":"934888580","speedLimit":3.3333333},"geometry":{"type":"Polygon","coordinates":[[[-121.038714220853,50.4531205345867],[-121.038175319872,50.4531794023102],[-121.038459634167,50.4532006126656],[-121.038505704918,50.453617719696],[-121.038297188983,50.4537115485561],[-121.038740144456,50.4536385705538],[-121.038714220853,50.4531205345867]]]}},{"type":"Feature","id":"935505135","properties":{"name":"SP_15KPH_%TR_1590_WATERHOLES_AUG_12_DS","oid":"935505135","speedLimit":4.1666665},"geometry":{"type":"Polygon","coordinates":[[[-121.013400668111,50.4441737191022],[-121.012716792199,50.4442020295342],[-121.012965461541,50.445261468809],[-121.013107618688,50.4462075764817],[-121.013276262995,50.4469893937749],[-121.013702593549,50.4470970632906],[-121.0137914946,50.4467741446178],[-121.013436172175,50.4437487930001],[-121.013382916078,50.4441623949295],[-121.013400668111,50.4441737191022]]]}},{"type":"Feature","id":"936169885","properties":{"name":"SP_12KPH_%TR_Sept_12_DS","oid":"936169885","speedLimit":3.3333333},"geometry":{"type":"Polygon","coordinates":[[[-121.039478262688,50.4535462695582],[-121.038609681107,50.45361493359],[-121.039069965945,50.4545171825618],[-121.039589706002,50.4544390817194],[-121.0396676177,50.454207026052],[-121.039444871961,50.4538991164019],[-121.039444871961,50.4538967796678],[-121.039478262688,50.4535462695582]]]}},{"type":"Feature","id":"936513295","properties":{"name":"SP_27KPH_%TR_1635_FLATS_SEP_12_DS1","oid":"936513295","speedLimit":7.5},"geometry":{"type":"Polygon","coordinates":[[[-121.018251763163,50.4578016420374],[-121.015246175025,50.4587004757826],[-121.014495517659,50.4578796530054],[-121.017438551016,50.4564353716051],[-121.018251763163,50.4578016420374]]]}}]}