{"type":"FeatureCollection","features":[{"type":"Feature","id":"702602533","properties":{"name":"iSP_4KPH_%TR_CR01_SLOW BUMP","oid":"702602533","speedLimit":1.1111112},"geometry":{"type":"Polygon","coordinates":[[[-121.033359427367,50.4648078906127],[-121.033654170829,50.4646908733633],[-121.033697565181,50.4647315867381],[-121.033369712392,50.4648697246123],[-121.033359427367,50.4648078906127]]]}},{"type":"Feature","id":"707947583","properties":{"name":"iSP_22KPH_%TR_Permission Gate 1 from west dump_Jun","oid":"707947583","speedLimit":6.111111},"geometry":{"type":"Polygon","coordinates":[[[-121.038629023423,50.4619779965028],[-121.038855716649,50.4617995047538],[-121.037981489508,50.4613510285062],[-121.037744370366,50.4615422825052],[-121.037960496786,50.4614965361304],[-121.038667486599,50.4618460600035],[-121.038629023423,50.4619779965028]]]}},{"type":"Feature","id":"742345972","properties":{"name":"iSP_4KPH_%TR_CR01_PITSIDE_SLOW BUMP","oid":"742345972","speedLimit":1.1111112},"geometry":{"type":"Polygon","coordinates":[[[-121.033399299451,50.4648828463623],[-121.03370658219,50.464744348988],[-121.033756739299,50.4647764343628],[-121.033475239569,50.4649183469871],[-121.033399299451,50.4648828463623]]]}},{"type":"Feature","id":"776427243","properties":{"name":"iSP_7KPH_%TR_CR1_PermissionBlocker_DO_NOT_DELETE","oid":"776427243","speedLimit":1.9444444},"geometry":{"type":"Polygon","coordinates":[[[-121.034100512744,50.4652128673605],[-121.034052046324,50.4652331791104],[-121.03403091271,50.4652746114852],[-121.03411657429,50.4652255397354],[-121.034100512744,50.4652128673605]]]}},{"type":"Feature","id":"794004438","properties":{"name":"iSP_11KPH_%TR_LOWER_FUEL_BAY","oid":"794004438","speedLimit":3.0555556},"geometry":{"type":"Polygon","coordinates":[[[-121.036777296217,50.4606954802597],[-121.036779409578,50.4607253187595],[-121.036749681629,50.4606708545098],[-121.037125859947,50.4605991342602],[-121.037535852047,50.4605560841355],[-121.037543601039,50.4605814288853],[-121.036945097107,50.4606502731349],[-121.036777296217,50.4606954802597]]]}},{"type":"Feature","id":"801543391","properties":{"name":"iSP_4KPH_%TR_CR1_PermissionBlocker_DO_NOT_DELETE_","oid":"801543391","speedLimit":1.1111112},"geometry":{"type":"Polygon","coordinates":[[[-121.033155981115,50.4645233463642],[-121.033155135771,50.4644739151145],[-121.033176692057,50.4644318536147],[-121.033108641821,50.4644594452395],[-121.033155981115,50.4645233463642]]]}},{"type":"Feature","id":"806473874","properties":{"name":"iSP_4KPH_%TR_Permission Blocker - DO NOT DELETE","oid":"806473874","speedLimit":1.1111112},"geometry":{"type":"Polygon","coordinates":[[[-121.022719921038,50.481545221898],[-121.02268681171,50.481542885148],[-121.022679203609,50.4815715552729],[-121.022701323458,50.4815726337729],[-121.02270540929,50.481548547273],[-121.022719921038,50.481545221898]]]}},{"type":"Feature","id":"824566967","properties":{"name":"iSP_4Cr_3KPH","oid":"824566967","speedLimit":0.8333333},"geometry":{"type":"Polygon","coordinates":[[[-121.023302786095,50.4810683451506],[-121.023282638717,50.4810683451506],[-121.023279961793,50.4811864408999],[-121.023305040347,50.4811857218999],[-121.023302786095,50.4810683451506]]]}},{"type":"Feature","id":"826307302","properties":{"name":"iSP_4KPH_TR%_CRUSHER POCKETS","oid":"826307302","speedLimit":1.1111112},"geometry":{"type":"Polygon","coordinates":[[[-121.023297995809,50.4813215230242],[-121.023337445221,50.4814771865234],[-121.02354215949,50.4814377313986],[-121.023461147305,50.4811888675249],[-121.023052845894,50.4811895865249],[-121.023058199743,50.481360259149],[-121.023283061389,50.4813262863992],[-121.023297995809,50.4813215230242]]]}},{"type":"Feature","id":"835348611","properties":{"name":"iSP_35KPH_%TR_switchback to 1 gate_AUG_27_DS","oid":"835348611","speedLimit":9.722222},"geometry":{"type":"Polygon","coordinates":[[[-121.039920850764,50.4634034139952],[-121.039548617387,50.4634578782449],[-121.039801798076,50.4633742046204],[-121.03954551779,50.4629227624978],[-121.039365600295,50.4625823159996],[-121.039179483606,50.4622611926263],[-121.038987308615,50.4620179908776],[-121.038746385422,50.4618369826286],[-121.03856336833,50.4617300313792],[-121.03802657455,50.4614322755058],[-121.037959369659,50.4614147498808],[-121.037840457861,50.4614576202556],[-121.037955002046,50.4613477930062],[-121.038145486348,50.461385630381],[-121.038484046835,50.46157041338],[-121.038867833254,50.4617907868788],[-121.03905535885,50.4619262285031],[-121.039239925741,50.462130514377],[-121.03945407969,50.4625355809998],[-121.039582149387,50.4627535278737],[-121.039759108177,50.463060990247],[-121.039862803773,50.463259434246],[-121.039944802193,50.4633238746206],[-121.039920850764,50.4634034139952]]]}},{"type":"Feature","id":"849417440","properties":{"name":"iSP_Permissions_35_KPH_June_19_NS","oid":"849417440","speedLimit":9.722222},"geometry":{"type":"Polygon","coordinates":[[[-121.032695972797,50.4660341451061],[-121.033010581855,50.4660148219812],[-121.033217550376,50.4658139513573],[-121.033806332845,50.4653794956096],[-121.03372715224,50.4652507047353],[-121.033963285147,50.4654001668595],[-121.03342705493,50.4658084689823],[-121.033024670931,50.4661880111053],[-121.032695972797,50.4660341451061]]]}},{"type":"Feature","id":"853029148","properties":{"name":"SP_15KPH_%TR_1635 Flats_AUG_27_DS","oid":"853029148","speedLimit":4.1666665},"geometry":{"type":"Polygon","coordinates":[[[-121.01760276878,50.4567739644057],[-121.016439011135,50.457083943279],[-121.014801437879,50.4577460524005],[-121.013837322435,50.4588995081443],[-121.014982623391,50.4587966012699],[-121.019118612424,50.457457733402],[-121.019253303986,50.4570347816543],[-121.018435574039,50.456899609655],[-121.017981342241,50.4568029940306],[-121.01760276878,50.4567739644057]]]}},{"type":"Feature","id":"855316169","properties":{"name":"SP_25KPH_TR%_CRUSHER YARD EMPTY_AUG_27_DS","oid":"855316169","speedLimit":6.9444447},"geometry":{"type":"Polygon","coordinates":[[[-121.037912734819,50.4622348592515],[-121.0377712805,50.4621194597521],[-121.037596716854,50.4622033131266],[-121.037546277963,50.4622375555014],[-121.037609397022,50.4622265008765],[-121.037905831172,50.4624612543752],[-121.037720137156,50.46251383125],[-121.038123366499,50.462506371625],[-121.03812167581,50.4624941486251],[-121.037912734819,50.4622348592515]]]}},{"type":"Feature","id":"859384545","properties":{"name":"SP_20KPH_TR%_MAINT_CREW_L1590_DUST_AUG_27_DS","oid":"859384545","speedLimit":5.5555553},"geometry":{"type":"Polygon","coordinates":[[[-121.013533984638,50.4515903339335],[-121.013429725478,50.4510354456865],[-121.012756549446,50.448326792951],[-121.012536196304,50.4488172408233],[-121.013394221008,50.4517792511825],[-121.013277422571,50.4521784759303],[-121.013116807109,50.4521877330553],[-121.013442969209,50.4522149651801],[-121.013533984638,50.4515903339335]]]}},{"type":"Feature","id":"878230085","properties":{"name":"SP_30KPH_TR%_PUNCH_OUT_L1590_DMP_AUG_27_DS1","oid":"878230085","speedLimit":8.333333},"geometry":{"type":"Polygon","coordinates":[[[-121.013652896436,50.4533275277992],[-121.013645288335,50.4527796498021],[-121.013741094049,50.4524494490539],[-121.013097927748,50.4524617619288],[-121.013065522874,50.4528629639267],[-121.013205004722,50.453367432299],[-121.013610347427,50.4545820030425],[-121.013328988588,50.4549546247905],[-121.01304424837,50.4549500411655],[-121.013783361276,50.4551889289142],[-121.014113045645,50.4546825731669],[-121.014059366267,50.454296110669],[-121.013652896436,50.4533275277992]]]}},{"type":"Feature","id":"883050998","properties":{"name":"iSP_22kph_%TR_4CR_Brake_Temp_CTRL_NOREMOVE","oid":"883050998","speedLimit":6.111111},"geometry":{"type":"Polygon","coordinates":[[[-121.031799625808,50.4745590584354],[-121.032188906966,50.4743124414368],[-121.032490554075,50.4745747865603],[-121.032792201183,50.4748021703091],[-121.032970005318,50.4748845856837],[-121.033178805418,50.4749347359334],[-121.033462700291,50.4749595414333],[-121.033666569215,50.4749219736835],[-121.03382774824,50.4748625663088],[-121.033918904559,50.4748105286841],[-121.034008229298,50.4747473465594],[-121.034058668189,50.4746581905599],[-121.034052891668,50.4745480038105],[-121.034056695718,50.4744836533108],[-121.033994562895,50.4743796679364],[-121.03387621466,50.474259594937],[-121.033509335131,50.4739376626888],[-121.033061020746,50.4735600079408],[-121.032947744578,50.4734254650665],[-121.032822774478,50.4732209095676],[-121.032605943604,50.4728149441948],[-121.032252448697,50.472209006948],[-121.032487454478,50.4721561604483],[-121.032430393722,50.472205681573],[-121.032902941318,50.4730488888185],[-121.033042141385,50.4733096161921],[-121.03324995525,50.4735469760659],[-121.033742932005,50.4739616593136],[-121.03409797671,50.474271188812],[-121.034203362995,50.4743944973113],[-121.034256056138,50.474461723811],[-121.034263100676,50.4745928514353],[-121.034238163012,50.4746788618098],[-121.03418363829,50.4747916549342],[-121.034086141886,50.4748758678087],[-121.033973288391,50.4749377018084],[-121.033790693971,50.475016162683],[-121.033531173199,50.4750644255577],[-121.033263198981,50.4750681104327],[-121.033071587553,50.4750263185579],[-121.032807840057,50.4749165811835],[-121.032657086948,50.474835154434],[-121.032495485251,50.4747053749346],[-121.03214494905,50.4744131014362],[-121.031799625808,50.4745590584354]]]}},{"type":"Feature","id":"883053336","properties":{"name":"iSP_22kph_%TR_Brake_Temp_CTRL_NOREMOVE","oid":"883053336","speedLimit":6.111111},"geometry":{"type":"Polygon","coordinates":[[[-121.032466179974,50.4721452855734],[-121.032251321571,50.4722255439479],[-121.031488679909,50.4710083668294],[-121.030816771894,50.4699233958353],[-121.030661510281,50.4696602418367],[-121.030596700533,50.4694577534628],[-121.030550347474,50.4692567929638],[-121.030596700533,50.4689729677154],[-121.03072293865,50.4686243425922],[-121.030884681238,50.4683755685936],[-121.031089113725,50.468097854845],[-121.031688463001,50.4675365854731],[-121.032432366193,50.4668937096015],[-121.032788678915,50.4665562289783],[-121.033147809452,50.4662224332301],[-121.033484679249,50.465870752357],[-121.033779704492,50.4660341451061],[-121.033587670392,50.4659933418563],[-121.032919566427,50.4666521256028],[-121.03255480026,50.466991313851],[-121.032178762832,50.4673077637243],[-121.031774547253,50.4676684320974],[-121.031382166498,50.4680344929704],[-121.031147301607,50.468286412594],[-121.031008946885,50.468469937343],[-121.030905251288,50.4686545405921],[-121.030828747608,50.468853074466],[-121.030767882801,50.4691913639642],[-121.030776618028,50.4694006828381],[-121.03087383265,50.4696304033368],[-121.031027826246,50.4699351694602],[-121.031330741372,50.4704038675827],[-121.031530806245,50.470711060331],[-121.031750454934,50.4710829630791],[-121.032146217067,50.4717288947006],[-121.03238150463,50.4721451956984],[-121.032466179974,50.4721452855734]]]}},{"type":"Feature","id":"883059532","properties":{"name":"iSP_22kph_%TR_Brake_CTRL_NOREMOVE","oid":"883059532","speedLimit":6.111111},"geometry":{"type":"Polygon","coordinates":[[[-121.027262379902,50.4773220855456],[-121.027030191936,50.4772099215462],[-121.027334656859,50.4769441611727],[-121.027716611699,50.4766325645493],[-121.028033334118,50.476322855301],[-121.028190568202,50.4761688994268],[-121.028621412134,50.4756924720544],[-121.028907420368,50.4753258719313],[-121.029264014872,50.4748877313087],[-121.029472814972,50.4746568424349],[-121.029691618316,50.4745405441855],[-121.029801653997,50.4744883268108],[-121.029952407106,50.4745927615602],[-121.029788832938,50.4745421619355],[-121.0295562223,50.4747916549342],[-121.029252039158,50.4751731743071],[-121.029073107898,50.4754781201805],[-121.028853318318,50.4757748874289],[-121.028696225125,50.4759748593028],[-121.028409089765,50.4762707278013],[-121.028041787564,50.4765701014247],[-121.027244064103,50.4772195381712],[-121.027262379902,50.4773220855456]]]}},{"type":"Feature","id":"891249991","properties":{"name":"SP_30KPH_TR%_1590 #1_AUG_27_DS","oid":"891249991","speedLimit":8.333333},"geometry":{"type":"Polygon","coordinates":[[[-121.012957036992,50.4498606895678],[-121.01384760746,50.4497487951934],[-121.013379004806,50.4450041142188],[-121.012138884372,50.4430837551041],[-121.011299598138,50.4419102572353],[-121.010529771048,50.4421496842341],[-121.011008799618,50.4427016066061],[-121.011240846693,50.4430298301044],[-121.01145640955,50.4435199184767],[-121.011774399986,50.4445106105964],[-121.012957036992,50.4498606895678]]]}},{"type":"Feature","id":"893804793","properties":{"name":"SP_20KPH_%TR_1590Dynamic_AUG_27_DS","oid":"893804793","speedLimit":5.5555553},"geometry":{"type":"Polygon","coordinates":[[[-121.011186603752,50.4418407838607],[-121.010484263333,50.4421100493593],[-121.005981958335,50.438048148756],[-121.006514525393,50.437681638508],[-121.010067367586,50.4407333441166],[-121.011186603752,50.4418407838607]]]}},{"type":"Feature","id":"908328496","properties":{"name":"SP_15KPH_%TR_9019_SOFT_GROUND_AUG_27_DS","oid":"908328496","speedLimit":4.1666665},"geometry":{"type":"Polygon","coordinates":[[[-121.038886289943,50.4644516261146],[-121.0389006608,50.464753066863],[-121.039379971152,50.4648990238622],[-121.038731310112,50.4665301652284],[-121.038275951188,50.4671547964751],[-121.037820592265,50.4675726253479],[-121.037502742719,50.4696996969615],[-121.03546968911,50.4697243227113],[-121.035228906808,50.4668159677269],[-121.037881738853,50.4651399787359],[-121.038520819322,50.4648144514876],[-121.038886289943,50.4644516261146]]]}},{"type":"Feature","id":"910445950","properties":{"name":"SP_25KPH_%TR_1635_FLATS_AUG_27_DS","oid":"910445950","speedLimit":6.9444447},"geometry":{"type":"Polygon","coordinates":[[[-121.020225731984,50.4571641117786],[-121.019044644777,50.4569612639047],[-121.018650996005,50.4569226176549],[-121.017842987519,50.4571469456537],[-121.01844895866,50.4564124871576],[-121.018505314963,50.4561073615343],[-121.019236115314,50.4561250669092],[-121.019236678877,50.4564588626574],[-121.019424486255,50.4568918804051],[-121.019757833784,50.4570619239042],[-121.020225731984,50.4571641117786]]]}},{"type":"Feature","id":"917291012","properties":{"name":"SP_20KPH_%TR_CORNER_RUTS_AUG_27_DS","oid":"917291012","speedLimit":5.5555553},"geometry":{"type":"Polygon","coordinates":[[[-121.040610651906,50.4662214446051],[-121.040684901334,50.4661073033557],[-121.040422985419,50.4659262951067],[-121.040121197419,50.4658981642318],[-121.040017079151,50.4663106006046],[-121.039934094495,50.4664859467287],[-121.039995241084,50.4668201019769],[-121.04066743088,50.4667393043523],[-121.040549505318,50.466622376978],[-121.040532034864,50.4663773777293],[-121.040610651906,50.4662214446051]]]}},{"type":"Feature","id":"917665392","properties":{"name":"SP_15KPH_%TR_22SH RUTS_AUG 27_DS","oid":"917665392","speedLimit":4.1666665},"geometry":{"type":"Polygon","coordinates":[[[-121.035647915917,50.445519637216],[-121.035215663077,50.4452077709677],[-121.033734196778,50.4447559693451],[-121.033078209418,50.4452863217173],[-121.035586487547,50.4459566993387],[-121.036390973764,50.4468445744589],[-121.036872679259,50.4466101804602],[-121.035647915917,50.445519637216]]]}},{"type":"Feature","id":"920440343","properties":{"name":"iSP_17KPH_CAL_PAD_ROAD_LIMIT_AUG_23_NS","oid":"920440343","speedLimit":4.7222223},"geometry":{"type":"Polygon","coordinates":[[[-121.005955470873,50.4378307411322],[-121.005969137276,50.4376130638834],[-121.005586900655,50.4375782822586],[-121.005286662454,50.437682717008],[-121.005191138522,50.4378350551322],[-121.005286662454,50.4381615710054],[-121.005989566436,50.4392586751246],[-121.007470469172,50.4413700186132],[-121.00767518344,50.4416486311117],[-121.007784373776,50.442153638734],[-121.007934563322,50.4426629603563],[-121.008118848431,50.4432332172283],[-121.0083235627,50.443651135976],[-121.00868522927,50.4445610304711],[-121.008760324043,50.4449223279692],[-121.008760324043,50.4451791907178],[-121.008692132917,50.4456188592155],[-121.008494181405,50.4462283015872],[-121.008944609152,50.4462152697123],[-121.009135657017,50.4457321017149],[-121.009319942126,50.4449180139692],[-121.009217514546,50.4444521918467],[-121.008999133874,50.4437991601002],[-121.008773990446,50.4433769273525],[-121.008460085842,50.4427369274809],[-121.008296229893,50.4420752677345],[-121.00824170517,50.4417444378612],[-121.007920896919,50.4411958408642],[-121.006815327157,50.4398332459965],[-121.006603850132,50.4394936982483],[-121.006228517158,50.4387797312521],[-121.005989566436,50.4383879661292],[-121.005935041713,50.438057136256],[-121.005955470873,50.4378307411322]]]}},{"type":"Feature","id":"922262468","properties":{"name":"SP_20kph_HMT_DUMP_AUG_27_DS","oid":"922262468","speedLimit":5.5555553},"geometry":{"type":"Polygon","coordinates":[[[-121.012501678068,50.4364264442647],[-121.012481812472,50.4374171363844],[-121.016364198144,50.4384077386291],[-121.017180519184,50.4369598523869],[-121.016523545589,50.4359057085175],[-121.014771428148,50.4353087587707],[-121.012899976236,50.4352072000213],[-121.012501678068,50.4364264442647]]]}},{"type":"Feature","id":"922385545","properties":{"name":"SP_27KPH_RUTS_AUG 27_DS","oid":"922385545","speedLimit":7.5},"geometry":{"type":"Polygon","coordinates":[[[-121.007511891054,50.4337191396542],[-121.006870415442,50.4335257286553],[-121.006519033897,50.4340722585273],[-121.007226305492,50.434318875526],[-121.007511891054,50.4337191396542]]]}},{"type":"Feature","id":"923351007","properties":{"name":"iSP_17KPH_PERMISSIONS_AUG 18_NS","oid":"923351007","speedLimit":4.7222223},"geometry":{"type":"Polygon","coordinates":[[[-121.03885402596,50.4608772973837],[-121.038873468884,50.4611348791324],[-121.038784144145,50.4608896102587],[-121.038539416902,50.4608896102587],[-121.038535612851,50.460830202884],[-121.038881217876,50.460822743259],[-121.03885402596,50.4608772973837]]]}},{"type":"Feature","id":"923607825","properties":{"name":"MRK_CROSS DITCH ","oid":"923607825","speedLimit":2.7777777},"geometry":{"type":"Polygon","coordinates":[[[-121.035186076019,50.4458453442143],[-121.035617483513,50.4454860239662],[-121.03558705111,50.4454713743413],[-121.035137750489,50.4458265603394],[-121.035186076019,50.4458453442143]]]}},{"type":"Feature","id":"924222108","properties":{"name":"SP_11kph_rough ground_23SH _AUG_27_DS","oid":"924222108","speedLimit":3.0555556},"geometry":{"type":"Polygon","coordinates":[[[-121.040369446932,50.4714163094523],[-121.04087045446,50.4718389017],[-121.04144627498,50.4722544836978],[-121.042123114171,50.4716711949509],[-121.040529217049,50.4711217890788],[-121.040455108511,50.4712674764531],[-121.040369446932,50.4714163094523]]]}},{"type":"Feature","id":"924266047","properties":{"name":"SP_12KPH_%TR_CROSS DITCH_AUG_27_DNS ","oid":"924266047","speedLimit":3.3333333},"geometry":{"type":"Polygon","coordinates":[[[-121.037616159778,50.4473122839564],[-121.037894137239,50.4474714525806],[-121.037657722551,50.4477506942041],[-121.037463011526,50.4476920058294],[-121.037268159611,50.4475133343303],[-121.037616159778,50.4473122839564]]]}},{"type":"Feature","id":"926023128","properties":{"name":"SP_10KPH_TR%_4CR_1_AUG_27_DS","oid":"926023128","speedLimit":2.7777777},"geometry":{"type":"Polygon","coordinates":[[[-121.022862361592,50.4811968663999],[-121.02283587413,50.4815104402732],[-121.022151567728,50.4816164028976],[-121.021885847762,50.4812731702745],[-121.021893455863,50.4811097775253],[-121.022493227811,50.4810278115258],[-121.022510275593,50.4812223010247],[-121.022822489508,50.4810188240258],[-121.022981977844,50.4812604080245],[-121.022862361592,50.4811968663999]]]}},{"type":"Feature","id":"926367691","properties":{"name":"SP_10KPH_%TR_AUG_27_DS","oid":"926367691","speedLimit":2.7777777},"geometry":{"type":"Polygon","coordinates":[[[-121.038765123893,50.4500238126919],[-121.037840035189,50.4500348673168],[-121.038207478281,50.4520286543061],[-121.038181554382,50.4523871656792],[-121.038951099691,50.4525305163034],[-121.039076492464,50.4524588859288],[-121.038821339305,50.4510165719366],[-121.038765123893,50.4500238126919]]]}}]}