{"type":"FeatureCollection","features":[{"type":"Feature","id":"702602533","properties":{"name":"iSP_4KPH_%TR_CR01_SLOW BUMP","oid":"702602533","speedLimit":1.1111112},"geometry":{"type":"Polygon","coordinates":[[[-121.033349722171,50.4648090884959],[-121.033644528342,50.4646920740024],[-121.033687931928,50.4647327864183],[-121.033360009384,50.4648709210392],[-121.033349722171,50.4648090884959]]]}},{"type":"Feature","id":"707947583","properties":{"name":"iSP_22KPH_%TR_Permission Gate 1 from west dump_Jun","oid":"707947583","speedLimit":6.111111},"geometry":{"type":"Polygon","coordinates":[[[-121.038620439389,50.4619792610347],[-121.038847180846,50.4618007734894],[-121.037972767704,50.4613523078042],[-121.037735598112,50.4615435572988],[-121.037951770515,50.4614978120015],[-121.038658910748,50.4618473276427],[-121.038620439389,50.4619792610347]]]}},{"type":"Feature","id":"742345972","properties":{"name":"iSP_4KPH_%TR_CR01_PITSIDE_SLOW BUMP","oid":"742345972","speedLimit":1.1111112},"geometry":{"type":"Polygon","coordinates":[[[-121.033389602738,50.4648840424801],[-121.033696950854,50.4647455483677],[-121.033747118635,50.4647776329869],[-121.033465559013,50.4649195422688],[-121.033389602738,50.4648840424801]]]}},{"type":"Feature","id":"776427243","properties":{"name":"iSP_7KPH_%TR_CR1_PermissionBlocker_DO_NOT_DELETE","oid":"776427243","speedLimit":1.9444444},"geometry":{"type":"Polygon","coordinates":[[[-121.034090965221,50.4652140557058],[-121.034042488489,50.4652343669773],[-121.034021350379,50.4652757983763],[-121.034107030185,50.4652267277823],[-121.034090965221,50.4652140557058]]]}},{"type":"Feature","id":"794004438","properties":{"name":"iSP_11KPH_%TR_LOWER_FUEL_BAY","oid":"794004438","speedLimit":3.0555556},"geometry":{"type":"Polygon","coordinates":[[[-121.036768318208,50.460696774997],[-121.036770432019,50.4607266127941],[-121.036740697745,50.4606721498271],[-121.037116956099,50.4606004312666],[-121.037527035429,50.4605573821557],[-121.037534786069,50.4605827263087],[-121.0369361548,50.4606515689369],[-121.036768318208,50.460696774997]]]}},{"type":"Feature","id":"801543391","properties":{"name":"iSP_4KPH_%TR_CR1_PermissionBlocker_DO_NOT_DELETE_","oid":"801543391","speedLimit":1.1111112},"geometry":{"type":"Polygon","coordinates":[[[-121.033146232634,50.4645245509489],[-121.033145387109,50.4644751208633],[-121.033166947981,50.4644330603542],[-121.033098883268,50.4644606513292],[-121.033146232634,50.4645245509489]]]}},{"type":"Feature","id":"806473874","properties":{"name":"iSP_4KPH_%TR_Permission Blocker - DO NOT DELETE","oid":"806473874","speedLimit":1.1111112},"geometry":{"type":"Polygon","coordinates":[[[-121.022707952174,50.4815460255893],[-121.022674835802,50.4815436888943],[-121.022667226083,50.4815723583439],[-121.022689350637,50.4815734368185],[-121.022693437339,50.4815493508859],[-121.022707952174,50.4815460255893]]]}},{"type":"Feature","id":"824566967","properties":{"name":"iSP_4Cr_3KPH","oid":"824566967","speedLimit":0.8333333},"geometry":{"type":"Polygon","coordinates":[[[-121.023290941242,50.4810691600731],[-121.023270789578,50.4810691600731],[-121.023268112084,50.4811872530411],[-121.023293195974,50.481186534058],[-121.023290941242,50.4810691600731]]]}},{"type":"Feature","id":"826307302","properties":{"name":"iSP_4KPH_TR%_CRUSHER POCKETS","oid":"826307302","speedLimit":1.1111112},"geometry":{"type":"Polygon","coordinates":[[[-121.023286149937,50.481322331984],[-121.023325607742,50.481477991817],[-121.023530365566,50.4814385376214],[-121.023449336145,50.4811896796089],[-121.023040947864,50.481190398592],[-121.023046302852,50.4813610671964],[-121.02327121234,50.4813270952467],[-121.023286149937,50.481322331984]]]}},{"type":"Feature","id":"849417440","properties":{"name":"iSP_Permissions_35_KPH_June_19_NS","oid":"849417440","speedLimit":9.722222},"geometry":{"type":"Polygon","coordinates":[[[-121.032686126444,50.466035314109],[-121.033000802438,50.4660159914392],[-121.033207814994,50.4658151255461],[-121.033796722733,50.4653806800305],[-121.033717525281,50.4652518921895],[-121.033953708428,50.4654013507936],[-121.033417364122,50.4658096433002],[-121.033014894512,50.4661891764843],[-121.032686126444,50.466035314109]]]}},{"type":"Feature","id":"853029148","properties":{"name":"SP_30KPH_%TR_1635 Flats_AUG_1_NS","oid":"853029148","speedLimit":8.333333},"geometry":{"type":"Polygon","coordinates":[[[-121.01857756552,50.4569722629874],[-121.017396086103,50.4572910421028],[-121.016417391619,50.458458850342],[-121.018336591068,50.4588943743321],[-121.020680243761,50.4589884712404],[-121.020228451895,50.4572330740933],[-121.019410547966,50.4570979052776],[-121.018956219526,50.4570012919286],[-121.01857756552,50.4569722629874]]]}},{"type":"Feature","id":"883050998","properties":{"name":"iSP_22kph_%TR_4CR_Brake_Temp_CTRL_NOREMOVE","oid":"883050998","speedLimit":6.111111},"geometry":{"type":"Polygon","coordinates":[[[-121.031789588747,50.4745600266624],[-121.032178952729,50.474313415472],[-121.032480664017,50.4745757544169],[-121.032782375304,50.4748031328104],[-121.032960217268,50.474885546244],[-121.033169061792,50.4749356953126],[-121.033453017067,50.4749605002283],[-121.033656929367,50.4749229333632],[-121.033818142684,50.4748635273877],[-121.033909318398,50.4748114909886],[-121.033998662142,50.4747483103519],[-121.034049111764,50.4746591564522],[-121.034043334014,50.4745489722979],[-121.034047138873,50.4744846233138],[-121.033984992831,50.4743806403883],[-121.033866619416,50.4742605702169],[-121.03349966183,50.4739386455507],[-121.03305125206,50.4735609996971],[-121.032937951792,50.4734264599915],[-121.032812955103,50.4732219093102],[-121.032596078096,50.4728159534986],[-121.03224250798,50.4722100305226],[-121.032477563761,50.4721571852675],[-121.032420490864,50.472206705226],[-121.032893138999,50.4730498926125],[-121.033032368682,50.4733106138456],[-121.033240226762,50.4735479681291],[-121.033733308403,50.4739626416104],[-121.034088428648,50.4742721638188],[-121.034193837355,50.474395469414],[-121.034246541709,50.4744626943304],[-121.034253587746,50.4745938188664],[-121.034228644776,50.4746798272152],[-121.034174108453,50.4747926176832],[-121.034076591306,50.4748768285744],[-121.0339637138,50.4749386611177],[-121.033781080531,50.4750171201444],[-121.033521504543,50.4750653818825],[-121.033253473311,50.4750690666707],[-121.033061821115,50.4750272757802],[-121.032798017505,50.4749175409903],[-121.032647232322,50.4748361161584],[-121.032485596242,50.4747063397157],[-121.032134985461,50.4744140731007],[-121.031789588747,50.4745600266624]]]}},{"type":"Feature","id":"883053336","properties":{"name":"iSP_22kph_%TR_Brake_Temp_CTRL_NOREMOVE","oid":"883053336","speedLimit":6.111111},"geometry":{"type":"Polygon","coordinates":[[[-121.03245628473,50.4721463106487],[-121.032241380614,50.4722265671331],[-121.031478576692,50.4710094186811],[-121.030806525721,50.4699244732398],[-121.030651231074,50.4696613254389],[-121.030586407537,50.469458841834],[-121.030540044616,50.469257886068],[-121.030586407537,50.4689740675041],[-121.030712672513,50.4686254505916],[-121.030874449513,50.468376682452],[-121.031078925496,50.4680989752441],[-121.031678402289,50.4675377190909],[-121.032422463754,50.4668948583602],[-121.032778852286,50.4665573856852],[-121.033138059231,50.4662235977984],[-121.033475000702,50.465871925208],[-121.033770088714,50.466035314109],[-121.033578013757,50.4659945118202],[-121.032909767646,50.4666532800512],[-121.03254492387,50.4669924603109],[-121.032168806437,50.4673089027313],[-121.031764504857,50.46766956261],[-121.031372040618,50.4680356148617],[-121.031137125758,50.4682875285522],[-121.030998741599,50.468471048979],[-121.03089502394,50.4686556478803],[-121.030818503983,50.4688541770784],[-121.030757626227,50.4691924586093],[-121.030766363312,50.4694017725534],[-121.030863598617,50.4696314876418],[-121.031017624977,50.4699362465875],[-121.031320604551,50.4704049336713],[-121.03152071199,50.4707121191848],[-121.031740407412,50.4710840131739],[-121.032136253748,50.4717299295826],[-121.03237159137,50.4721462207758],[-121.03245628473,50.4721463106487]]]}},{"type":"Feature","id":"883059532","properties":{"name":"iSP_22kph_%TR_Brake_CTRL_NOREMOVE","oid":"883059532","speedLimit":6.111111},"geometry":{"type":"Polygon","coordinates":[[[-121.027251377494,50.4773229886988],[-121.027019140128,50.477210827341],[-121.02732366983,50.4769450732265],[-121.027705705934,50.4766334839418],[-121.02802249574,50.4763237819876],[-121.028179763276,50.4761698297394],[-121.028610698875,50.4756934135876],[-121.028896767961,50.4753268220986],[-121.029253438333,50.4748886917949],[-121.029462282858,50.4746578083589],[-121.029681132755,50.4745415128486],[-121.029791191847,50.4744892967037],[-121.02994197703,50.4745937289935],[-121.02977836806,50.4745431305605],[-121.029545707932,50.4747926176832],[-121.029241460071,50.4751741280707],[-121.029062490742,50.4754790667621],[-121.0288426544,50.4757758270211],[-121.028685527784,50.4759757941854],[-121.028398331332,50.4762716557156],[-121.028030950983,50.4765710222883],[-121.027233057799,50.4772204437395],[-121.027251377494,50.4773229886988]]]}},{"type":"Feature","id":"886231481","properties":{"name":"SP_15KPH_%TR_1200_SWITCHBACK_AUG_1_NS","oid":"886231481","speedLimit":4.1666665},"geometry":{"type":"Polygon","coordinates":[[[-121.036900642775,50.4452292025004],[-121.036031161859,50.4452769250012],[-121.036515083653,50.4453471157226],[-121.036609500543,50.445103739956],[-121.036763526903,50.4451329486429],[-121.036900642775,50.4452292025004]]]}},{"type":"Feature","id":"903864124","properties":{"name":"SP_15KPH_%TR_OLD_GARBAGEDUMP_AUG_1_NS","oid":"903864124","speedLimit":4.1666665},"geometry":{"type":"Polygon","coordinates":[[[-121.042577493543,50.4670033349297],[-121.04212457431,50.4673299329859],[-121.039924519842,50.4662999897488],[-121.040715648832,50.4661241983901],[-121.042256617036,50.4668274536981],[-121.042577493543,50.4670033349297]]]}},{"type":"Feature","id":"903865068","properties":{"name":"SP_20KPH_%TR_OLD_GARBAGE_DUMP_AUG_1_NS","oid":"903865068","speedLimit":5.5555553},"geometry":{"type":"Polygon","coordinates":[[[-121.042919085397,50.4672025831109],[-121.042591867458,50.4670079184468],[-121.042135002444,50.4673442227742],[-121.042529580494,50.4674846042172],[-121.043331137618,50.4678213579091],[-121.043748403905,50.4684766210977],[-121.043659764764,50.4685897710572],[-121.044332097577,50.4682713514334],[-121.044040532582,50.4682671274079],[-121.043758832039,50.4678712373591],[-121.043306194648,50.4674104590889],[-121.042919085397,50.4672025831109]]]}},{"type":"Feature","id":"908328496","properties":{"name":"SP_12KPH_%TR_9019_SOFT_GROUND_AUG_1_NS","oid":"908328496","speedLimit":3.3333333},"geometry":{"type":"Polygon","coordinates":[[[-121.038991765517,50.4644902195076],[-121.039316446884,50.4647038473501],[-121.039495557134,50.464879548836],[-121.039383525152,50.4652167518923],[-121.039343785506,50.466149542543],[-121.038096777949,50.4665992664486],[-121.036659668324,50.4659703360147],[-121.037872995826,50.4651411687978],[-121.038512212266,50.4648156492163],[-121.038991765517,50.4644902195076]]]}},{"type":"Feature","id":"908575258","properties":{"name":"iSP_15km_permissions ","oid":"908575258","speedLimit":4.1666665},"geometry":{"type":"Polygon","coordinates":[[[-121.041862179907,50.4595517944699],[-121.041451959656,50.4599143416792],[-121.041076264985,50.46020741715],[-121.040680841411,50.4604249993993],[-121.040339672319,50.4605857819867],[-121.039949180971,50.4607150191922],[-121.039509226445,50.4607811656339],[-121.039168198274,50.4607969832613],[-121.039113802871,50.4612130947087],[-121.039247254804,50.4609388026704],[-121.039796000135,50.4608474019486],[-121.040265548014,50.4607055825395],[-121.040932948601,50.4603934540175],[-121.041535948413,50.4599868690956],[-121.041936445133,50.4596526318444],[-121.042084693743,50.4595296857408],[-121.041936445133,50.4594918492571],[-121.041862179907,50.4595517944699]]]}},{"type":"Feature","id":"910445950","properties":{"name":"SP_30KPH_%TR_1635_FLATS_AUG_1_NS","oid":"910445950","speedLimit":8.333333},"geometry":{"type":"Polygon","coordinates":[[[-121.020213232456,50.4571654896855],[-121.019031893959,50.456962646589],[-121.018638161434,50.4569240012494],[-121.017441603499,50.4572330740933],[-121.018077719683,50.4544704715485],[-121.018759212343,50.4539005875986],[-121.018925921569,50.4535142240754],[-121.019546818314,50.4545188231595],[-121.020213232456,50.4571461670157],[-121.020198153937,50.4571461670157],[-121.020213232456,50.4571654896855]]]}},{"type":"Feature","id":"913788494","properties":{"name":"SP_20KPH_%TR_ROUGH GROUND_21SH_AUG_1_NS","oid":"913788494","speedLimit":5.5555553},"geometry":{"type":"Polygon","coordinates":[[[-121.0404822841,50.4520545087128],[-121.041012568814,50.4519658041774],[-121.041249315644,50.4530986518653],[-121.040662380795,50.4531577882222],[-121.040569795874,50.4525634588481],[-121.0404822841,50.4520545087128]]]}},{"type":"Feature","id":"913898324","properties":{"name":"SP_20KPH_%TR_SOFT_24SH_AUG 1_NS","oid":"913898324","speedLimit":5.5555553},"geometry":{"type":"Polygon","coordinates":[[[-121.038070003009,50.4505179520353],[-121.037876237003,50.450005137366],[-121.03776970093,50.4494799202388],[-121.03776970093,50.4492636860828],[-121.03688810083,50.4492451722689],[-121.03748870499,50.4493872612966],[-121.037498428521,50.449900075966],[-121.037876941607,50.4510837917055],[-121.038264332699,50.4510792980614],[-121.038070003009,50.4505179520353]]]}}]}