{"type":"FeatureCollection","features":[{"type":"Feature","id":"702602533","properties":{"name":"iSP_4KPH_%TR_CR01_SLOW BUMP","oid":"702602533","speedLimit":1.1111112},"geometry":{"type":"Polygon","coordinates":[[[-121.033353871177,50.4648103762751],[-121.033648356876,50.464692639003],[-121.033692036572,50.4647339818619],[-121.033363734335,50.4648714918056],[-121.033353871177,50.4648103762751]]]}},{"type":"Feature","id":"707947583","properties":{"name":"iSP_22KPH_%TR_Permission Gate 1 from west dump_Jun","oid":"707947583","speedLimit":6.111111},"geometry":{"type":"Polygon","coordinates":[[[-121.038623615255,50.4619801879564],[-121.038850467874,50.4618013351538],[-121.037976873936,50.4613528550106],[-121.037738749137,50.4615442904224],[-121.037955738599,50.4614984537745],[-121.038661658862,50.4618480705595],[-121.038623615255,50.4619801879564]]]}},{"type":"Feature","id":"742345972","properties":{"name":"iSP_4KPH_%TR_CR01_PITSIDE_SLOW BUMP","oid":"742345972","speedLimit":1.1111112},"geometry":{"type":"Polygon","coordinates":[[[-121.033393323807,50.4648849731726],[-121.033700490707,50.4647465644711],[-121.033751215517,50.464778919752],[-121.033469411021,50.4649209234847],[-121.033393323807,50.4648849731726]]]}},{"type":"Feature","id":"776427243","properties":{"name":"iSP_4KPH_%TR_CR1_PermissionBlocker_DO_NOT_DELETE","oid":"776427243","speedLimit":1.1111112},"geometry":{"type":"Polygon","coordinates":[[[-121.033921707237,50.4651554992711],[-121.034051337305,50.4652444762935],[-121.03407669971,50.4652291974108],[-121.034162650081,50.4651806644895],[-121.033921707237,50.4651554992711]]]}},{"type":"Feature","id":"794004438","properties":{"name":"iSP_11KPH_%TR_LOWER_FUEL_BAY","oid":"794004438","speedLimit":3.0555556},"geometry":{"type":"Polygon","coordinates":[[[-121.036772159715,50.4606976605729],[-121.036773568738,50.4607273195804],[-121.036743979265,50.4606724953545],[-121.037120188268,50.4606014934881],[-121.03753021381,50.4605583531136],[-121.037538667945,50.4605835183321],[-121.03693983339,50.4606527226828],[-121.036772159715,50.4606976605729]]]}},{"type":"Feature","id":"801543391","properties":{"name":"iSP_4KPH_%TR_CR1_PermissionBlocker_DO_NOT_DELETE_","oid":"801543391","speedLimit":1.1111112},"geometry":{"type":"Polygon","coordinates":[[[-121.03315097194,50.4645254700518],[-121.033149562917,50.4644760383727],[-121.033170698255,50.464433796756],[-121.033103065176,50.4644616582479],[-121.03315097194,50.4645254700518]]]}},{"type":"Feature","id":"806473874","properties":{"name":"iSP_4KPH_%TR_Permission Blocker - DO NOT DELETE","oid":"806473874","speedLimit":1.1111112},"geometry":{"type":"Polygon","coordinates":[[[-121.022712933404,50.4815479428225],[-121.022680525887,50.4815452465491],[-121.022672071752,50.4815740067988],[-121.022694616111,50.4815749055566],[-121.022698843179,50.4815506390959],[-121.022712933404,50.4815479428225]]]}},{"type":"Feature","id":"824566967","properties":{"name":"iSP_4Cr_3KPH","oid":"824566967","speedLimit":0.8333333},"geometry":{"type":"Polygon","coordinates":[[[-121.023296268711,50.4810707024296],[-121.023276542396,50.4810707024296],[-121.023273724351,50.4811884397017],[-121.023299086756,50.4811884397017],[-121.023296268711,50.4810707024296]]]}},{"type":"Feature","id":"826307302","properties":{"name":"iSP_4KPH_TR%_CRUSHER POCKETS","oid":"826307302","speedLimit":1.1111112},"geometry":{"type":"Polygon","coordinates":[[[-121.023292041643,50.4813241521298],[-121.023331494273,50.4814796372296],[-121.023535802532,50.4814400918863],[-121.023454079228,50.4811911359751],[-121.023046871732,50.4811920347329],[-121.023051098799,50.4813627987153],[-121.023276542396,50.4813286459188],[-121.023292041643,50.4813241521298]]]}},{"type":"Feature","id":"849417440","properties":{"name":"iSP_Permissions_35_KPH_June_19_NS","oid":"849417440","speedLimit":9.722222},"geometry":{"type":"Polygon","coordinates":[[[-121.032690221589,50.4660362819171],[-121.033004433602,50.4660174080032],[-121.033211559907,50.4658160862556],[-121.033800531304,50.4653819862372],[-121.033721626045,50.4652525651137],[-121.033956932799,50.4654026576666],[-121.033421504256,50.4658106937087],[-121.033018523827,50.4661899695012],[-121.032690221589,50.4660362819171]]]}},{"type":"Feature","id":"853029148","properties":{"name":"SP_25KPH_%TR_1635 Flats_July_24_NS","oid":"853029148","speedLimit":6.9444447},"geometry":{"type":"Polygon","coordinates":[[[-121.018583088513,50.4569732082413],[-121.017402327674,50.4572913685032],[-121.01642305705,50.4584597536458],[-121.018342145669,50.458894752422],[-121.020685350054,50.4589891219912],[-121.02023446286,50.4572338480038],[-121.019415820799,50.4570981355758],[-121.01896211556,50.4570019684909],[-121.018583088513,50.4569732082413]]]}},{"type":"Feature","id":"883050998","properties":{"name":"iSP_22kph_%TR_4CR_Brake_Temp_CTRL_NOREMOVE","oid":"883050998","speedLimit":6.111111},"geometry":{"type":"Polygon","coordinates":[[[-121.031794083291,50.4745609996694],[-121.032182973496,50.4743147400317],[-121.032484504307,50.4745771773099],[-121.032786035117,50.4748045630338],[-121.03296357195,50.4748863499938],[-121.0331735163,50.4749366804307],[-121.033456729818,50.4749618456492],[-121.033661038078,50.4749240978215],[-121.033821666641,50.4748647798065],[-121.033913253102,50.474812651854],[-121.034002021518,50.4747497388079],[-121.034052746328,50.4746607617855],[-121.034047110238,50.4745502145758],[-121.034051337305,50.4744855040141],[-121.033989340316,50.4743821468668],[-121.033870982428,50.4742617133214],[-121.03350322756,50.4739399580282],[-121.033055158411,50.4735624797514],[-121.032942436613,50.4734276660811],[-121.032817033612,50.4732227493022],[-121.03260004415,50.4728174095335],[-121.032246379507,50.4722107480171],[-121.032481686262,50.4721586200646],[-121.032425325362,50.4722080517437],[-121.032897347893,50.473051086562],[-121.033036841119,50.4733117263246],[-121.033243967424,50.4735489983843],[-121.033737125292,50.4739642244889],[-121.034092198957,50.4742733971728],[-121.034197875643,50.4743965269917],[-121.034250009475,50.4744639338268],[-121.034257054587,50.4745951524659],[-121.034233101205,50.4746814332149],[-121.034178149328,50.4747937779402],[-121.034080926777,50.4748782611736],[-121.033968204979,50.4749402754619],[-121.033785032056,50.4750184673907],[-121.03352577192,50.475067000312],[-121.033258057648,50.4750705953432],[-121.033066430591,50.4750283537265],[-121.032801534365,50.4749187052747],[-121.032650768959,50.4748369183147],[-121.032490140397,50.4747074971912],[-121.032139293799,50.4744154009055],[-121.031794083291,50.4745609996694]]]}},{"type":"Feature","id":"883053336","properties":{"name":"iSP_22kph_%TR_Brake_Temp_CTRL_NOREMOVE","oid":"883053336","speedLimit":6.111111},"geometry":{"type":"Polygon","coordinates":[[[-121.032460550924,50.472147834971],[-121.032244970485,50.4722278244153],[-121.031482689323,50.4710109063514],[-121.0308105856,50.4699252069265],[-121.030655593127,50.4696627696483],[-121.030590778093,50.469459650385],[-121.030544280351,50.4692592273952],[-121.030590778093,50.4689752199297],[-121.030717590116,50.4686265019026],[-121.030878218679,50.4683775459914],[-121.031082526938,50.4680998298306],[-121.031682770515,50.4675390049621],[-121.032426734385,50.4668954943758],[-121.032783217072,50.4665584602],[-121.033142517805,50.4662250210555],[-121.033479274178,50.4658727079971],[-121.033773759876,50.4660362819171],[-121.033582132819,50.465995837816],[-121.032914256163,50.4666546272849],[-121.032549319341,50.4669934589762],[-121.032173110338,50.4673098217226],[-121.031768720886,50.4676702236012],[-121.031375603614,50.4680369167844],[-121.031141705883,50.468288568969],[-121.03100362168,50.4684719155606],[-121.030899354016,50.4686570596678],[-121.030823266802,50.4688556851421],[-121.030762678835,50.4691936180756],[-121.03077113297,50.4694030286435],[-121.030868355521,50.469632211883],[-121.031021938972,50.4699368907779],[-121.031324878805,50.4704060423506],[-121.031524959997,50.4707134175189],[-121.031744767504,50.4710855032489],[-121.032140702821,50.4717308113508],[-121.032376009576,50.472147834971],[-121.032460550924,50.472147834971]]]}},{"type":"Feature","id":"883059532","properties":{"name":"iSP_22kph_%TR_Brake_CTRL_NOREMOVE","oid":"883059532","speedLimit":6.111111},"geometry":{"type":"Polygon","coordinates":[[[-121.027255621881,50.4773246799107],[-121.027024542194,50.4772123351855],[-121.02732889105,50.4769463028761],[-121.027710736142,50.4766344339188],[-121.0280277662,50.4763252612348],[-121.028184167696,50.4761715736507],[-121.028615328575,50.4756943332578],[-121.028901360138,50.4753285388324],[-121.029257842826,50.474889945025],[-121.029466378153,50.4746589642699],[-121.02968618566,50.4745430245134],[-121.029796089414,50.4744908965609],[-121.029946854819,50.4745951524659],[-121.029783408211,50.474544822029],[-121.029550919502,50.4747937779402],[-121.029246570646,50.475175750006],[-121.029067624791,50.4754804289009],[-121.028847817284,50.4757770189756],[-121.028690006766,50.4759774419655],[-121.02840256618,50.4762731332823],[-121.028036220335,50.4765724196304],[-121.027237304589,50.4772213227635],[-121.027255621881,50.4773246799107]]]}},{"type":"Feature","id":"886231481","properties":{"name":"SP_15KPH_%TR_1200_SWITCHBACK_July_24_NS","oid":"886231481","speedLimit":4.1666665},"geometry":{"type":"Polygon","coordinates":[[[-121.036904607828,50.445229140042],[-121.036963786772,50.4446826952983],[-121.036279001847,50.4447474058601],[-121.036035240958,50.4452767742055],[-121.036518535669,50.4453477760718],[-121.036612940175,50.4451042127075],[-121.036766523625,50.4451329729572],[-121.036904607828,50.445229140042]]]}},{"type":"Feature","id":"899288147","properties":{"name":"SP_30KPH_%TR_1185_BENCH_JULY_24_NS","oid":"899288147","speedLimit":8.333333},"geometry":{"type":"Polygon","coordinates":[[[-121.039826920453,50.4507690831338],[-121.039538070845,50.4496339520298],[-121.039835374588,50.4495917104131],[-121.040146768556,50.450545292441],[-121.039676155048,50.4517460328646],[-121.039573296407,50.4527121975018],[-121.039404213709,50.4528074658288],[-121.039425349046,50.4516660434202],[-121.039826920453,50.4507690831338]]]}},{"type":"Feature","id":"902935346","properties":{"name":"SP_20KPH_%TRX_NEW LANES_July24_NS","oid":"902935346","speedLimit":5.5555553},"geometry":{"type":"Polygon","coordinates":[[[-121.039147771617,50.4482813215377],[-121.039116773123,50.4482930053891],[-121.039071684403,50.4483262594278],[-121.039240767101,50.4487280041653],[-121.039505663327,50.44926995512],[-121.039624021216,50.4495854191085],[-121.039825511431,50.4495440762496],[-121.039704335497,50.4493157917679],[-121.039222449809,50.4482992966938],[-121.039147771617,50.4482813215377]]]}},{"type":"Feature","id":"903864124","properties":{"name":"SP_15KPH_%TR_OLD_GARBAGEDUMP_July_24_NS","oid":"903864124","speedLimit":4.1666665},"geometry":{"type":"Polygon","coordinates":[[[-121.04258015038,50.4670042440699],[-121.042127854164,50.467330493152],[-121.039928370072,50.4663014154687],[-121.040718831683,50.4661252589395],[-121.042258893255,50.4668280875407],[-121.04258015038,50.4670042440699]]]}},{"type":"Feature","id":"908328496","properties":{"name":"SP_20KPH_%TR_9019_SOFT_GROUND_July 24_NS","oid":"908328496","speedLimit":5.5555553},"geometry":{"type":"Polygon","coordinates":[[[-121.03899559719,50.4644913172554],[-121.03931967236,50.4647052216122],[-121.039498618215,50.4648804793836],[-121.039387305439,50.4652175135594],[-121.0382065446,50.4655626365554],[-121.03787683334,50.465142017904],[-121.038515120524,50.4648166675797],[-121.03899559719,50.4644913172554]]]}},{"type":"Feature","id":"908575258","properties":{"name":"iSP_15km_permissions ","oid":"908575258","speedLimit":4.1666665},"geometry":{"type":"Polygon","coordinates":[[[-121.041865775982,50.4595526431331],[-121.041454341418,50.4599148425274],[-121.041079541438,50.4602078375708],[-121.040683606121,50.4604253369589],[-121.040342622681,50.4605862146055],[-121.039952323454,50.460715635729],[-121.03951270844,50.4607821438063],[-121.039171725,50.460797422689],[-121.039116773123,50.4612135475513],[-121.039250630258,50.4609394264217],[-121.039798740003,50.4608477531259],[-121.040269353512,50.4607066481509],[-121.040935821145,50.4603938804358],[-121.041538882767,50.4599876419093],[-121.041939045151,50.459653304007],[-121.042086992512,50.4595301741881],[-121.041939045151,50.4594924263604],[-121.041865775982,50.4595526431331]]]}},{"type":"Feature","id":"910445950","properties":{"name":"SP_30KPH_%TR_1635_FLATS_JULY24_NS","oid":"910445950","speedLimit":8.333333},"geometry":{"type":"Polygon","coordinates":[[[-121.020218963613,50.4571664411687],[-121.019038202774,50.4569633219054],[-121.01864367648,50.45692467532],[-121.017447416394,50.4572338480038],[-121.018084294555,50.4544710665204],[-121.018764852413,50.4539012540739],[-121.018931117066,50.453514788219],[-121.01955249598,50.4545195994417],[-121.020218963613,50.457146668497],[-121.020203464366,50.457146668497],[-121.020218963613,50.4571664411687]]]}}]}