{"type":"FeatureCollection","features":[{"type":"Feature","id":"702602533","properties":{"name":"iSP_4KPH_%TR_CR01_SLOW BUMP","oid":"702602533","speedLimit":1.1111112},"geometry":{"type":"Polygon","coordinates":[[[-121.033359123149,50.4648077315761],[-121.033653861313,50.4646907152987],[-121.033697254886,50.4647314283353],[-121.033369407989,50.4648695650622],[-121.033359123149,50.4648077315761]]]}},{"type":"Feature","id":"707947583","properties":{"name":"iSP_25KPH_%TR_Permission Gate 1 from west dump_Jun","oid":"707947583","speedLimit":6.9444447},"geometry":{"type":"Polygon","coordinates":[[[-121.038628624501,50.4619778609711],[-121.038855313654,50.4617993707046],[-121.038140305917,50.4614081480812],[-121.037992655058,50.4616708505228],[-121.038192152783,50.4615667761377],[-121.038667086986,50.4618459255676],[-121.038628624501,50.4619778609711]]]}},{"type":"Feature","id":"715433879","properties":{"name":"SP_35KPH_70%TR_Gate_1_INT-1320_1_Sept5_DS","oid":"715433879","speedLimit":9.722222},"geometry":{"type":"Polygon","coordinates":[[[-121.043618744505,50.4514240173125],[-121.04305674138,50.4502924105927],[-121.042828361569,50.4494409419195],[-121.042731289583,50.4489824933548],[-121.042602376858,50.4486921995176],[-121.042296085859,50.4487622115607],[-121.042533341628,50.4488029245973],[-121.04268789601,50.4493154774623],[-121.0428758409,50.4500806668526],[-121.043109433576,50.4506633216349],[-121.043251730682,50.450933303891],[-121.043476447399,50.4513982234019],[-121.043920808857,50.452574677374],[-121.043746952789,50.452618356261],[-121.044031547001,50.4525679368051],[-121.043761041611,50.4518554137271],[-121.043618744505,50.4514240173125]]]}},{"type":"Feature","id":"739334284","properties":{"name":"SP_25KPH_70%TR_1590 - GATE1(3)_Wet/Mud_SEPT_5_DS","oid":"739334284","speedLimit":6.9444447},"geometry":{"type":"Polygon","coordinates":[[[-121.010380958264,50.4591779184923],[-121.010276700978,50.4589933167766],[-121.010266557026,50.4589044311404],[-121.010253736197,50.4588076365699],[-121.010251059321,50.4586961026219],[-121.01026148505,50.4586375944831],[-121.010285999601,50.4585106021636],[-121.010409981238,50.4583308536576],[-121.010550869462,50.4582087145477],[-121.010809822017,50.4580083848377],[-121.011033411629,50.4578413086013],[-121.011315188077,50.4579820516816],[-121.011117662787,50.4579185105847],[-121.010699506538,50.4582185108413],[-121.010451402376,50.4584949640436],[-121.010422379401,50.4586395717167],[-121.010405613703,50.4588091644322],[-121.010432100689,50.4589503568837],[-121.010515647406,50.4590995481437],[-121.010646391678,50.4592362468825],[-121.011029184982,50.4594831314556],[-121.012117969177,50.4600643482499],[-121.012383966144,50.460200777366],[-121.012891586414,50.4604901724608],[-121.013039237273,50.4604392137593],[-121.012811561903,50.4605833720611],[-121.011782514316,50.4600255225726],[-121.010774599961,50.4594808845993],[-121.010380958264,50.4591779184923]]]}},{"type":"Feature","id":"739337561","properties":{"name":"SP_35KPH_70%TR_1590 GATE3__DUSTY_SEP_5_DS","oid":"739337561","speedLimit":9.722222},"geometry":{"type":"Polygon","coordinates":[[[-121.022230221451,50.4632580298312],[-121.020353590308,50.4635528173811],[-121.019834558091,50.4635565920997],[-121.019814551963,50.4634278921694],[-121.019722411064,50.4636471853468],[-121.020073222742,50.4636626437183],[-121.020670870588,50.4636217509332],[-121.020968003852,50.4635743872018],[-121.021329382147,50.4635183955422],[-121.021710907457,50.4634408340618],[-121.022609069885,50.4632771730471],[-121.025610693496,50.4627257046305],[-121.028274748923,50.4621721691061],[-121.03059771396,50.4617134509187],[-121.032603398716,50.4614636004953],[-121.034193744988,50.4612675847494],[-121.034970320878,50.4611448165198],[-121.034855496976,50.4608346604726],[-121.034848734341,50.461054313147],[-121.033565665285,50.4612373870004],[-121.030601095277,50.4616186335817],[-121.029892004846,50.4617478727576],[-121.028990601989,50.4619008387362],[-121.027616378252,50.4621894249627],[-121.024121645857,50.462910935466],[-121.022230221451,50.4632580298312]]]}},{"type":"Feature","id":"742345972","properties":{"name":"iSP_4KPH_%TR_CR01_PITSIDE_SLOW BUMP","oid":"742345972","speedLimit":1.1111112},"geometry":{"type":"Polygon","coordinates":[[[-121.033398994516,50.4648826867031],[-121.033706271733,50.4647441904792],[-121.03375642794,50.4647762755875],[-121.033474933269,50.4649181870331],[-121.033398994516,50.4648826867031]]]}},{"type":"Feature","id":"776427243","properties":{"name":"iSP_7KPH_%TR_CR1_PermissionBlocker_DO_NOT_DELETE","oid":"776427243","speedLimit":1.9444444},"geometry":{"type":"Polygon","coordinates":[[[-121.034100195207,50.4652127049602],[-121.034051729658,50.4652330165414],[-121.034030596424,50.4652744485721],[-121.034116256464,50.4652253772299],[-121.034100195207,50.4652127049602]]]}},{"type":"Feature","id":"794004438","properties":{"name":"iSP_11KPH_%TR_LOWER_FUEL_BAY","oid":"794004438","speedLimit":3.0555556},"geometry":{"type":"Polygon","coordinates":[[[-121.036776930574,50.4606953553804],[-121.036779043897,50.4607251936324],[-121.036749316482,50.4606707298351],[-121.03712548804,50.4605990101812],[-121.037535472772,50.460555960414],[-121.037543221624,50.4605813049533],[-121.036944728448,50.4606501486311],[-121.036776930574,50.4606953553804]]]}},{"type":"Feature","id":"801543391","properties":{"name":"iSP_4KPH_%TR_CR1_PermissionBlocker_DO_NOT_DELETE_","oid":"801543391","speedLimit":1.1111112},"geometry":{"type":"Polygon","coordinates":[[[-121.033155680554,50.464523189691],[-121.033154835224,50.4644737588519],[-121.033176391122,50.4644316977014],[-121.03310834211,50.4644592890971],[-121.033155680554,50.464523189691]]]}},{"type":"Feature","id":"806473874","properties":{"name":"iSP_4KPH_%TR_Permission Blocker - DO NOT DELETE","oid":"806473874","speedLimit":1.1111112},"geometry":{"type":"Polygon","coordinates":[[[-121.022719808029,50.4815449238428],[-121.022686699296,50.4815425871122],[-121.022679091332,50.4815712569989],[-121.022701210784,50.48157233549],[-121.022705296542,50.4815482491902],[-121.022719808029,50.4815449238428]]]}},{"type":"Feature","id":"824566967","properties":{"name":"iSP_4Cr_3KPH","oid":"824566967","speedLimit":0.8333333},"geometry":{"type":"Polygon","coordinates":[[[-121.023302662612,50.4810680510562],[-121.023282515596,50.4810680510562],[-121.023279838719,50.4811861458247],[-121.023304916823,50.4811854268307],[-121.023302662612,50.4810680510562]]]}},{"type":"Feature","id":"826307302","properties":{"name":"iSP_4KPH_TR%_CRUSHER POCKETS","oid":"826307302","speedLimit":1.1111112},"geometry":{"type":"Polygon","coordinates":[[[-121.023297872412,50.481321226827],[-121.023337321115,50.4814768890333],[-121.023542031704,50.4814374342362],[-121.023461020975,50.4811885724296],[-121.023052726902,50.4811892914236],[-121.023058080655,50.4813599626301],[-121.02328293826,50.4813259901624],[-121.023297872412,50.481321226827]]]}},{"type":"Feature","id":"827282342","properties":{"name":"SP_35KPH_70%TR_1230 to 1215 ramp2_Sept_5_DS","oid":"827282342","speedLimit":9.722222},"geometry":{"type":"Polygon","coordinates":[[[-121.036955013289,50.4451703870385],[-121.036722406831,50.4452458814111],[-121.036893163359,50.4451111599058],[-121.036960226153,50.4450453719526],[-121.038447442245,50.4463473802561],[-121.039044103874,50.4467294357058],[-121.038818682715,50.4468458228634],[-121.038851791448,50.4467844387486],[-121.038763877196,50.4467103823641],[-121.038373616816,50.4464324012995],[-121.037847258411,50.4460421672929],[-121.036955013289,50.4451703870385]]]}},{"type":"Feature","id":"834847043","properties":{"name":"SP_35KPH_70%TR_Gate_1_INT-1320_Sept5_DS","oid":"834847043","speedLimit":9.722222},"geometry":{"type":"Polygon","coordinates":[[[-121.0437539972,50.4526228499736],[-121.04393489768,50.45262509683],[-121.044156937521,50.4532810890028],[-121.044372214727,50.453882168007],[-121.044391516414,50.4541499932811],[-121.044374046274,50.4542832767983],[-121.044189623589,50.4543000832836],[-121.044487883959,50.4543129353018],[-121.044521556244,50.4540659608545],[-121.044496055476,50.4537731505381],[-121.044135099846,50.4528357620791],[-121.04403323766,50.4525791710867],[-121.0437539972,50.4526228499736]]]}},{"type":"Feature","id":"834884540","properties":{"name":"SP_35KPH_70%TR_Leaving Brute into pit_Sept_ 05_DS","oid":"834884540","speedLimit":9.722222},"geometry":{"type":"Polygon","coordinates":[[[-121.041362983152,50.4593942458194],[-121.041479356825,50.4595340901571],[-121.040202627739,50.4604141388427],[-121.039814480682,50.4605295373836],[-121.039600189694,50.4605586566416],[-121.03918400588,50.4605832821869],[-121.03865173017,50.4605832821869],[-121.038386578532,50.4605945164685],[-121.038319797514,50.4604365175317],[-121.038321629061,50.4607020959494],[-121.038542823573,50.4606908616678],[-121.039006486718,50.4606639892661],[-121.039535240222,50.4606449359245],[-121.039921555732,50.4605866974085],[-121.04020093708,50.4605004181256],[-121.040869874368,50.4601763315692],[-121.04167800922,50.4594991290726],[-121.041362983152,50.4593942458194]]]}},{"type":"Feature","id":"834888244","properties":{"name":"SP_35KPH_70%TR_Gate_1_INT-1320_2_Sept5_DS","oid":"834888244","speedLimit":9.722222},"geometry":{"type":"Polygon","coordinates":[[[-121.044193004906,50.4543057453616],[-121.044356435246,50.4543393583322],[-121.044259785924,50.4547157517039],[-121.044180747631,50.4554160518834],[-121.044011963538,50.4560736617928],[-121.043874174855,50.4566874130667],[-121.043790909915,50.4569520927419],[-121.043618744505,50.4572826502445],[-121.043174383047,50.4577834295824],[-121.042974603545,50.4578697987395],[-121.042744814852,50.4578738430809],[-121.043084778137,50.4580097329515],[-121.043386983377,50.4577272581742],[-121.04359535706,50.4575024826674],[-121.043760759835,50.457267910867],[-121.043869948209,50.4570619190791],[-121.0439753326,50.4567985875177],[-121.044042677171,50.4565661726994],[-121.044125378559,50.456190947693],[-121.044241752232,50.4557237813258],[-121.04436164811,50.4549835769779],[-121.044465341843,50.4543785435065],[-121.044487883959,50.4543129353018],[-121.044193004906,50.4543057453616]]]}},{"type":"Feature","id":"835348611","properties":{"name":"SP_25KPH_70%TR_switchback to 1 gate_SEP_4_DS","oid":"835348611","speedLimit":6.9444447},"geometry":{"type":"Polygon","coordinates":[[[-121.039920428627,50.4634032666241],[-121.039548201939,50.4634577304214],[-121.039801378077,50.4633740574918],[-121.039545102398,50.4629226191189],[-121.039365188136,50.4625821754484],[-121.039179074792,50.4622610547424],[-121.038986903255,50.4620178550137],[-121.038745984392,50.4618368482681],[-121.038562970589,50.461729897907],[-121.038076765328,50.4614746550284],[-121.038039429949,50.4615168060531],[-121.037958841884,50.4615572494669],[-121.038033653531,50.4613737262422],[-121.038145096117,50.4613854997694],[-121.038483650519,50.4615702812336],[-121.038867430041,50.461790652902],[-121.039054952267,50.4619260934013],[-121.03923951584,50.4621303775785],[-121.039453665941,50.4625354408368],[-121.039581733336,50.4627533859004],[-121.039758688945,50.46306084572],[-121.039862382678,50.4632592880707],[-121.039944379625,50.4633237279101],[-121.039920428627,50.4634032666241]]]}},{"type":"Feature","id":"837655370","properties":{"name":"SP_35KPH_70%TR_1620 To 1590_MT_DUSTY _SEP_5_DS","oid":"837655370","speedLimit":9.722222},"geometry":{"type":"Polygon","coordinates":[[[-121.011040596928,50.4578337591641],[-121.011900719535,50.4572129078242],[-121.012088523538,50.4570982282773],[-121.013394980039,50.4562082934239],[-121.013881467076,50.4558978677539],[-121.014188462516,50.455686573385],[-121.014545755052,50.4554508332194],[-121.014987580522,50.4550853146323],[-121.015283304904,50.454734984794],[-121.015474490224,50.4542804906965],[-121.015468432031,50.4537723416698],[-121.015788530075,50.4537694656938],[-121.015630735265,50.4538055951435],[-121.0156231273,50.4542267458931],[-121.015543102789,50.4545540679227],[-121.015370373827,50.4548724025269],[-121.015168903666,50.4551140743933],[-121.014866839314,50.4553490955649],[-121.013366661506,50.456361439151],[-121.011177962947,50.4578685405],[-121.01132124627,50.4579767491006],[-121.011040596928,50.4578337591641]]]}},{"type":"Feature","id":"849309937","properties":{"name":"SP_35KPH_70%TR_Gate_1_INT-1320_3_AUG 20_DS","oid":"849309937","speedLimit":9.722222},"geometry":{"type":"Polygon","coordinates":[[[-121.042807369224,50.4579145561175],[-121.04294248103,50.4579906796099],[-121.042647461089,50.4582966115672],[-121.042333139462,50.4586326513992],[-121.042029243563,50.4589687811055],[-121.041595448721,50.459428218287],[-121.041432018381,50.4593946053164],[-121.04168674429,50.4594752225213],[-121.042241703004,50.4588881639006],[-121.042803847018,50.4583055091182],[-121.043077733725,50.4580142266642],[-121.042807369224,50.4579145561175]]]}},{"type":"Feature","id":"855316169","properties":{"name":"SP_30KPH_TR%_CRUSHER YARD EMPTY_SEP_5_DS","oid":"855316169","speedLimit":8.333333},"geometry":{"type":"Polygon","coordinates":[[[-121.037912348771,50.4622347215862],[-121.037770896994,50.4621193230453],[-121.037596336484,50.4622031757234],[-121.0375458985,50.4622374178138],[-121.037609016424,50.4622263632807],[-121.037905445248,50.4624611148296],[-121.037719754568,50.4625136912676],[-121.038122976665,50.4625062317046],[-121.038121286007,50.4624940088062],[-121.037912348771,50.4622347215862]]]}},{"type":"Feature","id":"859339791","properties":{"name":"SP_35KPH_70TR%_1230_to_1215_Ramp1_Sept_5_DS","oid":"859339791","speedLimit":9.722222},"geometry":{"type":"Polygon","coordinates":[[[-121.040703767152,50.4473790468066],[-121.040681788589,50.4475608624205],[-121.040630646164,50.447434948592],[-121.040162756372,50.4474147268851],[-121.039901972269,50.4473929773158],[-121.039487760891,50.4472142174266],[-121.039190486738,50.4470090345069],[-121.038966333574,50.4468504963246],[-121.03884446526,50.4468598432469],[-121.039046639862,50.4467556789876],[-121.03945606104,50.4470183814292],[-121.039719240243,50.4471737740127],[-121.040160361272,50.4472748825474],[-121.040552594087,50.4473090347635],[-121.040689114776,50.4473277286081],[-121.040703767152,50.4473790468066]]]}},{"type":"Feature","id":"859384545","properties":{"name":"SP_35KPH_MAINT_CREW_L1590_DUST_SEP_4_DS","oid":"859384545","speedLimit":9.722222},"geometry":{"type":"Polygon","coordinates":[[[-121.013972903533,50.4518292603194],[-121.013916970908,50.4511529565654],[-121.01383750995,50.4497616132543],[-121.012655880416,50.4498957056398],[-121.013141663012,50.4500386955764],[-121.013401038232,50.4517967258398],[-121.013224505288,50.452305414112],[-121.012544719607,50.45246386242],[-121.01376058498,50.4524430115933],[-121.013972903533,50.4518292603194]]]}},{"type":"Feature","id":"867844514","properties":{"name":"SP_35KPH_70%TR_Garbage_Dump_DUSTY_SEP_5_DS","oid":"867844514","speedLimit":9.722222},"geometry":{"type":"Polygon","coordinates":[[[-121.013062342942,50.4604499087954],[-121.012828186714,50.4606041330136],[-121.015633975694,50.4626928106539],[-121.015952946633,50.4628692338126],[-121.016947194829,50.4631394856914],[-121.017619936098,50.4632650400229],[-121.019732977681,50.4636497018259],[-121.019860058859,50.4634208819777],[-121.019722974617,50.4635384375006],[-121.016797571535,50.4629932602818],[-121.015960413709,50.4627372984092],[-121.015392211501,50.4623813064929],[-121.01301331384,50.4605762719952],[-121.013062342942,50.4604499087954]]]}},{"type":"Feature","id":"872232587","properties":{"name":"SP_35KPH_70%TR_Gate_1_INT-1320_1__Sept5_DS","oid":"872232587","speedLimit":9.722222},"geometry":{"type":"Polygon","coordinates":[[[-121.042511222177,50.4485416601438],[-121.042152098094,50.4481518755084],[-121.041861023023,50.4478703893479],[-121.041615877514,50.4476768900812],[-121.041315644708,50.4475048707609],[-121.041101212832,50.4474168838671],[-121.040962015266,50.4473765303275],[-121.04085381311,50.4473529832732],[-121.040731803908,50.4473529832732],[-121.040704612481,50.4475488192706],[-121.040832820765,50.4474397119274],[-121.041201947912,50.4475418090788],[-121.041507534469,50.447679676183],[-121.042193801008,50.44840675889],[-121.042294536088,50.4484934875441],[-121.042067987824,50.4485994492885],[-121.042511222177,50.4485416601438]]]}},{"type":"Feature","id":"878230085","properties":{"name":"SP_35KPH_TR70%_PUNCH_OUT_L1590_DMP_Sep 5_DS","oid":"878230085","speedLimit":9.722222},"geometry":{"type":"Polygon","coordinates":[[[-121.013762557415,50.4533974761605],[-121.013625050508,50.4529076614815],[-121.013785381307,50.4525128438879],[-121.013097987663,50.452461705438],[-121.013065583371,50.4528629041035],[-121.013205062713,50.4533673682857],[-121.013610398133,50.4545819289411],[-121.01332904435,50.4549545475942],[-121.013044309249,50.4549499640072],[-121.013783408872,50.4551888497718],[-121.014083500789,50.4546989452185],[-121.013991782555,50.4541359728976],[-121.013762557415,50.4533974761605]]]}},{"type":"Feature","id":"883050998","properties":{"name":"iSP_22kph_%TR_4CR_Brake_Temp_CTRL_NOREMOVE","oid":"883050998","speedLimit":6.111111},"geometry":{"type":"Polygon","coordinates":[[[-121.031799349622,50.4745588184066],[-121.032188623784,50.4743122034563],[-121.032490265472,50.4745745464009],[-121.032791907159,50.474801928261],[-121.032969708098,50.4748843429511],[-121.033178504446,50.4749344927843],[-121.033462394217,50.4749592980781],[-121.033666259477,50.4749217306403],[-121.033827435605,50.4748623237591],[-121.033918590286,50.4748102865666],[-121.03400791342,50.4747471049667],[-121.034058351404,50.4746579497077],[-121.034052574987,50.4745477638735],[-121.034056378969,50.4744834139083],[-121.033994247263,50.4743794293976],[-121.033875901154,50.4742593573955],[-121.033509028219,50.4739374278212],[-121.033060721891,50.47355977621],[-121.032947447759,50.4734252344532],[-121.032822479904,50.4732206806533],[-121.032605652927,50.4728147186524],[-121.032252164373,50.4722087864385],[-121.032487165931,50.4721559403777],[-121.0324301062,50.4722054610911],[-121.032902645303,50.473048661333],[-121.033041842869,50.4733093865411],[-121.033249652999,50.4735467444433],[-121.033742620895,50.4739614242468],[-121.034097659219,50.4742709511742],[-121.03420304361,50.4743942586493],[-121.034255735806,50.4744614845906],[-121.034262780217,50.4745926111258],[-121.034237843002,50.4746786207859],[-121.034183319259,50.4747914129734],[-121.034085824608,50.4748756251485],[-121.033972973141,50.4749374586346],[-121.033790382002,50.4750159188575],[-121.033530865894,50.4750641813314],[-121.033262896492,50.4750678661758],[-121.033071288507,50.4750260746481],[-121.032807545752,50.4749163381852],[-121.032656795353,50.4748349121119],[-121.03249519656,50.4747051336905],[-121.032144666658,50.4744128626197],[-121.031799349622,50.4745588184066]]]}},{"type":"Feature","id":"883053336","properties":{"name":"iSP_22kph_%TR_Brake_Temp_CTRL_NOREMOVE","oid":"883053336","speedLimit":6.111111},"geometry":{"type":"Polygon","coordinates":[[[-121.032465891809,50.4721450655931],[-121.032251037268,50.4722253233011],[-121.031488409311,50.4710081562923],[-121.030816513371,50.4699231943098],[-121.030661254548,50.469660042497],[-121.030596445965,50.4694575558049],[-121.03055009374,50.4692565969751],[-121.030596445965,50.4689727740841],[-121.030722681814,50.4686241518566],[-121.030884421495,50.4683753799242],[-121.031088850308,50.4680976684824],[-121.031688188813,50.4675364037722],[-121.032432078635,50.4668935332403],[-121.032788384954,50.4665560554202],[-121.033147509037,50.4662222624445],[-121.03348437278,50.4658705844924],[-121.033779392721,50.4660339758844],[-121.033587362072,50.4659931729735],[-121.032919270114,50.4666519512482],[-121.032554510502,50.4669911366791],[-121.032178479832,50.467307583924],[-121.031774271518,50.4676682493014],[-121.031381897814,50.468034307134],[-121.031147037145,50.4682862246652],[-121.031008684909,50.4684697478899],[-121.030904991176,50.4686543496056],[-121.03082848887,50.4688528818305],[-121.030767625158,50.4691911685189],[-121.030776360227,50.4694004856542],[-121.030873573102,50.4696302042449],[-121.031027563931,50.469934967837],[-121.031330473612,50.4704036620665],[-121.03153053489,50.4707108522633],[-121.031750179631,50.4710827519223],[-121.032145934652,50.4717286781788],[-121.032381217987,50.4721449757189],[-121.032465891809,50.4721450655931]]]}},{"type":"Feature","id":"883059532","properties":{"name":"iSP_22kph_%TR_Brake_CTRL_NOREMOVE","oid":"883059532","speedLimit":6.111111},"geometry":{"type":"Polygon","coordinates":[[[-121.027262185257,50.4773218225674],[-121.027030001464,50.4772096594996],[-121.027334460916,50.4769439013334],[-121.027716408891,50.4766323072982],[-121.028033125619,50.4763226006222],[-121.028190356877,50.4761686460268],[-121.028621193066,50.4756922226115],[-121.02890719616,50.4753256255334],[-121.029263784255,50.4748874885499],[-121.029472580603,50.4746566015939],[-121.029691380015,50.4745403043105],[-121.029801413718,50.4744880873695],[-121.029952164117,50.4745925212515],[-121.029788592889,50.474541922047],[-121.029555986432,50.4747914129734],[-121.029251808756,50.4751729291775],[-121.029072880712,50.4754778725181],[-121.028853095082,50.4757746373016],[-121.028696004713,50.4759746075145],[-121.028408874512,50.4762704735555],[-121.028041578912,50.4765698446923],[-121.027243869788,50.4772192760447],[-121.027262185257,50.4773218225674]]]}},{"type":"Feature","id":"891249991","properties":{"name":"SP_25KPH_TR%_1590_rough section_ #1_SEPT 5_DS","oid":"891249991","speedLimit":6.9444447},"geometry":{"type":"Polygon","coordinates":[[[-121.012957099439,50.4498606546812],[-121.013847653902,50.4497487612361],[-121.013379059669,50.4450041196704],[-121.011852676651,50.4421438715679],[-121.007782979414,50.4388900641113],[-121.006731812375,50.4393241567535],[-121.010930281449,50.4427669697641],[-121.011093007347,50.4430958196559],[-121.011456498965,50.443519936256],[-121.011774483687,50.4445106201471],[-121.012957099439,50.4498606546812]]]}},{"type":"Feature","id":"901482363","properties":{"name":"SP_KPH_1200-1185_%TRAC_RAMP_AUG 20_DS","oid":"901482363","speedLimit":5.5555553},"geometry":{"type":"Polygon","coordinates":[[[-121.036666615094,50.445109092798],[-121.036261420562,50.4451195182113],[-121.039068618425,50.4482665550552],[-121.039087497447,50.4482638588277],[-121.038803889452,50.4476152363436],[-121.038215962893,50.446931293278],[-121.036576728408,50.4451796440866],[-121.036694370075,50.445109092798],[-121.036666615094,50.445109092798]]]}},{"type":"Feature","id":"903864124","properties":{"name":"SP_15KPH_%TR_OLD_GARBAGEDUMP_SEP_4_DS","oid":"903864124","speedLimit":4.1666665},"geometry":{"type":"Polygon","coordinates":[[[-121.042485157855,50.4669869125892],[-121.042131951078,50.4673286144992],[-121.042023467146,50.4669790036549],[-121.041686321626,50.4668096805622],[-121.041834817814,50.4667101897641],[-121.042485157855,50.4669869125892]]]}},{"type":"Feature","id":"908328496","properties":{"name":"SP_15KPH_%TR_9019_SOFT_GROUND_SEPT_5_DS","oid":"908328496","speedLimit":4.1666665},"geometry":{"type":"Polygon","coordinates":[[[-121.039331656739,50.4644966767864],[-121.039940716531,50.464708959772],[-121.039188936968,50.4666745995599],[-121.038826713344,50.467427655926],[-121.038451950668,50.4678941032992],[-121.037915025647,50.4682377824428],[-121.037180011783,50.4680256792057],[-121.03831303488,50.4667050669317],[-121.0387937455,50.4655658209004],[-121.039331656739,50.4644966767864]]]}},{"type":"Feature","id":"908544149","properties":{"name":"SP_25KPH_CR01_YARD_SEP_4_DS","oid":"908544149","speedLimit":6.9444447},"geometry":{"type":"Polygon","coordinates":[[[-121.035864820212,50.4644330458152],[-121.033942823061,50.4643575514427],[-121.035096979391,50.4651907756425],[-121.036120814115,50.4647324169521],[-121.036268464974,50.4648140227738],[-121.035996128037,50.4644142620964],[-121.035864820212,50.4644330458152]]]}},{"type":"Feature","id":"910445950","properties":{"name":"SP_22KPH_%TR_1635_FLATS_SEP_4_DS","oid":"910445950","speedLimit":6.111111},"geometry":{"type":"Polygon","coordinates":[[[-121.0189168122,50.4576034114536],[-121.015248787289,50.458700416586],[-121.014498134832,50.4578795950331],[-121.01748102031,50.4564157231998],[-121.017773363374,50.4542397776598],[-121.018441173556,50.4540100590691],[-121.019220003658,50.4539289924929],[-121.019245363538,50.4568507145845],[-121.019158012839,50.4570730634865],[-121.01919605266,50.4574050589771],[-121.0189168122,50.4576034114536]]]}},{"type":"Feature","id":"917291012","properties":{"name":"SP_20KPH_%TR_CORNER_RUTS_SEP_4_DS","oid":"917291012","speedLimit":5.5555553},"geometry":{"type":"Polygon","coordinates":[[[-121.040610217371,50.4662212738277],[-121.040684465465,50.4661071335263],[-121.040422554257,50.4659261267808],[-121.040120771681,50.4658979961396],[-121.040016655284,50.4663104290867],[-121.03993367212,50.4664857737543],[-121.039994817609,50.4668199262271],[-121.040666995325,50.4667391292736],[-121.040549071882,50.4666222028704],[-121.040531601742,50.4663772056567],[-121.040610217371,50.4662212738277]]]}},{"type":"Feature","id":"917773475","properties":{"name":"SP_15KPH_%TR_1200_CORNER_Sept_5_DS","oid":"917773475","speedLimit":4.1666665},"geometry":{"type":"Polygon","coordinates":[[[-121.037098860166,50.4446825495931],[-121.036924722321,50.4448621183506],[-121.036629138827,50.4448205964457],[-121.036414566062,50.4448699374106],[-121.036322988716,50.4449676307237],[-121.036254376151,50.445082130522],[-121.036242118876,50.4451449526249],[-121.036263252109,50.4452672714833],[-121.036315944305,50.4453514836584],[-121.036184072927,50.4453952524196],[-121.036088973376,50.4451942935898],[-121.036162939694,50.4449316810225],[-121.036259729904,50.4447913873135],[-121.036516569136,50.4447150840727],[-121.036713671761,50.4447117587253],[-121.036923031662,50.4447700871155],[-121.037093647301,50.4446836280841],[-121.037098860166,50.4446825495931]]]}},{"type":"Feature","id":"921727643","properties":{"name":"SP_25KPH_%TR_ HIGHMONT TRIAL_SEP_4_DS","oid":"921727643","speedLimit":6.9444447},"geometry":{"type":"Polygon","coordinates":[[[-121.012311690485,50.4366161556355],[-121.010156805099,50.4366190316116],[-121.007267187626,50.4370211290197],[-121.006148816904,50.4371701405312],[-121.005264038858,50.4370778396733],[-121.004924639126,50.4368542325318],[-121.005303064896,50.4361089053515],[-121.005970734189,50.4354592942506],[-121.006755340708,50.4347245722321],[-121.007317343834,50.4339046494218],[-121.007674918146,50.4330513832635],[-121.007912737468,50.4323925151146],[-121.007907101939,50.4319204056635],[-121.007795800242,50.4313844854927],[-121.007512051359,50.4310046768994],[-121.006989074272,50.4305645626823],[-121.005753766324,50.4297836452978],[-121.004891248617,50.4292689354507],[-121.004117913156,50.4288927218275],[-121.003316963603,50.4284988029765],[-121.003470954432,50.4283233684346],[-121.003116056996,50.4285318767016],[-121.004390109205,50.429167107922],[-121.005351248669,50.4296954786556],[-121.006574722005,50.4304921240344],[-121.007131089602,50.4309176786225],[-121.007501062078,50.4313875412173],[-121.007671818605,50.431853449345],[-121.007637019214,50.4325371227877],[-121.007399904333,50.4332026416314],[-121.007173356069,50.4338688794691],[-121.006590924151,50.4345640568162],[-121.006158819968,50.4350394916147],[-121.005745453919,50.4354069874353],[-121.005112865794,50.4360622606142],[-121.00479347219,50.4366455445163],[-121.004712038797,50.436933142126],[-121.004893643717,50.4370849397393],[-121.005451138419,50.4372767313953],[-121.006284069599,50.4372647781196],[-121.007586722118,50.4371448858661],[-121.008820480295,50.4369811349771],[-121.009459267503,50.4368811948077],[-121.011037497387,50.4367893433211],[-121.01250724334,50.4368082169143],[-121.01246990796,50.4364562693394],[-121.012311690485,50.4366161556355]]]}},{"type":"Feature","id":"921770139","properties":{"name":"SP_25KPH_70%TR_HIGHMONT_SEPT 4_DS","oid":"921770139","speedLimit":6.9444447},"geometry":{"type":"Polygon","coordinates":[[[-121.002513337174,50.4281370591081],[-121.001468510105,50.4282387967625],[-121.001504013937,50.4285900253433],[-121.002160693949,50.4285132727313],[-121.002604350966,50.4286544651828],[-121.002697196306,50.4286974250757],[-121.002513337174,50.4281370591081]]]}},{"type":"Feature","id":"922260470","properties":{"name":"SP_35KPH_70%TR_ HIGHMONT _SEP_5_DS","oid":"922260470","speedLimit":9.722222},"geometry":{"type":"Polygon","coordinates":[[[-121.01246990796,50.4368572882564],[-121.009952658063,50.4368786783286],[-121.008989687052,50.4370415304751],[-121.008147739026,50.4371429086325],[-121.006445527504,50.4373443168336],[-121.005906348271,50.4374847004168],[-121.006853398912,50.4374357189489],[-121.009229337921,50.4371615126029],[-121.010010844899,50.4370558204814],[-121.010998330461,50.4369972224684],[-121.012053160594,50.4370000984445],[-121.012480756353,50.4372100446995],[-121.01246117289,50.4370311050618],[-121.01246990796,50.4368572882564]]]}},{"type":"Feature","id":"922262468","properties":{"name":"SP_20kph_HMT_DUMP_SEP_4_DS","oid":"922262468","speedLimit":5.5555553},"geometry":{"type":"Polygon","coordinates":[[[-121.012501748699,50.4364265209617],[-121.012481883459,50.4374172048528],[-121.01476244114,50.4387149890664],[-121.017332242345,50.4379498895504],[-121.01652354394,50.4359057895396],[-121.014771457987,50.435308844751],[-121.013003310776,50.435427478765],[-121.012501748699,50.4364265209617]]]}},{"type":"Feature","id":"923351007","properties":{"name":"iSP_17KPH_PERMISSIONS_AUG 18_NS","oid":"923351007","speedLimit":4.7222223},"geometry":{"type":"Polygon","coordinates":[[[-121.038853622995,50.4608771709943],[-121.03887306557,50.4611347506034],[-121.038783742436,50.4608894837669],[-121.038539019591,50.4608894837669],[-121.038535215609,50.4608300768857],[-121.038880814422,50.4608226173227],[-121.038853622995,50.4608771709943]]]}},{"type":"Feature","id":"925542039","properties":{"name":"SP_12KPH_DRAINAGE DITCHSEPT_5_DS","oid":"925542039","speedLimit":3.3333333},"geometry":{"type":"Polygon","coordinates":[[[-121.018171654383,50.4555313605501],[-121.018488371111,50.4557206357269],[-121.018468364983,50.4558355848966],[-121.01812431594,50.4556370526716],[-121.018171654383,50.4555313605501]]]}},{"type":"Feature","id":"926367691","properties":{"name":"SP_15KPH_%TR_24SH_SEP_5_DS","oid":"926367691","speedLimit":4.1666665},"geometry":{"type":"Polygon","coordinates":[[[-121.038601151298,50.4501822247585],[-121.038074088452,50.449678749193],[-121.037542658071,50.4498595761901],[-121.038245267644,50.4520114354303],[-121.038396863373,50.4531302800062],[-121.039299111559,50.4530509210408],[-121.039700924774,50.4520727296709],[-121.039538057987,50.4510982231453],[-121.038601151298,50.4501822247585]]]}},{"type":"Feature","id":"927549571","properties":{"name":"SP_15_KPH_TR70%_CRUSHER YARD EMPTY_SEPT_5_DS","oid":"927549571","speedLimit":4.1666665},"geometry":{"type":"Polygon","coordinates":[[[-121.037754976624,50.4619281605092],[-121.037448544737,50.4612606644319],[-121.036778621232,50.4614644992378],[-121.037247074577,50.4615091667416],[-121.037920097623,50.4626183048981],[-121.037947148162,50.4632582095797],[-121.037501236933,50.4637412836897],[-121.037077586044,50.4639812479453],[-121.036451901441,50.4642044057155],[-121.036236342458,50.4641029376839],[-121.036398927469,50.4643261853284],[-121.036720575284,50.4642314578657],[-121.037430933709,50.463964081963],[-121.037846976635,50.4637350823662],[-121.037979975118,50.4635588389561],[-121.038210327364,50.463268634993],[-121.038183981266,50.4627771127032],[-121.038026468232,50.4623107552043],[-121.037754976624,50.4619281605092]]]}},{"type":"Feature","id":"929009157","properties":{"name":"iSP_22kph_Long_Single_Lane_Aug30","oid":"929009157","speedLimit":6.111111},"geometry":{"type":"Polygon","coordinates":[[[-121.005869294668,50.4378882358129],[-121.004809956112,50.4381071694932],[-121.005175420165,50.4381975829918],[-121.007935702249,50.4431705051602],[-121.008524474137,50.4445348861954],[-121.008211561391,50.4465096931571],[-121.007833558286,50.4466801846151],[-121.008935022421,50.4466469311415],[-121.008824284277,50.4465929167154],[-121.009404321095,50.4448176305954],[-121.008765393,50.4430684080088],[-121.008263690034,50.4415401862103],[-121.007260143215,50.440156212588],[-121.006440455528,50.43898407258],[-121.005690225735,50.4380215193301],[-121.005869294668,50.4378882358129]]]}},{"type":"Feature","id":"930116666","properties":{"name":"SP_15KPH_9023 Rough_SEP_5_DS","oid":"930116666","speedLimit":4.1666665},"geometry":{"type":"Polygon","coordinates":[[[-121.04359775216,50.4685541398135],[-121.043297519355,50.4689177710412],[-121.042548980221,50.4684624680754],[-121.04234441052,50.4680405084574],[-121.043036312587,50.4679072249402],[-121.04359775216,50.4685541398135]]]}},{"type":"Feature","id":"930976872","properties":{"name":"SP_12KPH_%TR_21SH_SEP_5_DS","oid":"930976872","speedLimit":3.6111112},"geometry":{"type":"Polygon","coordinates":[[[-121.036475852439,50.4473342894286],[-121.03636553696,50.4474340498495],[-121.036274100502,50.4474391726819],[-121.036171533875,50.4474048407172],[-121.035463993215,50.4470534323879],[-121.035668562916,50.4468605622409],[-121.036475852439,50.4473342894286]]]}},{"type":"Feature","id":"931458141","properties":{"name":"SP_35KPH_70%TR_POST WEATHER AT HIGHMONT_SEPT 5_DS1","oid":"931458141","speedLimit":9.722222},"geometry":{"type":"Polygon","coordinates":[[[-121.007688584304,50.4311012018471],[-121.007868921231,50.4313383800009],[-121.008024884494,50.4320306813719],[-121.007823414334,50.4328970691711],[-121.007446538335,50.4340868245326],[-121.00648469443,50.4350569272198],[-121.005360547291,50.4362798461807],[-121.005126531951,50.4366487799894],[-121.005093986772,50.4369140887843],[-121.00536702815,50.4371130703805],[-121.00621179394,50.4376644489228],[-121.00675125495,50.4374737357579],[-121.005412535046,50.4381785296501],[-121.005704878111,50.4378468936565],[-121.004431248566,50.4372042927473],[-121.004255701839,50.436943118168],[-121.004431248566,50.4364042321469],[-121.005217545744,50.4354134583816],[-121.00648469443,50.4342070762832],[-121.006952584222,50.4333696279935],[-121.007329601109,50.4323623173656],[-121.007303536788,50.4319850252514],[-121.007115169232,50.431475168614],[-121.006997245789,50.4313329875457],[-121.007688584304,50.4311012018471]]]}},{"type":"Feature","id":"931484928","properties":{"name":"SP_17KPH_TR%_5STK_SEPT 4_DS","oid":"931484928","speedLimit":4.7222223},"geometry":{"type":"Polygon","coordinates":[[[-121.023409033221,50.4842677542125],[-121.024057119051,50.4837152971791],[-121.023778160367,50.4834261717071],[-121.022894791203,50.4832445358418],[-121.022281645653,50.4833186821005],[-121.022005645622,50.4835132598583],[-121.021796426609,50.484061942173],[-121.023167973469,50.484239893194],[-121.023409033221,50.4842677542125]]]}},{"type":"Feature","id":"931851881","properties":{"name":"SP_15KPH_WaterHole_Sep_5_DS","oid":"931851881","speedLimit":4.1666665},"geometry":{"type":"Polygon","coordinates":[[[-121.006770415748,50.4373783791755],[-121.00667587975,50.437066695266],[-121.005851965416,50.4371456048601],[-121.005952841385,50.437492609351],[-121.006747591856,50.4373866476067],[-121.006770415748,50.4373783791755]]]}},{"type":"Feature","id":"931933206","properties":{"name":"SP_15KPH_PUNCH_OUT_SEPT_5_DS","oid":"931933206","speedLimit":4.1666665},"geometry":{"type":"Polygon","coordinates":[[[-121.012903280137,50.4365390435264],[-121.012960058091,50.4368162157228],[-121.013592787105,50.4368186423276],[-121.013567568113,50.4365707691378],[-121.01350275953,50.4366691814448],[-121.013007678311,50.4366707991814],[-121.012903280137,50.4365390435264]]]}},{"type":"Feature","id":"932114358","properties":{"name":"SP_35KPH_70%TR_23SH_LOADED_LANES_SEP_5_D","oid":"932114358","speedLimit":9.722222},"geometry":{"type":"Polygon","coordinates":[[[-121.042098560569,50.4671396089451],[-121.041265770277,50.4667315798364],[-121.040734621673,50.4664967384132],[-121.040511454726,50.4663966184953],[-121.040354505245,50.466311956949],[-121.040360563438,50.4660656116214],[-121.040451013678,50.4657768456465],[-121.040517372031,50.4655112672288],[-121.040444955484,50.4651301105217],[-121.040233764037,50.4644140823478],[-121.039983546551,50.4634786711224],[-121.039864496002,50.4631626732487],[-121.039697684345,50.4628769629984],[-121.038921108454,50.4631292400266],[-121.039550033486,50.4630532064085],[-121.039764324474,50.4635151600691],[-121.039913947768,50.4642254362907],[-121.040082872749,50.464722081413],[-121.040276030504,50.465384185035],[-121.040245880424,50.4657152817832],[-121.04010104733,50.4659577625178],[-121.039980306122,50.4662195662169],[-121.04016134749,50.4664852345088],[-121.041766627913,50.467189668904],[-121.04183904446,50.4675476380538],[-121.042098560569,50.4671396089451]]]}},{"type":"Feature","id":"932118723","properties":{"name":"SP_35KPH_70%TR_1635_TO_1620_SEP_5_DS","oid":"932118723","speedLimit":9.722222},"geometry":{"type":"Polygon","coordinates":[[[-121.018237167408,50.4539384292894],[-121.018529792249,50.4537443009029],[-121.018241112278,50.4536422936257],[-121.017620781428,50.4534681173234],[-121.017125418432,50.4534432221553],[-121.016411396913,50.4534407056762],[-121.016060303459,50.4534805199703],[-121.015775568359,50.4535128747014],[-121.015502526981,50.4536049958107],[-121.015896450455,50.4538314789283],[-121.015822343249,50.4536671887938],[-121.016251488779,50.4536049958107],[-121.016614275956,50.4536075122898],[-121.017324352605,50.4535950197686],[-121.017741804412,50.4536547861469],[-121.018120230182,50.4537144626509],[-121.018264499723,50.453769196071],[-121.018237167408,50.4539384292894]]]}},{"type":"Feature","id":"932130713","properties":{"name":"SP_35KPH_70%TR_WEATHER_SEPT 4_DS","oid":"932130713","speedLimit":9.722222},"geometry":{"type":"Polygon","coordinates":[[[-121.035589524622,50.4662113876599],[-121.033992133939,50.4655629449243],[-121.033477891922,50.465948954841],[-121.032418976031,50.4669138448215],[-121.031499257705,50.4677476082668],[-121.031063631316,50.468176038831],[-121.030827643541,50.4684731631115],[-121.030670412283,50.468866902214],[-121.030573481185,50.4692335891663],[-121.030652237702,50.4695964115258],[-121.031015306655,50.4701483293136],[-121.03234839103,50.472356000465],[-121.032575643736,50.4727553117712],[-121.032925046531,50.473359087003],[-121.033035643787,50.4735225682692],[-121.033653015984,50.4740389857271],[-121.033961702083,50.4743157984264],[-121.034052011434,50.4744718201297],[-121.034060746504,50.4746278418329],[-121.033979172223,50.474741173266],[-121.033836452452,50.4748526173398],[-121.033644280914,50.474926943347],[-121.03342012775,50.4749455473174],[-121.033131729556,50.4749213711433],[-121.032928005184,50.474837788088],[-121.032639606989,50.4746538154921],[-121.032223282287,50.4743231681152],[-121.032028152097,50.4741950074304],[-121.031771876418,50.4739627723606],[-121.031195220917,50.4739033654793],[-121.030638994209,50.4739535153125],[-121.030342001833,50.4740259539604],[-121.029902289686,50.4742136114007],[-121.029701383079,50.4743993814817],[-121.029331551491,50.4748507299804],[-121.028553989383,50.4757740081818],[-121.028192892865,50.476188238614],[-121.027776568163,50.4766062437648],[-121.027141725826,50.4771226612227],[-121.026404880415,50.4777115173285],[-121.02560407175,50.4783431535788],[-121.02515266588,50.4786645439076],[-121.024573192615,50.4790805718248],[-121.024208996556,50.4793297032542],[-121.023406215456,50.4797968696214],[-121.022795183229,50.4801922264605],[-121.022481988707,50.4804862950164],[-121.023869315048,50.4810645459604],[-121.023119085256,50.4804320109676],[-121.023452145017,50.4802047189817],[-121.024652512685,50.4794389903459],[-121.026522099417,50.4780566344601],[-121.027977333882,50.4767487843301],[-121.029071471829,50.4756781123538],[-121.029740690893,50.4748378779623],[-121.030388776723,50.4743228086182],[-121.03137668495,50.4741669666634],[-121.031897126049,50.4744108853861],[-121.032672574834,50.4750140314982],[-121.033182449316,50.4751970154774],[-121.033926057362,50.4751563024407],[-121.034350976246,50.4748039953689],[-121.034414798611,50.4744583389917],[-121.033161316083,50.4732928496785],[-121.032428274653,50.4719375459429],[-121.03144247975,50.4704016848329],[-121.030989242334,50.4695117499795],[-121.031229174979,50.4683950623856],[-121.031806816697,50.4677772667703],[-121.033697818439,50.466223520684],[-121.035589524622,50.4662113876599]]]}},{"type":"Feature","id":"932161447","properties":{"name":"SP_17KPH_WATER_HOLE_SEPT_4_DS","oid":"932161447","speedLimit":4.7222223},"geometry":{"type":"Polygon","coordinates":[[[-121.012883696674,50.4465950736975],[-121.012984431754,50.4473408502491],[-121.012625307671,50.4473492984289],[-121.012594734927,50.4466202384883],[-121.012883696674,50.4465950736975]]]}},{"type":"Feature","id":"932268643","properties":{"name":"SP_20KPH_70%traction_1185_1170_SEP_5_DS","oid":"932268643","speedLimit":5.5555553},"geometry":{"type":"Polygon","coordinates":[[[-121.038729077805,50.4481974417547],[-121.038467307485,50.4482556802706],[-121.038947172776,50.4498292885669],[-121.039506358136,50.4497913616321],[-121.039105812916,50.449730606637],[-121.038622002755,50.4483442064099],[-121.038852073224,50.4481595148199],[-121.038729077805,50.4481974417547]]]}},{"type":"Feature","id":"932281958","properties":{"name":"SP_15KPH_1185-1170_22shl_sept_4_ns","oid":"932281958","speedLimit":4.1666665},"geometry":{"type":"Polygon","coordinates":[[[-121.037375001084,50.4481142181964],[-121.037408532482,50.447962061086],[-121.03698192294,50.447908765654],[-121.036571938208,50.4477406109265],[-121.03532395032,50.4471563384076],[-121.035097824721,50.447426051041],[-121.035348464871,50.4473476806923],[-121.03681454773,50.4479514559241],[-121.037216079168,50.4480555303092],[-121.037334425276,50.448191150557],[-121.037375001084,50.4481142181964]]]}},{"type":"Feature","id":"932364856","properties":{"name":"SP_12km_%_1170rOUGH","oid":"932364856","speedLimit":3.3333333},"geometry":{"type":"Polygon","coordinates":[[[-121.038073806675,50.4473201791709],[-121.037831760707,50.447389112723],[-121.037706229299,50.4473851582558],[-121.037727362533,50.4480410605544],[-121.03832486949,50.4498588571961],[-121.038702309042,50.45020550219],[-121.038722033394,50.4496640098155],[-121.038331068572,50.4483823130932],[-121.038104097643,50.4473256615003],[-121.038073806675,50.4473201791709]]]}}]}