{"type":"FeatureCollection","features":[{"type":"Feature","id":"702602533","properties":{"name":"iSP_4KPH_%TR_CR01_SLOW BUMP","oid":"702602533","speedLimit":1.1111112},"geometry":{"type":"Polygon","coordinates":[[[-121.033359511415,50.464807842129],[-121.033654254342,50.464690825641],[-121.033697648617,50.4647315387509],[-121.033369796422,50.4648696757264],[-121.033359511415,50.464807842129]]]}},{"type":"Feature","id":"707947583","properties":{"name":"iSP_22KPH_%TR_Permission Gate 1 from west dump_Jun","oid":"707947583","speedLimit":6.111111},"geometry":{"type":"Polygon","coordinates":[[[-121.038629097914,50.4619779664305],[-121.03885579073,50.4617994758428],[-121.037981565174,50.461351002513],[-121.037744446462,50.4615422552676],[-121.03796057249,50.4614965091905],[-121.038667561021,50.4618460307896],[-121.038629097914,50.4619779664305]]]}},{"type":"Feature","id":"742345972","properties":{"name":"iSP_4KPH_%TR_CR01_PITSIDE_SLOW BUMP","oid":"742345972","speedLimit":1.1111112},"geometry":{"type":"Polygon","coordinates":[[[-121.033399383427,50.464882797391],[-121.033706665609,50.4647443009178],[-121.033756822627,50.4647763860839],[-121.033475323407,50.4649182977848],[-121.033399383427,50.464882797391]]]}},{"type":"Feature","id":"776427243","properties":{"name":"iSP_7KPH_%TR_CR1_PermissionBlocker_DO_NOT_DELETE","oid":"776427243","speedLimit":1.9444444},"geometry":{"type":"Polygon","coordinates":[[[-121.034100595448,50.4652128162421],[-121.034052129116,50.4652331278598],[-121.034030995541,50.465274559965],[-121.034116656965,50.4652254885346],[-121.034100595448,50.4652128162421]]]}},{"type":"Feature","id":"794004438","properties":{"name":"iSP_11KPH_%TR_LOWER_FUEL_BAY","oid":"794004438","speedLimit":3.0555556},"geometry":{"type":"Polygon","coordinates":[[[-121.036777374067,50.4606954585315],[-121.036779487424,50.4607252968372],[-121.036749759528,50.4606708329418],[-121.037125937165,50.4605991131588],[-121.037535928521,50.4605560633141],[-121.037543677499,50.4605814078991],[-121.036945174653,50.4606502517008],[-121.036777374067,50.4606954585315]]]}},{"type":"Feature","id":"801543391","properties":{"name":"iSP_4KPH_%TR_CR1_PermissionBlocker_DO_NOT_DELETE_","oid":"801543391","speedLimit":1.1111112},"geometry":{"type":"Polygon","coordinates":[[[-121.033156065533,50.4645232997318],[-121.03315522019,50.4644738688037],[-121.033176776436,50.4644318075776],[-121.033108726324,50.4644593990229],[-121.033156065533,50.4645232997318]]]}},{"type":"Feature","id":"806473874","properties":{"name":"iSP_4KPH_%TR_Permission Blocker - DO NOT DELETE","oid":"806473874","speedLimit":1.1111112},"geometry":{"type":"Polygon","coordinates":[[[-121.022720024381,50.481545064521],[-121.022686915113,50.4815427277862],[-121.022679307026,50.4815713977246],[-121.022701426835,50.4815724762175],[-121.022705512659,50.4815483898744],[-121.022720024381,50.481545064521]]]}},{"type":"Feature","id":"824566967","properties":{"name":"iSP_4Cr_3KPH","oid":"824566967","speedLimit":0.8333333},"geometry":{"type":"Polygon","coordinates":[[[-121.023302888381,50.4810681908761],[-121.02328274104,50.4810681908761],[-121.02328006412,50.4811862858572],[-121.023305142629,50.4811855668619],[-121.023302888381,50.4810681908761]]]}},{"type":"Feature","id":"826307302","properties":{"name":"iSP_4KPH_TR%_CRUSHER POCKETS","oid":"826307302","speedLimit":1.1111112},"geometry":{"type":"Polygon","coordinates":[[[-121.023298098104,50.4813213671026],[-121.023337547444,50.481477029589],[-121.023542261342,50.4814375747209],[-121.023461249304,50.4811887124664],[-121.023052948633,50.4811894314617],[-121.023058302472,50.4813601029754],[-121.023283163711,50.4813261304466],[-121.023298098104,50.4813213671026]]]}},{"type":"Feature","id":"853029148","properties":{"name":"SP_15KPH_%TR_1635 Flats_AUG_29_DS","oid":"853029148","speedLimit":4.1666665},"geometry":{"type":"Polygon","coordinates":[[[-121.017602881403,50.4567739681909],[-121.016439125869,50.4570839450475],[-121.014801555582,50.4577460498613],[-121.013837441887,50.4588994981007],[-121.014982740766,50.4587965918958],[-121.019118722298,50.4574577327387],[-121.019253413616,50.4570347837426],[-121.018435685152,50.4568996126228],[-121.017981454178,50.4568029976269],[-121.017602881403,50.4567739681909]]]}},{"type":"Feature","id":"855316169","properties":{"name":"SP_25KPH_TR%_CRUSHER YARD EMPTY_AUG_29_DS","oid":"855316169","speedLimit":6.9444447},"geometry":{"type":"Polygon","coordinates":[[[-121.03791281061,50.462234827508],[-121.037771356548,50.4621194287594],[-121.037596793217,50.4622032815884],[-121.037546354418,50.4622375237404],[-121.037609473362,50.4622264691874],[-121.037905906975,50.4624612211589],[-121.037720213296,50.4625137976915],[-121.038123441908,50.4625063381151],[-121.038121751222,50.4624941151947],[-121.03791281061,50.462234827508]]]}},{"type":"Feature","id":"883050998","properties":{"name":"iSP_22kph_%TR_4CR_Brake_Temp_CTRL_NOREMOVE","oid":"883050998","speedLimit":6.111111},"geometry":{"type":"Polygon","coordinates":[[[-121.031799712684,50.4745589465105],[-121.032188993137,50.4743123311164],[-121.032490639699,50.4745746745331],[-121.03279228626,50.4748020568025],[-121.032970090072,50.4748844716409],[-121.033178889794,50.4749346215644],[-121.033462784152,50.4749594269028],[-121.033666652706,50.4749218593975],[-121.033827831439,50.4748624524093],[-121.033918987593,50.4748104151231],[-121.03400831217,50.4747472334095],[-121.034058750969,50.47465807799],[-121.034052974459,50.4745478919575],[-121.034056778502,50.4744835418765],[-121.033994645792,50.4743795571786],[-121.033876297771,50.4742594849605],[-121.033509418908,50.4739375548067],[-121.033061105335,50.4735599025157],[-121.032947829373,50.4734253605168],[-121.032822859499,50.4732208063487],[-121.032606029019,50.4728148436171],[-121.032252534753,50.4722089103126],[-121.032487540108,50.4721560641567],[-121.032430479455,50.4722055849593],[-121.032903026194,50.4730487867188],[-121.033042226008,50.4733095123961],[-121.033250039496,50.4735468707256],[-121.033743015358,50.4739615512754],[-121.034098059419,50.47427107876],[-121.034203445513,50.4743943864571],[-121.03425613856,50.4744616125193],[-121.034263183085,50.4745927392905],[-121.034238245467,50.4746787491054],[-121.034183720843,50.474791541496],[-121.034086224617,50.4748757538227],[-121.033973371326,50.47493758742],[-121.033790777237,50.4750160477842],[-121.033531256935,50.4750643103449],[-121.033263283204,50.4750679951959],[-121.033071672123,50.475026203593],[-121.032807925106,50.4749164669326],[-121.03265717227,50.4748350407128],[-121.032495570866,50.4747052620578],[-121.032145035301,50.4744129904609],[-121.031799712684,50.4745589465105]]]}},{"type":"Feature","id":"883053336","properties":{"name":"iSP_22kph_%TR_Brake_Temp_CTRL_NOREMOVE","oid":"883053336","speedLimit":6.111111},"geometry":{"type":"Polygon","coordinates":[[[-121.032466265642,50.4721451893525],[-121.032251407629,50.4722254472049],[-121.03148876735,50.4710082780054],[-121.030816860553,50.4699233140701],[-121.030661599222,50.4696601617836],[-121.030596789591,50.469457674727],[-121.030550436617,50.4692567155356],[-121.030596789591,50.4689728921337],[-121.03072302748,50.4686242692787],[-121.030884769774,50.4683754968986],[-121.031089201891,50.4680977849568],[-121.03168855008,50.4675365192365],[-121.032432451922,50.4668936475475],[-121.032788763998,50.46655616912],[-121.033147893884,50.4662223755434],[-121.03348476307,50.4658706969584],[-121.033779787778,50.4660340886444],[-121.033587754026,50.4659932856601],[-121.032919651273,50.4666520651205],[-121.032554885767,50.466991251162],[-121.032178849021,50.4673076989764],[-121.031774634175,50.467668365003],[-121.031382254132,50.4680344234944],[-121.031147389667,50.4682863414791],[-121.031009035196,50.4684698650341],[-121.030905339787,50.4686544670821],[-121.030828836246,50.4688529996643],[-121.030767971549,50.4691912869616],[-121.03077670676,50.4694006044736],[-121.030873921206,50.4696303234778],[-121.031027914523,50.4699350876184],[-121.031330829099,50.4704037826915],[-121.03153089361,50.4707109734413],[-121.0317505419,50.4710828737697],[-121.032146303316,50.4717288011888],[-121.032381590452,50.4721450994781],[-121.032466265642,50.4721451893525]]]}},{"type":"Feature","id":"883059532","properties":{"name":"iSP_22kph_%TR_Brake_CTRL_NOREMOVE","oid":"883059532","speedLimit":6.111111},"geometry":{"type":"Polygon","coordinates":[[[-121.027262475007,50.4773219556444],[-121.027030287462,50.4772097923748],[-121.027334751834,50.4769440337302],[-121.02771670598,50.4766324391342],[-121.028033427826,50.4763227319008],[-121.028190661624,50.4761687770283],[-121.028621504775,50.4756923527555],[-121.028907512491,50.4753257550175],[-121.029264106347,50.4748876172454],[-121.029472906069,50.4746567298738],[-121.029691709016,50.4745404323811],[-121.029801744497,50.4744882153461],[-121.029952497333,50.4745926494161],[-121.029788923462,50.4745420501206],[-121.029556313245,50.474791541496],[-121.029252130655,50.4751730583868],[-121.029073199719,50.4754780022762],[-121.028853410538,50.4757747675938],[-121.02869631763,50.4759747381667],[-121.02840918279,50.4762706047402],[-121.028041881256,50.4765699764159],[-121.027244159242,50.4772194089372],[-121.027262475007,50.4773219556444]]]}},{"type":"Feature","id":"891249991","properties":{"name":"SP_30KPH_TR%_1590 #1_AUG_29_DS","oid":"891249991","speedLimit":8.333333},"geometry":{"type":"Polygon","coordinates":[[[-121.01295715804,50.4498607383308],[-121.013847726894,50.4497488446844],[-121.013379125089,50.4450041945788],[-121.012139006904,50.443083847958],[-121.011299722193,50.4419103577241],[-121.010529896498,50.4421497831651],[-121.0110089242,50.4427017019463],[-121.011240970854,50.4430299233091],[-121.01145653332,50.443520008493],[-121.011774523179,50.4445106941672],[-121.01295715804,50.4498607383308]]]}},{"type":"Feature","id":"893804793","properties":{"name":"SP_35KPH_%TR_1590Dynamic_AUG_29_DS","oid":"893804793","speedLimit":9.722222},"geometry":{"type":"Polygon","coordinates":[[[-121.011186728011,50.4418408848014],[-121.010484388866,50.4421101485482],[-121.005982092033,50.4380482743717],[-121.006514658125,50.4376817665082],[-121.010067493875,50.4407334522624],[-121.011186728011,50.4418408848014]]]}},{"type":"Feature","id":"903864124","properties":{"name":"SP_15KPH_%TR_OLD_GARBAGEDUMP_AUG_29_DS","oid":"903864124","speedLimit":4.1666665},"geometry":{"type":"Polygon","coordinates":[[[-121.042485693584,50.4669870270645],[-121.042132481099,50.4673287295895],[-121.042023995414,50.466979118116],[-121.041014233197,50.4664999976107],[-121.041217397299,50.4664449944689],[-121.042485693584,50.4669870270645]]]}},{"type":"Feature","id":"908328496","properties":{"name":"SP_15KPH_%TR_9019_SOFT_GROUND_AUG_29_DS","oid":"908328496","speedLimit":4.1666665},"geometry":{"type":"Polygon","coordinates":[[[-121.038886363968,50.4644515799488],[-121.038900734799,50.464753018736],[-121.039380044282,50.4648989747856],[-121.038731384418,50.4665301055397],[-121.03827602632,50.4671547327225],[-121.037820668223,50.4675725588768],[-121.037502819254,50.4696996166517],[-121.035469769332,50.4697242422413],[-121.035228987466,50.4668159061787],[-121.0378818147,50.4651399280917],[-121.03852089401,50.4648144029613],[-121.038886363968,50.4644515799488]]]}},{"type":"Feature","id":"910445950","properties":{"name":"SP_25KPH_%TR_1635_FLATS_AUG_29_DS","oid":"910445950","speedLimit":6.9444447},"geometry":{"type":"Polygon","coordinates":[[[-121.020225839851,50.4571641130255],[-121.019044754785,50.4569612664714],[-121.018651106727,50.456922620473],[-121.017843099707,50.4571469470123],[-121.018449069749,50.4564124932946],[-121.018505425949,50.4561073696564],[-121.019236224975,50.4561250749161],[-121.019236788537,50.4564588684927],[-121.019424595574,50.4568918834231],[-121.019757942499,50.4570619258159],[-121.020225839851,50.4571641130255]]]}},{"type":"Feature","id":"917291012","properties":{"name":"SP_20KPH_%TR_CORNER_RUTS_AUG_29_DS","oid":"917291012","speedLimit":5.5555553},"geometry":{"type":"Polygon","coordinates":[[[-121.040610722804,50.4662213869249],[-121.040684972098,50.4661072464181],[-121.040423056657,50.4659262393467],[-121.040121269205,50.4658981086549],[-121.040017151125,50.4663105423443],[-121.03993416662,50.4664858873276],[-121.039995313098,50.4668200404018],[-121.040667501675,50.4667392433029],[-121.040549576327,50.4666223166892],[-121.040532105904,50.4663773190345],[-121.040610722804,50.4662213869249]]]}},{"type":"Feature","id":"917665392","properties":{"name":"SP_15KPH_%TR_22SH RUTS_AUG 29_DS","oid":"917665392","speedLimit":4.1666665},"geometry":{"type":"Polygon","coordinates":[[[-121.035647995815,50.4455197142221],[-121.035215743759,50.4452078500027],[-121.033734280147,50.4447560513196],[-121.033078293976,50.4452864002413],[-121.035586567556,50.4459567735012],[-121.036391052314,50.4468446428449],[-121.036872756935,50.4466102503711],[-121.035647995815,50.4455197142221]]]}},{"type":"Feature","id":"920440343","properties":{"name":"iSP_17KPH_CAL_PAD_ROAD_LIMIT_AUG_23_NS","oid":"920440343","speedLimit":4.7222223},"geometry":{"type":"Polygon","coordinates":[[[-121.005955604619,50.4378308681623],[-121.005969270997,50.4376131923297],[-121.00558703507,50.4375784109312],[-121.005286797413,50.4376828450012],[-121.005191273654,50.4378351821342],[-121.005286797413,50.4381616958832],[-121.00598970012,50.4392587928645],[-121.00747060017,50.4413701226168],[-121.007675314068,50.4416487333026],[-121.007784504206,50.4421537376393],[-121.007934693479,50.442663055948],[-121.008118978254,50.4432333091098],[-121.008323692151,50.4436512251386],[-121.008685358066,50.4445611137139],[-121.008760452702,50.4449224088614],[-121.008760452702,50.4451792699388],[-121.0086922617,50.445618935576],[-121.008494310547,50.4462283739827],[-121.008944737477,50.4462153421925],[-121.009135784996,50.4457321773386],[-121.00932006977,50.4449180948894],[-121.009217642376,50.4444522757976],[-121.008999262101,50.4437992482997],[-121.008774119081,50.443377018299],[-121.008460215046,50.4427370225913],[-121.008296359394,50.4420753671496],[-121.00824183477,50.4417445394288],[-121.007921027101,50.4411959460009],[-121.006815459343,50.4398333599983],[-121.006603982702,50.4394938144592],[-121.006228650409,50.4387798521081],[-121.00598970012,50.438388089534],[-121.005935175496,50.4380572618132],[-121.005955604619,50.4378308681623]]]}},{"type":"Feature","id":"922262468","properties":{"name":"SP_20kph_HMT_DUMP_AUG_29_DS","oid":"922262468","speedLimit":5.5555553},"geometry":{"type":"Polygon","coordinates":[[[-121.012501799943,50.4364265804312],[-121.012481934382,50.4374172661055],[-121.016364313014,50.4384078619053],[-121.017180632573,50.436959985083],[-121.01652366017,50.435905848072],[-121.014771545906,50.4353089022089],[-121.012900097388,50.4352073441202],[-121.012501799943,50.4364265804312]]]}},{"type":"Feature","id":"923351007","properties":{"name":"iSP_17KPH_PERMISSIONS_AUG 18_NS","oid":"923351007","speedLimit":4.7222223},"geometry":{"type":"Polygon","coordinates":[[[-121.038854100044,50.4608772744726],[-121.038873542933,50.4611348545454],[-121.038784218355,50.4608895872674],[-121.038539491556,50.4608895872674],[-121.038535687513,50.4608301802792],[-121.03888129191,50.4608227207028],[-121.038854100044,50.4608772744726]]]}},{"type":"Feature","id":"923607825","properties":{"name":"MRK_CROSS DITCH ","oid":"923607825","speedLimit":2.7777777},"geometry":{"type":"Polygon","coordinates":[[[-121.035186156754,50.4458454191013],[-121.035617563467,50.4454861011909],[-121.035587131118,50.4454714516613],[-121.035137831312,50.4458266353486],[-121.035186156754,50.4458454191013]]]}},{"type":"Feature","id":"924266047","properties":{"name":"SP_12KPH_%TR_CROSS DITCH_AUG_29_DS ","oid":"924266047","speedLimit":3.3333333},"geometry":{"type":"Polygon","coordinates":[[[-121.037616236106,50.4473123492995],[-121.037894213064,50.4474715168881],[-121.037657798804,50.4477507566948],[-121.037463088132,50.447692068702],[-121.03726823657,50.4475133983654],[-121.037616236106,50.4473123492995]]]}},{"type":"Feature","id":"926023128","properties":{"name":"SP_10KPH_TR%_4CR_1_AUG_27_DS","oid":"926023128","speedLimit":2.7777777},"geometry":{"type":"Polygon","coordinates":[[[-121.022862464677,50.4811967112893],[-121.022835977263,50.4815102831225],[-121.022151672102,50.4816162450575],[-121.021885952618,50.4812730146674],[-121.021893560705,50.4811096229814],[-121.022493331566,50.4810276575151],[-121.022510379316,50.4812221457487],[-121.022822592665,50.4810186700736],[-121.022982080712,50.4812602525006],[-121.022862464677,50.4811967112893]]]}},{"type":"Feature","id":"926367691","properties":{"name":"SP_20KPH_%TR_AUG_27_NS","oid":"926367691","speedLimit":5.5555553},"geometry":{"type":"Polygon","coordinates":[[[-121.038604582967,50.4502033396],[-121.037911824376,50.450261398472],[-121.038245734863,50.4520115229512],[-121.038477640626,50.4519886049754],[-121.039664502203,50.4519357588195],[-121.039538546095,50.4510983090225],[-121.038604582967,50.4502033396]]]}},{"type":"Feature","id":"927804884","properties":{"name":"ATT_Rut/Hole_10x10 4239","oid":"927804884","speedLimit":3.3333333},"geometry":{"type":"Polygon","coordinates":[[[-121.013584684329,50.4366503677241],[-121.014653620557,50.436505400293],[-121.014586134007,50.4372812861159],[-121.013566368564,50.4370265820244],[-121.013584684329,50.4366503677241]]]}},{"type":"Feature","id":"928024354","properties":{"name":"SP_15KPH_BOUNCING TRUCKS_AUG 29_DS","oid":"928024354","speedLimit":4.1666665},"geometry":{"type":"Polygon","coordinates":[[[-121.039959808692,50.4633924998449],[-121.039603637506,50.4634726678229],[-121.039851604787,50.4634927098174],[-121.039195055055,50.4648204245471],[-121.03894018414,50.4647669492703],[-121.039366237013,50.4649273751007],[-121.039980801376,50.4639494515934],[-121.040040116277,50.4635662270887],[-121.039998271798,50.4634459751217],[-121.039959808692,50.4633924998449]]]}},{"type":"Feature","id":"928367549","properties":{"name":"SP_10KPH_PUNCH OUT_AIG 29_DS","oid":"928367549","speedLimit":2.7777777},"geometry":{"type":"Polygon","coordinates":[[[-121.041885077381,50.466759195423],[-121.041872256345,50.4667734854549],[-121.041603859942,50.4669815447252],[-121.042057668244,50.4672322943424],[-121.042393410306,50.4670794179629],[-121.041885077381,50.466759195423]]]}}]}