{"type":"FeatureCollection","features":[{"type":"Feature","id":"702602533","properties":{"name":"iSP_4KPH_%TR_CR01_Slow Bump","oid":"702602533","speedLimit":1.1111112},"geometry":{"type":"Polygon","coordinates":[[[-121.033359153188,50.4648078878105],[-121.033653889531,50.4646908706157],[-121.033697282836,50.4647315839715],[-121.033369437965,50.4648697217813],[-121.033359153188,50.4648078878105]]]}},{"type":"Feature","id":"707947583","properties":{"name":"iSP_25KPH_%TR_Permission Gate 1 From West Dump","oid":"707947583","speedLimit":6.9444447},"geometry":{"type":"Polygon","coordinates":[[[-121.038628621975,50.4619779950213],[-121.038855309726,50.4617995033556],[-121.038140306409,50.4614082776653],[-121.037992656462,50.4616709821663],[-121.038192152955,50.4615669069654],[-121.038667084222,50.4618460585836],[-121.038628621975,50.4619779950213]]]}},{"type":"Feature","id":"742345972","properties":{"name":"iSP_4KPH_%TR_CR01_Pit Side_Slow Bump","oid":"742345972","speedLimit":1.1111112},"geometry":{"type":"Polygon","coordinates":[[[-121.033399024309,50.4648828435251],[-121.033706299627,50.4647443462155],[-121.033756455524,50.4647764315753],[-121.033474962593,50.4649183441333],[-121.033399024309,50.4648828435251]]]}},{"type":"Feature","id":"776427243","properties":{"name":"iSP_7KPH_%TR_CR1_PermissionBlocker","oid":"776427243","speedLimit":1.9444444},"geometry":{"type":"Polygon","coordinates":[[[-121.034100220666,50.4652128643693],[-121.034051755417,50.4652331761097],[-121.034030622314,50.4652746084651],[-121.034116281825,50.4652255367383],[-121.034100220666,50.4652128643693]]]}},{"type":"Feature","id":"794004438","properties":{"name":"iSP_11KPH_%TR_Lower_Fuel_Bay","oid":"794004438","speedLimit":3.0555556},"geometry":{"type":"Polygon","coordinates":[[[-121.036776939491,50.4606954793768],[-121.036779052801,50.4607253178627],[-121.03674932557,50.4606708536384],[-121.037125494803,50.4605991334222],[-121.037535477001,50.4605560833176],[-121.037543225805,50.4605814280556],[-121.036944736329,50.4606502722731],[-121.036776939491,50.4606954793768]]]}},{"type":"Feature","id":"801543391","properties":{"name":"iSP_4KPH_%TR_CR01_PermissionBlocker_2","oid":"801543391","speedLimit":1.1111112},"geometry":{"type":"Polygon","coordinates":[[[-121.03315571185,50.4645233436948],[-121.033154866526,50.4644739124681],[-121.033176422291,50.464431850988],[-121.033108373699,50.4644594425999],[-121.03315571185,50.4645233436948]]]}},{"type":"Feature","id":"806473874","properties":{"name":"iSP_4KPH_%TR_CR04_PermissionBlocker","oid":"806473874","speedLimit":1.1111112},"geometry":{"type":"Polygon","coordinates":[[[-121.022719903819,50.4815452112844],[-121.022686795291,50.4815428745355],[-121.022679187374,50.481571544647],[-121.022701306689,50.4815726231465],[-121.022705392422,50.4815485366579],[-121.022719903819,50.4815452112844]]]}},{"type":"Feature","id":"824566967","properties":{"name":"iSP_3KPH_%TR_CR04","oid":"824566967","speedLimit":0.8333333},"geometry":{"type":"Polygon","coordinates":[[[-121.0233027548,50.4810683347595],[-121.023282607908,50.4810683347595],[-121.023279931048,50.4811864304538],[-121.023305008997,50.4811857114541],[-121.0233027548,50.4810683347595]]]}},{"type":"Feature","id":"826307302","properties":{"name":"iSP_4KPH_%TR_CR04_Pockets","oid":"826307302","speedLimit":1.1111112},"geometry":{"type":"Polygon","coordinates":[[[-121.02329796463,50.481321512515],[-121.023337413089,50.4814771759415],[-121.023542122413,50.4814377208352],[-121.023461112185,50.4811888570776],[-121.023052820635,50.4811895760773],[-121.023058174354,50.4813602486217],[-121.02328303057,50.4813262758878],[-121.02329796463,50.481321512515]]]}},{"type":"Feature","id":"883050998","properties":{"name":"iSP_22KPH_%TR_4CR_Brake_Temp_Ctrl","oid":"883050998","speedLimit":6.111111},"geometry":{"type":"Polygon","coordinates":[[[-121.0317993893,50.4745590510823],[-121.032188661057,50.4743124341987],[-121.032490300881,50.4745747791999],[-121.032791940704,50.4748021628426],[-121.032969740544,50.4748845781786],[-121.033178535601,50.474934728405],[-121.033462423618,50.4749595338933],[-121.033666287618,50.474921966161],[-121.033827462751,50.474862558814],[-121.033918616868,50.4748105212136],[-121.03400793945,50.4747473391184],[-121.034058377122,50.4746581831605],[-121.034052600741,50.4745479964625],[-121.0340564047,50.4744836459929],[-121.033994273377,50.474379660667],[-121.033875928,50.4742595877237],[-121.033509057332,50.4739376556256],[-121.033060753774,50.4735600010539],[-121.032947480342,50.4734254582424],[-121.03282251326,50.473220902839],[-121.032605687623,50.4728149376556],[-121.032252201254,50.4722090006917],[-121.032487201359,50.4721561542166],[-121.032430141981,50.4722056753182],[-121.032902678164,50.4730488821702],[-121.033041874869,50.4733096094221],[-121.033249683715,50.4735469691851],[-121.033742648564,50.4739616522393],[-121.034097684694,50.4742711815932],[-121.034203068434,50.474394490035],[-121.034255760304,50.4744617165033],[-121.034262804672,50.4745928440664],[-121.034237867611,50.4746788544008],[-121.034183344205,50.4747916474725],[-121.034085850156,50.4748758603078],[-121.033972999386,50.4749376942786],[-121.033790409377,50.4750161551165],[-121.033530894872,50.4750644179688],[-121.033262927126,50.475068102842],[-121.033071320326,50.4750263109867],[-121.0328075792,50.4749165736635],[-121.032656829732,50.474835146952],[-121.032495231938,50.4747053675132],[-121.032144704203,50.4744130941512],[-121.0317993893,50.4745590510823]]]}},{"type":"Feature","id":"883053336","properties":{"name":"iSP_22KPH_%TR_Brake_Temp_Ctrl","oid":"883053336","speedLimit":6.111111},"geometry":{"type":"Polygon","coordinates":[[[-121.032465927369,50.4721452793468],[-121.032251074155,50.4722255376839],[-121.031488450912,50.4710083611335],[-121.030816559124,50.4699233906456],[-121.030661301261,50.4696602367699],[-121.030596493078,50.4694577484904],[-121.030550141139,50.4692567880853],[-121.030596493078,50.4689729629693],[-121.030722728147,50.4686243380089],[-121.030884466828,50.4683755641263],[-121.031088894378,50.4680978505074],[-121.031688229179,50.4675365813974],[-121.032432114404,50.4668937058258],[-121.03278841852,50.4665562253601],[-121.033147540384,50.4662224297677],[-121.033484402045,50.4658707490587],[-121.033779420163,50.4660341417316],[-121.033587390701,50.4659933385008],[-121.032919302871,50.4666521219399],[-121.032554545514,50.4669913100298],[-121.032178517168,50.4673077597554],[-121.031774311351,50.4676684279601],[-121.031381940073,50.4680344886623],[-121.031147080855,50.4682864081684],[-121.031008729474,50.4684699328317],[-121.030905036382,50.4686545359946],[-121.030828534549,50.4688530697759],[-121.030767671212,50.4691913591162],[-121.030776406228,50.4694006778924],[-121.030873618502,50.4696303982839],[-121.031027608379,50.4699351642651],[-121.031330516189,50.4704038621688],[-121.03153057623,50.4707110547738],[-121.031750219614,50.4710829573482],[-121.032145972189,50.4717288886683],[-121.032381254069,50.4721451894718],[-121.032465927369,50.4721452793468]]]}},{"type":"Feature","id":"883059532","properties":{"name":"iSP_22KPH_%TR_Brake_Ctrl","oid":"883059532","speedLimit":6.111111},"geometry":{"type":"Polygon","coordinates":[[[-121.027262252976,50.477322076903],[-121.027030070618,50.4772099129559],[-121.027334528188,50.4769441527064],[-121.027716473803,50.4766325562285],[-121.028033188573,50.4763228471247],[-121.028190418859,50.4761688913224],[-121.028621252385,50.4756924641723],[-121.028907253713,50.4753258642203],[-121.029263839604,50.4748877238022],[-121.029472634661,50.4746568350362],[-121.029691432721,50.4745405368411],[-121.029801465744,50.4744883194907],[-121.029952215212,50.4745927541914],[-121.029788644995,50.4745421545903],[-121.029556039974,50.4747916474725],[-121.029251864179,50.4751731666674],[-121.02907293724,50.4754781123985],[-121.028853152969,50.4757748795084],[-121.02869606357,50.475974851289],[-121.028408935144,50.4762707196493],[-121.028041641814,50.476570093133],[-121.02724393762,50.4772195295764],[-121.027262252976,50.477322076903]]]}},{"type":"Feature","id":"884401102","properties":{"name":"iSP_30KPH_%TR_Maint_Limit_Policy","oid":"884401102","speedLimit":8.333333},"geometry":{"type":"Polygon","coordinates":[[[-121.036992497142,50.4611013546852],[-121.037108588321,50.4611078256821],[-121.038294859835,50.4609921566117],[-121.038278516902,50.4603979932672],[-121.03812001863,50.4605658796879],[-121.037032931812,50.4607085112456],[-121.036745239837,50.4605378387012],[-121.036992497142,50.4611013546852]]]}},{"type":"Feature","id":"910445950","properties":{"name":"SP_22KPH_%TR_1635_FLATS_SEP_29_NS","oid":"910445950","speedLimit":6.111111},"geometry":{"type":"Polygon","coordinates":[[[-121.017369847466,50.4554938763322],[-121.018002995232,50.4544142084669],[-121.018148250093,50.4539985367881],[-121.018532872568,50.4537515604047],[-121.018948912922,50.4536881086847],[-121.018866775595,50.4543416793761],[-121.018261946187,50.4560721318093],[-121.018276034923,50.4557008583595],[-121.017369847466,50.4554938763322]]]}},{"type":"Feature","id":"915576987","properties":{"name":"iSP_15KPH_%TR_Preventing Shifting","oid":"915576987","speedLimit":4.1666665},"geometry":{"type":"Polygon","coordinates":[[[-121.036997991748,50.4448632866005],[-121.0375120897,50.4453132006381],[-121.037981385474,50.4457956494104],[-121.038525351545,50.4462189604606],[-121.039458025824,50.4468500624126],[-121.039915346172,50.4470998249197],[-121.040471287668,50.4471951822497],[-121.041224471459,50.4473228945644],[-121.041642906898,50.4475097446012],[-121.042321420391,50.4480951900749],[-121.042704070443,50.4485279379956],[-121.042847493768,50.4487949564945],[-121.043008950675,50.4493917262128],[-121.043188159389,50.4501982640821],[-121.043325665445,50.450501412314],[-121.043687323281,50.4511688237489],[-121.043857796979,50.4514891380977],[-121.044126750936,50.4522537043618],[-121.044383870356,50.4529382819136],[-121.044697626491,50.4537982055077],[-121.044736511401,50.4541948236955],[-121.04457209586,50.4550719134064],[-121.04421649618,50.4568393943221],[-121.044052080639,50.4572074322733],[-121.043005851154,50.4583990843358],[-121.041905943587,50.4595374405484],[-121.041344084822,50.4600007459547],[-121.040372666521,50.460597605548],[-121.039924222076,50.46073106986],[-121.03913511201,50.460807283824],[-121.038497737624,50.4608388299341],[-121.038645528457,50.4611435959152],[-121.038758379227,50.4609496457568],[-121.039879419897,50.4608798129148],[-121.040707414872,50.4606319377818],[-121.041511458997,50.4600579963027],[-121.042874403253,50.4587003451936],[-121.044243264777,50.457142542554],[-121.044428672534,50.4562902583313],[-121.04481428122,50.4544216680884],[-121.044811181698,50.4537867015131],[-121.044261298358,50.4523014279643],[-121.043833846129,50.4511859898658],[-121.043346657661,50.4503374803914],[-121.043050794219,50.4493097602515],[-121.042928222222,50.4486919597932],[-121.042240691938,50.447887309298],[-121.041547244385,50.447391559032],[-121.041092882671,50.4472218751121],[-121.040459312243,50.4471303824053],[-121.039918304807,50.4470197463325],[-121.038821355874,50.4463333712816],[-121.03819666135,50.4458718633744],[-121.037153531386,50.4449070557049],[-121.037377683165,50.4446973774288],[-121.036997991748,50.4448632866005]]]}},{"type":"Feature","id":"917773475","properties":{"name":"SP_15KPH_%TR_1200_CORNER_Sept_29_DS","oid":"917773475","speedLimit":4.1666665},"geometry":{"type":"Polygon","coordinates":[[[-121.037098867093,50.4446825480608],[-121.036924730325,50.4448621182261],[-121.036629148657,50.4448205959957],[-121.036414577218,50.4448699373474],[-121.036323000439,50.4449676314263],[-121.036254388298,50.4450821321222],[-121.036242131098,50.4451449547176],[-121.036263264201,50.4452672745348],[-121.036315956071,50.4453514873701],[-121.036184085509,50.4453952564744],[-121.036088986545,50.4451942960693],[-121.036162952406,50.4449316814432],[-121.036259742017,50.4447913866345],[-121.036516579662,50.4447150827955],[-121.036713681069,50.4447117574221],[-121.036923039676,50.4447700862695],[-121.037093654261,50.4446836265603],[-121.037098867093,50.4446825480608]]]}},{"type":"Feature","id":"929009157","properties":{"name":"iSP_22KPH_%TR_Long_Single_Lane","oid":"929009157","speedLimit":6.111111},"geometry":{"type":"Polygon","coordinates":[[[-121.005680846428,50.438055977564],[-121.004751130784,50.4382240437346],[-121.00517562438,50.4381975306222],[-121.007935889405,50.4431704917746],[-121.008524657654,50.4445348835056],[-121.008211746842,50.4465097059483],[-121.007833746074,50.4466801987428],[-121.008935203401,50.4466469450085],[-121.008824465942,50.446592930159],[-121.009404499175,50.4448176301221],[-121.008765575028,50.4430683938228],[-121.008263875163,50.4415401600442],[-121.007260334546,50.4401561755726],[-121.006440651925,50.4389840263759],[-121.005861604903,50.4383130199426],[-121.005680846428,50.438055977564]]]}},{"type":"Feature","id":"932268643","properties":{"name":"SP_35KPH_70%traction_1185_1170_SEP_29_NS","oid":"932268643","speedLimit":9.722222},"geometry":{"type":"Polygon","coordinates":[[[-121.038729074658,50.4481974677766],[-121.038467305956,50.4482557067491],[-121.038947168281,50.4498293273812],[-121.039506350186,50.4497914001492],[-121.03910580744,50.4497306446778],[-121.038622000269,50.4483442335823],[-121.038852069317,50.4481595405445],[-121.038729074658,50.4481974677766]]]}},{"type":"Feature","id":"934051091","properties":{"name":"iSP_17KPH_%TR_Ramp_Permission Blocker","oid":"934051091","speedLimit":4.7222223},"geometry":{"type":"Polygon","coordinates":[[[-121.039512971891,50.461029724344],[-121.039464929304,50.4607716933408],[-121.03901747107,50.4607922747061],[-121.039076361984,50.4610450030868],[-121.03916385303,50.4608999449052],[-121.039379833343,50.4608868231614],[-121.039512971891,50.461029724344]]]}},{"type":"Feature","id":"934181442","properties":{"name":"SP_30KPH_TR%_1590_3_SEPT 29_NS_Rough_section ","oid":"934181442","speedLimit":8.333333},"geometry":{"type":"Polygon","coordinates":[[[-121.011062320661,50.4415092430588],[-121.010401277199,50.4418073582931],[-121.011607132056,50.4432053632582],[-121.012272683913,50.4429313345125],[-121.011824521242,50.4429215381421],[-121.010901427304,50.4417731159343],[-121.011062320661,50.4415092430588]]]}},{"type":"Feature","id":"934181877","properties":{"name":"SP_30KPH_TR%_1590_7_SEPT 29_NS","oid":"934181877","speedLimit":8.333333},"geometry":{"type":"Polygon","coordinates":[[[-121.013995595356,50.4497859177767],[-121.013325394216,50.4498808257319],[-121.013673949528,50.451505405465],[-121.014402900694,50.4513829058979],[-121.013984465255,50.4512796395716],[-121.013707198944,50.4500006290504],[-121.013995595356,50.4497859177767]]]}},{"type":"Feature","id":"934182273","properties":{"name":"SP_30KPH_TR%_1590_17_SEPT 29_NS","oid":"934182273","speedLimit":8.333333},"geometry":{"type":"Polygon","coordinates":[[[-121.008849684778,50.4413697571247],[-121.009440707225,50.4411108273719],[-121.007219758988,50.4391735726614],[-121.00629821481,50.4396570100582],[-121.007075913,50.4394769006432],[-121.008913788524,50.4411153211198],[-121.008849684778,50.4413697571247]]]}},{"type":"Feature","id":"936169885","properties":{"name":"SP_15KPH_%TR_24shl_loadplan_Sept_29_NS","oid":"936169885","speedLimit":4.1666665},"geometry":{"type":"Polygon","coordinates":[[[-121.038738091448,50.455072902031],[-121.038049574953,50.4548565730081],[-121.037413750328,50.4555984009079],[-121.037845147403,50.4558185945539],[-121.038389677024,50.455697802611],[-121.038577620753,50.4556102644023],[-121.038586919318,50.4552049283436],[-121.038738091448,50.455072902031]]]}},{"type":"Feature","id":"936513295","properties":{"name":"SP_30KPH_%TR_1635_FLATS_SEP_29_NS","oid":"936513295","speedLimit":8.333333},"geometry":{"type":"Polygon","coordinates":[[[-121.017286019491,50.4555552609283],[-121.018050192495,50.4557852509447],[-121.0174340921,50.457453869407],[-121.015227091711,50.4585170002801],[-121.014498281432,50.457879696956],[-121.016177376908,50.4566194703009],[-121.017286019491,50.4555552609283]]]}},{"type":"Feature","id":"938065675","properties":{"name":"iSP_8KPH_CR01_YARD_RUTIING_SEP_29_DS","oid":"938065675","speedLimit":2.2222223},"geometry":{"type":"Polygon","coordinates":[[[-121.034289291494,50.4648012370636],[-121.034099093568,50.4648580380368],[-121.03394087707,50.4649070198887],[-121.033829435173,50.4650049835924],[-121.034044288387,50.4650688846872],[-121.033964264371,50.4650113647144],[-121.034242657781,50.4648881461476],[-121.034319300501,50.4649373976243],[-121.034289291494,50.4648012370636]]]}},{"type":"Feature","id":"938165680","properties":{"name":"SP_10KPH_%TR_22SH_Sept_29_NS","oid":"938165680","speedLimit":2.7777777},"geometry":{"type":"Polygon","coordinates":[[[-121.034080496437,50.4466114444003],[-121.035055296034,50.4472506350986],[-121.035497118774,50.4474473713807],[-121.035795236414,50.4469122558833],[-121.034854954218,50.4461954132217],[-121.034080496437,50.4466114444003]]]}},{"type":"Feature","id":"945606742","properties":{"name":"SP_20KPH_19SH_SEPT 29_NS","oid":"945606742","speedLimit":5.5555553},"geometry":{"type":"Polygon","coordinates":[[[-121.003173333315,50.42719728519],[-121.002724043545,50.4276021718738],[-121.002069480902,50.4273943809719],[-121.002381264615,50.427046744636],[-121.003173333315,50.42719728519]]]}},{"type":"Feature","id":"947937278","properties":{"name":"SP_20KM_HDH_RAMP_SEPT_29_NS","oid":"947937278","speedLimit":5.5555553},"geometry":{"type":"Polygon","coordinates":[[[-121.035683935404,50.4530871148434],[-121.034802825897,50.4533740855829],[-121.033880577283,50.4522901935946],[-121.033033562515,50.4504455100904],[-121.032908877207,50.4481652925418],[-121.033815487325,50.4482010627749],[-121.033429596865,50.4497292965535],[-121.034151221888,50.4518553785498],[-121.03525887826,50.4531885836705],[-121.035683935404,50.4530871148434]]]}},{"type":"Feature","id":"948238095","properties":{"name":"SP_30KPH_CRUSHER YARD_SEPT_29_NS","oid":"948238095","speedLimit":8.333333},"geometry":{"type":"Polygon","coordinates":[[[-121.035558968322,50.4644269078653],[-121.035668296908,50.4645727749214],[-121.036764964066,50.464200782472],[-121.036576034125,50.4640972465209],[-121.035956552433,50.4643169907922],[-121.035558968322,50.4644269078653]]]}},{"type":"Feature","id":"948301528","properties":{"name":"SP_25KPH_%TR_24SH__LANE_SEP_29_NS","oid":"948301528","speedLimit":6.9444447},"geometry":{"type":"Polygon","coordinates":[[[-121.038886586719,50.4508956937529],[-121.038355018735,50.450793595801],[-121.038184685925,50.451524548831],[-121.038308525908,50.4527592509982],[-121.038334308294,50.4539972785387],[-121.03814340593,50.4547940200376],[-121.038721466741,50.4548072316564],[-121.039005354758,50.4538326276164],[-121.03884023478,50.4523641606846],[-121.038767959567,50.4514784429778],[-121.03887108911,50.4509812547125],[-121.038886586719,50.4508956937529]]]}},{"type":"Feature","id":"948333262","properties":{"name":"SP_15KPH_19SH_SEP_29_NS","oid":"948333262","speedLimit":4.1666665},"geometry":{"type":"Polygon","coordinates":[[[-121.001735718762,50.4276538499744],[-121.002115973729,50.4274007620939],[-121.001864771578,50.4271372487183],[-121.001669924368,50.426752314275],[-121.002057223702,50.4262431726404],[-121.00173797296,50.4261428721877],[-121.001735718762,50.4276538499744]]]}}]}