{"type":"FeatureCollection","features":[{"type":"Feature","id":"702602533","properties":{"name":"iSP_4KPH_%TR_CR01_SLOW BUMP","oid":"702602533","speedLimit":1.1111112},"geometry":{"type":"Polygon","coordinates":[[[-121.033346573304,50.4648090884959],[-121.033641399453,50.4646920740024],[-121.03368480598,50.4647327864183],[-121.033356861214,50.4648709210392],[-121.033346573304,50.4648090884959]]]}},{"type":"Feature","id":"707947583","properties":{"name":"iSP_22KPH_%TR_Permission Gate 1 from west dump_Jun","oid":"707947583","speedLimit":6.111111},"geometry":{"type":"Polygon","coordinates":[[[-121.0386176477,50.4619792610347],[-121.038844404523,50.4618007734894],[-121.037969932125,50.4613523078042],[-121.037732746461,50.4615435572988],[-121.037948933513,50.4614978120015],[-121.038656121667,50.4618473276427],[-121.0386176477,50.4619792610347]]]}},{"type":"Feature","id":"742345972","properties":{"name":"iSP_4KPH_%TR_CR01_PITSIDE_SLOW BUMP","oid":"742345972","speedLimit":1.1111112},"geometry":{"type":"Polygon","coordinates":[[[-121.033386456573,50.4648840424801],[-121.033693825518,50.4647455483677],[-121.033743996698,50.4647776329869],[-121.033462417995,50.4649195422688],[-121.033386456573,50.4648840424801]]]}},{"type":"Feature","id":"776427243","properties":{"name":"iSP_7KPH_%TR_CR1_PermissionBlocker_DO_NOT_DELETE","oid":"776427243","speedLimit":1.9444444},"geometry":{"type":"Polygon","coordinates":[[[-121.034087866586,50.4652140557058],[-121.034039386569,50.4652343669773],[-121.034018247026,50.4652757983763],[-121.034103932638,50.4652267277823],[-121.034087866586,50.4652140557058]]]}},{"type":"Feature","id":"794004438","properties":{"name":"iSP_11KPH_%TR_LOWER_FUEL_BAY","oid":"794004438","speedLimit":3.0555556},"geometry":{"type":"Polygon","coordinates":[[[-121.036765401008,50.460696774997],[-121.036767514962,50.4607266127941],[-121.036737778672,50.4606721498271],[-121.037114062525,50.4606004312666],[-121.037524169644,50.4605573821557],[-121.03753192081,50.4605827263087],[-121.036933248973,50.4606515689369],[-121.036765401008,50.460696774997]]]}},{"type":"Feature","id":"801543391","properties":{"name":"iSP_4KPH_%TR_CR1_PermissionBlocker_DO_NOT_DELETE_","oid":"801543391","speedLimit":1.1111112},"geometry":{"type":"Polygon","coordinates":[[[-121.033143069977,50.4645245509489],[-121.033142224395,50.4644751208633],[-121.033163786728,50.4644330603542],[-121.033095717402,50.4644606513292],[-121.033143069977,50.4645245509489]]]}},{"type":"Feature","id":"806473874","properties":{"name":"iSP_4KPH_%TR_Permission Blocker - DO NOT DELETE","oid":"806473874","speedLimit":1.1111112},"geometry":{"type":"Polygon","coordinates":[[[-121.02270408215,50.4815460255893],[-121.022670963534,50.4815436888943],[-121.022663353299,50.4815723583439],[-121.022685479353,50.4815734368185],[-121.022689566331,50.4815493508859],[-121.02270408215,50.4815460255893]]]}},{"type":"Feature","id":"824566967","properties":{"name":"iSP_4Cr_3KPH","oid":"824566967","speedLimit":0.8333333},"geometry":{"type":"Polygon","coordinates":[[[-121.023287110726,50.4810691600731],[-121.023266957695,50.4810691600731],[-121.02326428002,50.4811872530411],[-121.02328936561,50.481186534058],[-121.023287110726,50.4810691600731]]]}},{"type":"Feature","id":"826307302","properties":{"name":"iSP_4KPH_TR%_CRUSHER POCKETS","oid":"826307302","speedLimit":1.1111112},"geometry":{"type":"Polygon","coordinates":[[[-121.023282319096,50.481322331984],[-121.023321779575,50.481477991817],[-121.023526551274,50.4814385376214],[-121.023445516362,50.4811896796089],[-121.023037100406,50.481190398592],[-121.023042455757,50.4813610671964],[-121.023267380486,50.4813270952467],[-121.023282319096,50.481322331984]]]}},{"type":"Feature","id":"849417440","properties":{"name":"iSP_Permissions_35_KPH_June_19_NS","oid":"849417440","speedLimit":9.722222},"geometry":{"type":"Polygon","coordinates":[[[-121.032682932607,50.466035314109],[-121.032997629926,50.4660159914392],[-121.03320465651,50.4658151255461],[-121.033793604157,50.4653806800305],[-121.033714401339,50.4652518921895],[-121.033950600491,50.4654013507936],[-121.033414219839,50.4658096433002],[-121.033011722954,50.4661891764843],[-121.032682932607,50.466035314109]]]}},{"type":"Feature","id":"853029148","properties":{"name":"SP_30KPH_%TR_1635 Flats_AUG_1_NS","oid":"853029148","speedLimit":8.333333},"geometry":{"type":"Polygon","coordinates":[[[-121.018573415594,50.4569722629874],[-121.017391856112,50.4572910421028],[-121.016413095305,50.458458850342],[-121.018332424812,50.4588943743321],[-121.020676236327,50.4589884712404],[-121.020224413844,50.4572330740933],[-121.019406454489,50.4570979052776],[-121.01895209526,50.4570012919286],[-121.018573415594,50.4569722629874]]]}},{"type":"Feature","id":"883050998","properties":{"name":"iSP_22kph_%TR_4CR_Brake_Temp_CTRL_NOREMOVE","oid":"883050998","speedLimit":6.111111},"geometry":{"type":"Polygon","coordinates":[[[-121.031786334155,50.4745600266624],[-121.032175724523,50.474313415472],[-121.032477456256,50.4745757544169],[-121.03277918799,50.4748031328104],[-121.032957042005,50.474885546244],[-121.033165900683,50.4749356953126],[-121.0334498752,50.4749605002283],[-121.033653801318,50.4749229333632],[-121.03381502556,50.4748635273877],[-121.033906207452,50.4748114909886],[-121.033995557251,50.4747483103519],[-121.034046010292,50.4746591564522],[-121.03404023215,50.4745489722979],[-121.034044037268,50.4744846233138],[-121.033981887014,50.4743806403883],[-121.033863505577,50.4742605702169],[-121.033496523123,50.4739386455507],[-121.033048082967,50.4735609996971],[-121.032934775021,50.4734264599915],[-121.032809769861,50.4732219093102],[-121.032592878157,50.4728159534986],[-121.03223928408,50.4722100305226],[-121.03247435579,50.4721571852675],[-121.032417279026,50.472206705226],[-121.032889959191,50.4730498926125],[-121.033029198309,50.4733106138456],[-121.033237070475,50.4735479681291],[-121.033730185531,50.4739626416104],[-121.03408532984,50.4742721638188],[-121.034190745691,50.474395469414],[-121.034243453616,50.4744626943304],[-121.034250500131,50.4745938188664],[-121.034225555471,50.4746798272152],[-121.034171015452,50.4747926176832],[-121.034073491697,50.4748768285744],[-121.033960606541,50.4749386611177],[-121.033777960896,50.4750171201444],[-121.033518367317,50.4750653818825],[-121.033250317921,50.4750690666707],[-121.033058652738,50.4750272757802],[-121.032794831251,50.4749175409903],[-121.032644035849,50.4748361161584],[-121.032482388816,50.4747063397157],[-121.032131754275,50.4744140731007],[-121.031786334155,50.4745600266624]]]}},{"type":"Feature","id":"883053336","properties":{"name":"iSP_22kph_%TR_Brake_Temp_CTRL_NOREMOVE","oid":"883053336","speedLimit":6.111111},"geometry":{"type":"Polygon","coordinates":[[[-121.032453075318,50.4721463106487],[-121.032238156638,50.4722265671331],[-121.031475301023,50.4710094186811],[-121.03080320451,50.4699244732398],[-121.030647899339,50.4696613254389],[-121.03058307141,50.469458841834],[-121.030536705347,50.469257886068],[-121.03058307141,50.4689740675041],[-121.030709344942,50.4686254505916],[-121.030871132906,50.468376682452],[-121.031075622744,50.4680989752441],[-121.031675140163,50.4675377190909],[-121.03241925205,50.4668948583602],[-121.032775664733,50.4665573856852],[-121.033134896021,50.4662235977984],[-121.033471860324,50.465871925208],[-121.033766968334,50.466035314109],[-121.03357488036,50.4659945118202],[-121.032906588964,50.4666532800512],[-121.032541720465,50.4669924603109],[-121.032165577543,50.4673089027313],[-121.031761248565,50.46766956261],[-121.03136875773,50.4680356148617],[-121.031133826951,50.4682875285522],[-121.030995433414,50.468471048979],[-121.030891708727,50.4686556478803],[-121.030815183584,50.4688541770784],[-121.030754301702,50.4691924586093],[-121.030763039379,50.4694017725534],[-121.030860281274,50.4696314876418],[-121.031014318072,50.4699362465875],[-121.031317318177,50.4704049336713],[-121.031517439177,50.4707121191848],[-121.031737149487,50.4710840131739],[-121.032133022648,50.4717299295826],[-121.032368376218,50.4721462207758],[-121.032453075318,50.4721463106487]]]}},{"type":"Feature","id":"883059532","properties":{"name":"iSP_22kph_%TR_Brake_CTRL_NOREMOVE","oid":"883059532","speedLimit":6.111111},"geometry":{"type":"Polygon","coordinates":[[[-121.027247815363,50.4773229886988],[-121.027015562259,50.477210827341],[-121.027320112597,50.4769450732265],[-121.027702174591,50.4766334839418],[-121.028018985864,50.4763237819876],[-121.028176264059,50.4761698297394],[-121.02860722886,50.4756934135876],[-121.028893317332,50.4753268220986],[-121.029250011875,50.4748886917949],[-121.029458870553,50.4746578083589],[-121.02967773528,50.4745415128486],[-121.02978780183,50.4744892967037],[-121.029938597231,50.4745937289935],[-121.029774977174,50.4745431305605],[-121.029542301279,50.4747926176832],[-121.029238032801,50.4751741280707],[-121.029059051343,50.4754790667621],[-121.028839200104,50.4757758270211],[-121.02868206284,50.4759757941854],[-121.028394846926,50.4762716557156],[-121.028027441681,50.4765710222883],[-121.027229494426,50.4772204437395],[-121.027247815363,50.4773229886988]]]}},{"type":"Feature","id":"886231481","properties":{"name":"SP_15KPH_%TR_1200_SWITCHBACK_AUG_1_NS","oid":"886231481","speedLimit":4.1666665},"geometry":{"type":"Polygon","coordinates":[[[-121.036897734542,50.4452292025004],[-121.036028194704,50.4452769250012],[-121.036512149291,50.4453471157226],[-121.03660657258,50.445103739956],[-121.036760609378,50.4451329486429],[-121.036897734542,50.4452292025004]]]}},{"type":"Feature","id":"903864124","properties":{"name":"SP_15KPH_%TR_OLD_GARBAGEDUMP_AUG_1_NS","oid":"903864124","speedLimit":4.1666665},"geometry":{"type":"Polygon","coordinates":[[[-121.04257497001,50.4670033349297],[-121.042122020085,50.4673299329859],[-121.039921816527,50.4662999897488],[-121.040712999129,50.4661241983901],[-121.042254071759,50.4668274536981],[-121.04257497001,50.4670033349297]]]}},{"type":"Feature","id":"903865068","properties":{"name":"SP_20KPH_%TR_OLD_GARBAGE_DUMP_AUG_1_NS","oid":"903865068","speedLimit":5.5555553},"geometry":{"type":"Polygon","coordinates":[[[-121.042916585013,50.4672025831109],[-121.042589344899,50.4670079184468],[-121.042132448926,50.4673442227742],[-121.042527053715,50.4674846042172],[-121.043328665157,50.4678213579091],[-121.043745959721,50.4684766210977],[-121.043657314574,50.4685897710572],[-121.044329692948,50.4682713514334],[-121.044038108195,50.4682671274079],[-121.043756388562,50.4678712373591],[-121.043303720497,50.4674104590889],[-121.042916585013,50.4672025831109]]]}},{"type":"Feature","id":"908328496","properties":{"name":"SP_12KPH_%TR_9019_SOFT_GROUND_AUG_1_NS","oid":"908328496","speedLimit":3.3333333},"geometry":{"type":"Polygon","coordinates":[[[-121.038988998992,50.4644902195076],[-121.039313702361,50.4647038473501],[-121.03949282475,50.464879548836],[-121.039380785176,50.4652167518923],[-121.039341042836,50.466149542543],[-121.038093950773,50.4665992664486],[-121.03665674376,50.4659703360147],[-121.037870153486,50.4651411687978],[-121.038509413244,50.4648156492163],[-121.038988998992,50.4644902195076]]]}},{"type":"Feature","id":"908575258","properties":{"name":"iSP_15km_permissions ","oid":"908575258","speedLimit":4.1666665},"geometry":{"type":"Polygon","coordinates":[[[-121.0418596079,50.4595517944699],[-121.04144935985,50.4599143416792],[-121.041073639719,50.46020741715],[-121.040678189349,50.4604249993993],[-121.040336997137,50.4605857819867],[-121.039946479326,50.4607150191922],[-121.039506494987,50.4607811656339],[-121.039165443705,50.4607969832613],[-121.039111044616,50.4612130947087],[-121.039244505593,50.4609388026704],[-121.03979328811,50.4608474019486],[-121.040262867809,50.4607055825395],[-121.040930313623,50.4603934540175],[-121.041533354298,50.4599868690956],[-121.041933878159,50.4596526318444],[-121.042082136815,50.4595296857408],[-121.041933878159,50.4594918492571],[-121.0418596079,50.4595517944699]]]}},{"type":"Feature","id":"910445950","properties":{"name":"SP_30KPH_%TR_1635_FLATS_AUG_1_NS","oid":"910445950","speedLimit":8.333333},"geometry":{"type":"Polygon","coordinates":[[[-121.020209193373,50.4571654896855],[-121.019027774822,50.456962646589],[-121.018634015615,50.4569240012494],[-121.017437376593,50.4572330740933],[-121.018073535884,50.4544704715485],[-121.018755074727,50.4539005875986],[-121.01892179525,50.4535142240754],[-121.019542734071,50.4545188231595],[-121.020209193373,50.4571461670157],[-121.020194113833,50.4571461670157],[-121.020209193373,50.4571654896855]]]}},{"type":"Feature","id":"913788494","properties":{"name":"SP_20KPH_%TR_ROUGH GROUND_21SH_AUG_1_NS","oid":"913788494","speedLimit":5.5555553},"geometry":{"type":"Polygon","coordinates":[[[-121.040479618582,50.4520545087128],[-121.041009939232,50.4519658041774],[-121.041246702105,50.4530986518653],[-121.040659727482,50.4531577882222],[-121.040567136287,50.4525634588481],[-121.040479618582,50.4520545087128]]]}},{"type":"Feature","id":"913898324","properties":{"name":"SP_20KPH_%TR_SOFT_24SH_AUG 1_NS","oid":"913898324","speedLimit":5.5555553},"geometry":{"type":"Polygon","coordinates":[[[-121.03806717402,50.4505179520353],[-121.037873394882,50.450005137366],[-121.037766851589,50.4494799202388],[-121.037766851589,50.4492636860828],[-121.036885191747,50.4492451722689],[-121.037485836608,50.4493872612966],[-121.037495560797,50.449900075966],[-121.037874099534,50.4510837917055],[-121.038261516878,50.4510792980614],[-121.03806717402,50.4505179520353]]]}}]}