{"type":"FeatureCollection","features":[{"type":"Feature","id":"702602533","properties":{"name":"iSP_4KPH_%TR_CR01_Slow Bump","oid":"702602533","speedLimit":1.1111112},"geometry":{"type":"Polygon","coordinates":[[[-121.033360924036,50.4648078034064],[-121.033655665645,50.4646907870297],[-121.033699059725,50.4647315001008],[-121.033371208997,50.4648696369449],[-121.033360924036,50.4648078034064]]]}},{"type":"Feature","id":"707947583","properties":{"name":"iSP_25KPH_%TR_Permission Gate 1 From West Dump","oid":"707947583","speedLimit":6.9444447},"geometry":{"type":"Polygon","coordinates":[[[-121.038630486975,50.4619779304013],[-121.038857178777,50.4617994399834],[-121.038142162684,50.4614082170281],[-121.0379945101,50.4616709196925],[-121.038194010156,50.4615668452193],[-121.03866894991,50.4618459948859],[-121.038630486975,50.4619779304013]]]}},{"type":"Feature","id":"742345972","properties":{"name":"iSP_4KPH_%TR_CR01_Pit Side_Slow Bump","oid":"742345972","speedLimit":1.1111112},"geometry":{"type":"Polygon","coordinates":[[[-121.033400795869,50.464882758597],[-121.033708076677,50.4647442622556],[-121.033758233471,50.4647763473911],[-121.03347673551,50.464918258957],[-121.033400795869,50.464882758597]]]}},{"type":"Feature","id":"776427243","properties":{"name":"iSP_7KPH_%TR_CR1_PermissionBlocker","oid":"776427243","speedLimit":1.9444444},"geometry":{"type":"Polygon","coordinates":[[[-121.034102004755,50.465212777134],[-121.03405353864,50.4652330887324],[-121.034032405159,50.4652745207982],[-121.034118066201,50.4652254494144],[-121.034102004755,50.465212777134]]]}},{"type":"Feature","id":"776901904","properties":{"name":"SP_35KPH_80%TR_1CR-Connector Parking_SPET_15_DS","oid":"776901904","speedLimit":9.722222},"geometry":{"type":"Polygon","coordinates":[[[-121.034268818362,50.4656278167865],[-121.034012680577,50.4654803330122],[-121.033533232348,50.4658616697912],[-121.032602091193,50.4667553801212],[-121.031096542036,50.4680970241083],[-121.03085280256,50.4684462757518],[-121.030629069446,50.4688679661046],[-121.030555665823,50.4691725502064],[-121.030575672185,50.4694259059406],[-121.03072262032,50.4697752474584],[-121.031707440515,50.4713532609314],[-121.032178153573,50.4721561083146],[-121.03276904569,50.4731229763486],[-121.033374590354,50.4730055106003],[-121.032900214159,50.4730090156992],[-121.031026378881,50.4699119463132],[-121.030746430708,50.4693079908206],[-121.030774326902,50.4689802191418],[-121.031221370461,50.4681720691732],[-121.032722270253,50.4668937865883],[-121.033526469634,50.4660555287194],[-121.034093410473,50.4655822505015],[-121.034268818362,50.4656278167865]]]}},{"type":"Feature","id":"776902235","properties":{"name":"SP_35KPH_80%TR_1cr-4cr sec2_SEPT_15_DS","oid":"776902235","speedLimit":9.722222},"geometry":{"type":"Polygon","coordinates":[[[-121.033393610486,50.4730314842815],[-121.032872599745,50.4731802262964],[-121.033049275642,50.4735342412793],[-121.033925892417,50.4743026667944],[-121.034055370208,50.4744918522574],[-121.034062414702,50.4746646805926],[-121.033837554468,50.4749140818563],[-121.033427564945,50.4749663887159],[-121.033188052165,50.4749423023957],[-121.032696064737,50.4747572511517],[-121.032336654677,50.4744796293487],[-121.032084320919,50.4742624030949],[-121.031901445867,50.4741095268608],[-121.031630796425,50.4739600658513],[-121.031248280427,50.4739187236598],[-121.030843644718,50.4739705811478],[-121.030409985697,50.4740618934663],[-121.03050410013,50.4742759741186],[-121.030540872387,50.4741271422294],[-121.030909158508,50.4740592871108],[-121.031242503942,50.4740219892641],[-121.031522029445,50.4740407729989],[-121.031857347337,50.4742322053202],[-121.032419357031,50.4746883175412],[-121.032799055232,50.4749754660231],[-121.03326990918,50.4751072217898],[-121.033782748309,50.4750935608918],[-121.034190765374,50.4749704330607],[-121.034411398911,50.4746807680975],[-121.034329401006,50.4743629724693],[-121.03382487438,50.4739002994223],[-121.03306280107,50.4732822336601],[-121.033228205778,50.4731568589708],[-121.033310908132,50.4730942165633],[-121.033352188864,50.4730628504224],[-121.033393610486,50.4730314842815]]]}},{"type":"Feature","id":"776902464","properties":{"name":"SP_35KPH_80%TR_SkyWay-4CR_SEPT_15_DS","oid":"776902464","speedLimit":9.722222},"geometry":{"type":"Polygon","coordinates":[[[-121.029522097732,50.475229271129],[-121.029201009717,50.4750683062053],[-121.02851290359,50.4759389188327],[-121.027004113966,50.4773121087093],[-121.027193329062,50.4773779865927],[-121.027135986884,50.4773066263752],[-121.028524315669,50.4762096203124],[-121.029229751251,50.4752841843441],[-121.029441931396,50.4752402357971],[-121.029522097732,50.475229271129]]]}},{"type":"Feature","id":"794004438","properties":{"name":"iSP_11KPH_%TR_Lower_Fuel_Bay","oid":"794004438","speedLimit":3.0555556},"geometry":{"type":"Polygon","coordinates":[[[-121.036778771406,50.4606954237229],[-121.036780884754,50.4607252620002],[-121.036751156992,50.4606707981566],[-121.037127332946,50.4605990784419],[-121.03753732247,50.4605560286382],[-121.037545071412,50.460581373199],[-121.036946571242,50.4606502169352],[-121.036778771406,50.4606954237229]]]}},{"type":"Feature","id":"801543391","properties":{"name":"iSP_4KPH_%TR_CR01_PermissionBlocker_2","oid":"801543391","speedLimit":1.1111112},"geometry":{"type":"Polygon","coordinates":[[[-121.033157479063,50.46452326128],[-121.033156633724,50.4644738303989],[-121.033178189874,50.4644317692128],[-121.033110140066,50.4644593606319],[-121.033157479063,50.46452326128]]]}},{"type":"Feature","id":"806473874","properties":{"name":"iSP_4KPH_%TR_CR04_PermissionBlocker","oid":"806473874","speedLimit":1.1111112},"geometry":{"type":"Polygon","coordinates":[[[-121.02272148457,50.4815450098684],[-121.02268837545,50.4815426731358],[-121.022680767397,50.4815713430468],[-121.022702887107,50.4815724215388],[-121.022706972913,50.4815483352186],[-121.02272148457,50.4815450098684]]]}},{"type":"Feature","id":"824566967","properties":{"name":"iSP_3KPH_%TR_CR04","oid":"824566967","speedLimit":0.8333333},"geometry":{"type":"Polygon","coordinates":[[[-121.023304345964,50.4810681366774],[-121.023284198713,50.4810681366774],[-121.023281521805,50.481186231546],[-121.023306600202,50.4811855125514],[-121.023304345964,50.4810681366774]]]}},{"type":"Feature","id":"826307302","properties":{"name":"iSP_4KPH_%TR_CR04_Pockets","oid":"826307302","speedLimit":1.1111112},"geometry":{"type":"Polygon","coordinates":[[[-121.023299555709,50.4813213126629],[-121.023339004872,50.4814769750011],[-121.023543717854,50.4814375201706],[-121.023462706179,50.4811886581529],[-121.023054407334,50.4811893771475],[-121.023059761149,50.4813600484988],[-121.023284621382,50.4813260760023],[-121.023299555709,50.4813213126629]]]}},{"type":"Feature","id":"883050998","properties":{"name":"iSP_22KPH_%TR_4CR_Brake_Temp_Ctrl","oid":"883050998","speedLimit":6.111111},"geometry":{"type":"Polygon","coordinates":[[[-121.031801132279,50.4745588985071],[-121.032190410991,50.4743122833476],[-121.032492056204,50.4745746265147],[-121.032793701417,50.4748020085677],[-121.032971504434,50.4748844233276],[-121.033180303222,50.4749345732033],[-121.033464196311,50.4749593785182],[-121.033668063954,50.4749218110486],[-121.033829241966,50.474862404117],[-121.033920397712,50.4748103668803],[-121.03400972189,50.4747471852269],[-121.034060160464,50.4746580298922],[-121.034054383979,50.4745478439646],[-121.034058188006,50.4744834939448],[-121.033996055573,50.4743795093459],[-121.033877708081,50.474259437242],[-121.033510830858,50.4739375073946],[-121.03306251929,50.4735598554631],[-121.032949243834,50.4734253135922],[-121.032824274519,50.4732207596189],[-121.032607445008,50.4728147972736],[-121.032253952323,50.4722088645458],[-121.032488956627,50.4721560184402],[-121.032431896229,50.4722055391956],[-121.032904440855,50.4730487401527],[-121.033043640048,50.4733094655818],[-121.033251452607,50.4735468236854],[-121.033744426264,50.4739615038405],[-121.034099468738,50.4742710310305],[-121.034204854361,50.4743943386102],[-121.034257547172,50.4744615646085],[-121.034264591666,50.4745926912549],[-121.034239654159,50.474678700988],[-121.034185129779,50.4747914932712],[-121.034087633988,50.4748757055177],[-121.033974781202,50.4749375390562],[-121.03379218793,50.4750159993456],[-121.033532668788,50.4750642618604],[-121.033264696254,50.4750679467079],[-121.03307308603,50.4750261551448],[-121.032809340193,50.4749164185888],[-121.032658588031,50.4748349924465],[-121.03249698735,50.4747052139151],[-121.032146453352,50.4744129425964],[-121.031801132279,50.4745588985071]]]}},{"type":"Feature","id":"883053336","properties":{"name":"iSP_22KPH_%TR_Brake_Temp_Ctrl","oid":"883053336","speedLimit":6.111111},"geometry":{"type":"Polygon","coordinates":[[[-121.032467682257,50.4721451436464],[-121.032252825204,50.4722254014224],[-121.031490188335,50.4710082333814],[-121.030818284542,50.4699232704787],[-121.030663023904,50.4696601184426],[-121.030598214564,50.4694576315788],[-121.030551861797,50.4692566725786],[-121.030598214564,50.4689728494468],[-121.030724451888,50.4686242269237],[-121.030886193459,50.4683754547803],[-121.031090624662,50.4680977431029],[-121.031689970171,50.4675364779168],[-121.032433868688,50.4668936068396],[-121.03279017917,50.4665561287333],[-121.03314930745,50.4662223354744],[-121.033486175131,50.4658706572241],[-121.03378119852,50.4660340487547],[-121.033589165626,50.4659932458092],[-121.03292106586,50.4666520246426],[-121.032556301985,50.4669912103612],[-121.032180266921,50.4673076578745],[-121.031776053882,50.4676683235578],[-121.031383675592,50.4680343817008],[-121.031148812178,50.4682862994457],[-121.031010458325,50.468469822826],[-121.03090676338,50.4686544246983],[-121.030830260181,50.4688529570916],[-121.030769395757,50.4691912440669],[-121.030778130929,50.4694005613797],[-121.030875344939,50.4696302801653],[-121.031029337568,50.4699350440158],[-121.03133225079,50.4704037386428],[-121.031532314406,50.4707109291002],[-121.031751961714,50.4710828290746],[-121.032147721361,50.471728755879],[-121.032383007444,50.4721450537721],[-121.032467682257,50.4721451436464]]]}},{"type":"Feature","id":"883059532","properties":{"name":"iSP_22KPH_%TR_Brake_Ctrl","oid":"883059532","speedLimit":6.111111},"geometry":{"type":"Polygon","coordinates":[[[-121.027263914887,50.4773219050112],[-121.02703172838,50.4772097418483],[-121.02733619139,50.4769439834567],[-121.02771814383,50.4766323891572],[-121.028034864259,50.4763226822186],[-121.028192097354,50.4761687274926],[-121.028622938578,50.4756923036732],[-121.028908945016,50.4753257062842],[-121.029265537278,50.4748875689291],[-121.029474336066,50.4746566817773],[-121.029693138035,50.4745403843952],[-121.029803173024,50.47448816741],[-121.029953925186,50.4745926013805],[-121.029790352046,50.4745420021332],[-121.02955774287,50.4747914932712],[-121.029253561639,50.4751730097988],[-121.029074631504,50.475477953398],[-121.028854843305,50.4757747184332],[-121.0286977511,50.4759746888158],[-121.028410617543,50.4762705551076],[-121.028043317651,50.4765699264984],[-121.027245599204,50.4772193584016],[-121.027263914887,50.4773219050112]]]}},{"type":"Feature","id":"884401102","properties":{"name":"iSP_30KPH_%TR_Maint_Limit_Policy","oid":"884401102","speedLimit":8.333333},"geometry":{"type":"Polygon","coordinates":[[[-121.036994332908,50.4611012961938],[-121.037110426162,50.4611077671455],[-121.038296718872,50.4609920988837],[-121.038280375647,50.460397939693],[-121.038121874543,50.4605658249401],[-121.037034768301,50.4607084555006],[-121.036747071186,50.4605377841494],[-121.036994332908,50.4611012961938]]]}},{"type":"Feature","id":"908328496","properties":{"name":"SP_25KPH_%TR_1445_SOFT_GROUND_SEPT_16_NS","oid":"908328496","speedLimit":6.9444447},"geometry":{"type":"Polygon","coordinates":[[[-121.03933352743,50.4644967483528],[-121.03994259434,50.4647090315185],[-121.039190805991,50.4666746729736],[-121.038828578133,50.4674277299784],[-121.038453811078,50.4678941777472],[-121.037916879781,50.4682378571822],[-121.037181857326,50.4680257537652],[-121.038314893665,50.4667051403712],[-121.038795609904,50.4655658933736],[-121.03933352743,50.4644967483528]]]}},{"type":"Feature","id":"910445950","properties":{"name":"SP_22KPH_%TR_1635_FLATS_SEP_16_NS","oid":"910445950","speedLimit":6.111111},"geometry":{"type":"Polygon","coordinates":[[[-121.017915167525,50.4571009897988],[-121.017759343328,50.4573816673291],[-121.016601228592,50.4571352319182],[-121.017124211791,50.4561457155532],[-121.017774982103,50.4542398405271],[-121.01818187205,50.4539931354933],[-121.018534378506,50.4537515532963],[-121.019043977168,50.4536552080153],[-121.018868287499,50.4543416681422],[-121.018263447285,50.4560721084776],[-121.018043518197,50.4566099164638],[-121.017988430257,50.4569256449824],[-121.017915167525,50.4571009897988]]]}},{"type":"Feature","id":"915576987","properties":{"name":"iSP_15KPH_%TR_Preventing Shifting","oid":"915576987","speedLimit":4.1666665},"geometry":{"type":"Polygon","coordinates":[[[-121.036999827613,50.4448633416307],[-121.037513934751,50.445313252523],[-121.03798323891,50.4457956979224],[-121.0385272147,50.4462190060132],[-121.039459905643,50.4468501035531],[-121.039917234163,50.4470998643141],[-121.040473185593,50.4471952209775],[-121.041226382841,50.4473229323993],[-121.041644825756,50.4475097811298],[-121.042323351373,50.4480952225106],[-121.042706008262,50.4485279674059],[-121.04284943415,50.4487949840381],[-121.043010893942,50.4493917495844],[-121.043190105857,50.450198281815],[-121.043327614371,50.4505014279276],[-121.043689278668,50.4511688346966],[-121.043859755412,50.4514891468061],[-121.044128714175,50.452253707725],[-121.044385838188,50.4529382804909],[-121.04469959993,50.4537981980732],[-121.044738485535,50.4541948134882],[-121.044574067056,50.4550718970673],[-121.044218461022,50.4568393656264],[-121.044054042543,50.4572074010046],[-121.043007794364,50.4583990447362],[-121.041907867145,50.4595373929905],[-121.041345998341,50.4600006951577],[-121.040374562683,50.4605975505783],[-121.039926110225,50.4607310139572],[-121.03913698606,50.4608072273884],[-121.038499600286,50.460838773278],[-121.03864739376,50.4611435371285],[-121.038760246546,50.460949588326],[-121.039881307246,50.4608797559722],[-121.040709317016,50.4606318825721],[-121.041513375507,50.4600579451055],[-121.042876344115,50.4587003034878],[-121.044245230098,50.4571425117389],[-121.044430641167,50.4562902334746],[-121.044816256743,50.4544216562952],[-121.044813157166,50.453786694159],[-121.044263264001,50.4523014309938],[-121.043835804134,50.4511860006935],[-121.043348606961,50.4503374971511],[-121.043052738233,50.4493097841961],[-121.042930164046,50.4486919880568],[-121.042242621477,50.447887343187],[-121.041549161534,50.4473915963869],[-121.041094791702,50.4472219136533],[-121.040461209954,50.4471304215861],[-121.039920192851,50.4470197862868],[-121.038823224318,50.4463334160343],[-121.038198518632,50.4458719113536],[-121.03715537003,50.4449071104291],[-121.037379525815,50.4446974336189],[-121.036999827613,50.4448633416307]]]}},{"type":"Feature","id":"917773475","properties":{"name":"SP_15KPH_%TR_1200_CORNER_Sept_15_DS","oid":"917773475","speedLimit":4.1666665},"geometry":{"type":"Polygon","coordinates":[[[-121.037100704761,50.4446826043546],[-121.036926564881,50.4448621732645],[-121.036630977932,50.4448206513243],[-121.036416402659,50.4448699923311],[-121.036324824243,50.444967685727],[-121.036256210876,50.4450821856225],[-121.036243953458,50.4451450077786],[-121.036265086938,50.4452673267407],[-121.03631777975,50.4453515389872],[-121.036185906831,50.4453953077856],[-121.036090806168,50.4451943487854],[-121.03616477335,50.4449317359953],[-121.036261564692,50.4447914421673],[-121.036518406926,50.4447151388618],[-121.036715511855,50.4447118135116],[-121.036924874202,50.4447701419513],[-121.037095491835,50.4446836828466],[-121.037100704761,50.4446826043546]]]}},{"type":"Feature","id":"921770139","properties":{"name":"SP_20KPH_%TR_HIGHMONT_SEPT 16_DS","oid":"921770139","speedLimit":5.5555553},"geometry":{"type":"Polygon","coordinates":[[[-121.001746645977,50.4283062433246],[-121.000754358619,50.4285433318051],[-121.000898348067,50.4289675386392],[-121.001626185138,50.4287939014351],[-121.001924589884,50.4286886585955],[-121.002547745781,50.4285672383767],[-121.002401079426,50.4281876990843],[-121.001746645977,50.4283062433246]]]}},{"type":"Feature","id":"926367691","properties":{"name":"SP_25KPH_%TR_24SH_EMPTY_LANE_SEP_15_DS","oid":"926367691","speedLimit":6.9444447},"geometry":{"type":"Polygon","coordinates":[[[-121.038786029393,50.4508575100201],[-121.0386148482,50.4512055932973],[-121.038640771936,50.452012125528],[-121.038867745517,50.4535984973136],[-121.039046957433,50.4535755793596],[-121.038784056934,50.451718685843],[-121.038786029393,50.4508575100201]]]}},{"type":"Feature","id":"929009157","properties":{"name":"iSP_22KPH_%TR_Long_Single_Lane","oid":"929009157","speedLimit":6.111111},"geometry":{"type":"Polygon","coordinates":[[[-121.005682122732,50.4380560801846],[-121.004752390476,50.4382241451803],[-121.005176891656,50.4381976322532],[-121.007937206001,50.4431705586393],[-121.00852598477,50.4445349408316],[-121.008213068367,50.4465097494683],[-121.007835060844,50.4466802410709],[-121.008936537853,50.446646987569],[-121.008825798414,50.4465929730972],[-121.009405842011,50.4448176854715],[-121.008766906448,50.4430684614013],[-121.008265197619,50.4415402383067],[-121.007261639071,50.4401562635106],[-121.006441941804,50.4389841225085],[-121.005862884436,50.4383131207663],[-121.005682122732,50.4380560801846]]]}},{"type":"Feature","id":"932281958","properties":{"name":"SP_15KPH_%TR_1185-1170_22shl_SEPT_16_DS","oid":"932281958","speedLimit":4.1666665},"geometry":{"type":"Polygon","coordinates":[[[-121.037376848907,50.4481142758684],[-121.037410380696,50.447962118629],[-121.036983766168,50.4479088231517],[-121.03592582413,50.4473800924727],[-121.035634745657,50.4472468987168],[-121.035477089892,50.4475380016692],[-121.035552325083,50.4474434538749],[-121.036816389002,50.4479515134581],[-121.037217925133,50.4480555879314],[-121.037336272624,50.4481912082942],[-121.037376848907,50.4481142758684]]]}},{"type":"Feature","id":"933274269","properties":{"name":"SP_15KPH_%TR_21SH_EMPTY_LANE_SEP_15_NS","oid":"933274269","speedLimit":4.1666665},"geometry":{"type":"Polygon","coordinates":[[[-121.03947469908,50.4523655113906],[-121.039652361207,50.4523480757707],[-121.03954035376,50.4510066115323],[-121.039314225517,50.4510519081943],[-121.039420738259,50.4515133230006],[-121.03947469908,50.4523655113906]]]}},{"type":"Feature","id":"934051091","properties":{"name":"iSP_17KPH_%TR_Ramp_Permission Blocker","oid":"934051091","speedLimit":4.7222223},"geometry":{"type":"Polygon","coordinates":[[[-121.039514852693,50.4610296663533],[-121.039466809247,50.4607716371541],[-121.039019343018,50.4607922183755],[-121.039078234984,50.4610449449893],[-121.039165727594,50.4608998878219],[-121.039381711765,50.4608867661698],[-121.039514852693,50.4610296663533]]]}},{"type":"Feature","id":"934181339","properties":{"name":"SP_35KPH_TR%_1590_2_SEPT 16_NS_ROUGH_SECTION.","oid":"934181339","speedLimit":9.722222},"geometry":{"type":"Polygon","coordinates":[[[-121.009547436331,50.4401729801358],[-121.008921744416,50.4404386486531],[-121.010384322163,50.4417986270033],[-121.011095956899,50.4414570146778],[-121.010561984289,50.4414850554685],[-121.009363011491,50.44043235745],[-121.009547436331,50.4401729801358]]]}},{"type":"Feature","id":"934773555","properties":{"name":"SP_10KPH_NEW RAMP_SEPT 15_DS","oid":"934773555","speedLimit":2.7777777},"geometry":{"type":"Polygon","coordinates":[[[-121.033904899826,50.4443402730345],[-121.034416470946,50.4442042033],[-121.035777044427,50.4443192424414],[-121.036279035035,50.4444736465391],[-121.035933995742,50.4447856902103],[-121.034624706175,50.4446108846399],[-121.03434701224,50.444601088338],[-121.033904899826,50.4443402730345]]]}},{"type":"Feature","id":"935505135","properties":{"name":"SP_20KPH_%TR_1590_WATERHOLES_SEPT_16_DS","oid":"935505135","speedLimit":5.5555553},"geometry":{"type":"Polygon","coordinates":[[[-121.013404860098,50.4441737359024],[-121.012720980666,50.4442020463161],[-121.012969651288,50.4452614849093],[-121.013111809167,50.4462075919733],[-121.013280454342,50.4469894087635],[-121.013706787091,50.4470970782099],[-121.013795688599,50.4467741597449],[-121.013440364345,50.4437488100737],[-121.013387107974,50.4441624117369],[-121.013404860098,50.4441737359024]]]}},{"type":"Feature","id":"936169885","properties":{"name":"SP_10KPH_%TR_24shl_loadplan_Sept_15_DS","oid":"936169885","speedLimit":2.7777777},"geometry":{"type":"Polygon","coordinates":[[[-121.039054706376,50.4535938238485],[-121.038513689273,50.4536890906375],[-121.038719811153,50.454748079859],[-121.039230959604,50.4546029328173],[-121.039183620607,50.4543765393819],[-121.039102186262,50.4539210562813],[-121.039079643883,50.4537566761331],[-121.039054706376,50.4535938238485]]]}},{"type":"Feature","id":"936513295","properties":{"name":"SP_30KPH_%TR_1635_FLATS_SEP_15_DS","oid":"936513295","speedLimit":8.333333},"geometry":{"type":"Polygon","coordinates":[[[-121.017435578405,50.4574538364154],[-121.015228538583,50.4585169598562],[-121.014499715282,50.4578796609874],[-121.016653498734,50.4569268133487],[-121.017435578405,50.4574538364154]]]}},{"type":"Feature","id":"937786749","properties":{"name":"SP_30KPH_%TR_24SH_Loaded_LANE_SEP_15_DS","oid":"937786749","speedLimit":8.333333},"geometry":{"type":"Polygon","coordinates":[[[-121.038412107676,50.4510853414448],[-121.038215002747,50.4510392359138],[-121.03825557903,50.4516608067749],[-121.038334900027,50.4527881903611],[-121.038497627827,50.4527609584393],[-121.038405626742,50.451675276542],[-121.038412107676,50.4510853414448]]]}},{"type":"Feature","id":"937793793","properties":{"name":"SP_10KPH_%TR_21SH_LOAD_AREA_SEP_15_DS","oid":"937793793","speedLimit":2.7777777},"geometry":{"type":"Polygon","coordinates":[[[-121.039650811418,50.4523552657171],[-121.039077248755,50.4524101789322],[-121.039163332466,50.4533143146845],[-121.039696882406,50.4532578736057],[-121.039666450194,50.4529191372588],[-121.039650811418,50.4523552657171]]]}},{"type":"Feature","id":"938065675","properties":{"name":"SP_8KPH_CR01_YARD_RUTIING_SEP_15_DS","oid":"938065675","speedLimit":2.2222223},"geometry":{"type":"Polygon","coordinates":[[[-121.034291078962,50.464801152706],[-121.034100877636,50.4648579532821],[-121.033942658312,50.4649069347915],[-121.033831214424,50.4650048978104],[-121.034046071477,50.4650687984585],[-121.03396604603,50.4650112788878],[-121.034244444414,50.4648880611824],[-121.034321088504,50.4649373123148],[-121.034291078962,50.464801152706]]]}},{"type":"Feature","id":"938165680","properties":{"name":"TR_22SH_10kph_%TR_Sept16_DS","oid":"938165680","speedLimit":2.7777777},"geometry":{"type":"Polygon","coordinates":[[[-121.034362087456,50.4471928842449],[-121.035053715831,50.4475034899268],[-121.035420593054,50.4476025314376],[-121.035797050788,50.446912296589],[-121.034733754935,50.44661067834],[-121.034362087456,50.4471928842449]]]}},{"type":"Feature","id":"938217281","properties":{"name":"SP_20KPH_CRUSHER_YARD_WEATHER_SEPT_15_DS","oid":"938217281","speedLimit":5.5555553},"geometry":{"type":"Polygon","coordinates":[[[-121.036885425038,50.4639824874409],[-121.037244130649,50.4642844651872],[-121.034293896759,50.465499116747],[-121.032881194027,50.4644543276694],[-121.036885425038,50.4639824874409]]]}},{"type":"Feature","id":"939481274","properties":{"name":"SP_10KPH_%TR_LRNX_PIT_BOTTOM_SEP_15_NS1","oid":"939481274","speedLimit":2.7777777},"geometry":{"type":"Polygon","coordinates":[[[-121.034057201776,50.4452364099715],[-121.03406424627,50.4449962657637],[-121.033304708978,50.4447664571038],[-121.033470959025,50.444887697574],[-121.033359796917,50.4469938126056],[-121.033817407217,50.4469741301275],[-121.033665668826,50.4469200257813],[-121.034057201776,50.4452364099715]]]}},{"type":"Feature","id":"939584863","properties":{"name":"SP_35KPH_%TR_HMT EMPTY2_ROUGH_SECTION_SEPT 16_NS","oid":"939584863","speedLimit":9.722222},"geometry":{"type":"Polygon","coordinates":[[[-121.005961225566,50.4301702369132],[-121.005669724423,50.4303975290919],[-121.005922339961,50.4302832089451],[-121.006321762744,50.430557235775],[-121.006714563704,50.4308739529112],[-121.007137796875,50.4312430667815],[-121.007265161318,50.431532282373],[-121.007411968563,50.4321905219604],[-121.007319122138,50.4325926197095],[-121.007053544732,50.4326146389202],[-121.007547927288,50.4326904029797],[-121.007645141299,50.432302056003],[-121.007586812892,50.431928897788],[-121.007418449497,50.4313518147199],[-121.00730616027,50.4311742230453],[-121.007118354073,50.4309841388389],[-121.006684413271,50.4306467506069],[-121.005961225566,50.4301702369132]]]}},{"type":"Feature","id":"939585115","properties":{"name":"SP_35KPH_%TR_HMT EMPTY22_ROUGH_SECTION_SEPT 16_NS","oid":"939585115","speedLimit":9.722222},"geometry":{"type":"Polygon","coordinates":[[[-121.007519890204,50.4327114335728],[-121.007046359349,50.4338272233704],[-121.006949708898,50.4340182961944],[-121.006753308418,50.4342997825936],[-121.005790185263,50.435290197702],[-121.005290871562,50.4350888792044],[-121.005661271031,50.4351668901222],[-121.006611573208,50.434129290991],[-121.006756407995,50.4339278826192],[-121.006962670766,50.4334120938436],[-121.007226698383,50.4327833330362],[-121.007030297904,50.432653914002],[-121.007519890204,50.4327114335728]]]}}]}