{"type":"FeatureCollection","features":[{"type":"Feature","id":"702602533","properties":{"name":"iSP_4KPH_%TR_CR01_SLOW BUMP","oid":"702602533","speedLimit":1.1111112},"geometry":{"type":"Polygon","coordinates":[[[-121.033359748263,50.4648090211811],[-121.03365450589,50.4646920013217],[-121.033697902329,50.4647327156046],[-121.033370033782,50.46487085656],[-121.033359748263,50.4648090211811]]]}},{"type":"Feature","id":"707947583","properties":{"name":"iSP_22KPH_%TR_Permission Gate 1 from west dump_Jun","oid":"707947583","speedLimit":6.111111},"geometry":{"type":"Polygon","coordinates":[[[-121.038629597582,50.4619790639498],[-121.038856301704,50.4618005682195],[-121.037982032547,50.4613520819685],[-121.037744902008,50.4615433402334],[-121.037961038815,50.4614975928383],[-121.038668062607,50.4618471245077],[-121.038629597582,50.4619790639498]]]}},{"type":"Feature","id":"742345972","properties":{"name":"iSP_4KPH_%TR_CR01_PITSIDE_SLOW BUMP","oid":"742345972","speedLimit":1.1111112},"geometry":{"type":"Polygon","coordinates":[[[-121.033399622263,50.4648839786027],[-121.03370691977,50.4647454781392],[-121.03375707929,50.4647775642297],[-121.03347556603,50.4649194800193],[-121.033399622263,50.4648839786027]]]}},{"type":"Feature","id":"776427243","properties":{"name":"iSP_7KPH_%TR_CR1_PermissionBlocker_DO_NOT_DELETE","oid":"776427243","speedLimit":1.9444444},"geometry":{"type":"Polygon","coordinates":[[[-121.034100869257,50.4652140069621],[-121.034052400508,50.465234319165],[-121.034031265878,50.465275752464],[-121.034116931575,50.4652266796197],[-121.034100869257,50.4652140069621]]]}},{"type":"Feature","id":"794004438","properties":{"name":"iSP_11KPH_%TR_LOWER_FUEL_BAY","oid":"794004438","speedLimit":3.0555556},"geometry":{"type":"Polygon","coordinates":[[[-121.03677778138,50.4606965190999],[-121.036779894843,50.4607263582652],[-121.036750165465,50.4606718928007],[-121.037126361863,50.4606001709513],[-121.037536373667,50.4605571198663],[-121.037544123031,50.4605824651815],[-121.036945590335,50.4606513109667],[-121.03677778138,50.4606965190999]]]}},{"type":"Feature","id":"801543391","properties":{"name":"iSP_4KPH_%TR_CR1_PermissionBlocker_DO_NOT_DELETE_","oid":"801543391","speedLimit":1.1111112},"geometry":{"type":"Polygon","coordinates":[[[-121.033156292233,50.4645244705858],[-121.033155446848,50.4644750382335],[-121.03317700417,50.4644329757956],[-121.033108950664,50.4644605680359],[-121.033156292233,50.4645244705858]]]}},{"type":"Feature","id":"806473874","properties":{"name":"iSP_4KPH_%TR_Permission Blocker - DO NOT DELETE","oid":"806473874","speedLimit":1.1111112},"geometry":{"type":"Polygon","coordinates":[[[-121.022719730584,50.4815467257968],[-121.022686619665,50.4815443889947],[-121.022679011199,50.481573059759],[-121.022701132111,50.4815741382831],[-121.022705218139,50.4815500512459],[-121.022719730584,50.4815467257968]]]}},{"type":"Feature","id":"824566967","properties":{"name":"iSP_4Cr_3KPH","oid":"824566967","speedLimit":0.8333333},"geometry":{"type":"Polygon","coordinates":[[[-121.023302623655,50.4810698384125],[-121.023282475309,50.4810698384125],[-121.023279798256,50.481187936796],[-121.023304878016,50.48118721778],[-121.023302623655,50.4810698384125]]]}},{"type":"Feature","id":"826307302","properties":{"name":"iSP_4KPH_TR%_CRUSHER POCKETS","oid":"826307302","speedLimit":1.1111112},"geometry":{"type":"Polygon","coordinates":[[[-121.023297833139,50.4813230219333],[-121.023337284447,50.4814786889046],[-121.023542008554,50.4814392328998],[-121.023460992476,50.4811903634751],[-121.023052671442,50.4811910824912],[-121.023058025548,50.4813617589221],[-121.023282898001,50.4813277854146],[-121.023297833139,50.4813230219333]]]}},{"type":"Feature","id":"849417440","properties":{"name":"iSP_Permissions_35_KPH_June_19_NS","oid":"849417440","speedLimit":9.722222},"geometry":{"type":"Polygon","coordinates":[[[-121.032696261806,50.4660353030265],[-121.033010885985,50.4660159794706],[-121.033217864453,50.4658151043662],[-121.03380667522,50.4653806389279],[-121.033727490809,50.4652518451809],[-121.033963635065,50.4654013106388],[-121.033427379076,50.4658096218689],[-121.033024975738,50.4661891724577],[-121.032696261806,50.4660353030265]]]}},{"type":"Feature","id":"853029148","properties":{"name":"SP_15KPH_%TR_1635 Flats_AUG_18_NS","oid":"853029148","speedLimit":4.1666665},"geometry":{"type":"Polygon","coordinates":[[[-121.018590024056,50.4569718362917],[-121.01742621048,50.4572818220792],[-121.015788558519,50.4579439459691],[-121.014824396739,50.4590974274411],[-121.018349089285,50.4588940357806],[-121.020692356063,50.458988137004],[-121.02024063859,50.4572326593579],[-121.019422869341,50.4570974843436],[-121.018968615713,50.457000866564],[-121.018590024056,50.4569718362917]]]}},{"type":"Feature","id":"883050998","properties":{"name":"iSP_22kph_%TR_4CR_Brake_Temp_CTRL_NOREMOVE","oid":"883050998","speedLimit":6.111111},"geometry":{"type":"Polygon","coordinates":[[[-121.031799871737,50.4745604065061],[-121.032189171605,50.4743137840066],[-121.032490833211,50.4745761349818],[-121.032792494818,50.4748035238025],[-121.032970307497,50.4748859410153],[-121.033179117633,50.4749360923837],[-121.03346302615,50.4749608984368],[-121.033666904873,50.4749233298491],[-121.033828091644,50.4748639211493],[-121.033919252344,50.4748118823639],[-121.034008581377,50.4747486988299],[-121.034059022691,50.4746595408418],[-121.034053245893,50.4745493516346],[-121.034057050126,50.4744849996996],[-121.033994914316,50.4743810120057],[-121.033876560393,50.4742609363281],[-121.033509663232,50.4739389968991],[-121.0330613273,50.4735613337274],[-121.032948045688,50.4734267878521],[-121.032823069581,50.4732222277905],[-121.032606228286,50.4728162533626],[-121.03225271639,50.4722103026002],[-121.032487733466,50.4721574549218],[-121.032430669967,50.4722069771511],[-121.032903240274,50.4730502032045],[-121.033042447031,50.4733109363937],[-121.033250270884,50.4735483015618],[-121.033743271332,50.4739629940592],[-121.034098333102,50.4742725304617],[-121.034203724452,50.4743958417114],[-121.034256420127,50.4744630697106],[-121.034263465004,50.4745942002597],[-121.034238526141,50.4746802125527],[-121.034183998798,50.474793008193],[-121.034086497709,50.4748772229459],[-121.03397363879,50.4749390583248],[-121.033791035594,50.4750175209495],[-121.033531502349,50.4750657849008],[-121.033263515252,50.4750694698579],[-121.033071894614,50.475027677051],[-121.032808134443,50.4749179372288],[-121.032657374089,50.474836508663],[-121.032495764625,50.474706726269],[-121.032145211577,50.4744144462513],[-121.031799871737,50.4745604065061]]]}},{"type":"Feature","id":"883053336","properties":{"name":"iSP_22kph_%TR_Brake_Temp_CTRL_NOREMOVE","oid":"883053336","speedLimit":6.111111},"geometry":{"type":"Polygon","coordinates":[[[-121.032466457939,50.4721465798042],[-121.03225158921,50.472226839969],[-121.031488910894,50.4710096357011],[-121.030816970586,50.4699246405064],[-121.030661701511,50.469661480638],[-121.030596888648,50.4694589877476],[-121.030550533362,50.4692580227662],[-121.030596888648,50.4689741911869],[-121.030723132833,50.4686255582876],[-121.030884883194,50.46837677874],[-121.031089325506,50.468099058797],[-121.031688703588,50.4675377769057],[-121.032432642533,50.4668948866947],[-121.032788972379,50.4665573985439],[-121.033148120177,50.4662235953503],[-121.033485006165,50.4658719066328],[-121.033780045587,50.4660353030265],[-121.033588002257,50.4659944988666],[-121.032919866182,50.4666532973074],[-121.032555082484,50.4669924931212],[-121.032179026983,50.467308950053],[-121.031774791977,50.4676696264709],[-121.031382392363,50.468035695509],[-121.031147516185,50.4682876207518],[-121.031009154813,50.4684711495944],[-121.030905454233,50.468655756961],[-121.030828946876,50.4688542952633],[-121.030768079144,50.4691925923071],[-121.030776814791,50.4694019158499],[-121.030874034085,50.4696316414726],[-121.031028035082,50.4699364143939],[-121.031330964766,50.4704051229708],[-121.031531039255,50.4707123225712],[-121.0317506985,50.4710842336146],[-121.032146479655,50.4717301796438],[-121.032381778525,50.4721464899272],[-121.032466457939,50.4721465798042]]]}},{"type":"Feature","id":"883059532","properties":{"name":"iSP_22kph_%TR_Brake_CTRL_NOREMOVE","oid":"883059532","speedLimit":6.111111},"geometry":{"type":"Polygon","coordinates":[[[-121.027262407765,50.4773234952463],[-121.02703020864,50.4772113287451],[-121.027334688197,50.4769455624436],[-121.027716661393,50.4766339588701],[-121.028033399035,50.4763242427136],[-121.028190640675,50.4761702834054],[-121.028621505314,50.4756938454061],[-121.028907527295,50.475327237106],[-121.029264138937,50.4748890867105],[-121.029472949072,50.4746581926867],[-121.029691762932,50.4745418918432],[-121.029801803901,50.4744896733038],[-121.029952564256,50.4745941103827],[-121.029788982226,50.4745435096293],[-121.029556360408,50.474793008193],[-121.029252162647,50.4751745360758],[-121.029073222787,50.4754794887511],[-121.028853422644,50.475776262619],[-121.028696321901,50.4759762389533],[-121.02840917274,50.4762721140512],[-121.028041852887,50.4765714943522],[-121.027244091086,50.4772209455845],[-121.027262407765,50.4773234952463]]]}},{"type":"Feature","id":"908328496","properties":{"name":"SP_15KPH_%TR_9019_SOFT_GROUND_AUG_17_DS","oid":"908328496","speedLimit":4.1666665},"geometry":{"type":"Polygon","coordinates":[[[-121.039689710579,50.4639776588923],[-121.039875272622,50.4641981271836],[-121.039739588303,50.4650147496438],[-121.039441026443,50.4657765471314],[-121.03920643206,50.4663546360224],[-121.038929286623,50.4669803597257],[-121.037873682348,50.4685923936731],[-121.036178262401,50.4681979235016],[-121.035229317554,50.466817143086],[-121.037882277097,50.4651411167117],[-121.038521388281,50.4648155822025],[-121.039689710579,50.4639776588923]]]}},{"type":"Feature","id":"910445950","properties":{"name":"SP_20KPH_%TR_1635_FLATS_AUG_18_NS","oid":"910445950","speedLimit":5.5555553},"geometry":{"type":"Polygon","coordinates":[[[-121.020225421657,50.4571650718507],[-121.019044277685,50.4569622194522],[-121.018650609993,50.4569235723404],[-121.017842562674,50.4571479053429],[-121.018448562939,50.4564134304646],[-121.018503090282,50.4555089082943],[-121.019218145234,50.4555089082943],[-121.019236321015,50.4564598069988],[-121.019424137419,50.456892834405],[-121.019757500968,50.457062881697],[-121.020225421657,50.4571650718507]]]}},{"type":"Feature","id":"913788494","properties":{"name":"SP_15KPH_%TR_ROUGH_21SH_AUG_19_DS","oid":"913788494","speedLimit":4.1666665},"geometry":{"type":"Polygon","coordinates":[[[-121.04113870075,50.453151074966],[-121.041192100913,50.4542745375186],[-121.040910728551,50.4551338515558],[-121.040262177232,50.4560699205545],[-121.039700841483,50.4564183736998],[-121.039059898631,50.4561279810992],[-121.03963264708,50.4559005922786],[-121.040320649706,50.4550792063372],[-121.040546931135,50.4542447882302],[-121.04054439498,50.4531388516935],[-121.04113870075,50.453151074966]]]}},{"type":"Feature","id":"917291012","properties":{"name":"SP_15KPH_%TR_CORNER_RUTS_AUG_18_NS","oid":"917291012","speedLimit":4.1666665},"geometry":{"type":"Polygon","coordinates":[[[-121.040611321305,50.4662226067032],[-121.040685574302,50.4661084629079],[-121.040423645799,50.4659274506214],[-121.040530305227,50.4656666275552],[-121.040027019259,50.4656491015394],[-121.040220471564,50.4657720532812],[-121.040017720022,50.4663117646914],[-121.039934731379,50.4664871147266],[-121.039995880906,50.4668212774282],[-121.040668103009,50.4667404780015],[-121.040550171778,50.466623548019],[-121.040532700485,50.4663785433055],[-121.040611321305,50.4662226067032]]]}},{"type":"Feature","id":"920440343","properties":{"name":"iSP_17KPH_CAL_PAD_ROAD_LIMIT_AUG_12_DS","oid":"920440343","speedLimit":4.7222223},"geometry":{"type":"Polygon","coordinates":[[[-121.005954474697,50.4378312699687],[-121.005968141757,50.4376135878645],[-121.005585886766,50.4375788054639],[-121.005285634135,50.4376832425428],[-121.005190105611,50.4378355840649],[-121.005285634135,50.4381621072212],[-121.005988571899,50.4392592358115],[-121.007469545809,50.4413706263942],[-121.007674269917,50.4416492451072],[-121.0077834655,50.4421542639938],[-121.007933662265,50.4426635969766],[-121.00811795623,50.4432338665683],[-121.008322680338,50.4436517946379],[-121.008684364291,50.4445617094284],[-121.008759462673,50.4449230149853],[-121.008759462673,50.4451798834633],[-121.008691268269,50.4456195617679],[-121.008493307243,50.4462290177334],[-121.008943756638,50.4462159855678],[-121.009134813686,50.4457328067932],[-121.009319107651,50.4449187008891],[-121.009216675149,50.4444528683763],[-121.008998283982,50.4437998220638],[-121.008773129733,50.443377579898],[-121.008459210042,50.4427375657511],[-121.008295346217,50.4420758912462],[-121.008240818874,50.4417450539937],[-121.007919995204,50.44119644476],[-121.006814372307,50.4398338194993],[-121.006602885118,50.4394942641775],[-121.006227534105,50.4387802812561],[-121.005988571899,50.4383885073948],[-121.005934044556,50.4380576701423],[-121.005954474697,50.4378312699687]]]}},{"type":"Feature","id":"921284584","properties":{"name":"SP_22kph_rough ground_AUG 18_NS","oid":"921284584","speedLimit":6.111111},"geometry":{"type":"Polygon","coordinates":[[[-121.039985877181,50.4678270909823],[-121.040545381262,50.467971343574],[-121.040344602286,50.4682555346613],[-121.039852729018,50.4686657333085],[-121.039241374646,50.4705092904187],[-121.037953148553,50.469809597941],[-121.039985877181,50.4678270909823]]]}},{"type":"Feature","id":"921727643","properties":{"name":"SP_35KPH_%TR_ HIGHMONT TRIAL_Aug18_NS","oid":"921727643","speedLimit":9.722222},"geometry":{"type":"Polygon","coordinates":[[[-121.012708820365,50.4365931243588],[-121.010155898067,50.436619458321],[-121.00726608978,50.4370215680378],[-121.006147645207,50.4371705841108],[-121.005262808735,50.4370782804275],[-121.004923386592,50.436854666441],[-121.00530183735,50.4361093164452],[-121.005969550733,50.4354596854588],[-121.006754209063,50.4347249409494],[-121.0073162493,50.4339049930401],[-121.007673847224,50.4330517007622],[-121.00791168225,50.4323928124444],[-121.007906046349,50.4319206885413],[-121.007794737303,50.4313847519653],[-121.007510969682,50.4310049317455],[-121.006987958061,50.4305648040559],[-121.005752568541,50.4297838627664],[-121.004889993878,50.4292691371633],[-121.00411660735,50.4288929120237],[-121.003315604907,50.4284989811143],[-121.003469605904,50.4283235412021],[-121.003114685033,50.4285320558519],[-121.004388821373,50.4291673065176],[-121.005350024305,50.4296956934253],[-121.006573578433,50.4304923631905],[-121.007129982768,50.4309179308054],[-121.007499979675,50.4313878077834],[-121.007670747478,50.4318537301732],[-121.007635945789,50.4325374245442],[-121.007398815251,50.4332029637603],[-121.007172252027,50.4338692219924],[-121.006589781648,50.4345644206199],[-121.006157648932,50.4350398699722],[-121.005744255586,50.4354073770424],[-121.005111625688,50.43606267028],[-121.004792210994,50.4366459720373],[-121.004710772223,50.4369335784507],[-121.004892389136,50.4370853807108],[-121.005449920652,50.4372771782378],[-121.006282906834,50.4372652245962],[-121.007585645372,50.4371453286726],[-121.008819485019,50.436981572771],[-121.009458314409,50.4368816295423],[-121.01103664851,50.436789775244],[-121.012887196635,50.4367967856503],[-121.012877897398,50.4364193921097],[-121.012708820365,50.4365931243588]]]}},{"type":"Feature","id":"922262468","properties":{"name":"SPD_25kph_HMT_DUMP_AUG_18_NS","oid":"922262468","speedLimit":6.9444447},"geometry":{"type":"Polygon","coordinates":[[[-121.012500996513,50.436426941778],[-121.012481129961,50.4374176559954],[-121.016363702226,50.4384082803357],[-121.0171800625,50.436960361798],[-121.01652305733,50.4359061944157],[-121.014770855679,50.4353092313538],[-121.012899313823,50.435207670339],[-121.012500996513,50.436426941778]]]}},{"type":"Feature","id":"922385545","properties":{"name":"SP_20KPH_RUTS_AUG 18_NS","oid":"922385545","speedLimit":5.5555553},"geometry":{"type":"Polygon","coordinates":[[[-121.007510969682,50.4337195767804],[-121.00686946324,50.4335261614674],[-121.006518064807,50.43407270353],[-121.007225370394,50.4343193260295],[-121.007510969682,50.4337195767804]]]}},{"type":"Feature","id":"923351007","properties":{"name":"SP_17KPH_PERMISSIONS_AUG 18_NS","oid":"923351007","speedLimit":4.7222223},"geometry":{"type":"Polygon","coordinates":[[[-121.038854610934,50.4608783402794],[-121.038874054792,50.4611359277734],[-121.03878472576,50.4608906534289],[-121.038539986755,50.4608906534289],[-121.038536182522,50.4608312447292],[-121.038881804156,50.4608237849378],[-121.038854610934,50.4608783402794]]]}}]}