{"type":"FeatureCollection","features":[{"type":"Feature","id":"702602533","properties":{"name":"iSP_4KPH_%TR_CR01_SLOW BUMP","oid":"702602533","speedLimit":1.1111112},"geometry":{"type":"Polygon","coordinates":[[[-121.033359760888,50.464808124183],[-121.03365450959,50.464691106906],[-121.033697904714,50.4647318202904],[-121.033370046096,50.4648699581972],[-121.033359760888,50.464808124183]]]}},{"type":"Feature","id":"707947583","properties":{"name":"iSP_22KPH_%TR_Permission Gate 1 from west dump_Jun","oid":"707947583","speedLimit":6.111111},"geometry":{"type":"Polygon","coordinates":[[[-121.038629450631,50.4619782294055],[-121.038856147887,50.4617997376144],[-121.037981905204,50.461351261261],[-121.037744781846,50.461542515305],[-121.037960912108,50.4614967689195],[-121.038667914491,50.4618462928751],[-121.038629450631,50.4619782294055]]]}},{"type":"Feature","id":"742345972","properties":{"name":"iSP_4KPH_%TR_CR01_PITSIDE_SLOW BUMP","oid":"742345972","speedLimit":1.1111112},"geometry":{"type":"Polygon","coordinates":[[[-121.033399633681,50.4648830799503],[-121.033706921883,50.4647445825433],[-121.033757079884,50.4647766679257],[-121.033475575149,50.4649185805835],[-121.033399633681,50.4648830799503]]]}},{"type":"Feature","id":"776427243","properties":{"name":"iSP_7KPH_%TR_CR1_PermissionBlocker_DO_NOT_DELETE","oid":"776427243","speedLimit":1.9444444},"geometry":{"type":"Polygon","coordinates":[[[-121.03410085944,50.4652131010264],[-121.034052392158,50.4652334127811],[-121.034031258169,50.4652748451656],[-121.034116921272,50.4652257734043],[-121.03410085944,50.4652131010264]]]}},{"type":"Feature","id":"794004438","properties":{"name":"iSP_11KPH_%TR_LOWER_FUEL_BAY","oid":"794004438","speedLimit":3.0555556},"geometry":{"type":"Polygon","coordinates":[[[-121.036777690503,50.4606957128598],[-121.036779803902,50.4607255513667],[-121.036750075424,50.4606710871041],[-121.037126260431,50.4605993668376],[-121.03753625982,50.4605563167027],[-121.037544008949,50.4605816614585],[-121.036945494377,50.4606505057244],[-121.036777690503,50.4606957128598]]]}},{"type":"Feature","id":"801543391","properties":{"name":"iSP_4KPH_%TR_CR1_PermissionBlocker_DO_NOT_DELETE_","oid":"801543391","speedLimit":1.1111112},"geometry":{"type":"Polygon","coordinates":[[[-121.033156311019,50.4645235798674],[-121.03315546566,50.464474148606],[-121.033177022329,50.4644320870963],[-121.033108970884,50.4644596787276],[-121.033156311019,50.4645235798674]]]}},{"type":"Feature","id":"806473874","properties":{"name":"iSP_4KPH_%TR_Permission Blocker - DO NOT DELETE","oid":"806473874","speedLimit":1.1111112},"geometry":{"type":"Polygon","coordinates":[[[-121.022720065401,50.4815454594171],[-121.022686955485,50.4815431226666],[-121.022679347249,50.4815717927982],[-121.022701467491,50.4815728712984],[-121.022705553395,50.4815487847929],[-121.022720065401,50.4815454594171]]]}},{"type":"Feature","id":"824566967","properties":{"name":"iSP_4Cr_3KPH","oid":"824566967","speedLimit":0.8333333},"geometry":{"type":"Polygon","coordinates":[[[-121.023302940821,50.4810685825572],[-121.023282793085,50.4810685825572],[-121.023280116113,50.4811866783344],[-121.023305195114,50.4811859593342],[-121.023302940821,50.4810685825572]]]}},{"type":"Feature","id":"826307302","properties":{"name":"iSP_4KPH_TR%_CRUSHER POCKETS","oid":"826307302","speedLimit":1.1111112},"geometry":{"type":"Polygon","coordinates":[[[-121.023298150451,50.4813217604905],[-121.023337600564,50.4814774240264],[-121.023542318472,50.4814379688923],[-121.023461304847,50.4811891049599],[-121.023052996177,50.4811898239601],[-121.023058350121,50.4813604966245],[-121.023283215765,50.4813265238666],[-121.023298150451,50.4813217604905]]]}},{"type":"Feature","id":"849417440","properties":{"name":"iSP_Permissions_35_KPH_June_19_NS","oid":"849417440","speedLimit":9.722222},"geometry":{"type":"Polygon","coordinates":[[[-121.032696294523,50.4660343789657],[-121.033010909174,50.4660150558363],[-121.033217881374,50.465814185165],[-121.033806674312,50.4653797293148],[-121.033727492299,50.4652509384101],[-121.033963629404,50.4654004005696],[-121.033427389653,50.4658087027887],[-121.0330249985,50.4661882450012],[-121.032696294523,50.4660343789657]]]}},{"type":"Feature","id":"853029148","properties":{"name":"SP_30KPH_%TR_1635 Flats_AUG_11_DS","oid":"853029148","speedLimit":8.333333},"geometry":{"type":"Polygon","coordinates":[[[-121.018590483926,50.456971112251],[-121.017409234826,50.4572898989495],[-121.01643073113,50.4584577349688],[-121.018349556449,50.4588932693192],[-121.020692752271,50.4589873684659],[-121.020241048476,50.4572319295612],[-121.01942330399,50.45709675753],[-121.018969064117,50.4570001418827],[-121.018590483926,50.456971112251]]]}},{"type":"Feature","id":"883050998","properties":{"name":"iSP_22kph_%TR_4CR_Brake_Temp_CTRL_NOREMOVE","oid":"883050998","speedLimit":6.111111},"geometry":{"type":"Polygon","coordinates":[[[-121.031799931597,50.4745592943063],[-121.032189219677,50.4743126772494],[-121.032490872148,50.4745750224349],[-121.03279252462,50.4748024062374],[-121.032970331915,50.4748848216314],[-121.033179135728,50.4749349718929],[-121.033463035648,50.4749597773986],[-121.033666908197,50.47492220964],[-121.033828090087,50.4748628022513],[-121.033919248027,50.4748107646143],[-121.034008574354,50.4747475824747],[-121.034059014142,50.4746584264542],[-121.034053237518,50.4745482396788],[-121.034057041636,50.4744838891639],[-121.033994907708,50.474379903765],[-121.033876557369,50.4742598307373],[-121.033509671318,50.473937898413],[-121.033061348962,50.473560243576],[-121.03294807078,50.4734257006699],[-121.032823098458,50.4732211451228],[-121.032606263729,50.4728151796542],[-121.032252762538,50.4722092422645],[-121.032487772497,50.4721563957523],[-121.032430710726,50.4722059168887],[-121.032903266723,50.4730491243331],[-121.033042469265,50.4733098517682],[-121.033250286824,50.473547211698],[-121.033743272344,50.4739618950436],[-121.034098323362,50.4742714246149],[-121.034203711521,50.4743947331434],[-121.0342564056,50.4744619596589],[-121.034263450263,50.4745930873141],[-121.034238512156,50.4746790977089],[-121.034183986464,50.4747918908599],[-121.034086488328,50.4748761037544],[-121.033973632826,50.4749379377686],[-121.03379103516,50.4750163986617],[-121.033531509773,50.4750646615478],[-121.033263530791,50.4750683464237],[-121.033071915956,50.475026554539],[-121.032808163772,50.4749168171387],[-121.032657407983,50.47483539037],[-121.032495803413,50.47470561084],[-121.03214526098,50.4744133372727],[-121.031799931597,50.4745592943063]]]}},{"type":"Feature","id":"883053336","properties":{"name":"iSP_22kph_%TR_Brake_Temp_CTRL_NOREMOVE","oid":"883053336","speedLimit":6.111111},"geometry":{"type":"Polygon","coordinates":[[[-121.032466497614,50.4721455208748],[-121.032251635391,50.4722257792683],[-121.03148898017,50.4710086018626],[-121.030817060209,50.4699236306125],[-121.030661795836,50.4696604765518],[-121.030596984936,50.4694579881301],[-121.030550631053,50.4692570275838],[-121.030596984936,50.4689732022683],[-121.030723225298,50.468624577063],[-121.030884970761,50.4683758030056],[-121.031089406883,50.4680980891916],[-121.031688766814,50.4675368196872],[-121.032432683232,50.4668939436639],[-121.032789002288,50.4665564629611],[-121.03314813921,50.4662226671341],[-121.033485014997,50.4658709861781],[-121.033780045485,50.4660343789657],[-121.033588007971,50.4659935757063],[-121.032919892128,50.4666523596082],[-121.032555119475,50.4669915479364],[-121.032179075362,50.4673079978844],[-121.031774852597,50.4676686663426],[-121.031382464865,50.468034727302],[-121.031147595799,50.468286646985],[-121.031009238617,50.4684701717774],[-121.030905541177,50.4686547750699],[-121.030829036137,50.4688533089907],[-121.030768170248,50.4691915985687],[-121.03077690563,50.4694009174919],[-121.03087412198,50.4696306380449],[-121.031028118314,50.4699354042402],[-121.031331038825,50.4704041024733],[-121.031531107255,50.4707112952941],[-121.031750759849,50.4710831981298],[-121.032146529019,50.4717291299038],[-121.032381820765,50.4721454309997],[-121.032466497614,50.4721455208748]]]}},{"type":"Feature","id":"883059532","properties":{"name":"iSP_22kph_%TR_Brake_CTRL_NOREMOVE","oid":"883059532","speedLimit":6.111111},"geometry":{"type":"Polygon","coordinates":[[[-121.027262605025,50.4773223220684],[-121.027030412931,50.4772101580425],[-121.027334883267,50.4769443976062],[-121.027716844898,50.4766328009094],[-121.028033572948,50.476323091588],[-121.028190809827,50.4761691356775],[-121.028621661419,50.4756927081926],[-121.028907674738,50.4753261079831],[-121.029264275582,50.4748879672571],[-121.029473079394,50.4746570783289],[-121.029691886628,50.474540780052],[-121.029801924265,50.474488562665],[-121.029952680054,50.4745929974391],[-121.029789102978,50.4745423978024],[-121.029556488205,50.4747918908599],[-121.029252299654,50.4751734103229],[-121.029073365213,50.4754783562682],[-121.028853571726,50.4757751235866],[-121.02869647574,50.4759750955078],[-121.028409335275,50.476270964076],[-121.028042026544,50.47657033777],[-121.027244288901,50.4772197746697],[-121.027262605025,50.4773223220684]]]}},{"type":"Feature","id":"908328496","properties":{"name":"SP_25KPH_%TR_9019_SOFT_GROUND_AUG_11_DS","oid":"908328496","speedLimit":6.9444447},"geometry":{"type":"Polygon","coordinates":[[[-121.039287703945,50.464396226963],[-121.039589638203,50.4649890425997],[-121.038653402485,50.4651686128911],[-121.03820296673,50.4657217037686],[-121.037625163467,50.4662171847579],[-121.03744552456,50.4665119748258],[-121.037342813373,50.4667330673768],[-121.036964092287,50.4670238130689],[-121.035975303383,50.4664711715664],[-121.037882152775,50.4651402123846],[-121.038521244606,50.4648146850595],[-121.039287703945,50.464396226963]]]}},{"type":"Feature","id":"910445950","properties":{"name":"SP_30KPH_%TR_1635_FLATS_AUG_11_DS","oid":"910445950","speedLimit":8.333333},"geometry":{"type":"Polygon","coordinates":[[[-121.020225832004,50.4571643435456],[-121.019044723799,50.4569614956238],[-121.018651068028,50.4569228493649],[-121.01745474335,50.4572319295612],[-121.018090735529,50.4544692612992],[-121.018772095339,50.4538993637928],[-121.018938772066,50.4535129910787],[-121.019559547774,50.4545176140603],[-121.020225832004,50.4571450204161],[-121.020210756425,50.4571450204161],[-121.020225832004,50.4571643435456]]]}},{"type":"Feature","id":"915576987","properties":{"name":"iSP_15kph_prevent shifting","oid":"915576987","speedLimit":4.1666665},"geometry":{"type":"Polygon","coordinates":[[[-121.03699875203,50.4448635089594],[-121.037512871538,50.4453134233131],[-121.03798218699,50.4457958724244],[-121.03852617587,50.446219183772],[-121.039458889257,50.4468502861675],[-121.039916228782,50.4471000488501],[-121.040472193589,50.4471954062471],[-121.041225408962,50.4473231186515],[-121.041643861947,50.4475099688196],[-121.042322403891,50.4480954147046],[-121.042705069988,50.4485281629293],[-121.042848499327,50.4487951816159],[-121.043009963004,50.4493919517535],[-121.043189179232,50.4501984901895],[-121.043326691054,50.4505016386344],[-121.043688364055,50.4511690505382],[-121.043858844901,50.4514893651121],[-121.044127810136,50.4522539319134],[-121.044384940337,50.4529385099462],[-121.044698709629,50.4537984341445],[-121.044737596169,50.454195052611],[-121.044573173733,50.4550721429382],[-121.044217559143,50.4568396250957],[-121.044053136707,50.4572076633056],[-121.043006863352,50.4583993162053],[-121.041906909665,50.4595376732178],[-121.04134502734,50.4600009789496],[-121.040373568307,50.4605978389622],[-121.039925105058,50.460731303368],[-121.039135961903,50.4608075173856],[-121.038944769748,50.4608056300101],[-121.039001549733,50.4612937412477],[-121.039061288475,50.4609276802883],[-121.039880301001,50.4608800465273],[-121.040708330695,50.4606321712202],[-121.041512408534,50.4600582293378],[-121.04287540994,50.4587005772748],[-121.044244328862,50.4571427735406],[-121.044429744394,50.4562904887191],[-121.044815369249,50.4544218971633],[-121.044812269597,50.4537869301418],[-121.0442623632,50.4523016555494],[-121.043834893046,50.4511862166672],[-121.04334768415,50.4503377065966],[-121.043051808302,50.4493099857346],[-121.042929231166,50.4486921848422],[-121.042241672053,50.4478875337816],[-121.041548195423,50.4473917831673],[-121.041093814656,50.4472220991282],[-121.040460217662,50.4471306063571],[-121.039919187541,50.4470199702066],[-121.038822192612,50.4463335946734],[-121.038197471893,50.4458720864419],[-121.03715429819,50.4449072780945],[-121.037378459368,50.4446975996711],[-121.03699875203,50.4448635089594]]]}},{"type":"Feature","id":"919196848","properties":{"name":"SP_12kph_%TR_1445bench_aug11_DS","oid":"919196848","speedLimit":3.3333333},"geometry":{"type":"Polygon","coordinates":[[[-121.037825231898,50.4665885483435],[-121.038046434317,50.4661763814985],[-121.03837753348,50.4655732302344],[-121.03866396948,50.4653434198064],[-121.039263047625,50.4645568336251],[-121.039891854248,50.4645943115087],[-121.039005494744,50.4659906098306],[-121.038829096381,50.4664464559357],[-121.038931103102,50.4669911884363],[-121.038884749219,50.4672398726187],[-121.037399029784,50.467302156008],[-121.037620936669,50.4668660824075],[-121.037825231898,50.4665885483435]]]}},{"type":"Feature","id":"919564513","properties":{"name":"SP_15KPH_BAT_CONST_AUG_11_DS","oid":"919564513","speedLimit":4.1666665},"geometry":{"type":"Polygon","coordinates":[[[-121.04133854625,50.452031131737],[-121.040125877954,50.4521457223884],[-121.040135881376,50.4530593019741],[-121.041298532564,50.4530370129689],[-121.04133854625,50.452031131737]]]}},{"type":"Feature","id":"919825519","properties":{"name":"SPD_30KPH_80%_TRC_WEATHER_AUG 11_NS","oid":"919825519","speedLimit":8.333333},"geometry":{"type":"Polygon","coordinates":[[[-121.038852766449,50.4577876268143],[-121.039067628672,50.449476614023],[-121.03548823538,50.4450927801372],[-121.037904273017,50.4432090895779],[-121.045671436702,50.4491226861914],[-121.045743010478,50.4569313874919],[-121.040481351651,50.4627537609593],[-121.041501559753,50.4662241950095],[-121.040334259087,50.4687089697074],[-121.035681963614,50.4667140138724],[-121.032087776529,50.469375033486],[-121.03511233216,50.4751060040574],[-121.024535334174,50.4830974212749],[-121.021009762108,50.4822525960801],[-121.028633778239,50.4728570614138],[-121.029206509345,50.4668977184148],[-121.00621174292,50.4639566482367],[-121.004684459972,50.4367876092223],[-121.018683755264,50.4367876092223],[-121.038706941924,50.4578679750828],[-121.038852766449,50.4577876268143]]]}}]}