{"type":"FeatureCollection","features":[{"type":"Feature","id":"702602533","properties":{"name":"iSP_4KPH_%TR_CR01_Slow Bump","oid":"702602533","speedLimit":1.1111112},"geometry":{"type":"Polygon","coordinates":[[[-121.033360125271,50.4648079881],[-121.033654851593,50.4646909706222],[-121.033698243422,50.4647316840765],[-121.033370409698,50.4648698222204],[-121.033360125271,50.4648079881]]]}},{"type":"Feature","id":"707947583","properties":{"name":"iSP_25KPH_%TR_Permission Gate 1 From West Dump","oid":"707947583","speedLimit":6.9444447},"geometry":{"type":"Polygon","coordinates":[[[-121.038629414892,50.4619780884653],[-121.038856094935,50.4617995963678],[-121.038141115928,50.4614083697311],[-121.037993471002,50.4616710748676],[-121.038192960711,50.461566999415],[-121.038667875831,50.4618461517085],[-121.038629414892,50.4619780884653]]]}},{"type":"Feature","id":"742345972","properties":{"name":"iSP_4KPH_%TR_CR01_Pit Side_Slow Bump","oid":"742345972","speedLimit":1.1111112},"geometry":{"type":"Polygon","coordinates":[[[-121.033399995036,50.464882943996],[-121.033707259906,50.4647444463513],[-121.033757414099,50.4647765317888],[-121.033475930738,50.4649184446901],[-121.033399995036,50.464882943996]]]}},{"type":"Feature","id":"776427243","properties":{"name":"iSP_7KPH_%TR_CR1_PermissionBlocker","oid":"776427243","speedLimit":1.9444444},"geometry":{"type":"Polygon","coordinates":[[[-121.034101167552,50.4652129656385],[-121.034052703951,50.4652332774281],[-121.034031571566,50.4652747098837],[-121.034117228164,50.4652256380382],[-121.034101167552,50.4652129656385]]]}},{"type":"Feature","id":"794004438","properties":{"name":"iSP_11KPH_%TR_Lower_Fuel_Bay","oid":"794004438","speedLimit":3.0555556},"geometry":{"type":"Polygon","coordinates":[[[-121.036777795366,50.4606955697183],[-121.036779908605,50.4607254082764],[-121.036750182384,50.4606709439204],[-121.037126338827,50.4605992235307],[-121.037536307085,50.4605561733219],[-121.037544055626,50.4605815181213],[-121.036945586499,50.4606503625053],[-121.036777795366,50.4606955697183]]]}},{"type":"Feature","id":"801543391","properties":{"name":"iSP_4KPH_%TR_CR01_PermissionBlocker_2","oid":"801543391","speedLimit":1.1111112},"geometry":{"type":"Polygon","coordinates":[[[-121.03315669085,50.464523443296],[-121.033155845555,50.4644740119498],[-121.033177400587,50.4644319503679],[-121.033109354309,50.4644595420466],[-121.03315669085,50.464523443296]]]}},{"type":"Feature","id":"806473874","properties":{"name":"iSP_4KPH_%TR_CR04_PermissionBlocker","oid":"806473874","speedLimit":1.1111112},"geometry":{"type":"Polygon","coordinates":[[[-121.022721237645,50.481545352062],[-121.022688130243,50.4815430153075],[-121.022680522584,50.4815716854883],[-121.022702641147,50.4815727639904],[-121.022706726741,50.4815486774435],[-121.022721237645,50.481545352062]]]}},{"type":"Feature","id":"824566967","properties":{"name":"iSP_3KPH_%TR_CR04","oid":"824566967","speedLimit":0.8333333},"geometry":{"type":"Polygon","coordinates":[[[-121.023304068808,50.4810684743836],[-121.023283922602,50.4810684743836],[-121.023281245833,50.4811865703635],[-121.023306322929,50.4811858513621],[-121.023304068808,50.4810684743836]]]}},{"type":"Feature","id":"826307302","properties":{"name":"iSP_4KPH_%TR_CR04_Pockets","oid":"826307302","speedLimit":1.1111112},"geometry":{"type":"Polygon","coordinates":[[[-121.023299278801,50.4813216527515],[-121.023338725918,50.4814773165546],[-121.023543428283,50.4814378613527],[-121.023462420809,50.4811889969932],[-121.023054143141,50.4811897159946],[-121.023059496679,50.4813603889519],[-121.023284345249,50.4813264161358],[-121.023299278801,50.4813216527515]]]}},{"type":"Feature","id":"883050998","properties":{"name":"iSP_22KPH_%TR_4CR_Brake_Temp_Ctrl","oid":"883050998","speedLimit":6.111111},"geometry":{"type":"Polygon","coordinates":[[[-121.031800414416,50.4745591749602],[-121.032189672938,50.4743125574801],[-121.032491302505,50.4745749031158],[-121.032792932072,50.4748022873085],[-121.032970725867,50.474884702844],[-121.033179513825,50.4749348531916],[-121.03346339219,50.4749596587399],[-121.033667249258,50.4749220909168],[-121.03382841891,50.4748626834261],[-121.033919569929,50.4748106456998],[-121.034008889473,50.4747474634518],[-121.034059325431,50.4746583072782],[-121.034053549246,50.4745481203137],[-121.034057353075,50.4744837696884],[-121.033995223865,50.4743797841109],[-121.033876882512,50.4742597108772],[-121.033510024318,50.4739377780004],[-121.033061736003,50.4735601225151],[-121.032948466422,50.4734255793782],[-121.032823503589,50.4732210234799],[-121.032606685324,50.4728150573145],[-121.032253210974,50.4722091188848],[-121.032488203089,50.4721562722819],[-121.032431145651,50.4722057935033],[-121.032903665767,50.473049002395],[-121.033042857739,50.4733097302776],[-121.03325065952,50.4735470906147],[-121.033743607607,50.4739617746721],[-121.034098631666,50.4742713047747],[-121.034204011823,50.4743946135148],[-121.034256701902,50.4744618401457],[-121.03426374603,50.474592968026],[-121.034238809816,50.4746789785685],[-121.034184288264,50.4747917719131],[-121.034086797531,50.474875984952],[-121.033973950598,50.4749378190724],[-121.033791366796,50.4750162801002],[-121.033531861115,50.4750645430691],[-121.03326390248,50.4750682279513],[-121.033072302195,50.475026435995],[-121.032808570037,50.4749166984063],[-121.032657825694,50.4748352714978],[-121.032496233395,50.4747054917451],[-121.032145717578,50.474413217676],[-121.031800414416,50.4745591749602]]]}},{"type":"Feature","id":"883053336","properties":{"name":"iSP_22KPH_%TR_Brake_Temp_Ctrl","oid":"883053336","speedLimit":6.111111},"geometry":{"type":"Polygon","coordinates":[[[-121.032466929822,50.4721453973857],[-121.032252083913,50.4722256559169],[-121.0314894866,50.4710084764221],[-121.030817617657,50.4699235033097],[-121.030662365072,50.4696603487974],[-121.030597559093,50.4694578600282],[-121.03055120873,50.4692568991369],[-121.030597559093,50.4689730733343],[-121.03072378987,50.4686244475305],[-121.030885523052,50.4683756730462],[-121.031089943651,50.4680979587555],[-121.031689258074,50.4675366882877],[-121.032433118007,50.466893811161],[-121.032789410008,50.466556329879],[-121.033148519661,50.4662225334791],[-121.033485369869,50.4658708519194],[-121.033780377956,50.4660342449875],[-121.033588355023,50.4659934416581],[-121.032920289909,50.4666522266907],[-121.032555544954,50.4669914156011],[-121.032179529393,50.4673078660922],[-121.03177533732,50.4676685351694],[-121.031382979382,50.4680345967571],[-121.03114812815,50.4682865168726],[-121.031009781473,50.4684700419799],[-121.030906091906,50.4686546455893],[-121.030829592675,50.4688531798509],[-121.030768731408,50.4691914700095],[-121.030777466126,50.469400789292],[-121.030874675095,50.4696305102393],[-121.031028659736,50.4699352769577],[-121.031331557247,50.4704039759952],[-121.031531610486,50.4707111693433],[-121.031751246402,50.4710830728174],[-121.032146985521,50.4717290057],[-121.032382259401,50.4721453075105],[-121.032466929822,50.4721453973857]]]}},{"type":"Feature","id":"883059532","properties":{"name":"iSP_22KPH_%TR_Brake_Ctrl","oid":"883059532","speedLimit":6.111111},"geometry":{"type":"Polygon","coordinates":[[[-121.027263432358,50.4773222074647],[-121.027031257894,50.4772100432464],[-121.027335705113,50.4769442823539],[-121.027717637741,50.4766326851223],[-121.028034341743,50.4763229752693],[-121.028191566683,50.4761690190945],[-121.02862238556,50.4756925907919],[-121.028908377163,50.4753259899532],[-121.02926495093,50.4748878484751],[-121.029473738889,50.4746569591506],[-121.029692529509,50.4745406606742],[-121.029802558791,50.4744884431975],[-121.029953303133,50.4745928781508],[-121.029789738477,50.4745422784273],[-121.029557141366,50.4747917719131],[-121.029252975912,50.4751732920309],[-121.029074055057,50.4754782384996],[-121.028854278259,50.4757750063274],[-121.028697194201,50.4759749785917],[-121.028410075538,50.4762708476678],[-121.028042794696,50.4765702218756],[-121.027245117625,50.4772196598901],[-121.027263432358,50.4773222074647]]]}},{"type":"Feature","id":"884401102","properties":{"name":"iSP_30KPH_%TR_Maint_Limit_Policy","oid":"884401102","speedLimit":8.333333},"geometry":{"type":"Polygon","coordinates":[[[-121.036993345688,50.4611014460085],[-121.03710943292,50.4611079170211],[-121.0382956641,50.4609922476709],[-121.038279321723,50.4603980828891],[-121.038120828839,50.460565969716],[-121.037033778983,50.4607086016187],[-121.03674609679,50.4605379286614],[-121.036993345688,50.4611014460085]]]}},{"type":"Feature","id":"887797506","properties":{"name":"SP_20KPH_%TR_LNX WEST_FLATS_SEPT 18_NS","oid":"887797506","speedLimit":5.5555553},"geometry":{"type":"Polygon","coordinates":[[[-121.055040824653,50.4668458178176],[-121.054279072635,50.4668726006198],[-121.054002942812,50.4667283509639],[-121.053449274339,50.4663378433286],[-121.053423774595,50.4658516186319],[-121.053449274339,50.4654410688326],[-121.054109731794,50.4652519714645],[-121.054846406716,50.4651439415041],[-121.054780051029,50.4656839115554],[-121.054839503471,50.4659010499782],[-121.055013634318,50.4663530322332],[-121.055040824653,50.4668458178176]]]}},{"type":"Feature","id":"908328496","properties":{"name":"SP_25KPH_%TR_1445_SOFT_GROUND_SEPT_17_NS","oid":"908328496","speedLimit":6.9444447},"geometry":{"type":"Polygon","coordinates":[[[-121.039332418881,50.4644969301194],[-121.039941454201,50.4647092152827],[-121.039189704844,50.4666748752348],[-121.038827495775,50.467427939326],[-121.038452748158,50.4678943914841],[-121.03791584471,50.4682380741533],[-121.037180860379,50.4680259687403],[-121.03831383795,50.4667053429191],[-121.038794529255,50.465566085201],[-121.039332418881,50.4644969301194]]]}},{"type":"Feature","id":"910445950","properties":{"name":"SP_22KPH_%TR_1635_FLATS_SEP_17_NS","oid":"910445950","speedLimit":6.111111},"geometry":{"type":"Polygon","coordinates":[[[-121.017503792808,50.4573018831109],[-121.01622260678,50.4569707829663],[-121.016995770285,50.4561043862795],[-121.018004489436,50.4544142836139],[-121.018149739359,50.4539986109296],[-121.018534348756,50.4537516339488],[-121.018950374964,50.4536881820752],[-121.01886824043,50.4543417543477],[-121.018263431587,50.4560722109668],[-121.018043513906,50.4566100240139],[-121.017503792808,50.4573018831109]]]}},{"type":"Feature","id":"915576987","properties":{"name":"iSP_15KPH_%TR_Preventing Shifting","oid":"915576987","speedLimit":4.1666665},"geometry":{"type":"Polygon","coordinates":[[[-121.036998840108,50.4448633386436],[-121.03751292058,50.4453132537696],[-121.037982200397,50.4457957037089],[-121.038526147973,50.446219015783],[-121.03945879054,50.4468501192618],[-121.039916095339,50.447099882373],[-121.040472017933,50.4471952399337],[-121.041225176114,50.4473229525574],[-121.041643597326,50.4475098030461],[-121.04232208775,50.448095249936],[-121.042704724791,50.4485279989035],[-121.04284814324,50.4487950180484],[-121.043009594657,50.4493917892103],[-121.043188797277,50.4501983290306],[-121.043326298659,50.4505014779958],[-121.043687944198,50.4511688910452],[-121.043858412099,50.4514892061689],[-121.044127356912,50.4522537742825],[-121.044384467589,50.4529383534903],[-121.044698213057,50.4537982791646],[-121.044737096644,50.4541948983118],[-121.044572686693,50.4550719901444],[-121.044217099104,50.4568394753357],[-121.044052689153,50.4572075141772],[-121.043006495241,50.4583991691223],[-121.041906625072,50.4595375280886],[-121.04134478541,50.4600008346157],[-121.040373400139,50.4605976956528],[-121.039924970941,50.4607311602876],[-121.039135887705,50.460807374436],[-121.038498534991,50.4608389206224],[-121.038646320799,50.4611436873408],[-121.038759167732,50.4609497367132],[-121.039880170286,50.4608799037022],[-121.040708137108,50.4606320279696],[-121.041512153895,50.4600580851022],[-121.042875051809,50.4587004307089],[-121.044243866791,50.4571426243009],[-121.044429268244,50.4562903380165],[-121.044814863819,50.4544217432534],[-121.044811764403,50.4537867751422],[-121.044261899759,50.4523014980004],[-121.043834462063,50.4511860572037],[-121.043347290161,50.4503375456767],[-121.043051436778,50.4493098230507],[-121.042928868949,50.4486920210979],[-121.042241362041,50.4478873686563],[-121.041547938066,50.447391617191],[-121.041093591801,50.4472219328607],[-121.040460042915,50.4471304399325],[-121.039919053873,50.4470198035921],[-121.038822142238,50.4463334268808],[-121.038197468953,50.4458719178572],[-121.037154374457,50.4449071078538],[-121.037378518615,50.4446974290706],[-121.036998840108,50.4448633386436]]]}},{"type":"Feature","id":"917773475","properties":{"name":"SP_15KPH_%TR_1200_CORNER_Sept_17_NS","oid":"917773475","speedLimit":4.1666665},"geometry":{"type":"Polygon","coordinates":[[[-121.037099712023,50.4446825996667],[-121.036925581175,50.4448621702663],[-121.036630009558,50.4448206479355],[-121.036415445414,50.4448699894065],[-121.036323871748,50.4449676837217],[-121.03625526194,50.4450821846947],[-121.036243005157,50.445145007442],[-121.036264137542,50.4452673275551],[-121.03631682762,50.4453515405941],[-121.036184961541,50.4453953098043],[-121.036089865811,50.445194348913],[-121.036163829157,50.4449317336518],[-121.036260615478,50.4447914385036],[-121.03651744439,50.44471513448],[-121.036714539096,50.4447118090986],[-121.036923890584,50.4447701380871],[-121.037094499368,50.4446836781688],[-121.037099712023,50.4446825996667]]]}},{"type":"Feature","id":"921770139","properties":{"name":"SP_20KPH_%TR_HIGHMONT_SEPT 17_NS","oid":"921770139","speedLimit":5.5555553},"geometry":{"type":"Polygon","coordinates":[[[-121.002081519521,50.4283003325211],[-121.001585753782,50.4284273261433],[-121.001000950263,50.4285433549942],[-121.001189451132,50.4289620834345],[-121.001583217895,50.4287564490341],[-121.001925421641,50.4286885034018],[-121.002548545217,50.4285670820404],[-121.002407944419,50.4282228601202],[-121.002081519521,50.4283003325211]]]}},{"type":"Feature","id":"926367691","properties":{"name":"SP_25KPH_%TR_24SH_EMPTY_LANE_SEP_17_NS","oid":"926367691","speedLimit":6.9444447},"geometry":{"type":"Polygon","coordinates":[[[-121.038784949241,50.4508575634391],[-121.038613776927,50.4512056499918],[-121.038639699319,50.4520121898121],[-121.038866661128,50.4535985765258],[-121.039045863748,50.4535756583561],[-121.038782976885,50.4517187473658],[-121.038784949241,50.4508575634391]]]}},{"type":"Feature","id":"929009157","properties":{"name":"iSP_22KPH_%TR_Long_Single_Lane","oid":"929009157","speedLimit":6.111111},"geometry":{"type":"Polygon","coordinates":[[[-121.005682759596,50.43805601314],[-121.004753075562,50.4382240797172],[-121.005177554725,50.4381975665406],[-121.007937725899,50.4431705397228],[-121.008526474129,50.4445349347542],[-121.008213573957,50.4465097619741],[-121.007835586041,50.446680255181],[-121.008937005918,50.4466470013663],[-121.008826272223,50.4465929863861],[-121.009406285735,50.4448176820547],[-121.008767383312,50.443068441524],[-121.008265700505,50.4415402040486],[-121.007262194009,50.440156216229],[-121.006442539258,50.4389840641969],[-121.005863511924,50.4383130561404],[-121.005682759596,50.43805601314]]]}},{"type":"Feature","id":"929572873","properties":{"name":"SP_11KPH_%TR_1665_FLATS_WATERHOLE_SEPT 18_NS","oid":"929572873","speedLimit":3.0555556},"geometry":{"type":"Polygon","coordinates":[[[-121.053571419521,50.4666492608099],[-121.053362913328,50.4670038183752],[-121.053262604943,50.467126947365],[-121.053007889269,50.4671859953549],[-121.052784026877,50.467126947365],[-121.052274595529,50.4664178322343],[-121.05225923933,50.4654281268074],[-121.052737817396,50.4650982849152],[-121.05356367098,50.4651130244439],[-121.053625377543,50.4653297134908],[-121.053362913328,50.465423273548],[-121.053370661869,50.4663440447157],[-121.053555922439,50.4666345212812],[-121.053571419521,50.4666492608099]]]}},{"type":"Feature","id":"932114358","properties":{"name":"SP_20KPH_%TR_23SH_LOADED_LANES_SEP_","oid":"932114358","speedLimit":5.5555553},"geometry":{"type":"Polygon","coordinates":[[[-121.042099211535,50.4671398893902],[-121.041266454705,50.4667318560957],[-121.040735327443,50.4664970122635],[-121.040689822375,50.4664766105988],[-121.040378190146,50.4667814671923],[-121.040594726645,50.4666720891044],[-121.041767292217,50.4671899498626],[-121.041839705854,50.4675479226846],[-121.042099211535,50.4671398893902]]]}},{"type":"Feature","id":"932281958","properties":{"name":"SP_15KPH_%TR_1185-1170_22shl_SEPT_17_NS","oid":"932281958","speedLimit":4.1666665},"geometry":{"type":"Polygon","coordinates":[[[-121.037375841846,50.4481143034731],[-121.037409371896,50.4479621448018],[-121.036982779495,50.4479088488231],[-121.03592489233,50.4473801131686],[-121.035633828955,50.4472469181593],[-121.035476181367,50.4475380238511],[-121.035551412656,50.447443475167],[-121.036815411011,50.4479515395312],[-121.037216926315,50.4480556149838],[-121.037335267668,50.4481912366229],[-121.037375841846,50.4481143034731]]]}},{"type":"Feature","id":"933274269","properties":{"name":"SP_15KPH_%TR_21SH_EMPTY_LANE_SEP_17_NS","oid":"933274269","speedLimit":4.1666665},"geometry":{"type":"Polygon","coordinates":[[[-121.039410326938,50.452369623383],[-121.039606998996,50.4523825654082],[-121.039539234483,50.4510066663544],[-121.03931311797,50.4510519634426],[-121.039419625187,50.451513382591],[-121.039410326938,50.452369623383]]]}},{"type":"Feature","id":"934051091","properties":{"name":"iSP_17KPH_%TR_Ramp_Permission Blocker","oid":"934051091","speedLimit":4.7222223},"geometry":{"type":"Polygon","coordinates":[[[-121.039513734739,50.4610298154941],[-121.039465693785,50.4607717838667],[-121.039018250765,50.4607923652818],[-121.039077139677,50.4610450942738],[-121.039164627748,50.4609000357414],[-121.039380600717,50.4608869139659],[-121.039513734739,50.4610298154941]]]}},{"type":"Feature","id":"934181262","properties":{"name":"SP_25KPH_TR%_1590_1_SEPT 19_NS","oid":"934181262","speedLimit":6.9444447},"geometry":{"type":"Polygon","coordinates":[[[-121.007187526251,50.4383850461556],[-121.006791364484,50.4384791454638],[-121.008913055882,50.4404386040288],[-121.00958577012,50.4400915959782],[-121.009054361093,50.440135185438],[-121.007132300286,50.4385143765324],[-121.007187526251,50.4383850461556]]]}},{"type":"Feature","id":"934181339","properties":{"name":"SP_30KPH_TR%_1590_2_SEPT 16_NS_ROUGH_SECTION.","oid":"934181339","speedLimit":8.333333},"geometry":{"type":"Polygon","coordinates":[[[-121.009626062533,50.4401266472964],[-121.008922213249,50.4404386040288],[-121.010384715135,50.4417985951766],[-121.011096312961,50.4414569796365],[-121.010562368047,50.4414850206911],[-121.009452776981,50.4404075072183],[-121.009626062533,50.4401266472964]]]}},{"type":"Feature","id":"934182445","properties":{"name":"SP_25KPH_TR%_1590_16_SEPT 16_NS","oid":"934182445","speedLimit":6.9444447},"geometry":{"type":"Polygon","coordinates":[[[-121.010728045941,50.4432869280744],[-121.011316794172,50.4430413890963],[-121.010416554594,50.4420372137662],[-121.009451368155,50.4411427760248],[-121.008811902202,50.4414165358078],[-121.009275687599,50.4414390046015],[-121.010824268732,50.4430593641313],[-121.010728045941,50.4432869280744]]]}},{"type":"Feature","id":"934773555","properties":{"name":"SP_10KPH_NEW RAMP_SEPT 17_NS","oid":"934773555","speedLimit":2.7777777},"geometry":{"type":"Polygon","coordinates":[[[-121.033904072847,50.4443402651252],[-121.034415617433,50.4442041941103],[-121.035776120344,50.4443192343342],[-121.036278084915,50.4444736398849],[-121.035933063519,50.4447856864924],[-121.034623841861,50.4446108792771],[-121.034346162329,50.444601082883],[-121.033904072847,50.4443402651252]]]}},{"type":"Feature","id":"936169885","properties":{"name":"SP_15KPH_%TR_24shl_loadplan_Sept_19_NS","oid":"936169885","speedLimit":4.1666665},"geometry":{"type":"Polygon","coordinates":[[[-121.039053612289,50.4535939030167],[-121.038508537652,50.4536748805493],[-121.038613072514,50.4545481077494],[-121.039164627748,50.4545295934634],[-121.039145326837,50.4542340838881],[-121.039101089712,50.4539211385288],[-121.039078548502,50.4537567568337],[-121.039053612289,50.4535939030167]]]}},{"type":"Feature","id":"936513295","properties":{"name":"SP_30KPH_%TR_1635_FLATS_SEP_17_NS","oid":"936513295","speedLimit":8.333333},"geometry":{"type":"Polygon","coordinates":[[[-121.017435605647,50.457453951907],[-121.015228680298,50.4585170853519],[-121.0144998948,50.4578797804861],[-121.01665356654,50.4569269238809],[-121.017435605647,50.457453951907]]]}},{"type":"Feature","id":"937786749","properties":{"name":"SP_30KPH_%TR_24SH_Loaded_LANE_SEP_17_NS","oid":"937786749","speedLimit":8.333333},"geometry":{"type":"Polygon","coordinates":[[[-121.038411046919,50.4510853970077],[-121.038213952213,50.4510392910429],[-121.038254526391,50.4516608677531],[-121.038333843274,50.4527882619481],[-121.038496562635,50.4527610297701],[-121.038404566321,50.4516753376563],[-121.038411046919,50.4510853970077]]]}},{"type":"Feature","id":"937793793","properties":{"name":"SP_10KPH_%TR_21SH_LOAD_AREA_SEP_17_NS","oid":"937793793","speedLimit":2.7777777},"geometry":{"type":"Polygon","coordinates":[[[-121.039611648121,50.4523982935638],[-121.039004021626,50.452405034202],[-121.039059670239,50.453437430337],[-121.039659407309,50.4534069626527],[-121.039619537544,50.4529280178452],[-121.039611648121,50.4523982935638]]]}},{"type":"Feature","id":"938065675","properties":{"name":"SP_8KPH_CR01_YARD_RUTIING_SEP_17_NS","oid":"938065675","speedLimit":2.2222223},"geometry":{"type":"Polygon","coordinates":[[[-121.034290231952,50.4648013373371],[-121.034100040492,50.4648581384477],[-121.033941829373,50.464907120418],[-121.033830391266,50.4650050843588],[-121.034045237175,50.4650689856082],[-121.033965215879,50.4650114654962],[-121.034243599823,50.4648882466313],[-121.034320239938,50.4649374982272],[-121.034290231952,50.4648013373371]]]}},{"type":"Feature","id":"938165680","properties":{"name":"SP_22SH_10kph_%TR_Sept17_NS","oid":"938165680","speedLimit":2.7777777},"geometry":{"type":"Polygon","coordinates":[[[-121.034632294815,50.4470558435373],[-121.035056210447,50.4472506929167],[-121.035498018164,50.4474474296747],[-121.035796125667,50.4469123128829],[-121.034872499585,50.4467191711318],[-121.034632294815,50.4470558435373]]]}},{"type":"Feature","id":"938217281","properties":{"name":"SP_25KPH_CRUSHER_YARD_WEATHER_SEPT_17_NS","oid":"938217281","speedLimit":6.9444447},"geometry":{"type":"Polygon","coordinates":[[[-121.036884443466,50.4639826643682],[-121.037243130472,50.4642846449561],[-121.034293049603,50.465499307946],[-121.032880420144,50.4644545090368],[-121.036884443466,50.4639826643682]]]}},{"type":"Feature","id":"939481274","properties":{"name":"SP_10KPH_%TR_LRNX_PIT_BOTTOM_SEP_17_NS1","oid":"939481274","speedLimit":2.7777777},"geometry":{"type":"Polygon","coordinates":[[[-121.034056366897,50.4452364104949],[-121.034063411025,50.4449962640274],[-121.033303913128,50.444766453205],[-121.033470154553,50.444887694816],[-121.03335899821,50.4469938296666],[-121.033816584775,50.4469741470032],[-121.033664854255,50.4469200421479],[-121.034056366897,50.4452364104949]]]}},{"type":"Feature","id":"939584863","properties":{"name":"SP_40KPH_%TR_HMT EMPTY2_ROUGH_SECTION_SEPT 17_NS","oid":"939584863","speedLimit":11.111111},"geometry":{"type":"Polygon","coordinates":[[[-121.005961847953,50.4301700956614],[-121.00567036193,50.430397389979],[-121.005922964366,50.4302830687564],[-121.006322366432,50.4305570981649],[-121.006715147017,50.4308738182815],[-121.007138358236,50.4312429356252],[-121.007265716073,50.4315321539383],[-121.007412515704,50.4321903997199],[-121.007319674095,50.4325925012527],[-121.007054110464,50.4326145206706],[-121.007548467377,50.4326902854431],[-121.007645676346,50.432301934812],[-121.007587350965,50.4319287730855],[-121.007418996302,50.4313516845869],[-121.007306712899,50.4311740912412],[-121.007118916443,50.4309840052461],[-121.006684998149,50.4306466138392],[-121.005961847953,50.4301700956614]]]}},{"type":"Feature","id":"939585115","properties":{"name":"SP_40KPH_%TR_HMT EMPTY22_ROUGH_SECTION_SEPT 17_NS","oid":"939585115","speedLimit":11.111111},"geometry":{"type":"Polygon","coordinates":[[[-121.007520431747,50.4327113162341],[-121.007046925453,50.4338271165315],[-121.006950280015,50.4340181911535],[-121.006753889722,50.4342996802016],[-121.005790816521,50.4352901046299],[-121.005291528718,50.4350887842379],[-121.005661908976,50.4351667958898],[-121.006612161864,50.4341291869946],[-121.006756989138,50.4339277767275],[-121.006963241211,50.4334119830982],[-121.007227255134,50.4327832163741],[-121.007030864841,50.4326537961221],[-121.007520431747,50.4327113162341]]]}},{"type":"Feature","id":"940771585","properties":{"name":"SP_15KPH_%TR_1660_HMT_SEPT17_NS","oid":"940771585","speedLimit":4.1666665},"geometry":{"type":"Polygon","coordinates":[[[-121.002710982812,50.4281185150421],[-121.002605743538,50.4277113804994],[-121.002234095336,50.4276979890983],[-121.002507548391,50.4277964024149],[-121.002535584021,50.4281140212833],[-121.002675903054,50.4280826548472],[-121.002710982812,50.4281185150421]]]}},{"type":"Feature","id":"940772885","properties":{"name":"SP_11KPH_%TR_1654_HMT_SEPT17_NS","oid":"940772885","speedLimit":3.0555556},"geometry":{"type":"Polygon","coordinates":[[[-121.004064441595,50.4264900667465],[-121.004415098294,50.4266376417839],[-121.004611347704,50.4261544728432],[-121.004380018536,50.4258055774139],[-121.003973290576,50.4255505116673],[-121.003538386104,50.4259173821316],[-121.003840015672,50.425832360216],[-121.004183628243,50.4261098048812],[-121.004148548485,50.4264900667465],[-121.004064441595,50.4264900667465]]]}},{"type":"Feature","id":"940778315","properties":{"name":"SP_25KPH_%TR_HMT_SPILLING_ROCK_IN_CORNER_SEPT17_NS","oid":"940778315","speedLimit":6.9444447},"geometry":{"type":"Polygon","coordinates":[[[-121.004786746495,50.4367080652656],[-121.004772658239,50.437043659169],[-121.004990040033,50.4372762561218],[-121.005123314938,50.4371688552877],[-121.00489198577,50.4369362583349],[-121.004884941641,50.4367573168615],[-121.005200518583,50.4367975809399],[-121.004800693869,50.4366991676233],[-121.004786746495,50.4367080652656]]]}},{"type":"Feature","id":"941544052","properties":{"name":"SP_11KPH_%TR_TEMP_LOADED_SPILL_SEPT19_NS","oid":"941544052","speedLimit":3.0555556},"geometry":{"type":"Polygon","coordinates":[[[-121.012794934023,50.4562997749099],[-121.012427794063,50.4565454936383],[-121.012324949792,50.4564644262304],[-121.012556983374,50.4564001654803],[-121.012778732528,50.4563100206798],[-121.012794934023,50.4562997749099]]]}}]}