{"type":"FeatureCollection","features":[{"type":"Feature","id":"702602533","properties":{"name":"iSP_4KPH_%TR_CR01_Slow Bump","oid":"702602533","speedLimit":1.1111112},"geometry":{"type":"Polygon","coordinates":[[[-121.033359051553,50.4648079338515],[-121.033653788586,50.4646909166511],[-121.033697181992,50.4647316300088],[-121.033369336354,50.4648697678252],[-121.033359051553,50.4648079338515]]]}},{"type":"Feature","id":"707947583","properties":{"name":"iSP_25KPH_%TR_Permission Gate 1 From West Dump","oid":"707947583","speedLimit":6.9444447},"geometry":{"type":"Polygon","coordinates":[[[-121.038628532666,50.461978040926],[-121.038855220948,50.4617995492517],[-121.038140215958,50.4614083235425],[-121.037992565666,50.4616710280562],[-121.038192062625,50.4615669528503],[-121.038666995004,50.4618461044819],[-121.038628532666,50.461978040926]]]}},{"type":"Feature","id":"742345972","properties":{"name":"iSP_4KPH_%TR_CR01_Pit Side_Slow Bump","oid":"742345972","speedLimit":1.1111112},"geometry":{"type":"Polygon","coordinates":[[[-121.033398922768,50.4648828895697],[-121.033706198804,50.4647443922534],[-121.033756354819,50.4647764776148],[-121.033474861229,50.4649183901796],[-121.033398922768,50.4648828895697]]]}},{"type":"Feature","id":"776427243","properties":{"name":"iSP_7KPH_%TR_CR1_PermissionBlocker","oid":"776427243","speedLimit":1.9444444},"geometry":{"type":"Polygon","coordinates":[[[-121.034100120765,50.4652129104298],[-121.034051655402,50.4652332221712],[-121.03403052225,50.4652746545286],[-121.034116181961,50.4652255827994],[-121.034100120765,50.4652129104298]]]}},{"type":"Feature","id":"794004438","properties":{"name":"iSP_11KPH_%TR_Lower_Fuel_Bay","oid":"794004438","speedLimit":3.0555556},"geometry":{"type":"Polygon","coordinates":[[[-121.036776845851,50.4606955252197],[-121.036778959166,50.460725363707],[-121.036749231865,50.4606708994801],[-121.037125401978,50.4605991792605],[-121.037535385135,50.4605561291537],[-121.037543133958,50.460581473893],[-121.036944643081,50.4606503181138],[-121.036776845851,50.4606955252197]]]}},{"type":"Feature","id":"801543391","properties":{"name":"iSP_4KPH_%TR_CR01_PermissionBlocker_2","oid":"801543391","speedLimit":1.1111112},"geometry":{"type":"Polygon","coordinates":[[[-121.033155609739,50.4645233897221],[-121.033154764413,50.464473958493],[-121.033176320229,50.4644318970109],[-121.033108271478,50.4644594886242],[-121.033155609739,50.4645233897221]]]}},{"type":"Feature","id":"806473874","properties":{"name":"iSP_4KPH_%TR_CR04_PermissionBlocker","oid":"806473874","speedLimit":1.1111112},"geometry":{"type":"Polygon","coordinates":[[[-121.022719777298,50.4815452581317],[-121.022686668692,50.4815429213827],[-121.022679060757,50.4815715914956],[-121.022701180123,50.4815726699951],[-121.022705265866,50.4815485835053],[-121.022719777298,50.4815452581317]]]}},{"type":"Feature","id":"824566967","properties":{"name":"iSP_3KPH_%TR_CR04","oid":"824566967","speedLimit":0.8333333},"geometry":{"type":"Polygon","coordinates":[[[-121.023302629641,50.4810683815839],[-121.023282482703,50.4810683815839],[-121.023279805837,50.4811864772838],[-121.023304883844,50.4811857582841],[-121.023302629641,50.4810683815839]]]}},{"type":"Feature","id":"826307302","properties":{"name":"iSP_4KPH_%TR_CR04_Pockets","oid":"826307302","speedLimit":1.1111112},"geometry":{"type":"Polygon","coordinates":[[[-121.02329783946,50.4813215593515],[-121.023337288011,50.4814772227856],[-121.023541997814,50.4814377676773],[-121.023460987397,50.4811889039078],[-121.023052694892,50.4811896229075],[-121.023058048624,50.4813602954601],[-121.023282905366,50.4813263227245],[-121.02329783946,50.4813215593515]]]}},{"type":"Feature","id":"883050998","properties":{"name":"iSP_22KPH_%TR_4CR_Brake_Temp_Ctrl","oid":"883050998","speedLimit":6.111111},"geometry":{"type":"Polygon","coordinates":[[[-121.031799284017,50.4745590975931],[-121.032188556685,50.4743124806976],[-121.032490197214,50.4745748257114],[-121.032791837742,50.474802209365],[-121.032969637998,50.4748846247051],[-121.033178433544,50.4749347749338],[-121.033462322225,50.4749595804233],[-121.033666186702,50.4749220126892],[-121.033827362211,50.4748626053394],[-121.033918516542,50.4748105677365],[-121.034007839333,50.4747473856382],[-121.034058277123,50.474658229676],[-121.034052500728,50.4745480429728],[-121.034056304696,50.4744836925],[-121.033994173228,50.4743797071691],[-121.033875827574,50.47425963422],[-121.033508956048,50.4739377021065],[-121.033060651441,50.4735600475166],[-121.032947377744,50.4734255046986],[-121.03282241037,50.4732209492853],[-121.032605584226,50.4728149840824],[-121.03225209703,50.4722090470892],[-121.032487097684,50.4721562006116],[-121.032430038173,50.4722057217156],[-121.032902575461,50.4730489286082],[-121.033041772492,50.4733096558727],[-121.033249581824,50.4735470156471],[-121.033742547826,50.4739616987213],[-121.034097584787,50.4742712280901],[-121.034202968774,50.4743945365378],[-121.034255660767,50.4744617630093],[-121.034262705151,50.4745928905787],[-121.034237768031,50.4746789009173],[-121.034183244498,50.4747916939945],[-121.034085750221,50.4748759068338],[-121.033972899188,50.4749377408076],[-121.033790308751,50.4750162016493],[-121.033530793639,50.4750644645038],[-121.033262825266,50.4750681493773],[-121.033071218017,50.47502635752],[-121.032807476275,50.4749166201915],[-121.032656726455,50.474835193476],[-121.032495128282,50.474705414031],[-121.032144599728,50.4744131406549],[-121.031799284017,50.4745590975931]]]}},{"type":"Feature","id":"883053336","properties":{"name":"iSP_22KPH_%TR_Brake_Temp_Ctrl","oid":"883053336","speedLimit":6.111111},"geometry":{"type":"Polygon","coordinates":[[[-121.032465823644,50.4721453257412],[-121.032250969928,50.4722255840822],[-121.031488344901,50.4710084074732],[-121.030816451542,50.4699234369331],[-121.030661193315,50.4696602830446],[-121.030596384981,50.4694577947554],[-121.030550032933,50.4692568343406],[-121.030596384981,50.4689730092109],[-121.030722620345,50.4686243842337],[-121.030884359405,50.4683756103392],[-121.031088787432,50.4680978967069],[-121.031688123635,50.4675366275698],[-121.032432010601,50.4668937519673],[-121.03278831555,50.4665562714854],[-121.033147438254,50.4662224758769],[-121.033484300704,50.4658707951509],[-121.033779319511,50.4660341878317],[-121.0335872896,50.465993384599],[-121.032919200208,50.4666521680697],[-121.032554441997,50.4669913561759],[-121.032178412771,50.4673078059168],[-121.031774206009,50.4676684741389],[-121.031381833813,50.4680345348587],[-121.031146974046,50.468286454377],[-121.031008622341,50.4684699790492],[-121.030904929006,50.4686545822209],[-121.030828426995,50.4688531160118],[-121.030767563516,50.4691914053684],[-121.030776298552,50.4694007241546],[-121.030873511053,50.4696304445573],[-121.03102750129,50.4699352105531],[-121.031330409809,50.4704039084794],[-121.031530470318,50.4707111010992],[-121.031750114216,50.4710830036915],[-121.032145867717,50.4717289350427],[-121.032381150147,50.4721452358663],[-121.032465823644,50.4721453257412]]]}},{"type":"Feature","id":"883059532","properties":{"name":"iSP_22KPH_%TR_Brake_Ctrl","oid":"883059532","speedLimit":6.111111},"geometry":{"type":"Polygon","coordinates":[[[-121.027262137079,50.4773221235469],[-121.027029954178,50.4772099595944],[-121.027334412461,50.476944199332],[-121.027716358969,50.4766326028391],[-121.02803307448,50.4763228937204],[-121.028190305134,50.4761689379107],[-121.028621139668,50.4756925107376],[-121.028907141664,50.475325910768],[-121.029263728389,50.4748877703287],[-121.029472523935,50.4746568815516],[-121.029691322507,50.4745405833509],[-121.029801355787,50.474488365998],[-121.029952105607,50.4745928007038],[-121.029788535008,50.4745422011002],[-121.029555929443,50.4747916939945],[-121.029251752936,50.4751732132077],[-121.029072825579,50.4754781589535],[-121.028853040794,50.4757749260777],[-121.028695951027,50.4759748978679],[-121.02840882193,50.4762707662425],[-121.028041527741,50.4765701397406],[-121.027243821681,50.4772195762153],[-121.027262137079,50.4773221235469]]]}},{"type":"Feature","id":"884401102","properties":{"name":"iSP_30KPH_%TR_Maint_Limit_Policy","oid":"884401102","speedLimit":8.333333},"geometry":{"type":"Polygon","coordinates":[[[-121.036992404006,50.4611014005476],[-121.037108495456,50.4611078715449],[-121.038294769746,50.4609922024689],[-121.038278426775,50.4603980390958],[-121.038119928131,50.4605659255246],[-121.037032838771,50.4607085570891],[-121.036745146122,50.4605378845365],[-121.036992404006,50.4611014005476]]]}},{"type":"Feature","id":"910445950","properties":{"name":"SP_22KPH_%TR_1635_FLATS_SEP_26_NS","oid":"910445950","speedLimit":6.111111},"geometry":{"type":"Polygon","coordinates":[[[-121.01736970843,50.4554939219246],[-121.018002857677,50.4544142540072],[-121.018148112878,50.4539985823084],[-121.018532736252,50.4537516059131],[-121.018948777579,50.45368815419],[-121.01886664006,50.454341724913],[-121.018261809238,50.4560721774294],[-121.018275898006,50.4557009039618],[-121.01736970843,50.4554939219246]]]}},{"type":"Feature","id":"915576987","properties":{"name":"iSP_15KPH_%TR_Preventing Shifting","oid":"915576987","speedLimit":4.1666665},"geometry":{"type":"Polygon","coordinates":[[[-121.036997898625,50.4448633316807],[-121.03751199778,50.44531324574],[-121.037981294652,50.4457956945355],[-121.038525261995,50.4462190056061],[-121.039457938455,50.4468501075886],[-121.039915259874,50.4470998701077],[-121.04047120267,50.4471952274423],[-121.041224388222,50.4473229397631],[-121.04164282464,50.4475097898089],[-121.042321339721,50.4480952353108],[-121.042703990667,50.4485279832523],[-121.042847414328,50.4487950017641],[-121.043008871613,50.4493917715112],[-121.043188080746,50.4501983094193],[-121.043325587124,50.4505014576658],[-121.043687245806,50.4511688691329],[-121.043857719902,50.4514891834971],[-121.044126674488,50.452253749798],[-121.04438379451,50.4529383273828],[-121.044697551379,50.4537982510183],[-121.04473643638,50.4541948692252],[-121.044572020454,50.4550719589784],[-121.044216419942,50.4568394399792],[-121.044052004017,50.4572074779482],[-121.043005772084,50.4583991300681],[-121.041905861944,50.4595374863355],[-121.041344001865,50.4600007917641],[-121.040372581292,50.4605976513861],[-121.039924135798,50.4607311157046],[-121.039135023886,50.4608073296723],[-121.038497648009,50.4608388757839],[-121.038645439188,50.4611436417797],[-121.038758290222,50.4609496916119],[-121.039879333514,50.4608798587665],[-121.040707330426,50.4606319836216],[-121.041511376432,50.4600580421149],[-121.042874323876,50.4587003909404],[-121.044243188602,50.4571425882257],[-121.044428596793,50.456290303962],[-121.044814206381,50.454421713629],[-121.044811106852,50.4537867470232],[-121.044261222226,50.4523014734028],[-121.043833768996,50.4511860352506],[-121.043346579389,50.4503375257353],[-121.043050715255,50.4493098055459],[-121.042928142971,50.4486920050578],[-121.042240611079,50.4478873545239],[-121.041547161904,50.447391604234],[-121.041092799127,50.4472219203059],[-121.040459227217,50.4471304275947],[-121.039918218515,50.4470197915166],[-121.038821267016,50.4463334164326],[-121.038196571031,50.4458719085032],[-121.037153438627,50.4449071007872],[-121.037377590931,50.444697422501],[-121.036997898625,50.4448633316807]]]}},{"type":"Feature","id":"917773475","properties":{"name":"SP_15KPH_%TR_1200_CORNER_Sept_26_NS","oid":"917773475","speedLimit":4.1666665},"geometry":{"type":"Polygon","coordinates":[[[-121.037098774206,50.4446825931323],[-121.03692463703,50.4448621633062],[-121.036629054672,50.4448206410738],[-121.036414482731,50.4448699824279],[-121.036322905737,50.4449676765115],[-121.036254293435,50.445082177213],[-121.036242036207,50.4451449998113],[-121.036263169359,50.4452673196345],[-121.036315861353,50.4453515324738],[-121.036183990482,50.4453953015802],[-121.036088891296,50.4451943411654],[-121.036162857329,50.4449317265267],[-121.036259647167,50.4447914317112],[-121.036516485413,50.4447151278685],[-121.036713587281,50.444711802495],[-121.036922946378,50.4447701313452],[-121.037093561362,50.4446836716319],[-121.037098774206,50.4446825931323]]]}},{"type":"Feature","id":"926367691","properties":{"name":"SP_30KPH_%TR_24SH_EMPTY_LANE_SEP_26_NS","oid":"926367691","speedLimit":6.9444447},"geometry":{"type":"Polygon","coordinates":[[[-121.038923410587,50.4549416402836],[-121.039203354412,50.4546235727935],[-121.039438918618,50.4538307857545],[-121.039920895381,50.4514269900235],[-121.039502458963,50.4515918207036],[-121.039433142223,50.4530471659617],[-121.039204199738,50.4540992422657],[-121.038923410587,50.4549416402836]]]}},{"type":"Feature","id":"927549571","properties":{"name":"SP_30KPH_TR%_CRUSHER YARD EMPTY_SEPT_27_NS","oid":"927549571","speedLimit":8.333333},"geometry":{"type":"Polygon","coordinates":[[[-121.037754888145,50.4619283400721],[-121.037448457435,50.46126083873],[-121.036778536503,50.4614646751436],[-121.037246988049,50.4615093429997],[-121.037728401261,50.4623116567846],[-121.037507066711,50.4624618378459],[-121.038037508837,50.4623441915208],[-121.037754888145,50.4619283400721]]]}},{"type":"Feature","id":"929009157","properties":{"name":"iSP_22KPH_%TR_Long_Single_Lane","oid":"929009157","speedLimit":6.111111},"geometry":{"type":"Polygon","coordinates":[[[-121.005680680049,50.4380560223162],[-121.00475096223,50.438224088495],[-121.005175456819,50.4381975753812],[-121.007935728301,50.4431705367733],[-121.008524497927,50.4445349285699],[-121.008211586384,50.4465097511078],[-121.007833584731,50.4466802439106],[-121.008935044635,50.4466469901746],[-121.008824306916,50.4465929753225],[-121.009404341506,50.4448176752001],[-121.008765415865,50.4430684388166],[-121.008263714826,50.4415402049644],[-121.007260171861,50.440156220426],[-121.006440487323,50.4389840711729],[-121.005861438946,50.4383130647073],[-121.005680680049,50.4380560223162]]]}},{"type":"Feature","id":"932268643","properties":{"name":"SP_35KPH_%traction_1185_1170_SEP_27_DS","oid":"932268643","speedLimit":9.722222},"geometry":{"type":"Polygon","coordinates":[[[-121.038728985584,50.4481975130174],[-121.03846721627,50.4482557519927],[-121.038947079717,50.4498293727007],[-121.03950626293,50.4497914454668],[-121.039105719248,50.4497306899925],[-121.038621910945,50.4483442788302],[-121.038851980531,50.4481595857835],[-121.038728985584,50.4481975130174]]]}},{"type":"Feature","id":"932654885","properties":{"name":"SP_18KPH_%TR_LOTS OF MUD_SEPT_26_NS","oid":"932654885","speedLimit":5},"geometry":{"type":"Polygon","coordinates":[[[-121.03636531293,50.4453591718455],[-121.036057755118,50.4454652243006],[-121.036262746696,50.4454607305525],[-121.038009472188,50.4473915143591],[-121.038175719654,50.4473147611416],[-121.03636531293,50.4453591718455]]]}},{"type":"Feature","id":"934051091","properties":{"name":"iSP_17KPH_%TR_Ramp_Permission Blocker","oid":"934051091","speedLimit":4.7222223},"geometry":{"type":"Polygon","coordinates":[[[-121.039512884651,50.461029770203],[-121.039464841952,50.4607717391874],[-121.039017382671,50.4607923205536],[-121.039076273722,50.4610450489465],[-121.039163764973,50.460899990758],[-121.039379745791,50.4608868690136],[-121.039512884651,50.461029770203]]]}},{"type":"Feature","id":"934181442","properties":{"name":"SP_30KPH_TR%_1590_3_SEPT 27_DS_Rough_section ","oid":"934181442","speedLimit":8.333333},"geometry":{"type":"Polygon","coordinates":[[[-121.01106216687,50.4415092879775],[-121.010401121862,50.4418074032261],[-121.01160697954,50.4432054082585],[-121.012272532953,50.4429313794996],[-121.011824369234,50.4429215831288],[-121.010901273136,50.4417731608656],[-121.01106216687,50.4415092879775]]]}},{"type":"Feature","id":"934181877","properties":{"name":"SP_30KPH_TR%_1590_7_SEPT 27_DS","oid":"934181877","speedLimit":8.333333},"geometry":{"type":"Polygon","coordinates":[[[-121.013995448426,50.4497859630941],[-121.013325245719,50.4498808710538],[-121.013673801847,50.4515054508652],[-121.014402754717,50.4513829512921],[-121.0139843183,50.4512796849609],[-121.01370705134,50.4500006743781],[-121.013995448426,50.4497859630941]]]}},{"type":"Feature","id":"934182273","properties":{"name":"SP_30KPH_TR%_1590_17_SEPT 27_DS","oid":"934182273","speedLimit":8.333333},"geometry":{"type":"Polygon","coordinates":[[[-121.008849525811,50.4413698020366],[-121.009440549641,50.4411108722713],[-121.007219596209,50.4391736174675],[-121.006130534421,50.4382651613526],[-121.005749151463,50.4379789994739],[-121.004975396309,50.4375497566558],[-121.0045156798,50.4371634740696],[-121.00358483488,50.4374711160642],[-121.004111895701,50.4376570673604],[-121.005053870748,50.4380648300625],[-121.006107992391,50.4386442539419],[-121.007075749885,50.4394769454639],[-121.008913629707,50.4411153660194],[-121.008849525811,50.4413698020366]]]}},{"type":"Feature","id":"936169885","properties":{"name":"SP_15KPH_%TR_24shl_loadplan_Sept_26_NS","oid":"936169885","speedLimit":4.1666665},"geometry":{"type":"Polygon","coordinates":[[[-121.03916883693,50.4546367844129],[-121.038618952304,50.4545682996919],[-121.038154445614,50.4553923632176],[-121.038669953645,50.4555194464137],[-121.038841977506,50.4552446986552],[-121.039002025914,50.4549474821562],[-121.039087403849,50.4547918187222],[-121.03916883693,50.4546367844129]]]}},{"type":"Feature","id":"936513295","properties":{"name":"SP_30KPH_%TR_1635_FLATS_SEP_26_NS","oid":"936513295","speedLimit":8.333333},"geometry":{"type":"Polygon","coordinates":[[[-121.017285880259,50.4555553065235],[-121.01805005505,50.455785296551],[-121.017433953213,50.4574539150937],[-121.015226947662,50.4585170460181],[-121.014498135679,50.4578797426632],[-121.016177235083,50.4566195159474],[-121.017285880259,50.4555553065235]]]}},{"type":"Feature","id":"937786749","properties":{"name":"SP_25KPH_%TR_24SH_Loaded_LANE_SEP_26_NS","oid":"937786749","speedLimit":6.9444447},"geometry":{"type":"Polygon","coordinates":[[[-121.038280117427,50.4554284929523],[-121.038456367918,50.4555012916714],[-121.038969621746,50.4539575993258],[-121.039257032619,50.4521235209782],[-121.038991882,50.4522689386666],[-121.038490603625,50.4548541919457],[-121.038280117427,50.4554284929523]]]}},{"type":"Feature","id":"938065675","properties":{"name":"SP_8KPH_CR01_YARD_RUTIING_SEP_26_NS","oid":"938065675","speedLimit":2.2222223},"geometry":{"type":"Polygon","coordinates":[[[-121.034289192035,50.4648012831043],[-121.034098993664,50.4648580840802],[-121.033940776796,50.4649070659344],[-121.033829334639,50.4650050296429],[-121.034044188355,50.4650689307408],[-121.033964164151,50.4650114107652],[-121.034242558212,50.4648881921924],[-121.034319201112,50.4649374436716],[-121.034289192035,50.4648012831043]]]}},{"type":"Feature","id":"938165680","properties":{"name":"SP_10KPH_%TR_22SH_Sept_26_NS","oid":"938165680","speedLimit":2.7777777},"geometry":{"type":"Polygon","coordinates":[[[-121.03408039649,50.4466114895647],[-121.035055198367,50.4472506802938],[-121.03549702214,50.4474474165854],[-121.035795140477,50.4469123010622],[-121.034854856082,50.446195458366],[-121.03408039649,50.4466114895647]]]}},{"type":"Feature","id":"940771585","properties":{"name":"SP_20KPH_%TR_1660_HMT_SEPT26_DS","oid":"940771585","speedLimit":5.5555553},"geometry":{"type":"Polygon","coordinates":[[[-121.002708795268,50.4281185477786],[-121.002603552169,50.4277114142012],[-121.002231890462,50.4276980228319],[-121.002505353454,50.4277964359152],[-121.002533390103,50.4281140540305],[-121.002673714235,50.4280826876688],[-121.002708795268,50.4281185477786]]]}},{"type":"Feature","id":"940778315","properties":{"name":"SP_20KPH_%TR_HMT_SPILLING_ROCK_IN_CORNER_SEPT26_NS","oid":"940778315","speedLimit":5.5555553},"geometry":{"type":"Polygon","coordinates":[[[-121.004784634387,50.4367080776376],[-121.004770545618,50.4370436707454],[-121.004987935313,50.4372762671468],[-121.005121215061,50.4371688665673],[-121.004889877486,50.4369362701659],[-121.004882833102,50.4367573291167],[-121.005198421511,50.4367975930997],[-121.004798582267,50.4366991800164],[-121.004784634387,50.4367080776376]]]}},{"type":"Feature","id":"944724443","properties":{"name":"SP_12KPH_%TR_21SH_EMPTY_SEPT 26_NS","oid":"944724443","speedLimit":3.3333333},"geometry":{"type":"Polygon","coordinates":[[[-121.039134601223,50.4501832104257],[-121.038912703123,50.4501673924324],[-121.038927778105,50.4505370481507],[-121.03926548588,50.451171026132],[-121.039344805646,50.4515560504688],[-121.039732387661,50.4514984406182],[-121.039710831846,50.451109641533],[-121.039407218889,50.450958741472],[-121.039104451259,50.4503566691022],[-121.039084586096,50.4502970820024],[-121.039134601223,50.4501832104257]]]}},{"type":"Feature","id":"944724972","properties":{"name":"SP_20KPH_%TR_21SH_LOADED_SEPT 26_NS","oid":"944724972","speedLimit":5.5555553},"geometry":{"type":"Polygon","coordinates":[[[-121.038848035676,50.4522168111887],[-121.039181657709,50.4521685483341],[-121.039250833561,50.4519692955436],[-121.039327617349,50.451635679685],[-121.039213357438,50.4512647657172],[-121.038912984898,50.4506403144819],[-121.038818449263,50.4509654820941],[-121.038885934463,50.4509783342136],[-121.039058099211,50.4512927168304],[-121.039101915281,50.4515747444608],[-121.039046828197,50.4519346038083],[-121.038997094845,50.4521383503469],[-121.038848035676,50.4522168111887]]]}},{"type":"Feature","id":"945606742","properties":{"name":"SP_20KPH_19SH_SEPT 26_NS","oid":"945606742","speedLimit":5.5555553},"geometry":{"type":"Polygon","coordinates":[[[-121.002893780795,50.427119857202],[-121.002444489975,50.4275247439053],[-121.001789925801,50.4273169529934],[-121.002101710243,50.4269693166408],[-121.002893780795,50.427119857202]]]}},{"type":"Feature","id":"947290154","properties":{"name":"Sp_30KPH__DRAGGING_CENTER_SLIME_SEPT_27_DS","oid":"947290154","speedLimit":8.333333},"geometry":{"type":"Polygon","coordinates":[[[-121.042355575428,50.4500108302488],[-121.042952093877,50.4498496844421],[-121.043015211559,50.4500332091143],[-121.043127499042,50.4504204803251],[-121.043373207161,50.4508906162508],[-121.043460839299,50.4510472683094],[-121.042885454003,50.4511815415025],[-121.043145110002,50.4510450214354],[-121.042906446268,50.4505324645276],[-121.042762599943,50.4499884513832],[-121.042355575428,50.4500108302488]]]}},{"type":"Feature","id":"947418386","properties":{"name":"SP_30KPH_TR%_HMT_LOADED_DOWN_RAMP1_SEPT_27_DS","oid":"947418386","speedLimit":8.333333},"geometry":{"type":"Polygon","coordinates":[[[-121.00387421818,50.4282680098403],[-121.003307427032,50.4286849397885],[-121.003640908177,50.4288636112128],[-121.004201077604,50.429063583003],[-121.004621204675,50.4292677789165],[-121.005288026077,50.4296548703774],[-121.00616829232,50.4301738982824],[-121.006641815822,50.4305057166417],[-121.00700854646,50.4307737237781],[-121.007268625122,50.4309779196916],[-121.007475307353,50.4312629131958],[-121.008188903467,50.4309608434488],[-121.007675367863,50.4310757036501],[-121.006094889837,50.4299015771478],[-121.00469446627,50.429148604717],[-121.003614139518,50.428629666687],[-121.00387421818,50.4282680098403]]]}},{"type":"Feature","id":"947419674","properties":{"name":"SP_30KPH_TR%_HMT_LOADED_DOWN_RAMP2_SEPT_27_DS","oid":"947419674","speedLimit":8.333333},"geometry":{"type":"Polygon","coordinates":[[[-121.008213981474,50.4310792087736],[-121.007514755904,50.4313132431744],[-121.007638737065,50.4316643846506],[-121.007728059856,50.4320882349709],[-121.007747925019,50.4322970145074],[-121.00768832953,50.4325595392711],[-121.007579282463,50.4328632267674],[-121.007489959672,50.4331067879142],[-121.007281727677,50.4336255461943],[-121.00713802224,50.4339292336905],[-121.00704869945,50.4341411588507],[-121.006557846763,50.4346345723916],[-121.005734640032,50.4354854186559],[-121.00528844874,50.4358998321052],[-121.004931439352,50.4363332091715],[-121.004797596053,50.4366494791625],[-121.005293379809,50.4367191322579],[-121.005050489444,50.4366590059084],[-121.005516545899,50.4361275752587],[-121.007326389072,50.4341790860846],[-121.007658602228,50.4335812378381],[-121.008005749479,50.4322874877615],[-121.007861903155,50.4313670782766],[-121.008213981474,50.4310792087736]]]}}]}