{"type":"FeatureCollection","features":[{"type":"Feature","id":"702602533","properties":{"name":"iSP_4KPH_%TR_CR01_SLOW BUMP","oid":"702602533","speedLimit":1.1111112},"geometry":{"type":"Polygon","coordinates":[[[-121.033359844883,50.4648088615538],[-121.033654601902,50.4646918413814],[-121.033697998251,50.4647325557732],[-121.033370130381,50.4648706970981],[-121.033359844883,50.4648088615538]]]}},{"type":"Feature","id":"707947583","properties":{"name":"iSP_22KPH_%TR_Permission Gate 1 from west dump_Jun","oid":"707947583","speedLimit":6.111111},"geometry":{"type":"Polygon","coordinates":[[[-121.038629683327,50.4619788967539],[-121.038856386981,50.4618004005462],[-121.037982119628,50.4613519130957],[-121.037744989578,50.4615431718722],[-121.037961125939,50.4614974243547],[-121.038668148273,50.4618469569589],[-121.038629683327,50.4619788967539]]]}},{"type":"Feature","id":"742345972","properties":{"name":"iSP_4KPH_%TR_CR01_PITSIDE_SLOW BUMP","oid":"742345972","speedLimit":1.1111112},"geometry":{"type":"Polygon","coordinates":[[[-121.033399718801,50.4648838191758],[-121.033707015674,50.4647453183419],[-121.03375717509,50.4647774045182],[-121.033475662411,50.4649193206874],[-121.033399718801,50.4648838191758]]]}},{"type":"Feature","id":"776427243","properties":{"name":"iSP_7KPH_%TR_CR1_PermissionBlocker_DO_NOT_DELETE","oid":"776427243","speedLimit":1.9444444},"geometry":{"type":"Polygon","coordinates":[[[-121.034100964348,50.4652138484179],[-121.034052495698,50.4652341606752],[-121.034031361113,50.4652755940849],[-121.034117026633,50.4652265211094],[-121.034100964348,50.4652138484179]]]}},{"type":"Feature","id":"794004438","properties":{"name":"iSP_11KPH_%TR_LOWER_FUEL_BAY","oid":"794004438","speedLimit":3.0555556},"geometry":{"type":"Polygon","coordinates":[[[-121.036777870946,50.4606963484738],[-121.036779984405,50.460726187719],[-121.036750255088,50.4606717221088],[-121.03712645071,50.4606000000676],[-121.037536461668,50.4605569488675],[-121.037544211016,50.4605822942504],[-121.036945679555,50.4606511402198],[-121.036777870946,50.4606963484738]]]}},{"type":"Feature","id":"801543391","properties":{"name":"iSP_4KPH_%TR_CR1_PermissionBlocker_DO_NOT_DELETE_","oid":"801543391","speedLimit":1.1111112},"geometry":{"type":"Polygon","coordinates":[[[-121.033156389273,50.4645243101975],[-121.03315554389,50.464474877713],[-121.033177101167,50.4644328151625],[-121.033109047802,50.4644604074766],[-121.033156389273,50.4645243101975]]]}},{"type":"Feature","id":"806473874","properties":{"name":"iSP_4KPH_%TR_Permission Blocker - DO NOT DELETE","oid":"806473874","speedLimit":1.1111112},"geometry":{"type":"Polygon","coordinates":[[[-121.022719849162,50.4815466109339],[-121.022686738311,50.4815442741255],[-121.02267912986,50.4815729449665],[-121.022701250726,50.4815740234935],[-121.022705336746,50.4815499363919],[-121.022719849162,50.4815466109339]]]}},{"type":"Feature","id":"824566967","properties":{"name":"iSP_4Cr_3KPH","oid":"824566967","speedLimit":0.8333333},"geometry":{"type":"Polygon","coordinates":[[[-121.02330274103,50.4810697222742],[-121.023282592725,50.4810697222742],[-121.023279915677,50.4811878209735],[-121.023304995385,50.4811871019556],[-121.02330274103,50.4810697222742]]]}},{"type":"Feature","id":"826307302","properties":{"name":"iSP_4KPH_TR%_CRUSHER POCKETS","oid":"826307302","speedLimit":1.1111112},"geometry":{"type":"Polygon","coordinates":[[[-121.023297950524,50.4813229064721],[-121.02333740175,50.4814785738597],[-121.023542125435,50.4814391177494],[-121.023461109524,50.4811902476591],[-121.023052789332,50.4811909666771],[-121.023058143427,50.4813616435646],[-121.023283015417,50.4813276699661],[-121.023297950524,50.4813229064721]]]}},{"type":"Feature","id":"849417440","properties":{"name":"iSP_Permissions_35_KPH_June_19_NS","oid":"849417440","speedLimit":9.722222},"geometry":{"type":"Polygon","coordinates":[[[-121.032696359796,50.4660351466788],[-121.033010983325,50.4660158230712],[-121.033217961366,50.4658149474296],[-121.033806770917,50.4653804808293],[-121.03372758667,50.4652516867379],[-121.033963730439,50.4654011525956],[-121.033427475556,50.4658094649177],[-121.033025073049,50.4661890165215],[-121.032696359796,50.4660351466788]]]}},{"type":"Feature","id":"853029148","properties":{"name":"SP_15KPH_%TR_1635 Flats_AUG_18_NS","oid":"853029148","speedLimit":4.1666665},"geometry":{"type":"Polygon","coordinates":[[[-121.018590151156,50.4569716557041],[-121.017426339982,50.4572816423206],[-121.0157886914,50.4579437679814],[-121.01482453161,50.4590972525383],[-121.018349216882,50.4588938603338],[-121.020692478824,50.4589879618089],[-121.020240762283,50.4572324794679],[-121.019422994722,50.457097304092],[-121.018968742031,50.4570006860541],[-121.018590151156,50.4569716557041]]]}},{"type":"Feature","id":"883050998","properties":{"name":"iSP_22kph_%TR_4CR_Brake_Temp_CTRL_NOREMOVE","oid":"883050998","speedLimit":6.111111},"geometry":{"type":"Polygon","coordinates":[[[-121.031799971576,50.4745602729586],[-121.032189270641,50.4743136497994],[-121.032490931625,50.4745760014764],[-121.032792592608,50.4748033909051],[-121.032970404921,50.4748858083384],[-121.033179214626,50.4749359598409],[-121.033463122557,50.4749607659604],[-121.033667000859,50.4749231972721],[-121.033828187297,50.4748637884135],[-121.03391934781,50.4748117494889],[-121.034008676658,50.4747485657859],[-121.034059117868,50.4746594075593],[-121.034053341082,50.4745492180575],[-121.034057145307,50.4744848659504],[-121.033995009626,50.4743808779784],[-121.033876655947,50.4742608019796],[-121.033509759543,50.4739388616896],[-121.033061424536,50.4735611975078],[-121.032948143157,50.4734266512727],[-121.032823167309,50.4732220906641],[-121.032606326461,50.4728161151503],[-121.032252815295,50.4722101627674],[-121.032487831885,50.4721573149476],[-121.032430768505,50.4722068373093],[-121.032903337836,50.473050065618],[-121.033042544306,50.4733107995045],[-121.03325036773,50.4735481653074],[-121.033743367161,50.4739628589139],[-121.034098428197,50.4742723961442],[-121.03420381933,50.4743957077237],[-121.034256514897,50.4744629359027],[-121.034263559759,50.4745940668025],[-121.034238620948,50.4746800793256],[-121.034184093717,50.4747928752675],[-121.034086592829,50.4748770902457],[-121.033973734143,50.4749389257899],[-121.033791131324,50.4750173886245],[-121.033531598614,50.4750656527048],[-121.03326361207,50.4750693376718],[-121.033071991828,50.4750275447531],[-121.032808232201,50.4749178046375],[-121.032657472158,50.4748363758539],[-121.032495863028,50.4747065931127],[-121.032145310703,50.4744143123134],[-121.031799971576,50.4745602729586]]]}},{"type":"Feature","id":"883053336","properties":{"name":"iSP_22kph_%TR_Brake_Temp_CTRL_NOREMOVE","oid":"883053336","speedLimit":6.111111},"geometry":{"type":"Polygon","coordinates":[[[-121.032466556403,50.472146439801],[-121.032251688117,50.4722267001804],[-121.031489011375,50.4710094926571],[-121.030817072453,50.4699244945606],[-121.030661803699,50.4696613339885],[-121.03059699097,50.4694588405564],[-121.030550635779,50.4692578750376],[-121.03059699097,50.4689740426992],[-121.030723234894,50.4686254088675],[-121.030884984922,50.4683766286545],[-121.031089426812,50.4680989079688],[-121.031688803656,50.4675376245764],[-121.032432741066,50.466894732646],[-121.032789070177,50.4665572435926],[-121.033148217233,50.4662234395062],[-121.033485102526,50.4658717498482],[-121.03378014134,50.4660351466788],[-121.033588098406,50.4659943424098],[-121.03291996371,50.4666531426125],[-121.032555180764,50.4669923393336],[-121.03217912604,50.4673087971117],[-121.031774891868,50.4676694744942],[-121.031382493064,50.4680355445113],[-121.031147617371,50.4682874704279],[-121.031009256284,50.4684709997613],[-121.030905555918,50.4686556076217],[-121.030829048719,50.4688541464549],[-121.030768181112,50.4691924444035],[-121.030776916741,50.4694017685061],[-121.030874135834,50.4696314947433],[-121.031028136514,50.4699362684796],[-121.031331065573,50.4704049783101],[-121.031531139649,50.470712178732],[-121.031750798441,50.4710840907701],[-121.032146578778,50.4717300385269],[-121.032381877163,50.4721463499237],[-121.032466556403,50.472146439801]]]}},{"type":"Feature","id":"883059532","properties":{"name":"iSP_22kph_%TR_Brake_CTRL_NOREMOVE","oid":"883059532","speedLimit":6.111111},"geometry":{"type":"Polygon","coordinates":[[[-121.027262516968,50.4773233690885],[-121.027030318322,50.4772112022873],[-121.02733479725,50.4769454352751],[-121.027716769659,50.4766338308681],[-121.028033506647,50.4763241138833],[-121.028190747963,50.4761701541634],[-121.028621611712,50.4756937148899],[-121.028907633103,50.4753271056093],[-121.029264244009,50.474888954042],[-121.029473053713,50.4746580594006],[-121.029691867122,50.4745417582462],[-121.029801907864,50.4744895395671],[-121.029952667907,50.4745939769253],[-121.029789086215,50.4745433760366],[-121.029556464877,50.4747928752675],[-121.029252267743,50.4751744041707],[-121.029073328253,50.4754793576616],[-121.028853528564,50.4757761323232],[-121.028696428145,50.4759761091923],[-121.028409279577,50.4762719850815],[-121.028041960481,50.4765713661832],[-121.027244200327,50.4772208191525],[-121.027262516968,50.4773233690885]]]}},{"type":"Feature","id":"908328496","properties":{"name":"SP_15KPH_%TR_9019_SOFT_GROUND_AUG_17_DS","oid":"908328496","speedLimit":4.1666665},"geometry":{"type":"Polygon","coordinates":[[[-121.039689794136,50.4639774970415],[-121.039875355796,50.4641979659225],[-121.039739671757,50.4650145905667],[-121.039441110513,50.4657763900917],[-121.039206516614,50.4663544805288],[-121.03892937175,50.4669802059055],[-121.037873769653,50.4685922441642],[-121.036178353204,50.4681977729378],[-121.035229410316,50.4668169888294],[-121.037882364384,50.4651409579726],[-121.03852147425,50.4648154225927],[-121.039689794136,50.4639774970415]]]}},{"type":"Feature","id":"910445950","properties":{"name":"SP_20KPH_%TR_1635_FLATS_AUG_18_NS","oid":"910445950","speedLimit":5.5555553},"geometry":{"type":"Polygon","coordinates":[[[-121.020225545382,50.4571648917799],[-121.019044403847,50.4569620388389],[-121.018650736968,50.4569233916238],[-121.017842691316,50.4571477252262],[-121.018448690331,50.4564132483836],[-121.018503217561,50.4555087237942],[-121.019218271037,50.4555087237942],[-121.019236446781,50.4564596250418],[-121.019424262797,50.4568926536061],[-121.019757625659,50.4570627013529],[-121.020225545382,50.4571648917799]]]}},{"type":"Feature","id":"913788494","properties":{"name":"SP_15KPH_%TR_ROUGH_21SH_AUG_19_DS","oid":"913788494","speedLimit":4.1666665},"geometry":{"type":"Polygon","coordinates":[[[-121.041138781317,50.45315088416],[-121.04119218137,50.4542743497172],[-121.040910809588,50.4551336660525],[-121.040262259608,50.4560697375548],[-121.039700925017,50.456418191632],[-121.039059983488,50.4561277982548],[-121.039632730755,50.455900408826],[-121.040320731961,50.4550790206878],[-121.040547012923,50.4542446003492],[-121.040544476773,50.4531386608547],[-121.041138781317,50.45315088416]]]}},{"type":"Feature","id":"917291012","properties":{"name":"SP_15KPH_%TR_CORNER_RUTS_AUG_18_NS","oid":"917291012","speedLimit":4.1666665},"geometry":{"type":"Polygon","coordinates":[[[-121.04061140296,50.4662224508565],[-121.040685655804,50.4661083067559],[-121.040423727841,50.4659272939853],[-121.040530387049,50.4656664702216],[-121.04002710212,50.4656489441589],[-121.040220554026,50.4657718962295],[-121.040017802902,50.4663116090831],[-121.03993481443,50.4664869595873],[-121.039995963831,50.4668211231826],[-121.040668184547,50.4667403235398],[-121.04055025356,50.4666233932446],[-121.040532782302,50.4663783878759],[-121.04061140296,50.4662224508565]]]}},{"type":"Feature","id":"920440343","properties":{"name":"iSP_17KPH_CAL_PAD_ROAD_LIMIT_AUG_12_DS","oid":"920440343","speedLimit":4.7222223},"geometry":{"type":"Polygon","coordinates":[[[-121.005954627873,50.4378310381903],[-121.005968294905,50.437613355504],[-121.005586040702,50.4375785730103],[-121.00528578869,50.4376830103685],[-121.005190260364,50.4378353522981],[-121.00528578869,50.4381618763276],[-121.005988725004,50.4392590078522],[-121.007469695858,50.4413704040817],[-121.007674419543,50.4416490235399],[-121.007783614901,50.4421540437772],[-121.007933811356,50.4426633781222],[-121.008118104941,50.443233649239],[-121.008322828626,50.4436515784263],[-121.008684511832,50.4445614956504],[-121.008759610059,50.4449228021736],[-121.008759610059,50.4451796713386],[-121.008691415797,50.445619350819],[-121.008493455179,50.4462288084145],[-121.008943903645,50.446215776214],[-121.009134960298,50.4457325961472],[-121.009319253883,50.4449184880658],[-121.009216821592,50.4444526543072],[-121.008998430876,50.4437996062481],[-121.008773277091,50.4433773629531],[-121.008459358048,50.4427373470945],[-121.008295494562,50.4420756708199],[-121.008240967331,50.4417448326826],[-121.007920144324,50.4411962219817],[-121.006814523708,50.4398335930767],[-121.006603036956,50.4394940368467],[-121.006227686717,50.4387800520158],[-121.005988725004,50.4383882771067],[-121.005934197773,50.4380574389694],[-121.005954627873,50.4378310381903]]]}},{"type":"Feature","id":"921284584","properties":{"name":"SP_22kph_rough ground_AUG 18_NS","oid":"921284584","speedLimit":6.111111},"geometry":{"type":"Polygon","coordinates":[[[-121.039985960127,50.4678269394267],[-121.040545463054,50.4679711924042],[-121.040344684491,50.4682553842516],[-121.039852812238,50.4686655839958],[-121.039241459129,50.4705091460366],[-121.037953235694,50.4698094516875],[-121.039985960127,50.4678269394267]]]}},{"type":"Feature","id":"921727643","properties":{"name":"SP_35KPH_%TR_ HIGHMONT TRIAL_Aug18_NS","oid":"921727643","speedLimit":9.722222},"geometry":{"type":"Polygon","coordinates":[[[-121.012708959602,50.4365928892691],[-121.010156042572,50.4366192233017],[-121.007266240248,50.437021334094],[-121.006147797984,50.4371703505655],[-121.005262963338,50.4370780466353],[-121.004923541895,50.4368544320508],[-121.005301991873,50.4361090800615],[-121.005969703877,50.4354594473377],[-121.006754360588,50.4347247008633],[-121.007316399665,50.4339047507611],[-121.007673996851,50.4330514562011],[-121.007911831387,50.4323925661211],[-121.007906195497,50.4319204409553],[-121.00779488668,50.4313845029459],[-121.007511119646,50.4310046817104],[-121.006988109103,50.4305645528437],[-121.005752722133,50.4297836094655],[-121.00489014925,50.4292688824859],[-121.004116764318,50.4288926563401],[-121.003315763528,50.4284987243771],[-121.003469764208,50.4283232839957],[-121.003114844068,50.4285317992031],[-121.004388977779,50.4291670515678],[-121.005350178728,50.4296954398886],[-121.00657373033,50.4304921117845],[-121.007130133518,50.4309176805376],[-121.007500129661,50.4313875587722],[-121.007670897112,50.4318534824081],[-121.007636095495,50.4325371786076],[-121.007398965445,50.4332027196037],[-121.007172402689,50.4338689796177],[-121.006589933513,50.4345641801045],[-121.006157801688,50.4350396307283],[-121.005744409196,50.4354071387814],[-121.005111780603,50.4360624337716],[-121.004792366568,50.4366457370889],[-121.004710927965,50.4369333442715],[-121.004892544503,50.4370851469376],[-121.005450074868,50.4372769449775],[-121.006283059331,50.437264991304],[-121.007585795181,50.4371450950597],[-121.008819632282,50.4369813387201],[-121.009458460353,50.4368813952242],[-121.011036791198,50.4367895406802],[-121.012887335504,50.4367965511053],[-121.012878036286,50.4364191565553],[-121.012708959602,50.4365928892691]]]}},{"type":"Feature","id":"922262468","properties":{"name":"SPD_25kph_HMT_DUMP_AUG_18_NS","oid":"922262468","speedLimit":6.9444447},"geometry":{"type":"Polygon","coordinates":[[[-121.012501136178,50.4364267062438],[-121.012481269668,50.4374174231108],[-121.01636383392,50.4384080501005],[-121.017180192509,50.4369601276904],[-121.016523188695,50.4359059574888],[-121.01477099066,50.4353089928303],[-121.012899452666,50.4352074315439],[-121.012501136178,50.4364267062438]]]}},{"type":"Feature","id":"922385545","properties":{"name":"SP_20KPH_RUTS_AUG 18_NS","oid":"922385545","speedLimit":5.5555553},"geometry":{"type":"Polygon","coordinates":[[[-121.007511119646,50.4337193340055],[-121.006869614527,50.4335259181752],[-121.006518216819,50.4340724616994],[-121.007225520947,50.4343190848586],[-121.007511119646,50.4337193340055]]]}},{"type":"Feature","id":"923351007","properties":{"name":"SP_17KPH_PERMISSIONS_AUG 18_NS","oid":"923351007","speedLimit":4.7222223},"geometry":{"type":"Polygon","coordinates":[[[-121.038854696214,50.4608781701396],[-121.038874140033,50.4611357583225],[-121.038784811185,50.4608904833221],[-121.038540072685,50.4608904833221],[-121.038536268459,50.4608310744634],[-121.038881889381,50.4608236146521],[-121.038854696214,50.4608781701396]]]}}]}