{"type":"FeatureCollection","features":[{"type":"Feature","id":"702602533","properties":{"name":"iSP_4KPH_%TR_CR01_SLOW BUMP","oid":"702602533","speedLimit":1.1111112},"geometry":{"type":"Polygon","coordinates":[[[-121.033359123149,50.464808070742],[-121.033653861313,50.4646910533828],[-121.033697254886,50.4647317667958],[-121.033369407989,50.4648699047997],[-121.033359123149,50.464808070742]]]}},{"type":"Feature","id":"707947583","properties":{"name":"iSP_25KPH_%TR_Permission Gate 1 from west dump_Jun","oid":"707947583","speedLimit":6.9444447},"geometry":{"type":"Polygon","coordinates":[[[-121.038628624501,50.4619781739763],[-121.038855313654,50.4617996820597],[-121.038140305917,50.4614084558196],[-121.037992655058,50.4616711606898],[-121.038192152783,50.4615670853427],[-121.038667086986,50.4618462373532],[-121.038628624501,50.4619781739763]]]}},{"type":"Feature","id":"715433879","properties":{"name":"SP_35KPH_70%TR_Gate_1_INT-1320_1_Sept5_DS","oid":"715433879","speedLimit":9.722222},"geometry":{"type":"Polygon","coordinates":[[[-121.043618744505,50.4514242327529],[-121.04305674138,50.450292615572],[-121.042828361569,50.4494411390274],[-121.042731289583,50.4489826862246],[-121.042602376858,50.4486923897037],[-121.042296085859,50.448762402394],[-121.042533341628,50.448803115807],[-121.04268789601,50.4493156734103],[-121.0428758409,50.4500808698744],[-121.043109433576,50.4506635300431],[-121.043251730682,50.450933514795],[-121.043476447399,50.4513984386038],[-121.043920808857,50.4525749034517],[-121.043746952789,50.4526185827424],[-121.044031547001,50.4525681628204],[-121.043761041611,50.4518556331555],[-121.043618744505,50.4514242327529]]]}},{"type":"Feature","id":"739334284","properties":{"name":"SP_25KPH_70%TR_1590 - GATE1(3)_Wet/Mud_SEPT_5_DS","oid":"739334284","speedLimit":6.9444447},"geometry":{"type":"Polygon","coordinates":[[[-121.010380958264,50.4591782056135],[-121.010276700978,50.4589936021912],[-121.010266557026,50.4589047157333],[-121.010253736197,50.458807920268],[-121.010251059321,50.4586963852889],[-121.01026148505,50.4586378766093],[-121.010285999601,50.4585108831158],[-121.010409981238,50.4583311329481],[-121.010550869462,50.4582089927091],[-121.010809822017,50.4580086611472],[-121.011033411629,50.4578415833662],[-121.011315188077,50.4579823277476],[-121.011117662787,50.4579187860633],[-121.010699506538,50.4582187890932],[-121.010451402376,50.4584952448512],[-121.010422379401,50.4586398538611],[-121.010405613703,50.4588094481444],[-121.010432100689,50.4589506419012],[-121.010515647406,50.4590998345404],[-121.010646391678,50.4592365345429],[-121.011029184982,50.4594834213983],[-121.012117969177,50.4600646435657],[-121.012383966144,50.460201073943],[-121.012891586414,50.460490471713],[-121.013039237273,50.4604395125405],[-121.012811561903,50.460583672175],[-121.011782514316,50.4600258175294],[-121.010774599961,50.4594811745212],[-121.010380958264,50.4591782056135]]]}},{"type":"Feature","id":"739337561","properties":{"name":"SP_35KPH_70%TR_1590 GATE3__DUSTY_SEP_5_DS","oid":"739337561","speedLimit":9.722222},"geometry":{"type":"Polygon","coordinates":[[[-121.022230221451,50.4632583546709],[-121.020353590308,50.463553144946],[-121.019834558091,50.4635569196995],[-121.019814551963,50.4634282185794],[-121.019722411064,50.463647513784],[-121.020073222742,50.4636629722984],[-121.020670870588,50.4636220791353],[-121.020968003852,50.4635747149661],[-121.021329382147,50.4635187227888],[-121.021710907457,50.4634411605915],[-121.022609069885,50.4632774980637],[-121.025610693496,50.4627260245491],[-121.028274748923,50.4621724839076],[-121.03059771396,50.4617137614795],[-121.032603398716,50.4614639087464],[-121.034193744988,50.4612678911885],[-121.034970320878,50.4611451218239],[-121.034855496976,50.4608349629095],[-121.034848734341,50.4610546176145],[-121.033565665285,50.4612376931603],[-121.030601095277,50.4616189432661],[-121.029892004846,50.4617481836367],[-121.028990601989,50.4619011510294],[-121.027616378252,50.4621897399237],[-121.024121645857,50.462911257097],[-121.022230221451,50.4632583546709]]]}},{"type":"Feature","id":"742345972","properties":{"name":"iSP_4KPH_%TR_CR01_PITSIDE_SLOW BUMP","oid":"742345972","speedLimit":1.1111112},"geometry":{"type":"Polygon","coordinates":[[[-121.033398994516,50.4648830265619],[-121.033706271733,50.4647445290577],[-121.03375642794,50.4647766144626],[-121.033474933269,50.4649185272201],[-121.033398994516,50.4648830265619]]]}},{"type":"Feature","id":"776427243","properties":{"name":"iSP_7KPH_%TR_CR1_PermissionBlocker_DO_NOT_DELETE","oid":"776427243","speedLimit":1.9444444},"geometry":{"type":"Polygon","coordinates":[[[-121.034100195207,50.4652130478699],[-121.034051729658,50.4652333596388],[-121.034030596424,50.4652747920525],[-121.034116256464,50.4652257202567],[-121.034100195207,50.4652130478699]]]}},{"type":"Feature","id":"794004438","properties":{"name":"iSP_11KPH_%TR_LOWER_FUEL_BAY","oid":"794004438","speedLimit":3.0555556},"geometry":{"type":"Polygon","coordinates":[[[-121.036776930574,50.4606956565295],[-121.036779043897,50.4607254950573],[-121.036749316482,50.4606710307565],[-121.03712548804,50.4605993104396],[-121.037535472772,50.4605562602744],[-121.037543221624,50.4605816050481],[-121.036944728448,50.4606504493623],[-121.036776930574,50.4606956565295]]]}},{"type":"Feature","id":"801543391","properties":{"name":"iSP_4KPH_%TR_CR1_PermissionBlocker_DO_NOT_DELETE_","oid":"801543391","speedLimit":1.1111112},"geometry":{"type":"Polygon","coordinates":[[[-121.033155680554,50.4645235262265],[-121.033154835224,50.4644740949303],[-121.033176391122,50.4644320333911],[-121.03310834211,50.4644596250418],[-121.033155680554,50.4645235262265]]]}},{"type":"Feature","id":"806473874","properties":{"name":"iSP_4KPH_%TR_Permission Blocker - DO NOT DELETE","oid":"806473874","speedLimit":1.1111112},"geometry":{"type":"Polygon","coordinates":[[[-121.022719808029,50.4815454177354],[-121.022686699296,50.4815430809832],[-121.022679091332,50.4815717511349],[-121.022701210784,50.4815728296359],[-121.022705296542,50.4815487431135],[-121.022719808029,50.4815454177354]]]}},{"type":"Feature","id":"824566967","properties":{"name":"iSP_4Cr_3KPH","oid":"824566967","speedLimit":0.8333333},"geometry":{"type":"Polygon","coordinates":[[[-121.023302662612,50.4810685405404],[-121.023282515596,50.4810685405404],[-121.023279838719,50.4811866364006],[-121.023304916823,50.4811859173999],[-121.023302662612,50.4810685405404]]]}},{"type":"Feature","id":"826307302","properties":{"name":"iSP_4KPH_TR%_CRUSHER POCKETS","oid":"826307302","speedLimit":1.1111112},"geometry":{"type":"Polygon","coordinates":[[[-121.023297872412,50.4813217186516],[-121.023337321115,50.4814773822969],[-121.023542031704,50.4814379271351],[-121.023461020975,50.4811890630278],[-121.023052726902,50.4811897820285],[-121.023058080655,50.4813604548128],[-121.02328293826,50.4813264820311],[-121.023297872412,50.4813217186516]]]}},{"type":"Feature","id":"827282342","properties":{"name":"SP_35KPH_70%TR_1230 to 1215 ramp2_Sept_5_DS","oid":"827282342","speedLimit":9.722222},"geometry":{"type":"Polygon","coordinates":[[[-121.036955013289,50.4451705446673],[-121.036722406831,50.4452460397378],[-121.036893163359,50.445111316987],[-121.036960226153,50.4450455284257],[-121.038447442245,50.4463475487656],[-121.039044103874,50.4467296077472],[-121.038818682715,50.4468459959808],[-121.038851791448,50.4467846112985],[-121.038763877196,50.4467105542294],[-121.038373616816,50.446432570595],[-121.037847258411,50.4460423329808],[-121.036955013289,50.4451705446673]]]}},{"type":"Feature","id":"834847043","properties":{"name":"SP_35KPH_70%TR_Gate_1_INT-1320_Sept5_DS","oid":"834847043","speedLimit":9.722222},"geometry":{"type":"Polygon","coordinates":[[[-121.0437539972,50.4526230764966],[-121.04393489768,50.4526253233737],[-121.044156937521,50.4532813216108],[-121.044372214727,50.4538824061718],[-121.044391516414,50.4541502339217],[-121.044374046274,50.454283518671],[-121.044189623589,50.4543003253117],[-121.044487883959,50.4543131774487],[-121.044521556244,50.4540662007183],[-121.044496055476,50.453773387695],[-121.044135099846,50.4528359905703],[-121.04403323766,50.4525793972059],[-121.0437539972,50.4526230764966]]]}},{"type":"Feature","id":"834884540","properties":{"name":"SP_35KPH_70%TR_Leaving Brute into pit_Sept_ 05_DS","oid":"834884540","speedLimit":9.722222},"geometry":{"type":"Polygon","coordinates":[[[-121.041362983152,50.4593945349404],[-121.041479356825,50.4595343805709],[-121.040202627739,50.4604144373921],[-121.039814480682,50.4605298369998],[-121.039600189694,50.4605589565269],[-121.03918400588,50.4605835822999],[-121.03865173017,50.4605835822999],[-121.038386578532,50.4605948166854],[-121.038319797514,50.460436816288],[-121.038321629061,50.4607023971608],[-121.038542823573,50.4606911627753],[-121.039006486718,50.4606642901252],[-121.039535240222,50.4606452366075],[-121.039921555732,50.4605869975531],[-121.04020093708,50.4605007174726],[-121.040869874368,50.4601766279202],[-121.04167800922,50.4594994191632],[-121.041362983152,50.4593945349404]]]}},{"type":"Feature","id":"834888244","properties":{"name":"SP_35KPH_70%TR_Gate_1_INT-1320_2_Sept5_DS","oid":"834888244","speedLimit":9.722222},"geometry":{"type":"Polygon","coordinates":[[[-121.044193004906,50.454305987442],[-121.044356435246,50.4543396007234],[-121.044259785924,50.4547159975746],[-121.044180747631,50.4554163042281],[-121.044011963538,50.4560739202168],[-121.043874174855,50.4566876771645],[-121.043790909915,50.4569523592865],[-121.043618744505,50.4572829198449],[-121.043174383047,50.4577837038122],[-121.042974603545,50.4578700737678],[-121.042744814852,50.4578741181466],[-121.043084778137,50.4580100092734],[-121.043386983377,50.4577275318848],[-121.04359535706,50.4575027543001],[-121.043760759835,50.4572681803312],[-121.043869948209,50.457062186639],[-121.0439753326,50.4567988526432],[-121.044042677171,50.4565664356763],[-121.044125378559,50.4561912072012],[-121.044241752232,50.4557240365153],[-121.04436164811,50.4549838253245],[-121.044465341843,50.4543787862599],[-121.044487883959,50.4543131774487],[-121.044193004906,50.454305987442]]]}},{"type":"Feature","id":"835348611","properties":{"name":"SP_25KPH_70%TR_switchback to 1 gate_SEP_4_DS","oid":"835348611","speedLimit":6.9444447},"geometry":{"type":"Polygon","coordinates":[[[-121.039920428627,50.4634035928064],[-121.039548201939,50.4634580571072],[-121.039801378077,50.4633743834041],[-121.039545102398,50.4629229408579],[-121.039365188136,50.4625824940402],[-121.039179074792,50.4622613703655],[-121.038986903255,50.4620181683886],[-121.038745984392,50.4618371599697],[-121.038562970589,50.4617302086199],[-121.038076765328,50.4614749633817],[-121.038039429949,50.461517114796],[-121.037958841884,50.4615575585838],[-121.038033653531,50.4613740336625],[-121.038145096117,50.4613858072985],[-121.038483650519,50.461570590471],[-121.038867430041,50.4617909641766],[-121.039054952267,50.461926405928],[-121.03923951584,50.4621306919936],[-121.039453665941,50.4625357589966],[-121.039581733336,50.462753706075],[-121.039758688945,50.4630611687369],[-121.039862382678,50.463259612922],[-121.039944379625,50.4633240533572],[-121.039920428627,50.4634035928064]]]}},{"type":"Feature","id":"837655370","properties":{"name":"SP_35KPH_70%TR_1620 To 1590_MT_DUSTY _SEP_5_DS","oid":"837655370","speedLimit":9.722222},"geometry":{"type":"Polygon","coordinates":[[[-121.011040596928,50.4578340338592],[-121.011900719535,50.4572131767798],[-121.012088523538,50.4570984961728],[-121.013394980039,50.4562085530924],[-121.013881467076,50.4558981245527],[-121.014188462516,50.4556868282305],[-121.014545755052,50.4554510858856],[-121.014987580522,50.4550855639195],[-121.015283304904,50.4547352308426],[-121.015474490224,50.4542807325434],[-121.015468432031,50.4537725788193],[-121.015788530075,50.4537697028166],[-121.015630735265,50.4538058326003],[-121.0156231273,50.4542269872433],[-121.015543102789,50.4545543122987],[-121.015370373827,50.4548726498458],[-121.015168903666,50.4551143239463],[-121.014866839314,50.4553493472906],[-121.013366661506,50.4563617002353],[-121.011177962947,50.4578688155167],[-121.01132124627,50.4579770251176],[-121.011040596928,50.4578340338592]]]}},{"type":"Feature","id":"849309937","properties":{"name":"SP_35KPH_70%TR_Gate_1_INT-1320_3_AUG 20_DS","oid":"849309937","speedLimit":9.722222},"geometry":{"type":"Polygon","coordinates":[[[-121.042807369224,50.4579148315596],[-121.04294248103,50.4579909557556],[-121.042647461089,50.4582968905411],[-121.042333139462,50.4586329334797],[-121.042029243563,50.4589690662933],[-121.041595448721,50.4594285077221],[-121.041432018381,50.4593948944407],[-121.04168674429,50.4594755123909],[-121.042241703004,50.4588884483431],[-121.042803847018,50.4583057881744],[-121.043077733725,50.4580145030276],[-121.042807369224,50.4579148315596]]]}},{"type":"Feature","id":"855316169","properties":{"name":"SP_30KPH_TR%_CRUSHER YARD EMPTY_SEP_5_DS","oid":"855316169","speedLimit":8.333333},"geometry":{"type":"Polygon","coordinates":[[[-121.037912348771,50.462235036966],[-121.037770896994,50.4621196373583],[-121.037596336484,50.4622034908115],[-121.0375458985,50.4622377332185],[-121.037609016424,50.4622266785832],[-121.037905445248,50.4624614323022],[-121.037719754568,50.4625140092263],[-121.038122976665,50.4625065495943],[-121.038121286007,50.4624943265829],[-121.037912348771,50.462235036966]]]}},{"type":"Feature","id":"859339791","properties":{"name":"SP_35KPH_70TR%_1230_to_1215_Ramp1_Sept_5_DS","oid":"859339791","speedLimit":9.722222},"geometry":{"type":"Polygon","coordinates":[[[-121.040703767152,50.4473792248533],[-121.040681788589,50.447561042148],[-121.040630646164,50.4474351271555],[-121.040162756372,50.4474149052616],[-121.039901972269,50.4473931554913],[-121.039487760891,50.4472143939495],[-121.039190486738,50.4470092091331],[-121.038966333574,50.4468506694851],[-121.03884446526,50.4468600164938],[-121.039046639862,50.4467558512716],[-121.03945606104,50.4470185561418],[-121.039719240243,50.4471739501618],[-121.040160361272,50.4472750596311],[-121.040552594087,50.447309212163],[-121.040689114776,50.4473279061805],[-121.040703767152,50.4473792248533]]]}},{"type":"Feature","id":"859384545","properties":{"name":"SP_35KPH_MAINT_CREW_L1590_DUST_SEP_4_DS","oid":"859384545","speedLimit":9.722222},"geometry":{"type":"Polygon","coordinates":[[[-121.013972903533,50.4518294795061],[-121.013916970908,50.4511531695],[-121.01383750995,50.4497618133266],[-121.012655880416,50.4498959069518],[-121.013141663012,50.4500388982102],[-121.013401038232,50.4517969447257],[-121.013224505288,50.4523056377004],[-121.012544719607,50.4524640874732],[-121.01376058498,50.4524432364538],[-121.013972903533,50.4518294795061]]]}},{"type":"Feature","id":"867844514","properties":{"name":"SP_35KPH_70%TR_Garbage_Dump_DUSTY_SEP_5_DS","oid":"867844514","speedLimit":9.722222},"geometry":{"type":"Polygon","coordinates":[[[-121.013062342942,50.4604502076755],[-121.012828186714,50.4606044333194],[-121.015633975694,50.4626931302684],[-121.015952946633,50.4628695550581],[-121.016947194829,50.4631398094353],[-121.017619936098,50.4632653649274],[-121.019732977681,50.4636500302864],[-121.019860058859,50.4634212083228],[-121.019722974617,50.4635387649325],[-121.016797571535,50.4629935826738],[-121.015960413709,50.462737618435],[-121.015392211501,50.4623816232278],[-121.01301331384,50.4605765720434],[-121.013062342942,50.4604502076755]]]}},{"type":"Feature","id":"872232587","properties":{"name":"SP_35KPH_70%TR_Gate_1_INT-1320_1__Sept5_DS","oid":"872232587","speedLimit":9.722222},"geometry":{"type":"Polygon","coordinates":[[[-121.042511222177,50.4485418489382],[-121.042152098094,50.4481520606995],[-121.041861023023,50.4478705719368],[-121.041615877514,50.4476770708813],[-121.041315644708,50.4475050499708],[-121.041101212832,50.4474170622636],[-121.040962015266,50.447376708351],[-121.04085381311,50.447353161079],[-121.040731803908,50.447353161079],[-121.040704612481,50.4475489988868],[-121.040832820765,50.447439890535],[-121.041201947912,50.4475419886302],[-121.041507534469,50.4476798570089],[-121.042193801008,50.4484069464374],[-121.042294536088,50.4484936758933],[-121.042067987824,50.4485996386172],[-121.042511222177,50.4485418489382]]]}},{"type":"Feature","id":"875953603","properties":{"name":"SP_15_KPH_70%TR_CR01_YARD_LOADED_Sept_05_DS","oid":"875953603","speedLimit":4.1666665},"geometry":{"type":"Polygon","coordinates":[[[-121.038111001166,50.4622578652373],[-121.038364881746,50.4628961580829],[-121.038315852644,50.4633434663753],[-121.038101702544,50.4637142010962],[-121.037625641235,50.4639751983398],[-121.037928410028,50.4642051886794],[-121.03782908383,50.464021484008],[-121.038275135947,50.4637271431083],[-121.038556489731,50.4631646149584],[-121.038356005788,50.4621662825268],[-121.038111001166,50.4622578652373]]]}},{"type":"Feature","id":"878230085","properties":{"name":"SP_35KPH_TR70%_PUNCH_OUT_L1590_DMP_Sep 5_DS","oid":"878230085","speedLimit":9.722222},"geometry":{"type":"Polygon","coordinates":[[[-121.013762557415,50.4533977098445],[-121.013625050508,50.4529078906374],[-121.013785381307,50.452513069394],[-121.013097987663,50.4524619304712],[-121.013065583371,50.4528631328456],[-121.013205062713,50.4533676016914],[-121.013610398133,50.4545821735747],[-121.01332904435,50.4549547956724],[-121.013044309249,50.4549502120432],[-121.013783408872,50.4551891000161],[-121.014083500789,50.4546991909339],[-121.013991782555,50.4541362134086],[-121.013762557415,50.4533977098445]]]}},{"type":"Feature","id":"883050998","properties":{"name":"iSP_22kph_%TR_4CR_Brake_Temp_CTRL_NOREMOVE","oid":"883050998","speedLimit":6.111111},"geometry":{"type":"Polygon","coordinates":[[[-121.031799349622,50.4745592477162],[-121.032188623784,50.4743126304861],[-121.032490265472,50.4745749758559],[-121.032791907159,50.4748023598181],[-121.032969708098,50.47488477527],[-121.033178504446,50.4749349255668],[-121.033462394217,50.47495973109],[-121.033666259477,50.4749221633049],[-121.033827435605,50.4748627558745],[-121.033918590286,50.4748107182009],[-121.03400791342,50.474747536017],[-121.034058351404,50.4746583799338],[-121.034052574987,50.4745481930809],[-121.034056378969,50.4744838425209],[-121.033994247263,50.4743798570488],[-121.033875901154,50.4742597839368],[-121.033509028219,50.4739378513864],[-121.033060721891,50.473560196284],[-121.032947447759,50.4734256532834],[-121.032822479904,50.4732210975926],[-121.032605652927,50.4728151318387],[-121.032252164373,50.4722091940233],[-121.032487165931,50.472156347474],[-121.0324301062,50.4722058686452],[-121.032902645303,50.473049076682],[-121.033041842869,50.4733098043003],[-121.033249652999,50.4735471643968],[-121.033742620895,50.4739618480338],[-121.034097659219,50.4742713778226],[-121.03420304361,50.4743946864377],[-121.034255735806,50.4744619130004],[-121.034262780217,50.4745930407478],[-121.034237843002,50.474679051203],[-121.034183319259,50.4747918444333],[-121.034085824608,50.4748760573869],[-121.033972973141,50.4749378914446],[-121.033790382002,50.4750163523928],[-121.033530865894,50.4750646153128],[-121.033262896492,50.4750683001913],[-121.033071288507,50.4750265082773],[-121.032807545752,50.4749167707999],[-121.032656795353,50.4748353439739],[-121.03249519656,50.4747055643528],[-121.032144666658,50.47441329058],[-121.031799349622,50.4745592477162]]]}},{"type":"Feature","id":"883053336","properties":{"name":"iSP_22kph_%TR_Brake_Temp_CTRL_NOREMOVE","oid":"883053336","speedLimit":6.111111},"geometry":{"type":"Polygon","coordinates":[[[-121.032465891809,50.4721454725888],[-121.032251037268,50.4722257310387],[-121.031488409311,50.4710085527779],[-121.030816513371,50.4699235807655],[-121.030661254548,50.4696604265199],[-121.030596445965,50.469457937956],[-121.03055009374,50.4692569772685],[-121.030596445965,50.4689731517536],[-121.030722681814,50.4686245263033],[-121.030884421495,50.4683757520711],[-121.031088850308,50.468098038062],[-121.031688188813,50.4675367681633],[-121.032432078635,50.4668938916884],[-121.032788384954,50.4665564107484],[-121.033147509037,50.466222614687],[-121.03348437278,50.4658709334838],[-121.033779392721,50.4660343263863],[-121.033587362072,50.4659935230982],[-121.032919270114,50.4666523074629],[-121.032554510502,50.4669914960294],[-121.032178479832,50.4673079461997],[-121.031774271518,50.4676686149113],[-121.031381897814,50.4680346761279],[-121.031147037145,50.468286595988],[-121.031008684909,50.4684701209092],[-121.030904991176,50.4686547243315],[-121.03082848887,50.4688532583917],[-121.030767625158,50.4691915482074],[-121.030776360227,50.4694008672777],[-121.030873573102,50.4696305879921],[-121.031027563931,50.4699353544015],[-121.031330473612,50.4704040529638],[-121.03153053489,50.4707112460005],[-121.031750179631,50.4710831490975],[-121.032145934652,50.4717290813253],[-121.032381217987,50.4721453827138],[-121.032465891809,50.4721454725888]]]}},{"type":"Feature","id":"883059532","properties":{"name":"iSP_22kph_%TR_Brake_CTRL_NOREMOVE","oid":"883059532","speedLimit":6.111111},"geometry":{"type":"Polygon","coordinates":[[[-121.027262185257,50.4773222774196],[-121.027030001464,50.4772101133149],[-121.027334460916,50.4769443526919],[-121.027716408891,50.4766327557761],[-121.028033125619,50.4763230462371],[-121.028190356877,50.4761690902185],[-121.028621193066,50.4756926623989],[-121.02890719616,50.4753260619318],[-121.029263784255,50.474887920898],[-121.029472580603,50.4746570318075],[-121.029691380015,50.474540733449],[-121.029801413718,50.4744885160252],[-121.029952164117,50.4745929508727],[-121.029788592889,50.4745423512005],[-121.029555986432,50.4747918444333],[-121.029251808756,50.4751733641643],[-121.029072880712,50.4754783103239],[-121.028853095082,50.4757750778508],[-121.028696004713,50.4759750499124],[-121.028408874512,50.4762709186885],[-121.028041578912,50.4765702925928],[-121.027243869788,50.4772197299489],[-121.027262185257,50.4773222774196]]]}},{"type":"Feature","id":"891249991","properties":{"name":"SP_25KPH_TR%_1590_rough section_ #1_SEPT 5_DS","oid":"891249991","speedLimit":6.9444447},"geometry":{"type":"Polygon","coordinates":[[[-121.012957099439,50.4498608556691],[-121.013847653902,50.4497489611896],[-121.013379059669,50.4450042757622],[-121.011852676651,50.4421440012181],[-121.007782979414,50.4388901636818],[-121.006731812375,50.4393242603369],[-121.010930281449,50.4427671051746],[-121.011093007347,50.4430959581064],[-121.011456498965,50.4435200786272],[-121.011774483687,50.4445107716767],[-121.012957099439,50.4498608556691]]]}},{"type":"Feature","id":"901482363","properties":{"name":"SP_KPH_1200-1185_%TRAC_RAMP_AUG 20_DS","oid":"901482363","speedLimit":5.5555553},"geometry":{"type":"Polygon","coordinates":[[[-121.036666615094,50.4451092498601],[-121.036261420562,50.4451196753698],[-121.039068618425,50.4482667413065],[-121.039087497447,50.448264045054],[-121.038803889452,50.4476154165737],[-121.038215962893,50.4469314671855],[-121.036576728408,50.445179801801],[-121.036694370075,50.4451092498601],[-121.036666615094,50.4451092498601]]]}},{"type":"Feature","id":"903864124","properties":{"name":"SP_15KPH_%TR_OLD_GARBAGEDUMP_SEP_4_DS","oid":"903864124","speedLimit":4.1666665},"geometry":{"type":"Polygon","coordinates":[[[-121.042485157855,50.4669872719005],[-121.042131951078,50.4673289769694],[-121.042023467146,50.4669793628931],[-121.041686321626,50.4668100382351],[-121.041834817814,50.4667105465173],[-121.042485157855,50.4669872719005]]]}},{"type":"Feature","id":"908328496","properties":{"name":"SP_15KPH_%TR_9019_SOFT_GROUND_SEPT_5_DS","oid":"908328496","speedLimit":4.1666665},"geometry":{"type":"Polygon","coordinates":[[[-121.039331656739,50.4644970130767],[-121.039940716531,50.4647092980248],[-121.039188936968,50.4666749559841],[-121.038826713344,50.4674280193118],[-121.038451950668,50.467894470997],[-121.037915025647,50.4682381533178],[-121.037180011783,50.4680260481198],[-121.03831303488,50.4667054236375],[-121.0387937455,50.4655661670744],[-121.039331656739,50.4644970130767]]]}},{"type":"Feature","id":"908544149","properties":{"name":"SP_25KPH_CR01_YARD_SEP_4_DS","oid":"908544149","speedLimit":6.9444447},"geometry":{"type":"Polygon","coordinates":[[[-121.035864820212,50.4644333815173],[-121.033942823061,50.4643578864469],[-121.035096979391,50.4651911183494],[-121.036120814115,50.4647327554217],[-121.036268464974,50.4648143619978],[-121.035996128037,50.4644145976248],[-121.035864820212,50.4644333815173]]]}},{"type":"Feature","id":"910445950","properties":{"name":"SP_22KPH_%TR_1635_FLATS_SEP_4_DS","oid":"910445950","speedLimit":6.111111},"geometry":{"type":"Polygon","coordinates":[[[-121.0189168122,50.4576036840192],[-121.015248787289,50.4587006992929],[-121.014498134832,50.457879870152],[-121.01748102031,50.456415984786],[-121.017773363374,50.4542400191305],[-121.018441173556,50.4540102984161],[-121.019220003658,50.4539292310904],[-121.019245363538,50.4568509801919],[-121.019158012839,50.4570733311494],[-121.01919605266,50.4574053297092],[-121.0189168122,50.4576036840192]]]}},{"type":"Feature","id":"917291012","properties":{"name":"SP_20KPH_%TR_CORNER_RUTS_SEP_4_DS","oid":"917291012","speedLimit":5.5555553},"geometry":{"type":"Polygon","coordinates":[[[-121.040610217371,50.466221626061],[-121.040684465465,50.4661074847045],[-121.040422554257,50.4659264762856],[-121.040120771681,50.4658983453844],[-121.040016655284,50.4663107821442],[-121.03993367212,50.4664861284329],[-121.039994817609,50.4668202839947],[-121.040666995325,50.4667394862943],[-121.040549071882,50.4666225588102],[-121.040531601742,50.4663775593316],[-121.040610217371,50.466221626061]]]}},{"type":"Feature","id":"917773475","properties":{"name":"SP_15KPH_%TR_1200_CORNER_Sept_5_DS","oid":"917773475","speedLimit":4.1666665},"geometry":{"type":"Polygon","coordinates":[[[-121.037098860166,50.4446827027121],[-121.036924722321,50.4448622731297],[-121.036629138827,50.4448207508409],[-121.036414566062,50.444870092262],[-121.036322988716,50.4449677864781],[-121.036254376151,50.445082287335],[-121.036242118876,50.4451451100186],[-121.036263252109,50.4452674300077],[-121.036315944305,50.4453516429613],[-121.036184072927,50.4453954121272],[-121.036088973376,50.4451944514396],[-121.036162939694,50.4449318364446],[-121.036259729904,50.4447915414387],[-121.036516569136,50.4447152374924],[-121.036713671761,50.4447119121144],[-121.036923031662,50.4447702410438],[-121.037093647301,50.4446837812131],[-121.037098860166,50.4446827027121]]]}},{"type":"Feature","id":"921727643","properties":{"name":"SP_30KPH_%TR_ HIGHMONT TRIAL_SEP_5_NS","oid":"921727643","speedLimit":8.333333},"geometry":{"type":"Polygon","coordinates":[[[-121.012311690485,50.4366162341849],[-121.010156805099,50.4366191101876],[-121.007267187626,50.4370212113128],[-121.006148816904,50.4371702242019],[-121.005264038858,50.4370779224907],[-121.004924639126,50.4368543132821],[-121.005303064896,50.4361089792116],[-121.005970734189,50.4354593621054],[-121.006755340708,50.4347246332948],[-121.007317343834,50.4339047029047],[-121.007674918146,50.4330514288584],[-121.007912737468,50.4323925546186],[-121.007907101939,50.431920440803],[-121.007795800242,50.431384515678],[-121.007512051359,50.4310047035735],[-121.006989074272,50.4305645852878],[-121.005753766324,50.4297836606841],[-121.004891248617,50.4292689460788],[-121.004117913156,50.4288927289778],[-121.003316963603,50.4284988064852],[-121.003470954432,50.4283233703215],[-121.003116056996,50.428531880516],[-121.004390109205,50.4291671176088],[-121.005351248669,50.4296954932268],[-121.006574722005,50.4304921459702],[-121.007131089602,50.4309177044924],[-121.007501062078,50.4313875714308],[-121.007671818605,50.4318534838656],[-121.007637019214,50.4325371636285],[-121.007399904333,50.4332026886246],[-121.007173356069,50.4338689326213],[-121.006590924151,50.434564116395],[-121.006158819968,50.4350395555886],[-121.005745453919,50.4354070548066],[-121.005112865794,50.436062334043],[-121.00479347219,50.4366456233373],[-121.004712038797,50.4369332236057],[-121.004893643717,50.4370850226224],[-121.005451138419,50.4372768160513],[-121.006284069599,50.4372648626652],[-121.007586722118,50.4371449693033],[-121.008820480295,50.4369812169005],[-121.009459267503,50.4368812758072],[-121.011037497387,50.4367894234715],[-121.01250724334,50.4368082972391],[-121.01246990796,50.4364563464107],[-121.012311690485,50.4366162341849]]]}},{"type":"Feature","id":"921770139","properties":{"name":"SP_25KPH_70%TR_HIGHMONT_SEPT 4_DS","oid":"921770139","speedLimit":6.9444447},"geometry":{"type":"Polygon","coordinates":[[[-121.002513337174,50.4281370592726],[-121.001468510105,50.4282387978675],[-121.001504013937,50.4285900296953],[-121.002160693949,50.4285132763737],[-121.002604350966,50.4286544701304],[-121.002697196306,50.4286974304205],[-121.002513337174,50.4281370592726]]]}},{"type":"Feature","id":"922260470","properties":{"name":"SP_35KPH_70%TR_ HIGHMONT _SEP_5_DS","oid":"922260470","speedLimit":9.722222},"geometry":{"type":"Polygon","coordinates":[[[-121.01246990796,50.4368573690349],[-121.009952658063,50.4368787593049],[-121.008989687052,50.4370416129568],[-121.008147739026,50.4371429920514],[-121.006445527504,50.4373444021144],[-121.005906348271,50.4374847869954],[-121.006853398912,50.4374358050747],[-121.009229337921,50.4371615961938],[-121.010010844899,50.4370559030952],[-121.010998330461,50.4369973045405],[-121.012053160594,50.4370001805432],[-121.012480756353,50.4372101287391],[-121.01246117289,50.4370311874471],[-121.01246990796,50.4368573690349]]]}},{"type":"Feature","id":"922262468","properties":{"name":"SP_20kph_HMT_DUMP_SEP_4_DS","oid":"922262468","speedLimit":5.5555553},"geometry":{"type":"Polygon","coordinates":[[[-121.012501748699,50.436426597758],[-121.012481883459,50.4374172908074],[-121.01476244114,50.4387150870184],[-121.017332242345,50.4379499804295],[-121.01652354394,50.435905861522],[-121.014771457987,50.435308911215],[-121.013003310776,50.4354275463257],[-121.012501748699,50.436426597758]]]}},{"type":"Feature","id":"923351007","properties":{"name":"iSP_17KPH_PERMISSIONS_AUG 18_NS","oid":"923351007","speedLimit":4.7222223},"geometry":{"type":"Polygon","coordinates":[[[-121.038853622995,50.4608774738242],[-121.03887306557,50.4611350558145],[-121.038783742436,50.4608897867107],[-121.038539019591,50.4608897867107],[-121.038535215609,50.4608303792802],[-121.038880814422,50.4608229196483],[-121.038853622995,50.4608774738242]]]}},{"type":"Feature","id":"925542039","properties":{"name":"SP_12KPH_DRAINAGE DITCHSEPT_5_DS","oid":"925542039","speedLimit":3.3333333},"geometry":{"type":"Polygon","coordinates":[[[-121.018171654383,50.4555316139607],[-121.018488371111,50.4557208908873],[-121.018468364983,50.4558358411196],[-121.01812431594,50.4556373070593],[-121.018171654383,50.4555316139607]]]}},{"type":"Feature","id":"926367691","properties":{"name":"SP_15KPH_%TR_24SH_SEP_5_DS","oid":"926367691","speedLimit":4.1666665},"geometry":{"type":"Polygon","coordinates":[[[-121.038601151298,50.4501824287191],[-121.038074088452,50.4496789484993],[-121.037542658071,50.4498597771681],[-121.038245267644,50.4520116563011],[-121.038396863373,50.4531305112201],[-121.039299111559,50.4530511515211],[-121.039700924774,50.4520729511083],[-121.039538057987,50.4510984355739],[-121.038601151298,50.4501824287191]]]}},{"type":"Feature","id":"927549571","properties":{"name":"SP_15_KPH_TR70%_CRUSHER YARD EMPTY_SEPT_5_DS","oid":"927549571","speedLimit":4.1666665},"geometry":{"type":"Polygon","coordinates":[[[-121.037754976624,50.4619284730549],[-121.037448544737,50.461260970807],[-121.036778621232,50.4614648074972],[-121.037247074577,50.4615094754139],[-121.037920097623,50.4626186238239],[-121.037947148162,50.463258534421],[-121.037501236933,50.4637416129968],[-121.037077586044,50.4639815794708],[-121.036451901441,50.464204739304],[-121.036236342458,50.4641032703343],[-121.036398927469,50.4643265200426],[-121.036720575284,50.4642317917042],[-121.037430933709,50.4639644133297],[-121.037846976635,50.463735411616],[-121.037979975118,50.4635591665766],[-121.038210327364,50.4632689599308],[-121.038183981266,50.4627774330971],[-121.038026468232,50.4623110712869],[-121.037754976624,50.4619284730549]]]}},{"type":"Feature","id":"929009157","properties":{"name":"iSP_22kph_Long_Single_Lane_Aug30","oid":"929009157","speedLimit":6.111111},"geometry":{"type":"Polygon","coordinates":[[[-121.005869294668,50.437888326122],[-121.004809956112,50.4381072618263],[-121.005175420165,50.4381976761606],[-121.007935702249,50.4431706443011],[-121.008524474137,50.4445350379493],[-121.008211561391,50.4465098631671],[-121.007833558286,50.4466803562012],[-121.008935022421,50.4466471024202],[-121.008824284277,50.4465930874948],[-121.009404321095,50.4448177849631],[-121.008765393,50.4430685462058],[-121.008263690034,50.4415403102798],[-121.007260143215,50.4401563238633],[-121.006440455528,50.4389841730195],[-121.005690225735,50.4380216108713],[-121.005869294668,50.437888326122]]]}},{"type":"Feature","id":"930116666","properties":{"name":"SP_15KPH_9023 Rough_SEP_5_DS","oid":"930116666","speedLimit":4.1666665},"geometry":{"type":"Polygon","coordinates":[[[-121.04359775216,50.468554513613],[-121.043297519355,50.4689181482023],[-121.042548980221,50.4684628410274],[-121.04234441052,50.4680408775087],[-121.043036312587,50.4679075927593],[-121.04359775216,50.468554513613]]]}},{"type":"Feature","id":"930976872","properties":{"name":"SP_12KPH_%TR_21SH_SEP_5_DS","oid":"930976872","speedLimit":3.6111112},"geometry":{"type":"Polygon","coordinates":[[[-121.036475852439,50.4473344670616],[-121.03636553696,50.4474342284047],[-121.036274100502,50.4474393512844],[-121.036171533875,50.4474050190024],[-121.035463993215,50.4470536074245],[-121.035668562916,50.4468607354945],[-121.036475852439,50.4473344670616]]]}},{"type":"Feature","id":"931484928","properties":{"name":"SP_17KPH_TR%_5STK_SEPT 4_DS","oid":"931484928","speedLimit":4.7222223},"geometry":{"type":"Polygon","coordinates":[[[-121.023409033221,50.4842682732762],[-121.024057119051,50.4837158111356],[-121.023778160367,50.4834266829908],[-121.022894791203,50.4832450454464],[-121.022281645653,50.4833191923905],[-121.022005645622,50.4835137719471],[-121.021796426609,50.4840624593341],[-121.023167973469,50.4842404120002],[-121.023409033221,50.4842682732762]]]}},{"type":"Feature","id":"931851881","properties":{"name":"SP_15KPH_WaterHole_Sep_5_DS","oid":"931851881","speedLimit":4.1666665},"geometry":{"type":"Polygon","coordinates":[[[-121.006770415748,50.4373784647712],[-121.00667587975,50.4370667779803],[-121.005851965416,50.437145688304],[-121.005952841385,50.4374926960028],[-121.006747591856,50.4373867332789],[-121.006770415748,50.4373784647712]]]}},{"type":"Feature","id":"931933206","properties":{"name":"SP_15KPH_PUNCH_OUT_SEPT_5_DS","oid":"931933206","speedLimit":4.1666665},"geometry":{"type":"Polygon","coordinates":[[[-121.012903280137,50.436539121363],[-121.012960058091,50.4368162961216],[-121.013592787105,50.4368187227489],[-121.013567568113,50.4365708472676],[-121.01350275953,50.4366692604844],[-121.013007678311,50.4366708782359],[-121.012903280137,50.436539121363]]]}},{"type":"Feature","id":"932114358","properties":{"name":"SP_35KPH_70%TR_23SH_LOADED_LANES_SEP_5_D","oid":"932114358","speedLimit":9.722222},"geometry":{"type":"Polygon","coordinates":[[[-121.042098560569,50.467139969668],[-121.041265770277,50.4667319367872],[-121.040734621673,50.4664970931931],[-121.040511454726,50.4663969723497],[-121.040354505245,50.4663123100207],[-121.040360563438,50.4660659624158],[-121.040451013678,50.4657771937713],[-121.040517372031,50.4655116128985],[-121.040444955484,50.4651304526678],[-121.040233764037,50.4644144178746],[-121.039983546551,50.4634789980018],[-121.039864496002,50.4631629972069],[-121.039697684345,50.4628772843153],[-121.038921108454,50.4631295636757],[-121.039550033486,50.4630535293547],[-121.039764324474,50.4635154872858],[-121.039913947768,50.4642257700736],[-121.040082872749,50.4647224197871],[-121.040276030504,50.4653845295299],[-121.040245880424,50.4657156293389],[-121.04010104733,50.4659581123151],[-121.039980306122,50.4662199184344],[-121.04016134749,50.4664855891824],[-121.041766627913,50.4671900300897],[-121.04183904446,50.4675480025487],[-121.042098560569,50.467139969668]]]}},{"type":"Feature","id":"932118723","properties":{"name":"SP_35KPH_70%TR_1635_TO_1620_SEP_5_DS","oid":"932118723","speedLimit":9.722222},"geometry":{"type":"Polygon","coordinates":[[[-121.018237167408,50.4539386679743],[-121.018529792249,50.4537445377931],[-121.018241112278,50.4536425295729],[-121.017620781428,50.4534683516604],[-121.017125418432,50.4534434562622],[-121.016411396913,50.4534409397598],[-121.016060303459,50.453480754422],[-121.015775568359,50.4535131094521],[-121.015502526981,50.4536052314131],[-121.015896450455,50.4538317166244],[-121.015822343249,50.4536674249711],[-121.016251488779,50.4536052314131],[-121.016614275956,50.4536077479155],[-121.017324352605,50.4535952552788],[-121.017741804412,50.4536550222096],[-121.018120230182,50.4537146992653],[-121.018264499723,50.4537694331913],[-121.018237167408,50.4539386679743]]]}},{"type":"Feature","id":"932130713","properties":{"name":"SP_35KPH_70%TR_WEATHER_SEPT 4_DS","oid":"932130713","speedLimit":9.722222},"geometry":{"type":"Polygon","coordinates":[[[-121.035589524622,50.4662117398018],[-121.033992133939,50.4655632910717],[-121.033477891922,50.4659493045569],[-121.032418976031,50.4669142034573],[-121.031499257705,50.4677479746103],[-121.031063631316,50.4681764091351],[-121.030827643541,50.4684735361624],[-121.030670412283,50.4688672789048],[-121.030573481185,50.469233969247],[-121.030652237702,50.4695967949606],[-121.031015306655,50.4701487178506],[-121.03234839103,50.4723564094107],[-121.032575643736,50.4727557244083],[-121.032925046531,50.4733595052217],[-121.033035643787,50.4735229879993],[-121.033653015984,50.4740394102312],[-121.033961702083,50.4743162254895],[-121.034052011434,50.4744722486351],[-121.034060746504,50.4746282717807],[-121.033979172223,50.4747416042614],[-121.033836452452,50.4748530493654],[-121.033644280914,50.4749273760598],[-121.03342012775,50.4749459802021],[-121.033131729556,50.4749218038046],[-121.032928005184,50.4748382199766],[-121.032639606989,50.4746542456799],[-121.032223282287,50.4743235952464],[-121.032028152097,50.4741954333768],[-121.031771876418,50.47396319616],[-121.031195220917,50.4739037887296],[-121.030638994209,50.4739539390264],[-121.030342001833,50.474026378344],[-121.029902289686,50.4742140375191],[-121.029701383079,50.4743998093175],[-121.029331551491,50.4748511619886],[-121.028553989383,50.4757744487252],[-121.028192892865,50.4761886829867],[-121.027776568163,50.4766066920018],[-121.027141725826,50.4771231142337],[-121.026404880415,50.4777119757832],[-121.02560407175,50.4783436178726],[-121.02515266588,50.4786650111725],[-121.024573192615,50.4790810429357],[-121.024208996556,50.4793301766682],[-121.023406215456,50.4797973473542],[-121.022795183229,50.4801927078481],[-121.022481988707,50.4804867791225],[-121.023869315048,50.4810650354121],[-121.023119085256,50.4804324945718],[-121.023452145017,50.4802052004847],[-121.024652512685,50.4794394647702],[-121.026522099417,50.4780570961052],[-121.027977333882,50.4767492338848],[-121.029071471829,50.4756785520107],[-121.029740690893,50.4748383098517],[-121.030388776723,50.474323235746],[-121.03137668495,50.4741673923506],[-121.031897126049,50.4744113133282],[-121.032672574834,50.475014465016],[-121.033182449316,50.4751974506868],[-121.033926057362,50.4751567372738],[-121.034350976246,50.474804426945],[-121.034414798611,50.4744587673725],[-121.033161316083,50.4732932672849],[-121.032428274653,50.4719379510202],[-121.03144247975,50.470402075712],[-121.030989242334,50.4695121326316],[-121.031229174979,50.4683954347145],[-121.031806816697,50.467777633388],[-121.033697818439,50.4662238729381],[-121.035589524622,50.4662117398018]]]}},{"type":"Feature","id":"932161447","properties":{"name":"SP_17KPH_WATER_HOLE_SEPT_4_DS","oid":"932161447","speedLimit":4.7222223},"geometry":{"type":"Polygon","coordinates":[[[-121.012883696674,50.4465952444968],[-121.012984431754,50.4473410279427],[-121.012625307671,50.4473494762006],[-121.012594734927,50.4466204095203],[-121.012883696674,50.4465952444968]]]}},{"type":"Feature","id":"932268643","properties":{"name":"SP_20KPH_70%traction_1185_1170_SEP_5_DS","oid":"932268643","speedLimit":5.5555553},"geometry":{"type":"Polygon","coordinates":[[[-121.038729077805,50.448197627367],[-121.038467307485,50.4482558664214],[-121.038947172776,50.4498294892648],[-121.039506358136,50.4497915619794],[-121.039105812916,50.4497308064227],[-121.038622002755,50.448344393379],[-121.038852073224,50.4481597000816],[-121.038729077805,50.448197627367]]]}},{"type":"Feature","id":"932281958","properties":{"name":"SP_15KPH_1185-1170_22shl_sept_4_ns","oid":"932281958","speedLimit":4.1666665},"geometry":{"type":"Polygon","coordinates":[[[-121.037375001084,50.4481144030394],[-121.037408532482,50.4479622445224],[-121.03698192294,50.4479089485976],[-121.036571938208,50.4477407923157],[-121.03532395032,50.4471565143955],[-121.035097824721,50.4474262295222],[-121.035348464871,50.4473478584491],[-121.03681454773,50.4479516392625],[-121.037216079168,50.4480557146096],[-121.037334425276,50.4481913361112],[-121.037375001084,50.4481144030394]]]}},{"type":"Feature","id":"932364856","properties":{"name":"SP_12km_%_1170rOUGH","oid":"932364856","speedLimit":3.3333333},"geometry":{"type":"Polygon","coordinates":[[[-121.038073806675,50.4473203566734],[-121.037831760707,50.4473892908627],[-121.037706229299,50.447385336359],[-121.037727362533,50.4480412447211],[-121.03832486949,50.4498590581674],[-121.038776416248,50.4502071443672],[-121.038722033394,50.4496642089856],[-121.038331068572,50.4483825004145],[-121.038104097643,50.4473258390535],[-121.038073806675,50.4473203566734]]]}},{"type":"Feature","id":"932654885","properties":{"name":"SP_15KPH_LOTS OF MUD_SEPT 5_DS","oid":"932654885","speedLimit":4.1666665},"geometry":{"type":"Polygon","coordinates":[[[-121.036365396072,50.4453592823434],[-121.036057837079,50.4454653349424],[-121.036262829445,50.4454608411882],[-121.038009561645,50.4473916276149],[-121.038175809749,50.4473148742933],[-121.036365396072,50.4453592823434]]]}},{"type":"Feature","id":"932686946","properties":{"name":"rsfjsrgfhjs","oid":"932686946","speedLimit":2.7777777},"geometry":{"type":"Polygon","coordinates":[[[-121.011033693405,50.4414844978527],[-121.009889681027,50.44196389155],[-121.01034954019,50.4425541911009],[-121.011499188097,50.4420390271202],[-121.011033693405,50.4414844978527]]]}}]}