{"type":"FeatureCollection","features":[{"type":"Feature","id":"702602533","properties":{"name":"iSP_4KPH_%TR_CR01_SLOW BUMP","oid":"702602533","speedLimit":1.1111112},"geometry":{"type":"Polygon","coordinates":[[[-121.033360388045,50.4648077653768],[-121.033655133181,50.4646907484553],[-121.033698527781,50.464731461716],[-121.033370673129,50.4648695992031],[-121.033360388045,50.4648077653768]]]}},{"type":"Feature","id":"707947583","properties":{"name":"iSP_25KPH_%TR_Permission Gate 1 from west dump_Jun","oid":"707947583","speedLimit":6.9444447},"geometry":{"type":"Polygon","coordinates":[[[-121.038630014043,50.4619778791978],[-121.038856708557,50.461799387949],[-121.038141683908,50.4614081631725],[-121.037994029557,50.4616708670598],[-121.038193532001,50.4615667921021],[-121.038668477438,50.4618459430682],[-121.038630014043,50.4619778791978]]]}},{"type":"Feature","id":"715433879","properties":{"name":"SP_30KPH_70%TR_Gate_1_INT-1320_1_Sept14_NS","oid":"715433879","speedLimit":8.333333},"geometry":{"type":"Polygon","coordinates":[[[-121.043620252084,50.4514239774569],[-121.043058235665,50.4502923645094],[-121.042829850452,50.4494408911502],[-121.04273277617,50.4489824400625],[-121.042603860395,50.4486921446276],[-121.042297562151,50.448762157056],[-121.042534823533,50.4488028703167],[-121.04268938157,50.4493154260025],[-121.042877330907,50.4500806196039],[-121.043110929107,50.4506632775929],[-121.043253229579,50.4509332613348],[-121.043477951612,50.4513981834044],[-121.043922323581,50.452574643851],[-121.043748463401,50.4526183229783],[-121.044033064345,50.4525679032449],[-121.043762552556,50.4518553762456],[-121.043620252084,50.4514239774569]]]}},{"type":"Feature","id":"739334284","properties":{"name":"SP_35KPH_70%TR_1590 - GATE1(3)_SEPT_14_DS","oid":"739334284","speedLimit":9.722222},"geometry":{"type":"Polygon","coordinates":[[[-121.01038167963,50.4591779213097],[-121.010277419879,50.4589933185781],[-121.010267275687,50.4589044324527],[-121.010254454555,50.4588076373494],[-121.010251777615,50.4586961027876],[-121.010262203591,50.4586375943269],[-121.010286718721,50.4585106013085],[-121.010410703291,50.4583308518132],[-121.010551594848,50.4582087120312],[-121.010810553529,50.4580083812187],[-121.011034148429,50.4578413040628],[-121.011315931542,50.4579820479176],[-121.01111840158,50.457918506471],[-121.01070023544,50.4582185083787],[-121.010452125409,50.4584949631024],[-121.010423101748,50.4586395715714],[-121.010406335653,50.4588091652202],[-121.010432823266,50.4589503584487],[-121.010516371959,50.4590995505298],[-121.010647119323,50.459236250021],[-121.011029921682,50.4594831359527],[-121.012118731631,50.4600643559457],[-121.01238473489,50.4602007858126],[-121.012892367168,50.4604901825],[-121.013040021519,50.4604392235181],[-121.012812340764,50.4605833826134],[-121.011783268835,50.4600255300547],[-121.010775330639,50.459480889084],[-121.01038167963,50.4591779213097]]]}},{"type":"Feature","id":"739337561","properties":{"name":"SP_30KPH_70%TR_1590 GATE3__DUSTY_SEP_14_DS","oid":"739337561","speedLimit":8.333333},"geometry":{"type":"Polygon","coordinates":[[[-121.022231223102,50.4632580551032],[-121.020354547569,50.4635528442754],[-121.019835503075,50.4635566190148],[-121.019815496474,50.4634279183762],[-121.019723353396,50.4636472127605],[-121.020074173371,50.4636626712171],[-121.020671835354,50.4636217782069],[-121.020968975647,50.4635744142149],[-121.02133036249,50.4635184222471],[-121.021711896825,50.4634408603399],[-121.022610080498,50.4632771984244],[-121.02561177511,50.4627257269729],[-121.028275893552,50.4621721884022],[-121.030598913537,50.4617134676902],[-121.032604645736,50.4614636158918],[-121.034195029626,50.4612675990672],[-121.036771654412,50.4608418623876],[-121.036645979144,50.4605214589122],[-121.036588495389,50.460738416553],[-121.033566935067,50.461237401152],[-121.030602294934,50.4616186498314],[-121.02989318773,50.4617478897186],[-121.028991763551,50.461900856539],[-121.027617507309,50.4621894443537],[-121.024122692249,50.4629109588278],[-121.022231223102,50.4632580551032]]]}},{"type":"Feature","id":"742345972","properties":{"name":"iSP_4KPH_%TR_CR01_PITSIDE_SLOW BUMP","oid":"742345972","speedLimit":1.1111112},"geometry":{"type":"Polygon","coordinates":[[[-121.033400260356,50.4648827209163],[-121.03370754484,50.4647442239302],[-121.033757702235,50.4647763092151],[-121.033476200905,50.4649182214416],[-121.033400260356,50.4648827209163]]]}},{"type":"Feature","id":"776427243","properties":{"name":"iSP_7KPH_%TR_CR1_PermissionBlocker_DO_NOT_DELETE","oid":"776427243","speedLimit":1.9444444},"geometry":{"type":"Polygon","coordinates":[[[-121.034101477632,50.4652127409896],[-121.034053010937,50.4652330526826],[-121.034031877204,50.4652744849413],[-121.03411753927,50.4652254133291],[-121.034101477632,50.4652127409896]]]}},{"type":"Feature","id":"776901904","properties":{"name":"SP_35KPH_70%TR_1CR-Connector Parking_SPET_14_NS","oid":"776901904","speedLimit":9.722222},"geometry":{"type":"Polygon","coordinates":[[[-121.034268293235,50.4656277825742],[-121.034012152386,50.4654802981134],[-121.033532698419,50.4658616366676],[-121.032601546122,50.4667553511582],[-121.031095978948,50.468097001391],[-121.030852236555,50.4684462546603],[-121.030628500764,50.4688679469762],[-121.030555096263,50.469172532496],[-121.030575102864,50.4694258894096],[-121.030722052757,50.4697752325537],[-121.031706884737,50.4713532533728],[-121.032177603428,50.4721561044935],[-121.032768502616,50.4731229770286],[-121.033374054526,50.4730055107334],[-121.032899672655,50.4730090158486],[-121.031025814953,50.4699119320448],[-121.03074586343,50.4693079737407],[-121.030773759958,50.468980200536],[-121.031220808867,50.4681720468052],[-121.032721726619,50.4668937582695],[-121.033525935624,50.4660554964983],[-121.034092883248,50.4655822160772],[-121.034268293235,50.4656277825742]]]}},{"type":"Feature","id":"776902235","properties":{"name":"SP_35KPH_70%TR_1cr-4cr sec2_SEPT_14_NS","oid":"776902235","speedLimit":9.722222},"geometry":{"type":"Polygon","coordinates":[[[-121.033393074886,50.4730314845355],[-121.03287205791,50.4731802272428],[-121.033048735922,50.4735342438738],[-121.033925363187,50.4743026729661],[-121.034054842527,50.4744918593099],[-121.034061887105,50.4746646884496],[-121.033837024181,50.4749140908743],[-121.033427029751,50.4749663979775],[-121.033187514105,50.4749423115451],[-121.03269552079,50.4747572594397],[-121.032336106429,50.4744796363442],[-121.032083769651,50.4742624090792],[-121.031900892411,50.4741095321335],[-121.031630239731,50.4739600704281],[-121.031247719155,50.4739187280442],[-121.030843078604,50.4739705857736],[-121.030409414393,50.4740618985172],[-121.030503529953,50.4742759801661],[-121.030540302649,50.474127147584],[-121.030908593178,50.4740592921495],[-121.031241942601,50.4740219941292],[-121.031521471449,50.4740407779515],[-121.031856793354,50.474232211164],[-121.032418809773,50.4746883255083],[-121.032798512518,50.474975475327],[-121.0332693721,50.475107231707],[-121.033782217365,50.4750935707454],[-121.034190239313,50.4749704423411],[-121.034410875491,50.4746807760295],[-121.034328876605,50.4743629789218],[-121.033824343941,50.4739003037209],[-121.033062261511,50.4732822350814],[-121.033227668199,50.4731568598084],[-121.033310371542,50.4730942171093],[-121.033351652769,50.4730628508224],[-121.033393074886,50.4730314845355]]]}},{"type":"Feature","id":"776902464","properties":{"name":"SP_35KPH_70%TR_SkyWay-4CR_SEPT_14_NS","oid":"776902464","speedLimit":9.722222},"geometry":{"type":"Polygon","coordinates":[[[-121.029521515804,50.4752292816143],[-121.029200423947,50.4750683159413],[-121.028512309584,50.4759389326217],[-121.027003501905,50.4773121288909],[-121.027192719266,50.4773780070809],[-121.027135376402,50.4773066465313],[-121.0285237218,50.4762096353616],[-121.029229165824,50.4752841950851],[-121.029441348508,50.4752402463335],[-121.029521515804,50.4752292816143]]]}},{"type":"Feature","id":"794004438","properties":{"name":"iSP_11KPH_%TR_LOWER_FUEL_BAY","oid":"794004438","speedLimit":3.0555556},"geometry":{"type":"Polygon","coordinates":[[[-121.036778276315,50.4606953665489],[-121.036780389689,50.4607252049651],[-121.03675066157,50.4606707408681],[-121.037126842026,50.4605990208194],[-121.037536836456,50.4605559708153],[-121.037544585491,50.4605813154942],[-121.036946078159,50.4606501595508],[-121.036778276315,50.4606953665489]]]}},{"type":"Feature","id":"801543391","properties":{"name":"iSP_4KPH_%TR_CR1_PermissionBlocker_DO_NOT_DELETE_","oid":"801543391","speedLimit":1.1111112},"geometry":{"type":"Polygon","coordinates":[[[-121.033156940637,50.4645232219257],[-121.033156095288,50.4644737908145],[-121.033177651696,50.4644317294326],[-121.033109601074,50.4644593209802],[-121.033156940637,50.4645232219257]]]}},{"type":"Feature","id":"806473874","properties":{"name":"iSP_4KPH_%TR_Permission Blocker - DO NOT DELETE","oid":"806473874","speedLimit":1.1111112},"geometry":{"type":"Polygon","coordinates":[[[-121.022720821261,50.4815450497554],[-121.022687711745,50.4815427130119],[-121.022680103601,50.4815713830564],[-121.022702223576,50.4815724615534],[-121.022706309431,50.481548375121],[-121.022720821261,50.4815450497554]]]}},{"type":"Feature","id":"824566967","properties":{"name":"iSP_4Cr_3KPH","oid":"824566967","speedLimit":0.8333333},"geometry":{"type":"Polygon","coordinates":[[[-121.02330368963,50.4810681743444],[-121.023283542138,50.4810681743444],[-121.023280865198,50.4811862697628],[-121.023305943895,50.4811855507648],[-121.02330368963,50.4810681743444]]]}},{"type":"Feature","id":"826307302","properties":{"name":"iSP_4KPH_TR%_CRUSHER POCKETS","oid":"826307302","speedLimit":1.1111112},"geometry":{"type":"Polygon","coordinates":[[[-121.023298899318,50.4813213515085],[-121.023338348953,50.4814770145714],[-121.023543064385,50.4814375595572],[-121.02346205174,50.481188696381],[-121.023053748009,50.4811894153789],[-121.023059101888,50.4813600875247],[-121.023283964813,50.4813261148701],[-121.023298899318,50.4813213515085]]]}},{"type":"Feature","id":"827282342","properties":{"name":"SP_30KPH_70%TR_1230 to 1215 ramp2_Sept14_NS","oid":"827282342","speedLimit":8.333333},"geometry":{"type":"Polygon","coordinates":[[[-121.036956363243,50.4451703127665],[-121.036723751283,50.4452458075545],[-121.036894511849,50.4451110853078],[-121.03696157623,50.4450452969926],[-121.038448827501,50.4463473124616],[-121.039045503243,50.4467293700139],[-121.038820076753,50.4468457578121],[-121.038853186269,50.4467843733594],[-121.038765269937,50.4467103165674],[-121.038375000326,50.4464323339729],[-121.03784862947,50.4460420978186],[-121.036956363243,50.4451703127665]]]}},{"type":"Feature","id":"834847043","properties":{"name":"SP_30KPH_70%TR_Gate_1_INT-1320_Sept_14_NS","oid":"834847043","speedLimit":8.333333},"geometry":{"type":"Polygon","coordinates":[[[-121.043755507978,50.4526228167157],[-121.043936412737,50.4526250635844],[-121.04415845783,50.4532810593675],[-121.044373740129,50.4538821416797],[-121.044393042272,50.4541499684277],[-121.044375571719,50.4542832526784],[-121.044191144671,50.4543000592562],[-121.044489412097,50.4543129113451],[-121.044523085179,50.4540659355386],[-121.044497583807,50.4537731236108],[-121.044136619639,50.4528357299929],[-121.044034755044,50.4525791375884],[-121.043755507978,50.4526228167157]]]}},{"type":"Feature","id":"834884540","properties":{"name":"SP_30KPH_70%TR_Leaving Brute into pit_Sept_ 14_NS","oid":"834884540","speedLimit":8.333333},"geometry":{"type":"Polygon","coordinates":[[[-121.041364437372,50.4593942498273],[-121.041480813798,50.4595340949346],[-121.040204054513,50.4604141484636],[-121.039815898274,50.4605295476395],[-121.039601602217,50.4605586670578],[-121.039185408559,50.4605832927386],[-121.038653120258,50.4605832927386],[-121.038387962349,50.4605945270821],[-121.038321179751,50.4604365272757],[-121.038323011341,50.460702107155],[-121.038544211085,50.4606908728115],[-121.039007885198,50.460664000262],[-121.039536651209,50.4606449468155],[-121.039922975857,50.460586707979],[-121.040202363814,50.4605004282213],[-121.040871316924,50.4601763398813],[-121.041679470893,50.4594991336578],[-121.041364437372,50.4593942498273]]]}},{"type":"Feature","id":"834888244","properties":{"name":"SP_30KPH_70%TR_Gate_1_INT-1320_2_Sept14_NS","oid":"834888244","speedLimit":8.333333},"geometry":{"type":"Polygon","coordinates":[[[-121.044194526069,50.4543057213653],[-121.044357960274,50.4543393345209],[-121.044261308666,50.4547157299641],[-121.044182268503,50.4554160339977],[-121.044013480418,50.4560736475262],[-121.043875688476,50.4566874021778],[-121.043792421566,50.4569520833096],[-121.043620252084,50.4572826426315],[-121.043175880115,50.4577834247253],[-121.042976095888,50.4578697943578],[-121.042746301759,50.4578738387215],[-121.043086273085,50.4580097293399],[-121.043388485474,50.457727253008],[-121.043596864086,50.4575024762642],[-121.043762270773,50.4572679031728],[-121.04387146173,50.4570619102513],[-121.043976848614,50.4567985772407],[-121.044044194778,50.4565661611433],[-121.044126898122,50.4561909340719],[-121.044243274547,50.4557237651336],[-121.044363173262,50.454983556712],[-121.044466869447,50.4543785199109],[-121.044489412097,50.4543129113451],[-121.044194526069,50.4543057213653]]]}},{"type":"Feature","id":"835348611","properties":{"name":"SP_35KPH_70%TR_switchback to 1 gate_SEP_14_NS","oid":"835348611","speedLimit":9.722222},"geometry":{"type":"Polygon","coordinates":[[[-121.039921848725,50.4634032926954],[-121.039549613233,50.4634577567924],[-121.03980279536,50.4633740834024],[-121.039546513618,50.462922642545],[-121.039366595101,50.4625821970009],[-121.039180477354,50.4622610745276],[-121.038988301271,50.4620178734605],[-121.03874737671,50.4618368657187],[-121.038564358578,50.461729914769],[-121.038078141816,50.4614746704857],[-121.038040805553,50.4615168217424],[-121.037960215583,50.4615572653788],[-121.038035029,50.4613737411441],[-121.038146474221,50.4613855147361],[-121.038485036631,50.4615702972172],[-121.038868825231,50.4617906700984],[-121.039056351893,50.4619261113431],[-121.039240919832,50.4621303966445],[-121.039455074998,50.4625354621321],[-121.039583145423,50.4627534083952],[-121.039760105218,50.4630608699069],[-121.039863801404,50.4632593133496],[-121.03994580029,50.4633237535437],[-121.039921848725,50.4634032926954]]]}},{"type":"Feature","id":"837655370","properties":{"name":"SP_30KPH_70%TR_1620 To 1590_MT_DUSTY _SEP_14_DS","oid":"837655370","speedLimit":8.333333},"geometry":{"type":"Polygon","coordinates":[[[-121.011041333898,50.457833754584],[-121.011901476851,50.4572128998273],[-121.012089285296,50.4570982196493],[-121.0133957727,50.4562082798982],[-121.013882271244,50.4558978525198],[-121.014189273946,50.4556865569881],[-121.014546574933,50.455450815525],[-121.014988410855,50.4550852949264],[-121.015284142232,50.4547349631601],[-121.015475332074,50.4542804665612],[-121.015469273737,50.4537723147381],[-121.015789379354,50.4537694387461],[-121.01563158081,50.4538055683947],[-121.015623972666,50.4542267214622],[-121.015543946262,50.4545540452931],[-121.015371213214,50.4548723816492],[-121.015169738288,50.4551140548456],[-121.014867666791,50.4553490773107],[-121.013367453497,50.4563614264681],[-121.011178703166,50.4578685361113],[-121.011321989879,50.4579767453075],[-121.011041333898,50.457833754584]]]}},{"type":"Feature","id":"838667959","properties":{"name":"SP_35KPH_70%TR__SEPT_14_NS","oid":"838667959","speedLimit":9.722222},"geometry":{"type":"Polygon","coordinates":[[[-121.032607604458,50.4743665739117],[-121.033118899917,50.4747011775972],[-121.03345858946,50.474715827181],[-121.033702190961,50.4746323335405],[-121.033732200863,50.4743910198431],[-121.033634563014,50.4742808334025],[-121.033456616978,50.4743399709864],[-121.033708108407,50.4741900599073],[-121.033909442441,50.4743662144127],[-121.033984255857,50.4745828125545],[-121.033828852471,50.474747912466],[-121.03355270502,50.474843359448],[-121.033115941194,50.474824126252],[-121.032767798158,50.4746579478436],[-121.03243937994,50.4743645067925],[-121.032647194986,50.4742593533378],[-121.032607604458,50.4743665739117]]]}},{"type":"Feature","id":"849309937","properties":{"name":"SP_30KPH_70%TR_Gate_1_INT-1320_6_SEPT_14_NS","oid":"849309937","speedLimit":8.333333},"geometry":{"type":"Polygon","coordinates":[[[-121.04280885761,50.4579145519821],[-121.042943972613,50.4579906758934],[-121.042648945693,50.4582966095344],[-121.042334616631,50.4586326512158],[-121.042030713543,50.458968782772],[-121.041596908441,50.4594282224819],[-121.041433474235,50.4593946093263],[-121.041688206169,50.4594752269749],[-121.042243178011,50.4588881651233],[-121.042805335321,50.4583055071344],[-121.043079228507,50.4580142230773],[-121.04280885761,50.4579145519821]]]}},{"type":"Feature","id":"853505792","properties":{"name":"SP_35KPH_70%TR_Skyway_SEPT_14_NS","oid":"853505792","speedLimit":9.722222},"geometry":{"type":"Polygon","coordinates":[[[-121.030413782032,50.4741011737819],[-121.02994292245,50.4742939551156],[-121.029753423306,50.4744884440695],[-121.029531378213,50.4747490808377],[-121.029209159223,50.4750624740827],[-121.029528983056,50.4752201143901],[-121.029424864196,50.4750077403614],[-121.029756382029,50.4745980013869],[-121.030150033038,50.4742769687883],[-121.030304027509,50.4742127982185],[-121.030496767158,50.4742770586631],[-121.030413782032,50.4741011737819]]]}},{"type":"Feature","id":"859339791","properties":{"name":"SP_30KPH_70%TR_1230_to_1215_Ramp1_Sept_14_NS","oid":"859339791","speedLimit":8.333333},"geometry":{"type":"Polygon","coordinates":[[[-121.040705205779,50.4473789846898],[-121.040683226696,50.4475608013043],[-121.040632083061,50.4474348867828],[-121.040164182202,50.4474146649646],[-121.039903391931,50.4473929152757],[-121.039489170755,50.4472141544026],[-121.03919188957,50.4470089703538],[-121.038967731104,50.4468504312989],[-121.038845859908,50.4468597782727],[-121.039048039291,50.4467556134402],[-121.039457470155,50.4470183173275],[-121.039720655582,50.4471737107662],[-121.040161787046,50.4472748198573],[-121.040554029139,50.4473089722614],[-121.040690553057,50.4473276662089],[-121.040705205779,50.4473789846898]]]}},{"type":"Feature","id":"863534413","properties":{"name":"SP_35KPH_70%TRAC_1590_SEPT_14_NS","oid":"863534413","speedLimit":9.722222},"geometry":{"type":"Polygon","coordinates":[[[-121.01234035405,50.4562541160194],[-121.013046361639,50.4555689109434],[-121.013347024221,50.4553100716702],[-121.013389996146,50.4552184893024],[-121.012796701801,50.455043772793],[-121.013142167898,50.4552073448337],[-121.011900349718,50.4565732612483],[-121.011628429014,50.4565411759634],[-121.012025602312,50.4566648436162],[-121.01234035405,50.4562541160194]]]}},{"type":"Feature","id":"867844514","properties":{"name":"SP_30KPH_70%TR_Garbage_Dump_DUSTY_SEP_14_DS","oid":"867844514","speedLimit":8.333333},"geometry":{"type":"Polygon","coordinates":[[[-121.013063127735,50.4604499186131],[-121.012828965968,50.4606041436801],[-121.015634821316,50.4626928328153],[-121.0159537998,50.4628692569449],[-121.016948071515,50.463139510311],[-121.017620828697,50.4632650653335],[-121.019733920262,50.4636497292534],[-121.019861004446,50.4634209081459],[-121.019723916962,50.4635384643158],[-121.016798444682,50.4629932840966],[-121.015961267053,50.4627373208153],[-121.015393051405,50.4623813269399],[-121.013014097473,50.4605762825083],[-121.013063127735,50.4604499186131]]]}},{"type":"Feature","id":"872232587","properties":{"name":"SP_30KPH_70%TR_Gate_1_INT-1320_1_Sept_14_NS","oid":"872232587","speedLimit":8.333333},"geometry":{"type":"Polygon","coordinates":[[[-121.042512703558,50.4485416044253],[-121.042153570981,50.4481518176448],[-121.041862489025,50.4478703299352],[-121.041617337716,50.4476768296035],[-121.041317097809,50.4475048093365],[-121.04110266086,50.4474168219586],[-121.040963460002,50.4473764681969],[-121.040855255287,50.447352921013],[-121.040733243199,50.447352921013],[-121.040706051129,50.4475487580881],[-121.040834262445,50.4474396501445],[-121.041203398323,50.4475417478578],[-121.041508992109,50.4476796157207],[-121.042195274881,50.4484067024291],[-121.042296012344,50.4484934315606],[-121.042069458721,50.448599393888],[-121.042512703558,50.4485416044253]]]}},{"type":"Feature","id":"875953603","properties":{"name":"SP_35KPH_70%TR_CR01_YARD_LOADED_Sept_14_NS","oid":"875953603","speedLimit":9.722222},"geometry":{"type":"Polygon","coordinates":[[[-121.038112378464,50.4622575694124],[-121.038366265049,50.4628958598702],[-121.038317234787,50.4633431664892],[-121.038103079621,50.4637138998232],[-121.037627007052,50.4639748960904],[-121.037929783007,50.4642048855696],[-121.03783045446,50.4640211815854],[-121.038276517128,50.4637268417869],[-121.038557877566,50.4631643157414],[-121.038357388881,50.4621659870446],[-121.038112378464,50.4622575694124]]]}},{"type":"Feature","id":"883050998","properties":{"name":"iSP_22kph_%TR_4CR_Brake_Temp_CTRL_NOREMOVE","oid":"883050998","speedLimit":6.111111},"geometry":{"type":"Polygon","coordinates":[[[-121.031800577623,50.4745589058717],[-121.032189860993,50.4743122895641],[-121.032491509816,50.4745746339525],[-121.032793158638,50.474802017064],[-121.032970963783,50.4748844322076],[-121.03317976507,50.4749345823168],[-121.033463661556,50.4749593877472],[-121.033667531638,50.4749218201026],[-121.033828711579,50.4748624128944],[-121.033919868416,50.4748103754156],[-121.034009193663,50.474747193468],[-121.03405963284,50.4746580377183],[-121.034053856286,50.4745478512777],[-121.034057660358,50.4744835009584],[-121.033995527182,50.4743795158754],[-121.033877178274,50.4742594432125],[-121.033510296661,50.4739375118665],[-121.033061979728,50.4735598581769],[-121.032948702917,50.4734253156797],[-121.032823732106,50.473220760754],[-121.032606900001,50.4728147965189],[-121.032253403085,50.4722088609703],[-121.032488410202,50.4721560146187],[-121.032431349121,50.4722055356047],[-121.032903899402,50.473048740487],[-121.03304310026,50.4733094671299],[-121.033250915306,50.4735468263385],[-121.033743894862,50.4739615084241],[-121.034098941584,50.474271037055],[-121.034204328469,50.4743943452087],[-121.034257021911,50.47446157152],[-121.034264066489,50.4745926987768],[-121.034239128683,50.4746787089103],[-121.034184603651,50.4747915017186],[-121.034087106694,50.4748757143571],[-121.033974252557,50.4749375481835],[-121.0337916571,50.4750160088382],[-121.033532134852,50.4750642715776],[-121.033264159112,50.4750679564423],[-121.033072546595,50.4750261646846],[-121.032808797601,50.4749164276178],[-121.032658043636,50.4748350010964],[-121.03249644102,50.4747052219608],[-121.032145902828,50.4744129492815],[-121.031800577623,50.4745589058717]]]}},{"type":"Feature","id":"883053336","properties":{"name":"iSP_22kph_%TR_Brake_Temp_CTRL_NOREMOVE","oid":"883053336","speedLimit":6.111111},"geometry":{"type":"Polygon","coordinates":[[[-121.032467135577,50.4721451397742],[-121.032252275953,50.4722253979239],[-121.031489629957,50.4710082242166],[-121.030817718124,50.469923256263],[-121.030662455629,50.469660103002],[-121.030597645513,50.4694576151955],[-121.030551292191,50.4692566552598],[-121.030597645513,50.4689728308067],[-121.030723884347,50.4686242066606],[-121.030885627854,50.4683754333592],[-121.031090061503,50.4680977203889],[-121.031689414184,50.4675364525899],[-121.032433321603,50.46689357852],[-121.03278963635,50.4665560988426],[-121.033148768927,50.4662223040299],[-121.033485640639,50.4658706241424],[-121.033780667558,50.4660340164336],[-121.033588632367,50.4659932132982],[-121.032920524606,50.4666519951984],[-121.032555756366,50.466991182496],[-121.032179716801,50.4673076314824],[-121.031775498926,50.4676682988447],[-121.031383115941,50.4680343586918],[-121.031148249716,50.4682862776095],[-121.031009894207,50.4684698018442],[-121.030906198022,50.4686544045758],[-121.030829693906,50.4688529378934],[-121.030768828754,50.4691912264435],[-121.03077756403,50.4694005447308],[-121.030874779205,50.4696302645857],[-121.031028773676,50.469935029855],[-121.031331690522,50.4704037266639],[-121.031531756533,50.4707109185514],[-121.031751406469,50.4710828202571],[-121.032147170852,50.4717287500684],[-121.032382459751,50.4721450498995],[-121.032467135577,50.4721451397742]]]}},{"type":"Feature","id":"883059532","properties":{"name":"iSP_22kph_%TR_Brake_CTRL_NOREMOVE","oid":"883059532","speedLimit":6.111111},"geometry":{"type":"Polygon","coordinates":[[[-121.027263305936,50.4773219252384],[-121.02703111665,50.4772097615534],[-121.027335583304,50.4769440019246],[-121.027717540314,50.4766324061745],[-121.028034264533,50.4763226977941],[-121.02819149951,50.4761687423514],[-121.02862234589,50.4756923163142],[-121.02890835575,50.4753257172185],[-121.029264952279,50.4748875778238],[-121.029473753566,50.4746566895971],[-121.029692558154,50.4745403916736],[-121.029802594459,50.4744881744453],[-121.029953348425,50.474592608902],[-121.029789773328,50.4745420094191],[-121.029557161368,50.4747915017186],[-121.029252976497,50.4751730200223],[-121.02907404422,50.475477965041],[-121.028854253392,50.4757747314578],[-121.028697159307,50.4759747027713],[-121.028410022314,50.4762705704405],[-121.028042718026,50.4765699432249],[-121.027244990033,50.4772193781514],[-121.027263305936,50.4773219252384]]]}},{"type":"Feature","id":"884401102","properties":{"name":"iSP_30KPH_MAIN INT_LIMIT_POLICY_SEPT_8_NS","oid":"884401102","speedLimit":8.333333},"geometry":{"type":"Polygon","coordinates":[[[-121.036993840397,50.4611012409093],[-121.037109935039,50.4611077118911],[-121.038296241945,50.4609920430909],[-121.038279898525,50.4603978811342],[-121.038121395524,50.4605657671628],[-121.037034276274,50.4607083983873],[-121.036746575715,50.4605377262416],[-121.036993840397,50.4611012409093]]]}},{"type":"Feature","id":"901482363","properties":{"name":"SP_35KPH_70%trx_1200-1185_RAMP_SEPT14_NS","oid":"901482363","speedLimit":9.722222},"geometry":{"type":"Polygon","coordinates":[[[-121.036667958227,50.4451090181886],[-121.03626275411,50.4451194436594],[-121.038632268308,50.4479561603192],[-121.039157512031,50.4476144565286],[-121.038831207186,50.4476633483914],[-121.038217342674,50.4469312286971],[-121.036578069413,50.4451795698655],[-121.036695713863,50.4451090181886],[-121.036667958227,50.4451090181886]]]}},{"type":"Feature","id":"903864124","properties":{"name":"SP_35KPH_70%TR_OLD_GARBAGEDUMP_SEP_14_NS","oid":"903864124","speedLimit":9.722222},"geometry":{"type":"Polygon","coordinates":[[[-121.040823977361,50.4662680502765],[-121.042371248435,50.4670052928314],[-121.04252284775,50.4669586478373],[-121.042133423488,50.4673286621734],[-121.042024936989,50.466979049405],[-121.040623206893,50.466304898923],[-121.040878502394,50.4660909970236],[-121.040823977361,50.4662680502765]]]}},{"type":"Feature","id":"908328496","properties":{"name":"SP_25KPH_70%TR_1445_SOFT_GROUND_SEPT_14_NS","oid":"908328496","speedLimit":6.9444447},"geometry":{"type":"Polygon","coordinates":[[[-121.03933306291,50.4644967088752],[-121.039942137109,50.4647089930291],[-121.039190339763,50.4666746436348],[-121.038828107571,50.4674277041453],[-121.038453336031,50.4678941540855],[-121.037916398309,50.4682378351205],[-121.037181367059,50.4680257307161],[-121.038314416956,50.4667051111742],[-121.038795138947,50.4655658588731],[-121.03933306291,50.4644967088752]]]}},{"type":"Feature","id":"910445950","properties":{"name":"SP_22KPH_%TR_1635_FLATS_SEP_14_DS","oid":"910445950","speedLimit":6.111111},"geometry":{"type":"Polygon","coordinates":[[[-121.017914446701,50.4571009158917],[-121.01775862064,50.4573815947286],[-121.016600492045,50.4571351581706],[-121.017123481503,50.456145637199],[-121.017774259602,50.4542397533006],[-121.018181154418,50.4539930471183],[-121.018533665092,50.4537514637966],[-121.019043269852,50.4536551180671],[-121.018867578081,50.4543415813896],[-121.018262730629,50.4560720297807],[-121.018042798909,50.4566098402706],[-121.017987710311,50.4569255702591],[-121.017914446701,50.4571009158917]]]}},{"type":"Feature","id":"915576987","properties":{"name":"iSP_15kph_prevent shifting","oid":"915576987","speedLimit":4.1666665},"geometry":{"type":"Polygon","coordinates":[[[-121.036999335168,50.4448632107538],[-121.037513448457,50.4453131237405],[-121.037982758232,50.4457955713859],[-121.038526740532,50.4462188814473],[-121.039459442636,50.4468499819252],[-121.039916776629,50.4470997438489],[-121.040472734711,50.4471951009561],[-121.041225940972,50.4473228129725],[-121.041644388895,50.4475096625729],[-121.042322922632,50.448095106679],[-121.042705584099,50.4485278535889],[-121.042849011704,50.4487948714642],[-121.043010473427,50.4493916397885],[-121.043189687487,50.4501981757738],[-121.043327197647,50.4505013232976],[-121.043688866272,50.4511687331736],[-121.043859345056,50.4514890467742],[-121.044128307037,50.4522536112524],[-121.044385434128,50.4529381872052],[-121.044699199624,50.4537981087906],[-121.044738085694,50.454194726052],[-121.044573665247,50.4550718137142],[-121.044218054959,50.4568392905014],[-121.044053634512,50.4572073275929],[-121.043007373813,50.4583989768719],[-121.041907433431,50.4595373304256],[-121.041345557904,50.4600006347496],[-121.040374110621,50.4605974929487],[-121.039925652797,50.460730956949],[-121.039136519189,50.460807170735],[-121.038499125787,50.4608387167714],[-121.03864692103,50.4611434820407],[-121.038759775167,50.4609495323352],[-121.039880849282,50.4608796996563],[-121.04070886896,50.4606318251023],[-121.041512937073,50.4600578849639],[-121.042875921991,50.458700237026],[-121.044244824354,50.4571424380251],[-121.044430237643,50.4562901557933],[-121.044815857833,50.454421569915],[-121.044812758219,50.4537866048229],[-121.044262858474,50.4523013347434],[-121.043835393491,50.4511858992504],[-121.043348190488,50.450337391758],[-121.04305231822,50.4493096740187],[-121.042929742566,50.4486918750034],[-121.04224219177,50.4478872263877],[-121.041548723528,50.4473914772797],[-121.041094348258,50.4472217937562],[-121.040460758929,50.4471303012631],[-121.039919735352,50.4470196654488],[-121.038822753692,50.446333292001],[-121.038198040531,50.4458717851719],[-121.037154879446,50.4449069797559],[-121.037379037912,50.4446973019697],[-121.036999335168,50.4448632107538]]]}},{"type":"Feature","id":"917773475","properties":{"name":"SP_15KPH_%TR_1200_CORNER_Sept_14_DS","oid":"917773475","speedLimit":4.1666665},"geometry":{"type":"Polygon","coordinates":[[[-121.037100213522,50.4446824726363],[-121.036926071558,50.4448620423821],[-121.036630481072,50.4448205202487],[-121.036415903232,50.4448698614852],[-121.03632432372,50.4449675553358],[-121.036255709532,50.4450820557643],[-121.036243451967,50.4451448782129],[-121.0362645857,50.4452671977445],[-121.036317279142,50.445351410383],[-121.036185404645,50.4453951793851],[-121.036090302845,50.4451942194494],[-121.036164270912,50.4449316054368],[-121.036261063411,50.4447913109557],[-121.036517908719,50.444715007295],[-121.036715016006,50.4447116819293],[-121.036924380859,50.4447700106405],[-121.037095000534,50.4446835511333],[-121.037100213522,50.4446824726363]]]}},{"type":"Feature","id":"921770139","properties":{"name":"SP_15KPH_%TR_HIGHMONT_SEPT 14_DS","oid":"921770139","speedLimit":4.1666665},"geometry":{"type":"Polygon","coordinates":[[[-121.001284734499,50.4285223638871],[-121.000940395535,50.4287420177703],[-121.00085219742,50.4292275211571],[-121.001084527597,50.4292734471531],[-121.001268813753,50.4287573863522],[-121.001941852719,50.4284558565738],[-121.002510350149,50.4282872515473],[-121.002406231289,50.4281544166702],[-121.001284734499,50.4285223638871]]]}},{"type":"Feature","id":"926078125","properties":{"name":"EX_NewLandfill_SEP3_NS","oid":"926078125","speedLimit":4.1666665},"geometry":{"type":"Polygon","coordinates":[[[-121.01116461401,50.4603916797766],[-121.010848453357,50.4601113604387],[-121.010389569558,50.4596571334642],[-121.010056924593,50.4593890370919],[-121.009793457382,50.4591388257945],[-121.009533089785,50.4588214780606],[-121.009341054594,50.4588741446627],[-121.009484200415,50.4595402064175],[-121.009692156353,50.460062109077],[-121.010013952668,50.4603630097321],[-121.010300244311,50.4606069297972],[-121.010572024123,50.460665078759],[-121.010854652586,50.4605662165366],[-121.01116461401,50.4603916797766]]]}},{"type":"Feature","id":"929009157","properties":{"name":"iSP_22kph_Long_Single_Lane_Aug30","oid":"929009157","speedLimit":6.111111},"geometry":{"type":"Polygon","coordinates":[[[-121.005681255521,50.4380559176179],[-121.004751512139,50.438223983396],[-121.005176018399,50.4381974703455],[-121.007936365775,50.443170419882],[-121.00852515159,50.4445348084259],[-121.008212231443,50.4465096262559],[-121.007834219397,50.4466801186522],[-121.008935709586,50.4466468649955],[-121.008824968822,50.4465928502722],[-121.009405019361,50.444817554382],[-121.008766076152,50.4430683221687],[-121.008264361319,50.4415400919598],[-121.007260790761,50.4401561107208],[-121.006441083685,50.4389839642621],[-121.005862019388,50.4383129593962],[-121.005681255521,50.4380559176179]]]}},{"type":"Feature","id":"932095545","properties":{"name":"SP_35KPH_TR_60%_SEPT_14_NS","oid":"932095545","speedLimit":9.722222},"geometry":{"type":"Polygon","coordinates":[[[-121.038886859351,50.4611202943558],[-121.038650865993,50.4612320086671],[-121.03851025622,50.461389109726],[-121.039099464709,50.4617649659206],[-121.039439436035,50.46222458538],[-121.039688673199,50.462522340419],[-121.039918749111,50.4630016424482],[-121.040003424936,50.463149126909],[-121.040399471102,50.4630263580038],[-121.040106416664,50.4630124274179],[-121.039659226864,50.4621026253475],[-121.038816413572,50.4613149630592],[-121.038886859351,50.4611202943558]]]}},{"type":"Feature","id":"932114358","properties":{"name":"SP_30KPH_70%TR_23SH_LOADED_LANES_SEP_14_NS","oid":"932114358","speedLimit":8.333333},"geometry":{"type":"Polygon","coordinates":[[[-121.042100032189,50.4671396555791],[-121.041267222198,50.4667316242248],[-121.04073606103,50.4664967815092],[-121.040690553057,50.4664763799415],[-121.040378900934,50.4667812350855],[-121.040595451257,50.4666718575176],[-121.041768091682,50.4671897158135],[-121.041840509942,50.4675476869334],[-121.042100032189,50.4671396555791]]]}},{"type":"Feature","id":"932118723","properties":{"name":"SP_35KPH_70%TR_1635_TO_1620_SEP_14_NS","oid":"932118723","speedLimit":9.722222},"geometry":{"type":"Polygon","coordinates":[[[-121.018238074606,50.4539384032717],[-121.018530706369,50.4537442738168],[-121.01824201957,50.4536422659782],[-121.017621674047,50.4534680887173],[-121.017126299334,50.4534431934122],[-121.016412260925,50.4534406769193],[-121.016061159166,50.4534804914325],[-121.015776417331,50.4535128463416],[-121.015503369494,50.453604967958],[-121.015897302286,50.453831452322],[-121.015823193327,50.4536671612833],[-121.016252349009,50.453604967958],[-121.016615144767,50.4536074844509],[-121.017325238212,50.453594991861],[-121.017742699894,50.4536547585682],[-121.018121134615,50.4537144354006],[-121.018265407568,50.4537691691219],[-121.018238074606,50.4539384032717]]]}},{"type":"Feature","id":"932268643","properties":{"name":"SP_25KPH_70%traction_1185_1170_SEP14_NS","oid":"932268643","speedLimit":6.9444447},"geometry":{"type":"Polygon","coordinates":[[[-121.038730469723,50.4481973841418],[-121.038468693211,50.4482556229783],[-121.038948569852,50.4498292399348],[-121.03950776844,50.4497913127913],[-121.039107213745,50.4497305574619],[-121.03862339214,50.4483441496047],[-121.038853468052,50.4481594569983],[-121.038730469723,50.4481973841418]]]}},{"type":"Feature","id":"932281958","properties":{"name":"SP_35KPH_70%TR_1185-1170_22shl_SEPT_7_NS","oid":"932281958","speedLimit":9.722222},"geometry":{"type":"Polygon","coordinates":[[[-121.037376360973,50.4481141601255],[-121.037409893163,50.4479620021778],[-121.03698327353,50.4479087064524],[-121.035925318832,50.447379973312],[-121.035463617201,50.4471781146288],[-121.035099130744,50.4474259891828],[-121.035349776823,50.4473476184029],[-121.036815894361,50.4479513969576],[-121.037217435297,50.4480554719153],[-121.037335784205,50.4481910929095],[-121.037376360973,50.4481141601255]]]}},{"type":"Feature","id":"932364856","properties":{"name":"SP_15KPH_60%_1170rOUGH_SEPT_14_NS","oid":"932364856","speedLimit":4.1666665},"geometry":{"type":"Polygon","coordinates":[[[-121.038075183093,50.4473201167301],[-121.037833131399,50.4473890506616],[-121.037707597022,50.4473850961727],[-121.037728730756,50.448041002081],[-121.038326251847,50.4498588087268],[-121.038777809286,50.4502068936244],[-121.038723425145,50.4496639602739],[-121.038332451076,50.4483822564977],[-121.038105474778,50.4473255990897],[-121.038075183093,50.4473201167301]]]}},{"type":"Feature","id":"933252378","properties":{"name":"SP_20KPH_%TR_1615_ROUGH_SECTION_SEP_14_DS","oid":"933252378","speedLimit":5.5555553},"geometry":{"type":"Polygon","coordinates":[[[-121.00736293714,50.4314118370238],[-121.007545391706,50.4321456643383],[-121.007054102848,50.4322076779141],[-121.007399428053,50.4321239146493],[-121.007258395605,50.4314847254441],[-121.006910534352,50.4314552465269],[-121.00736293714,50.4314118370238]]]}},{"type":"Feature","id":"933252549","properties":{"name":"SP_35KPH_%TR_1590_ROUGH_SEP_14_DS","oid":"933252549","speedLimit":9.722222},"geometry":{"type":"Polygon","coordinates":[[[-121.004363496793,50.4363928752876],[-121.004780113125,50.4364500356271],[-121.004884372877,50.4362112384226],[-121.005082325514,50.4359569827615],[-121.004584837428,50.4358324163613],[-121.004798851702,50.4359808894444],[-121.004627668461,50.436368159732],[-121.004363496793,50.4363928752876]]]}},{"type":"Feature","id":"933371104","properties":{"name":"SP_25KPH_1590_HMT_INTERSECT_SEPT_14_DS","oid":"933371104","speedLimit":6.9444447},"geometry":{"type":"Polygon","coordinates":[[[-121.006361057281,50.4374888079603],[-121.005863287412,50.437681229795],[-121.006069270868,50.4377779350235],[-121.006388812918,50.4379884216825],[-121.00655464228,50.4382643371577],[-121.007088198605,50.4381537013434],[-121.006746254797,50.4380710165755],[-121.006117878455,50.4376596598556],[-121.006361057281,50.4374888079603]]]}},{"type":"Feature","id":"934051091","properties":{"name":"iSP_17KPH_PERMISSIONS BLOCKER_SEPT 7_NS","oid":"934051091","speedLimit":4.7222223},"geometry":{"type":"Polygon","coordinates":[[[-121.039514390343,50.4610296107354],[-121.039466346323,50.4607715803349],[-121.039018874739,50.4607921616521],[-121.03907776741,50.4610448894425],[-121.039165261066,50.4608998315998],[-121.039381247822,50.4608867098866],[-121.039514390343,50.4610296107354]]]}},{"type":"Feature","id":"934181877","properties":{"name":"SP_35KPH_TR70%_1590_7_SEPT 14_NS","oid":"934181877","speedLimit":9.722222},"geometry":{"type":"Polygon","coordinates":[[[-121.013996252514,50.4497858304317],[-121.013326031379,50.4498807381652],[-121.01367459709,50.4515053141036],[-121.014403570004,50.4513828148225],[-121.013985122081,50.4512795487375],[-121.013707847497,50.4500005412038],[-121.013996252514,50.4497858304317]]]}},{"type":"Feature","id":"934182014","properties":{"name":"SP_35KPH_TR70%_1590_8_SEPT 14_NS","oid":"934182014","speedLimit":9.722222},"geometry":{"type":"Polygon","coordinates":[[[-121.01441498222,50.4514340434287],[-121.013700521136,50.451537219639],[-121.013685163957,50.4519280849165],[-121.01347903961,50.4525263811115],[-121.013429445782,50.4528465149626],[-121.013599220107,50.4535849258892],[-121.014234500136,50.4534697963375],[-121.013763781445,50.4534030194],[-121.013668820536,50.4530021780255],[-121.013677837596,50.4527109838432],[-121.013908477074,50.4520274863874],[-121.013971314708,50.4516617860392],[-121.01441498222,50.4514340434287]]]}},{"type":"Feature","id":"934183529","properties":{"name":"SP_35KPH_70TR%_1590_10_SEPT_14_NS","oid":"934183529","speedLimit":9.722222},"geometry":{"type":"Polygon","coordinates":[[[-121.013537227822,50.4536272568954],[-121.012709349036,50.4537865149482],[-121.01335322345,50.4537446333158],[-121.013563433652,50.4542112630056],[-121.013637965285,50.4545353513456],[-121.013480307634,50.4548455090997],[-121.01332701762,50.4550215737303],[-121.012718084313,50.4549936226838],[-121.013401408362,50.4552115689468],[-121.013607250926,50.4550103393868],[-121.013795622937,50.4548064135844],[-121.013852543126,50.4546555138831],[-121.013852543126,50.4544878974788],[-121.013795622937,50.4542615029895],[-121.0136510682,50.4539150358373],[-121.013566955941,50.4537032909319],[-121.013537227822,50.4536272568954]]]}},{"type":"Feature","id":"934183713","properties":{"name":"SP_35KPH_TR70%_1590_11_SEPT_14_NS","oid":"934183713","speedLimit":9.722222},"geometry":{"type":"Polygon","coordinates":[[[-121.013506090788,50.4535869031337],[-121.013322227307,50.4528129916817],[-121.013338007161,50.4526387245461],[-121.01352708363,50.4521864748159],[-121.01360584201,50.4519016617406],[-121.013588089674,50.4515181661925],[-121.012906033649,50.4515581604552],[-121.013421978529,50.4516136131745],[-121.013373370942,50.4518579826133],[-121.013264461769,50.4522240424604],[-121.013109481057,50.452659755237],[-121.013152452981,50.453069673961],[-121.013275873985,50.4534778850648],[-121.012796279127,50.4536845969844],[-121.013506090788,50.4535869031337]]]}},{"type":"Feature","id":"934183783","properties":{"name":"SP_35KPH_TR70%_1590_12_SEPT14_NS","oid":"934183783","speedLimit":9.722222},"geometry":{"type":"Polygon","coordinates":[[[-121.012906033649,50.4515408146289],[-121.013591752855,50.4515036064833],[-121.013247836565,50.4498785811712],[-121.012518300085,50.4500003614543],[-121.012936466225,50.4501041667878],[-121.013210641194,50.4513831743215],[-121.012906033649,50.4515408146289]]]}},{"type":"Feature","id":"934186247","properties":{"name":"SP_35KPH_TR70%_1590_18_SEPT 14_NS","oid":"934186247","speedLimit":9.722222},"geometry":{"type":"Polygon","coordinates":[[[-121.014232245871,50.4535430442568],[-121.013630498033,50.4536292341398],[-121.01382394214,50.4541043120559],[-121.013943277288,50.4544292092686],[-121.013972300949,50.4546410440488],[-121.013846484789,50.454879571629],[-121.013501582259,50.4552394301186],[-121.014020626753,50.4553977894239],[-121.013904109436,50.4551694176902],[-121.013969060443,50.4550646237344],[-121.014110938241,50.4548693259078],[-121.014220551872,50.454688318166],[-121.014217311366,50.4545114446627],[-121.01390453211,50.4537156037723],[-121.014232245871,50.4535430442568]]]}},{"type":"Feature","id":"934773555","properties":{"name":"SP_10KPH_NEW RAMP_SEPT 14_DS","oid":"934773555","speedLimit":2.7777777},"geometry":{"type":"Polygon","coordinates":[[[-121.035776537348,50.4443191090316],[-121.036278533964,50.444473513848],[-121.035933490542,50.4447855589719],[-121.034509781363,50.4446689914242],[-121.034741547974,50.4441516723768],[-121.035776537348,50.4443191090316]]]}},{"type":"Feature","id":"934859271","properties":{"name":"SP_35KPH_70%TR_23SH_LOADED_LANES_SEP_14_NS1","oid":"934859271","speedLimit":9.722222},"geometry":{"type":"Polygon","coordinates":[[[-121.040500913022,50.4654083983153],[-121.040446810665,50.4651300562218],[-121.039930161327,50.4634422084611],[-121.039472263768,50.4634990991764],[-121.039722064498,50.463559764631],[-121.040037379801,50.464569417546],[-121.040279431495,50.4653841321334],[-121.040005115635,50.4654675358992],[-121.040500913022,50.4654083983153]]]}},{"type":"Feature","id":"934859421","properties":{"name":"SP_35KPH_70%TR_23SH_LOADED_LANES_SEP_12_NS2","oid":"934859421","speedLimit":9.722222},"geometry":{"type":"Polygon","coordinates":[[[-121.040690553057,50.4664763799415],[-121.040512888805,50.4663966610403],[-121.040355935611,50.466311999028],[-121.040361993948,50.4660656523448],[-121.040452446327,50.4657768847806],[-121.04051880625,50.4655113049013],[-121.040499222324,50.4654083084405],[-121.040014978044,50.465484342477],[-121.040285630724,50.4655169670104],[-121.040247308221,50.4657153205785],[-121.0401024717,50.4659578026476],[-121.039981727636,50.4662196077875],[-121.040162773287,50.4664852775415],[-121.040472171145,50.466610473065],[-121.040354808478,50.4667716184875],[-121.040690553057,50.4664763799415]]]}},{"type":"Feature","id":"934860743","properties":{"name":"SP_35KPH_TR70%_CRUSHER YARD EMPTY_SEPT_14_NS1","oid":"934860743","speedLimit":9.722222},"geometry":{"type":"Polygon","coordinates":[[[-121.037497245928,50.4624815372836],[-121.037863141301,50.4624688649441],[-121.037921470405,50.4626183266495],[-121.037908508382,50.463275940178],[-121.037749723598,50.4634695303844],[-121.03756529655,50.4634604530349],[-121.037938659175,50.4636153970998],[-121.037981349317,50.4635588658835],[-121.038211707012,50.4632686603234],[-121.03818536029,50.4627771353285],[-121.038039537529,50.4623454669156],[-121.037497245928,50.4624815372836]]]}},{"type":"Feature","id":"934860935","properties":{"name":"SP_35KPH_TR70%_CRUSHER YARD EMPTY_SEPT_14_NS11","oid":"934860935","speedLimit":9.722222},"geometry":{"type":"Polygon","coordinates":[[[-121.037548248672,50.4634731253743],[-121.037684349915,50.463637775912],[-121.037078938897,50.4639812771975],[-121.036453239494,50.4642044361958],[-121.036237675413,50.4641029676058],[-121.036400264269,50.4643262164789],[-121.036721919693,50.4642314884949],[-121.037432294921,50.4639641111206],[-121.037848347687,50.4637351102637],[-121.037938659175,50.4636153970998],[-121.037548248672,50.4634731253743]]]}},{"type":"Feature","id":"935505135","properties":{"name":"SP_20KPH_%TR_1590_WATERHOLES_SEPT_14_DS","oid":"935505135","speedLimit":5.5555553},"geometry":{"type":"Polygon","coordinates":[[[-121.013404085301,50.4441736018152],[-121.012720197686,50.4442019123607],[-121.012968871283,50.4452613558859],[-121.013111030864,50.4462074673543],[-121.013279678057,50.446989287784],[-121.013706015907,50.4470969577317],[-121.013794918479,50.4467740377634],[-121.013439589974,50.4437486740083],[-121.013386332965,50.444162277597],[-121.013404085301,50.4441736018152]]]}},{"type":"Feature","id":"936169885","properties":{"name":"SP_10KPH_70%TR_24shl_loadplan_Sept_14_DS","oid":"936169885","speedLimit":2.7777777},"geometry":{"type":"Polygon","coordinates":[[[-121.039174278126,50.4536480179621],[-121.038379790639,50.4537582044027],[-121.038964067924,50.4546638722347],[-121.039435209289,50.4547591394672],[-121.039516081042,50.454404853212],[-121.039379275341,50.4538957127666],[-121.03928234195,50.4537247709966],[-121.039174278126,50.4536480179621]]]}},{"type":"Feature","id":"936513295","properties":{"name":"SP_27KPH_%TR_1635_FLATS_SEP_14_DS","oid":"936513295","speedLimit":7.5},"geometry":{"type":"Polygon","coordinates":[[[-121.017434851843,50.457453764151],[-121.015227785609,50.4585168925408],[-121.014498953587,50.4578795907053],[-121.016652762812,50.4569267386308],[-121.017434851843,50.457453764151]]]}},{"type":"Feature","id":"937786749","properties":{"name":"SP_35KPH_%TR_24SH_Loaded_LANE_SEP_14_DS","oid":"937786749","speedLimit":8.333333},"geometry":{"type":"Polygon","coordinates":[[[-121.038520400412,50.4505394301906],[-121.038273417513,50.4509802658278],[-121.038255101611,50.4516607075422],[-121.038257637659,50.452973148482],[-121.038538857206,50.4526664059683],[-121.038465311813,50.4516540568109],[-121.038520400412,50.4505394301906]]]}},{"type":"Feature","id":"937793793","properties":{"name":"SP_10KPH_%TR_21SH_LOAD_AREA_SEP_14_DS","oid":"937793793","speedLimit":2.7777777},"geometry":{"type":"Polygon","coordinates":[[[-121.039543132221,50.4523448341213],[-121.038962659008,50.4525984606591],[-121.039257685927,50.4533286929837],[-121.039709806932,50.4532448398442],[-121.039546231835,50.4524267100164],[-121.039543132221,50.4523448341213]]]}},{"type":"Feature","id":"938065675","properties":{"name":"SP_8KPH_CR01_YARD_RUTIING_SEP_14_DS","oid":"938065675","speedLimit":2.2222223},"geometry":{"type":"Polygon","coordinates":[[[-121.034290554101,50.4648011146454],[-121.0341003505,50.464857915486],[-121.033942129282,50.4649068972234],[-121.033830684061,50.4650048606983],[-121.034045543685,50.4650687616439],[-121.03396551728,50.4650112418054],[-121.034243918996,50.4648880235264],[-121.034320564003,50.4649372748881],[-121.034290554101,50.4648011146454]]]}},{"type":"Feature","id":"938217281","properties":{"name":"SP_20KPH_CRUSHER_YARD_WEATHER_SEPT_14_NS","oid":"938217281","speedLimit":5.5555553},"geometry":{"type":"Polygon","coordinates":[[[-121.036884931224,50.4639824455692],[-121.037243641127,50.4642844247212],[-121.034293371932,50.4654990819356],[-121.032880652295,50.4644542879943],[-121.036884931224,50.4639824455692]]]}},{"type":"Feature","id":"938718470","properties":{"name":"SP_35KPH_70%TR_1590 TO MAIN INTERSECTION_SEPT14NS ","oid":"938718470","speedLimit":9.722222},"geometry":{"type":"Polygon","coordinates":[[[-121.01394609512,50.4554127985068],[-121.013632611406,50.455336854345],[-121.012973943379,50.4558658571096],[-121.012553382083,50.4562531273972],[-121.012315275352,50.4565594205372],[-121.012410518045,50.4565543875513],[-121.012672435448,50.456374638056],[-121.012553382083,50.4563518997449],[-121.013652477116,50.4554431761715],[-121.013914394519,50.4554229543533],[-121.01394609512,50.4554127985068]]]}},{"type":"Feature","id":"938812881","properties":{"name":"SP_35KPH_TR_1460Ramp_70%_SEPT_14_NS","oid":"938812881","speedLimit":9.722222},"geometry":{"type":"Polygon","coordinates":[[[-121.040519651599,50.4630207857694],[-121.040040479416,50.4631724044687],[-121.040240404534,50.4637668360496],[-121.040334801877,50.4642770549919],[-121.040421591076,50.4646139055461],[-121.040521624081,50.4650704692641],[-121.040613908051,50.4655597473903],[-121.041059125369,50.4656535766268],[-121.04076860698,50.4655043845457],[-121.040753531583,50.4651073179107],[-121.040369320308,50.463245652388],[-121.040519651599,50.4630207857694]]]}}]}