{"type":"FeatureCollection","features":[{"type":"Feature","id":"702602533","properties":{"name":"iSP_4KPH_%TR_CR01_Slow Bump","oid":"702602533","speedLimit":1.1111112},"geometry":{"type":"Polygon","coordinates":[[[-121.033357359214,50.4648077872165],[-121.033652110157,50.464690769238],[-121.033695505611,50.4647314828664],[-121.033367644501,50.4648696216014],[-121.033357359214,50.4648077872165]]]}},{"type":"Feature","id":"707947583","properties":{"name":"iSP_25KPH_%TR_Permission Gate 1 From West Dump","oid":"707947583","speedLimit":6.9444447},"geometry":{"type":"Polygon","coordinates":[[[-121.038627089025,50.461977875473],[-121.038853788006,50.4617993826118],[-121.03813874927,50.461408154301],[-121.03799109201,50.4616708605616],[-121.038190598384,50.4615667846636],[-121.038665553178,50.4618459381516],[-121.038627089025,50.461977875473]]]}},{"type":"Feature","id":"742345972","properties":{"name":"iSP_4KPH_%TR_CR01_Pit Side_Slow Bump","oid":"742345972","speedLimit":1.1111112},"geometry":{"type":"Polygon","coordinates":[[[-121.03339723231,50.4648827434332],[-121.033704522849,50.4647442451959],[-121.033754681231,50.4647763307706],[-121.033473174355,50.4649182442792],[-121.03339723231,50.4648827434332]]]}},{"type":"Feature","id":"776427243","properties":{"name":"iSP_7KPH_%TR_CR1_PermissionBlocker","oid":"776427243","speedLimit":1.9444444},"geometry":{"type":"Polygon","coordinates":[[[-121.034098463401,50.4652127664878],[-121.034049995751,50.4652330783643],[-121.034028861601,50.4652745109972],[-121.034114525355,50.4652254389417],[-121.034098463401,50.4652127664878]]]}},{"type":"Feature","id":"794004438","properties":{"name":"iSP_11KPH_%TR_Lower_Fuel_Bay","oid":"794004438","speedLimit":3.0555556},"geometry":{"type":"Polygon","coordinates":[[[-121.036775314818,50.4606953512383],[-121.036777428233,50.460725189924],[-121.036747699529,50.460670725335],[-121.037123887396,50.4605990046384],[-121.037533889902,50.4605559542454],[-121.037541639091,50.4605812991532],[-121.036943119968,50.4606501438318],[-121.036775314818,50.4606953512383]]]}},{"type":"Feature","id":"801543391","properties":{"name":"iSP_4KPH_%TR_CR01_PermissionBlocker_2","oid":"801543391","speedLimit":1.1111112},"geometry":{"type":"Polygon","coordinates":[[[-121.033153907799,50.464523241195],[-121.033153062433,50.4644738096372],[-121.033174619265,50.4644317478753],[-121.033106567303,50.4644593396721],[-121.033153907799,50.464523241195]]]}},{"type":"Feature","id":"806473874","properties":{"name":"iSP_4KPH_%TR_CR04_PermissionBlocker","oid":"806473874","speedLimit":1.1111112},"geometry":{"type":"Polygon","coordinates":[[[-121.022717582827,50.4815452227955],[-121.022684472659,50.4815428860309],[-121.022676864365,50.4815715563344],[-121.022698984776,50.4815726348411],[-121.022703070711,50.4815485481912],[-121.022717582827,50.4815452227955]]]}},{"type":"Feature","id":"817097804","properties":{"name":"SP_25KPH_%TR_prevent shifting_OCT9TH","oid":"817097804","speedLimit":6.9444447},"geometry":{"type":"Polygon","coordinates":[[[-121.054617045887,50.4680342299287],[-121.054597320681,50.4683934625402],[-121.054577595474,50.468443702978],[-121.054546598721,50.4684976283137],[-121.054436842036,50.468608984132],[-121.054290311931,50.4686843897264],[-121.053944275451,50.468773456406],[-121.053728848017,50.4688208208258],[-121.053667840771,50.4686736046593],[-121.053733215742,50.4687361580488],[-121.054159843779,50.4686167134301],[-121.054316659171,50.4685403192045],[-121.054401477559,50.4684611388365],[-121.054445295696,50.4681832436064],[-121.05445938513,50.4674612732366],[-121.054333989174,50.4674320636797],[-121.05462268166,50.4674361080799],[-121.054617045887,50.4680342299287]]]}},{"type":"Feature","id":"824566967","properties":{"name":"iSP_3KPH_%TR_CR04","oid":"824566967","speedLimit":0.8333333},"geometry":{"type":"Polygon","coordinates":[[[-121.02330046268,50.4810683430765],[-121.02328031479,50.4810683430765],[-121.023277637798,50.4811864395618],[-121.023302716989,50.4811857205573],[-121.02330046268,50.4810683430765]]]}},{"type":"Feature","id":"826307302","properties":{"name":"iSP_4KPH_%TR_CR04_Pockets","oid":"826307302","speedLimit":1.1111112},"geometry":{"type":"Polygon","coordinates":[[[-121.023295672272,50.4813215225278],[-121.023335122685,50.4814771869969],[-121.02353984215,50.4814377316262],[-121.023458827909,50.4811888662019],[-121.023050516134,50.4811895852063],[-121.023055870119,50.4813602588939],[-121.023280737473,50.4813262859324],[-121.023295672272,50.4813215225278]]]}},{"type":"Feature","id":"883050998","properties":{"name":"iSP_22KPH_%TR_4CR_Brake_Temp_Ctrl","oid":"883050998","speedLimit":6.111111},"geometry":{"type":"Polygon","coordinates":[[[-121.031797518063,50.4745590158007],[-121.032186809103,50.4743123972653],[-121.032488463868,50.4745747440236],[-121.032790118633,50.4748021291893],[-121.03296792728,50.4748845450774],[-121.03317673268,50.4749346956396],[-121.03346063476,50.4749595012941],[-121.033664508858,50.4749219333102],[-121.033825691974,50.4748625255653],[-121.033916850607,50.4748104876163],[-121.034006177614,50.474747305098],[-121.034056617785,50.4746581485429],[-121.034050841117,50.4745479611069],[-121.034054645264,50.4744836102063],[-121.033992510864,50.4743796241839],[-121.033874159625,50.4742595504363],[-121.033507270784,50.473937616182],[-121.033058945019,50.4735599590808],[-121.032945665976,50.4734254153681],[-121.032820692703,50.4732208585946],[-121.032603856326,50.4728148906921],[-121.032250352447,50.4722089496697],[-121.032485364193,50.4721561028406],[-121.032428301988,50.472205624274],[-121.032900861578,50.4730488367736],[-121.033040065178,50.4733095657719],[-121.033247884318,50.4735469271246],[-121.033740873586,50.4739616129564],[-121.034095927303,50.4742711443835],[-121.034201316264,50.4743944536512],[-121.034254010744,50.4744616805697],[-121.034261055461,50.4745928090111],[-121.034236117164,50.4746788199216],[-121.034181591057,50.4747916137488],[-121.03408409218,50.4748758271481],[-121.033971235819,50.4749376615331],[-121.033788636765,50.4750161228966],[-121.033529109405,50.4750643860721],[-121.033261128385,50.47506807097],[-121.033069512094,50.4750262788348],[-121.032805757904,50.4749165407766],[-121.032655000968,50.4748351135196],[-121.03249339517,50.4747053332117],[-121.032142850071,50.474413057892],[-121.031797518063,50.4745590158007]]]}},{"type":"Feature","id":"883053336","properties":{"name":"iSP_22KPH_%TR_Brake_Temp_Ctrl","oid":"883053336","speedLimit":6.111111},"geometry":{"type":"Polygon","coordinates":[[[-121.032464089148,50.472145227898],[-121.032249225292,50.4722254867726],[-121.031486564272,50.4710083020697],[-121.030814639202,50.4699233243148],[-121.030659373648,50.4696601686765],[-121.030594562255,50.4694576790408],[-121.03054820802,50.4692567172896],[-121.030594562255,50.4689728902726],[-121.030720803577,50.4686242629771],[-121.03088255027,50.4683754874283],[-121.031086987946,50.4680977719493],[-121.031686352435,50.4675364990799],[-121.032430274509,50.4668936192025],[-121.032786596275,50.4665561364764],[-121.033145735927,50.4662223386482],[-121.033482614276,50.4658706555837],[-121.033777647007,50.466034049351],[-121.033585608032,50.4659932458469],[-121.032917487109,50.4666520336984],[-121.032552711683,50.4669912240601],[-121.032176664711,50.4673076759053],[-121.031772438872,50.4676683465258],[-121.031380048157,50.4680344096798],[-121.031145177305,50.4682863308732],[-121.031006819071,50.4684698567658],[-121.030903120843,50.4686544611651],[-121.03082661522,50.4688529962762],[-121.030765748869,50.4691912878823],[-121.030774484317,50.4694006080605],[-121.030871701406,50.4696303299907],[-121.031025698911,50.4699350980131],[-121.031328621726,50.4704037990562],[-121.031528691677,50.4707109937187],[-121.031748345941,50.4710828987841],[-121.03214411812,50.4717288344306],[-121.032379411655,50.4721451380224],[-121.032464089148,50.472145227898]]]}},{"type":"Feature","id":"883059532","properties":{"name":"iSP_22KPH_%TR_Brake_Ctrl","oid":"883059532","speedLimit":6.111111},"geometry":{"type":"Polygon","coordinates":[[[-121.02726015699,50.4773220601279],[-121.027027963131,50.4772098954296],[-121.027332435783,50.4769441334],[-121.027714400317,50.476632534835],[-121.028031130776,50.4763228236568],[-121.028188368851,50.4761688668233],[-121.028619223718,50.4756924364822],[-121.028905239213,50.4753258340748],[-121.029261842767,50.474887690722],[-121.029470648168,50.4746568004095],[-121.029689457065,50.4745405014354],[-121.029799495539,50.4744882837354],[-121.029950252474,50.4745927191356],[-121.029786674155,50.4745421191955],[-121.029554057612,50.4747916137488],[-121.029249866749,50.4751731354991],[-121.029070930947,50.4754780832726],[-121.028851135789,50.4757748523703],[-121.028694038609,50.4759748254903],[-121.02840689596,50.4762706958323],[-121.028039584436,50.4765700713212],[-121.027241840727,50.4772195121144],[-121.02726015699,50.4773220601279]]]}},{"type":"Feature","id":"884401102","properties":{"name":"iSP_30KPH_%TR_Maint_Limit_Policy","oid":"884401102","speedLimit":8.333333},"geometry":{"type":"Polygon","coordinates":[[[-121.037217723021,50.4610267224263],[-121.037674361551,50.4610799287576],[-121.037993346319,50.4608741137262],[-121.037906414516,50.4604833347933],[-121.037859214915,50.4606706354594],[-121.037199547652,50.4607816317754],[-121.03697115794,50.4606591313878],[-121.037217723021,50.4610267224263]]]}},{"type":"Feature","id":"910445950","properties":{"name":"SP_30KPH_%TR_1635_FLATS_OCT_9_NS","oid":"910445950","speedLimit":8.333333},"geometry":{"type":"Polygon","coordinates":[[[-121.017633410852,50.4550418190405],[-121.018000440587,50.454414038257],[-121.018145702643,50.4539983637941],[-121.01853034417,50.4537513857565],[-121.018946405133,50.4536879336115],[-121.018864263737,50.4543415086805],[-121.018733513797,50.4547410954182],[-121.018507519288,50.4552110547191],[-121.017633410852,50.4550418190405]]]}},{"type":"Feature","id":"915576987","properties":{"name":"iSP_15KPH_%TR_Preventing Shifting","oid":"915576987","speedLimit":4.1666665},"geometry":{"type":"Polygon","coordinates":[[[-121.036996378025,50.4448630524195],[-121.037510501443,50.4453129694706],[-121.037979820464,50.4457954214742],[-121.03852381348,50.4462187353597],[-121.039456533959,50.4468498415388],[-121.039913876961,50.4470996057188],[-121.040469845996,50.4471949636875],[-121.041223067095,50.4473226768576],[-121.041641523262,50.4475095281459],[-121.042320070366,50.4480949775408],[-121.042702739372,50.44852772836],[-121.042846169802,50.4487947486475],[-121.043007634706,50.4493915223628],[-121.043186852297,50.4501980656342],[-121.043324365165,50.4505012158966],[-121.043686040916,50.4511686318018],[-121.043856523058,50.451488948296],[-121.044125490338,50.4522535196811],[-121.044382622494,50.4529381018182],[-121.044696394172,50.4537980311719],[-121.044735281007,50.4541946520162],[-121.044570857322,50.4550717476018],[-121.044215240027,50.4568392403559],[-121.044050816342,50.4572072807722],[-121.043004535031,50.4583989408163],[-121.04190457298,50.4595373046535],[-121.041342686383,50.460000613163],[-121.040371219963,50.4605974767539],[-121.039922753304,50.4607309419598],[-121.03913360415,50.4608071564343],[-121.038496198191,50.4608387027557],[-121.038643996345,50.4611434707782],[-121.038756852705,50.4609495193207],[-121.039877948906,50.4608796860109],[-121.040705984896,50.4606318092177],[-121.04151006885,50.4600578638944],[-121.042873080619,50.4587002036919],[-121.04424200995,50.4571423906182],[-121.044427426892,50.456290100687],[-121.044813054679,50.4544214979285],[-121.044809955003,50.4537865271003],[-121.044260044425,50.4523012436032],[-121.043832571021,50.4511857980337],[-121.043345358421,50.450337282876],[-121.043049480323,50.4493095558525],[-121.042926902254,50.4486917512562],[-121.042239337913,50.4478870953716],[-121.04154585601,50.4473913417851],[-121.041091471789,50.4472216567287],[-121.040457869977,50.4471301634091],[-121.039916835742,50.4470195265953],[-121.038819832472,50.446333146947],[-121.038195107003,50.4458716359487],[-121.037151925368,50.444906821817],[-121.03737608825,50.4446971421366],[-121.036996378025,50.4448630524195]]]}},{"type":"Feature","id":"917773475","properties":{"name":"SP_15KPH_%TR_1200_CORNER_OCT_9_NS","oid":"917773475","speedLimit":4.1666665},"geometry":{"type":"Polygon","coordinates":[[[-121.037097258367,50.4446823126692],[-121.036923112972,50.4448618840372],[-121.036627516664,50.4448203615287],[-121.036412934596,50.4448697032109],[-121.03632135328,50.4449673979441],[-121.03625273774,50.445081899407],[-121.036240479933,50.4451447224231],[-121.036261614083,50.4452670430596],[-121.036314308563,50.445351256459],[-121.036182431468,50.4453950258564],[-121.036087327794,50.4451940641053],[-121.036161297318,50.4449314477203],[-121.036258091725,50.4447911519718],[-121.036514942092,50.4447148476218],[-121.036712053263,50.4447115222261],[-121.03692142224,50.4447698514642],[-121.037092045277,50.444683391176],[-121.037097258367,50.4446823126692]]]}},{"type":"Feature","id":"929009157","properties":{"name":"iSP_22KPH_%TR_Long_Single_Lane","oid":"929009157","speedLimit":6.111111},"geometry":{"type":"Polygon","coordinates":[[[-121.005677681402,50.4380556977882],[-121.004747919705,50.4382237650846],[-121.005172434327,50.4381972517945],[-121.007932836083,50.4431702462554],[-121.008521633497,50.4445346471249],[-121.008208707185,50.4465094827948],[-121.007830687692,50.4466799767313],[-121.008932199581,50.4466467227743],[-121.008821456636,50.446592707563],[-121.009401518601,50.4448173956352],[-121.008762562805,50.4430681476198],[-121.008260838088,50.4415399036052],[-121.00725724776,50.4401559098638],[-121.006437524536,50.4389837528161],[-121.005858448831,50.4383127418885],[-121.005677681402,50.4380556977882]]]}},{"type":"Feature","id":"934051091","properties":{"name":"iSP_17KPH_%TR_Ramp_Permission Blocker","oid":"934051091","speedLimit":4.7222223},"geometry":{"type":"Polygon","coordinates":[[[-121.039511482748,50.4610295984442],[-121.039463437781,50.4607715657128],[-121.039015957382,50.4607921472159],[-121.039074851213,50.4610448772893],[-121.039162346593,50.4608998181362],[-121.039378337604,50.4608866963045],[-121.039511482748,50.4610295984442]]]}},{"type":"Feature","id":"938065675","properties":{"name":"iSP_8KPH_CR01_YARD_RUTIING_OCT_4_NS","oid":"938065675","speedLimit":2.2222223},"geometry":{"type":"Polygon","coordinates":[[[-121.034287543595,50.4648011364251],[-121.034097336247,50.4648579377787],[-121.033939111912,50.4649069199587],[-121.033827664495,50.4650048843186],[-121.034042528352,50.4650687858414],[-121.033962500371,50.4650112654833],[-121.034240907571,50.4648880460912],[-121.034317554088,50.4649372978978],[-121.034287543595,50.4648011364251]]]}},{"type":"Feature","id":"938165680","properties":{"name":"SP_10KPH_%TR_22SH_OCT_9_NS","oid":"938165680","speedLimit":2.7777777},"geometry":{"type":"Polygon","coordinates":[[[-121.034078738195,50.4466112219282],[-121.035053586079,50.4472504169078],[-121.035495430705,50.4474471545076],[-121.035793563112,50.446912035426],[-121.034853234339,50.4461951879631],[-121.034078738195,50.4466112219282]]]}},{"type":"Feature","id":"948301528","properties":{"name":"SP_15KPH_%TR_24SH__LANES_OCT 9 NS","oid":"948301528","speedLimit":4.1666665},"geometry":{"type":"Polygon","coordinates":[[[-121.039030751287,50.4526157181861],[-121.039080909669,50.4528875917537],[-121.038936492979,50.454841126916],[-121.039750721324,50.4549416976672],[-121.039876680857,50.4528380703204],[-121.039861182481,50.4526212904708],[-121.039379887442,50.4526061913768],[-121.039030751287,50.4526157181861]]]}},{"type":"Feature","id":"950999947","properties":{"name":"SP_15KPH_%TR_23SH_HEADING_SOFT_OCT9_NS","oid":"950999947","speedLimit":4.1666665},"geometry":{"type":"Polygon","coordinates":[[[-121.038131845448,50.4653454228137],[-121.037616594875,50.4650446093159],[-121.037284788723,50.4652896999668],[-121.036830686291,50.4653900010912],[-121.037468092249,50.4659024715318],[-121.038131845448,50.4653509950984],[-121.038131845448,50.4653454228137]]]}},{"type":"Feature","id":"951141721","properties":{"name":"SP_8KPH_%TR_CR1_SHOPSIDE_OCT_9_NS","oid":"951141721","speedLimit":2.2222223},"geometry":{"type":"Polygon","coordinates":[[[-121.033772011234,50.4647083848476],[-121.033828087178,50.4646113192433],[-121.033599556571,50.4645575736587],[-121.033278740177,50.4644629346945],[-121.033367080923,50.4646853767044],[-121.033563487622,50.4646292044797],[-121.033735942285,50.4646343273866],[-121.033772011234,50.4647135077545],[-121.033772011234,50.4647083848476]]]}},{"type":"Feature","id":"954548484","properties":{"name":"SP_15KPH_Main Intersection_FuelBrute_October9_DS","oid":"954548484","speedLimit":4.1666665},"geometry":{"type":"Polygon","coordinates":[[[-121.038038009823,50.4606481665695],[-121.038519727544,50.461155963481],[-121.038182285619,50.4616399433691],[-121.03720729684,50.4612976972384],[-121.037348613856,50.4607383117557],[-121.038038009823,50.4606481665695]]]}},{"type":"Feature","id":"954559984","properties":{"name":"SP_15KPH_%TR_CR4_October9_DS","oid":"954559984","speedLimit":4.1666665},"geometry":{"type":"Polygon","coordinates":[[[-121.022811700241,50.4804496397246],[-121.022354216345,50.4802447234488],[-121.022000571571,50.4805986534023],[-121.02256189459,50.4807621370451],[-121.022811700241,50.4804496397246]]]}}]}