{"type":"FeatureCollection","features":[{"type":"Feature","id":"702602533","properties":{"name":"iSP_4KPH_%TR_CR01_SLOW BUMP","oid":"702602533","speedLimit":1.1111112},"geometry":{"type":"Polygon","coordinates":[[[-121.033360527181,50.4648075627753],[-121.03365526733,50.4646905464937],[-121.033698661195,50.4647312595318],[-121.03337081209,50.4648693962636],[-121.033360527181,50.4648075627753]]]}},{"type":"Feature","id":"707947583","properties":{"name":"iSP_22KPH_%TR_Permission Gate 1 from west dump_Jun","oid":"707947583","speedLimit":6.111111},"geometry":{"type":"Polygon","coordinates":[[[-121.038630064014,50.4619776920684],[-121.038856754693,50.4617992017954],[-121.037982537377,50.4613507292567],[-121.037745420899,50.461541981674],[-121.03796154489,50.4614962356776],[-121.038668526758,50.4618457566602],[-121.038630064014,50.4619776920684]]]}},{"type":"Feature","id":"742345972","properties":{"name":"iSP_4KPH_%TR_CR01_PITSIDE_SLOW BUMP","oid":"742345972","speedLimit":1.1111112},"geometry":{"type":"Polygon","coordinates":[[[-121.033400398817,50.464882517905],[-121.033707678102,50.4647440216761],[-121.033757834648,50.4647761067856],[-121.033476338081,50.4649180182363],[-121.033400398817,50.464882517905]]]}},{"type":"Feature","id":"776427243","properties":{"name":"iSP_7KPH_%TR_CR1_PermissionBlocker_DO_NOT_DELETE","oid":"776427243","speedLimit":1.9444444},"geometry":{"type":"Polygon","coordinates":[[[-121.034101604229,50.465212536174],[-121.034053138353,50.465232847756],[-121.034032004977,50.4652742797881],[-121.034117665594,50.4652252084442],[-121.034101604229,50.465212536174]]]}},{"type":"Feature","id":"794004438","properties":{"name":"iSP_11KPH_%TR_LOWER_FUEL_BAY","oid":"794004438","speedLimit":3.0555556},"geometry":{"type":"Polygon","coordinates":[[[-121.036778357619,50.4606951864315],[-121.036780470956,50.4607250246846],[-121.036750743341,50.4606705608853],[-121.037126917432,50.4605988412288],[-121.037536904924,50.46055579146],[-121.037544653828,50.4605811360003],[-121.036946156623,50.4606499796806],[-121.036778357619,50.4606951864315]]]}},{"type":"Feature","id":"801543391","properties":{"name":"iSP_4KPH_%TR_CR1_PermissionBlocker_DO_NOT_DELETE_","oid":"801543391","speedLimit":1.1111112},"geometry":{"type":"Polygon","coordinates":[[[-121.033157083216,50.46452302088],[-121.033156237881,50.464473590039],[-121.033177793924,50.4644315288871],[-121.033109744454,50.4644591202838],[-121.033157083216,50.46452302088]]]}},{"type":"Feature","id":"806473874","properties":{"name":"iSP_4KPH_%TR_Permission Blocker - DO NOT DELETE","oid":"806473874","speedLimit":1.1111112},"geometry":{"type":"Polygon","coordinates":[[[-121.022721140423,50.4815447556449],[-121.022688031468,50.4815424189142],[-121.022680423452,50.481571088802],[-121.022702543053,50.4815721672931],[-121.022706628839,50.4815480809924],[-121.022721140423,50.4815447556449]]]}},{"type":"Feature","id":"824566967","properties":{"name":"iSP_4Cr_3KPH","oid":"824566967","speedLimit":0.8333333},"geometry":{"type":"Polygon","coordinates":[[[-121.02330399893,50.4810678828412],[-121.023283851779,50.4810678828412],[-121.023281174884,50.4811859776139],[-121.023306253157,50.4811852586198],[-121.02330399893,50.4810678828412]]]}},{"type":"Feature","id":"826307302","properties":{"name":"iSP_4KPH_TR%_CRUSHER POCKETS","oid":"826307302","speedLimit":1.1111112},"geometry":{"type":"Polygon","coordinates":[[[-121.023299208699,50.4813210586211],[-121.023338657667,50.4814767208329],[-121.023543369635,50.4814372660344],[-121.02346235836,50.4811884042188],[-121.023054061538,50.4811891232129],[-121.023059415327,50.4813597944255],[-121.023284274446,50.4813258219566],[-121.023299208699,50.4813210586211]]]}},{"type":"Feature","id":"849417440","properties":{"name":"iSP_Permissions_35_KPH_June_19_NS","oid":"849417440","speedLimit":9.722222},"geometry":{"type":"Polygon","coordinates":[[[-121.032697080067,50.4660338071278],[-121.03301168559,50.4660144841627],[-121.033218651784,50.4658136151999],[-121.033807427636,50.4653791630452],[-121.033728247921,50.4652503732359],[-121.033964378175,50.4653998341241],[-121.033428153984,50.4658081328703],[-121.033025774507,50.4661876718545],[-121.032697080067,50.4660338071278]]]}},{"type":"Feature","id":"853029148","properties":{"name":"SP_30KPH_%TR_1635 Flats_AUG_8_NS","oid":"853029148","speedLimit":8.333333},"geometry":{"type":"Polygon","coordinates":[[[-121.018591678775,50.4569706175034],[-121.017410463952,50.4572894014904],[-121.016431988648,50.4584572275763],[-121.01835075829,50.4588927582222],[-121.020693886119,50.4589868565685],[-121.020242195432,50.4572314325951],[-121.019424474674,50.4570962617137],[-121.018970247981,50.4569996468882],[-121.018591678775,50.4569706175034]]]}},{"type":"Feature","id":"883050998","properties":{"name":"iSP_22kph_%TR_4CR_Brake_Temp_CTRL_NOREMOVE","oid":"883050998","speedLimit":6.111111},"geometry":{"type":"Polygon","coordinates":[[[-121.031800743151,50.4745586499571],[-121.032190019935,50.4743120349979],[-121.032491663653,50.4745743779519],[-121.032793307372,50.4748017598203],[-121.032971109508,50.4748841745133],[-121.033179907262,50.4749343243483],[-121.033463798944,50.474959129643],[-121.033667665577,50.4749215622039],[-121.033828842791,50.4748621553205],[-121.033919998085,50.4748101181261],[-121.034009321821,50.4747469365239],[-121.034059760144,50.4746577812617],[-121.034053983688,50.4745475954236],[-121.034057787696,50.4744832454561],[-121.033995655571,50.4743792609416],[-121.033877308666,50.4742591889352],[-121.03351043326,50.4739372593493],[-121.033062123913,50.4735596077245],[-121.032948849019,50.4734250659628],[-121.032823880322,50.4732205121556],[-121.032607051886,50.47281455014],[-121.032253560952,50.4722086179043],[-121.032488564092,50.4721557718416],[-121.032431503977,50.4722052925568],[-121.032904046262,50.4730484928291],[-121.033043244764,50.4733092180465],[-121.033251056294,50.4735465759573],[-121.033744027509,50.4739612557757],[-121.034099068224,50.4742707827143],[-121.034204453325,50.4743940901939],[-121.034257145875,50.4744613161375],[-121.034264190334,50.4745924426774],[-121.03423925295,50.4746784523407],[-121.03418472884,50.4747912445323],[-121.034087233533,50.4748754567104],[-121.033974381306,50.4749372901987],[-121.033791788938,50.4750157504244],[-121.033532271082,50.4750640129],[-121.033264299876,50.4750676977446],[-121.033072690601,50.4750259062154],[-121.03280894607,50.4749161697485],[-121.032658194655,50.4748347436723],[-121.032496594774,50.4747049652463],[-121.032146062513,50.4744126941649],[-121.031800743151,50.4745586499571]]]}},{"type":"Feature","id":"883053336","properties":{"name":"iSP_22kph_%TR_Brake_Temp_CTRL_NOREMOVE","oid":"883053336","speedLimit":6.111111},"geometry":{"type":"Polygon","coordinates":[[[-121.032467289827,50.4721448970566],[-121.032252433838,50.4722251547675],[-121.031489800747,50.4710079877149],[-121.030817900283,50.4699230256933],[-121.030662640415,50.469659873871],[-121.030597831395,50.4694573871716],[-121.030551478858,50.4692564283346],[-121.030597831395,50.4689726054333],[-121.030724068094,50.4686239831933],[-121.030885808864,50.4683752112519],[-121.031090239054,50.4680974998001],[-121.031689581594,50.4675362350697],[-121.032433476425,50.4668933645147],[-121.032789785143,50.4665558866824],[-121.033148911644,50.4662220936946],[-121.033485777655,50.4658704157299],[-121.033780799583,50.4660338071278],[-121.03358876764,50.4659930042154],[-121.032920671184,50.4666517825138],[-121.032555909116,50.466990967957],[-121.032179875915,50.4673074152133],[-121.031775664878,50.4676680806036],[-121.031383288533,50.4680341384494],[-121.031148426282,50.4682860559897],[-121.031010073114,50.468469579221],[-121.030906378683,50.4686541809434],[-121.030829875863,50.4688527131755],[-121.03076901174,50.469190999876],[-121.030777746869,50.4694003170189],[-121.030874960398,50.4696300356179],[-121.031028952264,50.4699347992209],[-121.031331863985,50.4704034934673],[-121.03153192661,50.4707106836752],[-121.03175157283,50.4710825833476],[-121.032147330516,50.4717285096274],[-121.032382615434,50.4721448071824],[-121.032467289827,50.4721448970566]]]}},{"type":"Feature","id":"883059532","properties":{"name":"iSP_22kph_%TR_Brake_CTRL_NOREMOVE","oid":"883059532","speedLimit":6.111111},"geometry":{"type":"Polygon","coordinates":[[[-121.027263548237,50.4773216542174],[-121.02703136288,50.4772094911455],[-121.027335824382,50.4769437329698],[-121.027717774929,50.4766321389233],[-121.028034493789,50.4763224322362],[-121.028191726106,50.4761684776353],[-121.028622565196,50.4756920542028],[-121.028908570216,50.4753254571115],[-121.029265160712,50.4748873201122],[-121.029473958466,50.4746564331479],[-121.029692759351,50.4745401358603],[-121.029802793795,50.4744879189174],[-121.029953545209,50.4745923528032],[-121.02978997288,50.4745417535969],[-121.029557364856,50.4747912445323],[-121.029253185132,50.4751727607501],[-121.029074255883,50.4754777041016],[-121.028854468774,50.4757744688958],[-121.028697377346,50.475974439116],[-121.028410245213,50.4762703051676],[-121.02804294714,50.4765696763152],[-121.027245232644,50.477219107691],[-121.027263548237,50.4773216542174]]]}},{"type":"Feature","id":"903864124","properties":{"name":"SP_20KPH_%TR_OLD_GARBAGEDUMP_AUG_8_NS","oid":"903864124","speedLimit":5.5555553},"geometry":{"type":"Polygon","coordinates":[[[-121.04258623198,50.467001842742],[-121.04213341418,50.4673284457892],[-121.040895139242,50.4666611294365],[-121.040724804232,50.4661226927672],[-121.042265427335,50.4668259588225],[-121.04258623198,50.467001842742]]]}},{"type":"Feature","id":"908328496","properties":{"name":"SP_12KPH_%TR_9019_SOFT_GROUND_AUG_8_NS","oid":"908328496","speedLimit":3.3333333},"geometry":{"type":"Polygon","coordinates":[[[-121.039001306984,50.4644886889141],[-121.039305768486,50.4646767058582],[-121.039205314506,50.4648764064556],[-121.039036811055,50.4652630455061],[-121.038207537386,50.46631026034],[-121.039020467911,50.466582759085],[-121.038806316369,50.4672574451268],[-121.038345045218,50.4677598422193],[-121.036114628727,50.4667425555127],[-121.037882787843,50.4651396481522],[-121.03852186113,50.464814123596],[-121.039001306984,50.4644886889141]]]}},{"type":"Feature","id":"910445950","properties":{"name":"SP_30KPH_%TR_1635_FLATS_AUG_8_NS","oid":"910445950","speedLimit":8.333333},"geometry":{"type":"Polygon","coordinates":[[[-121.020226979401,50.4571638471544],[-121.019045905467,50.456961000958],[-121.018652261119,50.4569223550278],[-121.017455971154,50.4572314325951],[-121.01809194488,50.4544687878319],[-121.018773284918,50.4538988951729],[-121.018939956809,50.4535125257452],[-121.019560714504,50.4545171401817],[-121.020226979401,50.4571445241893],[-121.02021190426,50.4571445241893],[-121.020226979401,50.4571638471544]]]}},{"type":"Feature","id":"915576987","properties":{"name":"iSP_15kph_prevent shifting","oid":"915576987","speedLimit":4.1666665},"geometry":{"type":"Polygon","coordinates":[[[-121.036999412731,50.4448631171967],[-121.037513517321,50.4453130277236],[-121.037982819155,50.4457954727312],[-121.038526792251,50.4462187804782],[-121.039459478573,50.4468498775057],[-121.039916804827,50.4470996380638],[-121.040472753502,50.4471949946497],[-121.041225947019,50.4473227059679],[-121.041644387862,50.4475095545467],[-121.042322910117,50.448094995452],[-121.04270556511,50.4485277399959],[-121.042848990287,50.4487947564112],[-121.043010449279,50.4493915214728],[-121.043189660307,50.4501980530485],[-121.043327168139,50.4505011989149],[-121.043688830645,50.4511686051419],[-121.043859306544,50.4514889169912],[-121.044128263975,50.4522534772892],[-121.044385386715,50.4529380494992],[-121.044699146902,50.4537979663831],[-121.044738032314,50.454194581476],[-121.044573614649,50.4550716643429],[-121.044218010377,50.4568391314665],[-121.044053592713,50.4572071665459],[-121.043007349717,50.4583988093097],[-121.041907427947,50.4595371566396],[-121.041345561927,50.4600004584306],[-121.040374131082,50.4605973133664],[-121.039925680845,50.460730776637],[-121.03913656059,50.4608069900063],[-121.038945373982,50.4608051026469],[-121.039002152319,50.4612932097327],[-121.039061889328,50.4609271518869],[-121.039880878088,50.4608795185311],[-121.040708883756,50.4606316453323],[-121.041512938264,50.4600577083318],[-121.042875900119,50.4587000678167],[-121.04424477932,50.4571422773329],[-121.044430189471,50.4562899997608],[-121.044815803137,50.4544214240988],[-121.044812703575,50.4537864624783],[-121.044262813134,50.4523012005193],[-121.043835355385,50.4511857711248],[-121.043348160626,50.4503372682715],[-121.043052293363,50.4493095561511],[-121.042929719783,50.4486917605135],[-121.042242180621,50.4478871162972],[-121.041548724114,50.4473913698997],[-121.041094356532,50.4472216873038],[-121.040460777923,50.447130195311],[-121.0399197635,50.4470195601015],[-121.038822800402,50.4463331904064],[-121.038198097811,50.4458716861005],[-121.037154954377,50.4449068859596],[-121.037379109051,50.4446972093197],[-121.036999412731,50.4448631171967]]]}},{"type":"Feature","id":"917291012","properties":{"name":"SP_15KPH_%TR_CORNER_RUTS_AUG_8_NS","oid":"917291012","speedLimit":4.1666665},"geometry":{"type":"Polygon","coordinates":[[[-121.040556300782,50.4664418362512],[-121.040365255064,50.466312686945],[-121.040275226882,50.4660940228795],[-121.040331441662,50.4660007334015],[-121.039808601943,50.465975658484],[-121.040089675842,50.4660437831702],[-121.040095311409,50.466309181849],[-121.040230283236,50.4665135559077],[-121.040539394081,50.4666462103099],[-121.040713673988,50.4667251199069],[-121.04082046798,50.466581680594],[-121.040545029648,50.466438241281],[-121.040556300782,50.4664418362512]]]}},{"type":"Feature","id":"917665392","properties":{"name":"SP_15KPH_22SH RUTS_AUG 8_NS","oid":"917665392","speedLimit":4.1666665},"geometry":{"type":"Polygon","coordinates":[[[-121.035648990011,50.4455194688902],[-121.03521674203,50.445207605221],[-121.034708132117,50.4452030216339],[-121.035038517226,50.4456320813333],[-121.035587562332,50.4459565273984],[-121.036007834734,50.4464643169463],[-121.036510386412,50.4462079056932],[-121.035648990011,50.4455194688902]]]}},{"type":"Feature","id":"917773475","properties":{"name":"SP_15KPH_%TR_1200_CORNER_AUG_8_NS","oid":"917773475","speedLimit":4.1666665},"geometry":{"type":"Polygon","coordinates":[[[-121.037100289378,50.4446823800674],[-121.036926150361,50.4448619488314],[-121.036630564877,50.444820426925],[-121.036415990667,50.4448697678917],[-121.036324412705,50.4449674612083],[-121.036255799678,50.4450819610107],[-121.03624354232,50.4451447831159],[-121.036264675695,50.4452671019786],[-121.036317368246,50.4453513141568],[-121.03618549598,50.4453950829196],[-121.036090395789,50.4451941240826],[-121.036164362605,50.4449315115058],[-121.036261153466,50.4447912177917],[-121.036517994428,50.4447149145482],[-121.03671509838,50.4447115892007],[-121.036924459691,50.444769917593],[-121.037095076479,50.4446834585585],[-121.037100289378,50.4446823800674]]]}},{"type":"Feature","id":"918675861","properties":{"name":"SP_15KPH_SINGLE_LANE_24AMT","oid":"918675861","speedLimit":4.1666665},"geometry":{"type":"Polygon","coordinates":[[[-121.053875117824,50.4687440551996],[-121.053218996947,50.4689550799533],[-121.05359643904,50.4699846794331],[-121.053404829766,50.4691032826019],[-121.053892447192,50.4689699092056],[-121.053886670736,50.4687107118506],[-121.053875117824,50.4687440551996]]]}}]}