{"type":"FeatureCollection","features":[{"type":"Feature","id":"702602533","properties":{"name":"iSP_4KPH_%TR_CR01_SLOW BUMP","oid":"702602533","speedLimit":1.1111112},"geometry":{"type":"Polygon","coordinates":[[[-121.033359124152,50.4648088451979],[-121.033653870376,50.4646918249794],[-121.033697265135,50.4647325393872],[-121.033369409274,50.4648706807665],[-121.033359124152,50.4648088451979]]]}},{"type":"Feature","id":"707947583","properties":{"name":"iSP_22KPH_%TR_Permission Gate 1 from west dump_Jun","oid":"707947583","speedLimit":6.111111},"geometry":{"type":"Polygon","coordinates":[[[-121.038628769592,50.461978879283],[-121.038855464943,50.461800383005],[-121.037981229609,50.4613518953779],[-121.037744108245,50.4615431542297],[-121.03796023669,50.4614974066942],[-121.038667233129,50.461846939436],[-121.038628769592,50.461978879283]]]}},{"type":"Feature","id":"742345972","properties":{"name":"iSP_4KPH_%TR_CR01_PITSIDE_SLOW BUMP","oid":"742345972","speedLimit":1.1111112},"geometry":{"type":"Polygon","coordinates":[[[-121.03339899661,50.4648838028494],[-121.033706282228,50.4647453019609],[-121.033756439807,50.4647773881499],[-121.033474937439,50.464919304375],[-121.03339899661,50.4648838028494]]]}},{"type":"Feature","id":"776427243","properties":{"name":"iSP_7KPH_%TR_CR1_PermissionBlocker_DO_NOT_DELETE","oid":"776427243","speedLimit":1.9444444},"geometry":{"type":"Polygon","coordinates":[[[-121.034100216474,50.4652138322215],[-121.0340517496,50.4652341444868],[-121.034030615788,50.4652755779128],[-121.03411627817,50.465226504918],[-121.034100216474,50.4652138322215]]]}},{"type":"Feature","id":"794004438","properties":{"name":"iSP_11KPH_%TR_LOWER_FUEL_BAY","oid":"794004438","speedLimit":3.0555556},"geometry":{"type":"Polygon","coordinates":[[[-121.036777025032,50.4606963304977],[-121.036779138414,50.4607261697546],[-121.036749410186,50.460671704123],[-121.037125592029,50.4605999820535],[-121.037535587972,50.4605569308364],[-121.037543337036,50.4605822762294],[-121.036944827495,50.4606511222259],[-121.036777025032,50.4606963304977]]]}},{"type":"Feature","id":"801543391","properties":{"name":"iSP_4KPH_%TR_CR1_PermissionBlocker_DO_NOT_DELETE_","oid":"801543391","speedLimit":1.1111112},"geometry":{"type":"Polygon","coordinates":[[[-121.033155675994,50.4645242937295],[-121.033154830641,50.4644748612255],[-121.033176387129,50.4644327986584],[-121.033108336256,50.4644603909834],[-121.033155675994,50.4645242937295]]]}},{"type":"Feature","id":"806473874","properties":{"name":"iSP_4KPH_%TR_Permission Blocker - DO NOT DELETE","oid":"806473874","speedLimit":1.1111112},"geometry":{"type":"Polygon","coordinates":[[[-121.022719518114,50.4815466011719],[-121.022686408476,50.4815442643626],[-121.022678800304,50.4815729352149],[-121.02270092036,50.4815740137423],[-121.02270500623,50.4815499266313],[-121.022719518114,50.4815466011719]]]}},{"type":"Feature","id":"824566967","properties":{"name":"iSP_4Cr_3KPH","oid":"824566967","speedLimit":0.8333333},"geometry":{"type":"Polygon","coordinates":[[[-121.023302388634,50.4810697123243],[-121.023282241067,50.4810697123243],[-121.023279564117,50.4811878110702],[-121.023304642907,50.481187092052],[-121.023302388634,50.4810697123243]]]}},{"type":"Feature","id":"826307302","properties":{"name":"iSP_4KPH_TR%_CRUSHER POCKETS","oid":"826307302","speedLimit":1.1111112},"geometry":{"type":"Polygon","coordinates":[[[-121.023297598303,50.481322896622],[-121.023337048085,50.481478564071],[-121.023541764272,50.481439107945],[-121.023460751328,50.4811902377568],[-121.02305244609,50.481190956775],[-121.023057799989,50.4813616337297],[-121.023282663743,50.4813276601179],[-121.023297598303,50.481322896622]]]}},{"type":"Feature","id":"849417440","properties":{"name":"iSP_Permissions_35_KPH_June_19_NS","oid":"849417440","speedLimit":9.722222},"geometry":{"type":"Polygon","coordinates":[[[-121.032695663365,50.466035130806],[-121.033010275371,50.4660158071908],[-121.033217245831,50.46581493147],[-121.033806033818,50.4653804646986],[-121.033726852471,50.4652516705564],[-121.033962987591,50.465401136473],[-121.033426752349,50.4658094489559],[-121.033024364579,50.4661890007093],[-121.032695663365,50.466035130806]]]}},{"type":"Feature","id":"853029148","properties":{"name":"SP_15KPH_%TR_1635 Flats_AUG_21_DS","oid":"853029148","speedLimit":4.1666665},"geometry":{"type":"Polygon","coordinates":[[[-121.018589971356,50.4569716362606],[-121.017426202805,50.4572816229993],[-121.015788614202,50.4579437489209],[-121.014824489723,50.4590972339322],[-121.018349045905,50.4588938416476],[-121.020692222027,50.4589879431598],[-121.02024052203,50.4572324601271],[-121.019422784419,50.457097284698],[-121.018968548365,50.4570006666221],[-121.018589971356,50.4569716362606]]]}},{"type":"Feature","id":"883050998","properties":{"name":"iSP_22kph_%TR_4CR_Brake_Temp_CTRL_NOREMOVE","oid":"883050998","speedLimit":6.111111},"geometry":{"type":"Polygon","coordinates":[[[-121.031799307975,50.4745602604442],[-121.032188592782,50.474313637188],[-121.032490242717,50.4745759889682],[-121.032791892653,50.4748033784866],[-121.032969698453,50.4748857959523],[-121.03317850051,50.4749359474746],[-121.033462398044,50.4749607536038],[-121.033666268879,50.4749231849008],[-121.033827449414,50.4748637760187],[-121.033918606587,50.4748117370736],[-121.034007932164,50.4747485533458],[-121.034058371527,50.4746593950841],[-121.034052594952,50.4745492055388],[-121.034056399038,50.4744848534063],[-121.033994265632,50.4743808653934],[-121.033875916288,50.4742607893473],[-121.033509033321,50.4739388489304],[-121.033060714734,50.4735611845999],[-121.032947437505,50.4734266383118],[-121.032822466233,50.4732220776226],[-121.032605633328,50.4728161019489],[-121.032252135108,50.4722101493272],[-121.032487143092,50.4721573014866],[-121.032430081801,50.4722068238679],[-121.032902633825,50.4730500525087],[-121.033041835196,50.4733107864979],[-121.033249651009,50.4735481523943],[-121.033742632384,50.4739628461642],[-121.034097680416,50.4742723835164],[-121.03420306769,50.4743956951446],[-121.034255761326,50.47446292335],[-121.03426280593,50.4745940543015],[-121.034237868032,50.4746800668585],[-121.034183342799,50.4747928628448],[-121.034085845482,50.4748770778562],[-121.033972990929,50.4749389134248],[-121.033790394798,50.4750173762902],[-121.033530871593,50.4750656403896],[-121.033262894864,50.4750693253581],[-121.03307128164,50.4750275324229],[-121.032807531673,50.474917792264],[-121.032656777151,50.4748363634483],[-121.03249517394,50.474706580656],[-121.032144634454,50.4744142997415],[-121.031799307975,50.4745602604442]]]}},{"type":"Feature","id":"883053336","properties":{"name":"iSP_22kph_%TR_Brake_Temp_CTRL_NOREMOVE","oid":"883053336","speedLimit":6.111111},"geometry":{"type":"Polygon","coordinates":[[[-121.032465868388,50.4721464263357],[-121.032251007972,50.4722266867468],[-121.031488359162,50.4710094787439],[-121.03081644485,50.46992448022],[-121.030661181782,50.4696613195442],[-121.030596371427,50.4694588260324],[-121.030550017934,50.4692578604343],[-121.030596371427,50.4689740279842],[-121.030722610727,50.4686253940151],[-121.030884354831,50.4683766137041],[-121.031088789234,50.468098892909],[-121.031688144127,50.4675376092955],[-121.03243205429,50.4668947171117],[-121.032788370351,50.4665572279254],[-121.033147504253,50.4662234237075],[-121.033484377208,50.465871733911],[-121.033779405216,50.466035130806],[-121.033587369316,50.4659943265209],[-121.03291925909,50.4666531269831],[-121.032554489504,50.4669923238378],[-121.032178448552,50.4673087817406],[-121.031774229185,50.4676694592652],[-121.031381844753,50.4680355294266],[-121.031146977661,50.4682874554424],[-121.031008621642,50.4684709848481],[-121.030904925074,50.4686555927812],[-121.030828420677,50.4688541316927],[-121.0307675553,50.4691924297745],[-121.030776290608,50.4694017539596],[-121.030873506141,50.4696314802872],[-121.03102750118,50.4699362541437],[-121.031330419145,50.4704049641588],[-121.031530485893,50.4707121647018],[-121.03175013664,50.4710840768863],[-121.032145902483,50.4717300248976],[-121.03238119225,50.4721463364584],[-121.032465868388,50.4721464263357]]]}},{"type":"Feature","id":"883059532","properties":{"name":"iSP_22kph_%TR_Brake_CTRL_NOREMOVE","oid":"883059532","speedLimit":6.111111},"geometry":{"type":"Polygon","coordinates":[[[-121.027262019548,50.4773233576628],[-121.027029829406,50.4772111908173],[-121.027334297183,50.4769454237004],[-121.027716255602,50.4766338191707],[-121.02803298099,50.4763241020639],[-121.028190216547,50.4761701422833],[-121.028621064516,50.4756937028221],[-121.028907075431,50.4753270933971],[-121.029263673277,50.4748889416571],[-121.029472475334,50.4746580469249],[-121.029691280728,50.4745417457246],[-121.02980131744,50.4744895270249],[-121.029952071962,50.4745939644242],[-121.029788496261,50.4745433635156],[-121.029555883443,50.4747928628448],[-121.02925169745,50.4751743918984],[-121.029072764513,50.4754793455094],[-121.028852972874,50.4757761202879],[-121.028695878209,50.4759760972358],[-121.028408740157,50.4762719732415],[-121.028041434514,50.4765713544611],[-121.027243703578,50.4772208076863],[-121.027262019548,50.4773233576628]]]}},{"type":"Feature","id":"891249991","properties":{"name":"SP_40KPH_TR%_1590 #1_AUG_21_DS","oid":"891249991","speedLimit":11.111111},"geometry":{"type":"Polygon","coordinates":[[[-121.012956542575,50.4498612648866],[-121.013432194225,50.4498233366744],[-121.01254231987,50.4443343514313],[-121.012138382287,50.4430841584667],[-121.011299088189,50.441910630822],[-121.010529253883,50.4421500638958],[-121.011008286943,50.4427020002722],[-121.011240336193,50.4430302320987],[-121.01145590107,50.4435203329065],[-121.011773894486,50.4445110501637],[-121.012956542575,50.4498612648866]]]}},{"type":"Feature","id":"908328496","properties":{"name":"SP_15KPH_%TR_9019_SOFT_GROUND_AUG_21_DS","oid":"908328496","speedLimit":4.1666665},"geometry":{"type":"Polygon","coordinates":[[[-121.039688841575,50.463977480358],[-121.039874396439,50.4641979493258],[-121.03973871737,50.4650145742918],[-121.03944016706,50.4657763741169],[-121.039205581753,50.4663544647818],[-121.038928447038,50.466980190405],[-121.037872883602,50.4685922292988],[-121.036177529248,50.4681977579169],[-121.035228621113,50.4668169732646],[-121.037881478019,50.4651409417474],[-121.038520564477,50.4648154062393],[-121.039688841575,50.463977480358]]]}},{"type":"Feature","id":"910445950","properties":{"name":"SP_20KPH_%TR_1635_FLATS_AUG_21_DS","oid":"910445950","speedLimit":5.5555553},"geometry":{"type":"Polygon","coordinates":[[[-121.020225305686,50.4571648724126],[-121.01904420741,50.4569620193917],[-121.018650554949,50.4569233721613],[-121.017842538891,50.4571477058521],[-121.018448515711,50.4564132287201],[-121.018503040945,50.4555087037743],[-121.019218068232,50.4555087037743],[-121.01923624331,50.4564596053966],[-121.019424052448,50.4568926341315],[-121.019757403101,50.4570626819452],[-121.020225305686,50.4571648724126]]]}},{"type":"Feature","id":"913788494","properties":{"name":"SP_15KPH_%TR_ROUGH_21SH_AUG_21_DS","oid":"913788494","speedLimit":4.1666665},"geometry":{"type":"Polygon","coordinates":[[[-121.041137775688,50.4531508632112],[-121.041191173785,50.454274329211],[-121.040909812308,50.455133645885],[-121.040261286081,50.456069717756],[-121.03838840771,50.4571908469465],[-121.038035473058,50.456499870418],[-121.039631780284,50.4559003889605],[-121.040319756292,50.4550790004987],[-121.040546028967,50.4542445798314],[-121.04054349291,50.4531386399012],[-121.041137775688,50.4531508632112]]]}},{"type":"Feature","id":"917291012","properties":{"name":"SP_15KPH_%TR_CORNER_RUTS_AUG_21_DS","oid":"917291012","speedLimit":4.1666665},"geometry":{"type":"Polygon","coordinates":[[[-121.040610416646,50.4662224350575],[-121.04068466677,50.4661082909119],[-121.0404227484,50.46592727807],[-121.040529403702,50.4656664542035],[-121.040026137205,50.4656489281339],[-121.040219582026,50.4657718802529],[-121.040016838328,50.4663115933192],[-121.039933852895,50.4664869438925],[-121.039995000056,50.4668211076194],[-121.040667196153,50.4667403079447],[-121.040549269485,50.4666233776035],[-121.040531798867,50.4663783721382],[-121.040610416646,50.4662224350575]]]}},{"type":"Feature","id":"920440343","properties":{"name":"iSP_17KPH_CAL_PAD_ROAD_LIMIT_AUG_21_DS","oid":"920440343","speedLimit":4.7222223},"geometry":{"type":"Polygon","coordinates":[[[-121.00595491084,50.4378310112062],[-121.005968577372,50.4376133284341],[-121.005586337168,50.4375785459268],[-121.005286096154,50.4376829833261],[-121.005190571326,50.4378353253157],[-121.005286096154,50.4381618494739],[-121.005989006723,50.4392589814306],[-121.007469923337,50.441370378492],[-121.007674639524,50.4416489980599],[-121.007783830883,50.4421540184962],[-121.007934021837,50.4426633530418],[-121.008118308673,50.4432336243833],[-121.00832302486,50.4436515537352],[-121.00868469482,50.4445614713178],[-121.008759790296,50.4449227779833],[-121.008759790296,50.4451796472495],[-121.008691598531,50.4456193269032],[-121.008493645164,50.4462287847388],[-121.008944077132,50.4462157525332],[-121.009135126788,50.445732572276],[-121.009319413624,50.4449184638739],[-121.009216985084,50.4444526299317],[-121.008998602366,50.4437995816154],[-121.008773456828,50.443377338154],[-121.008459549282,50.4427373220433],[-121.008295691797,50.442075645508],[-121.008241166563,50.4417448072404],[-121.007920355305,50.4411961963234],[-121.006814775182,50.4398335668816],[-121.006603296176,50.4394940105178],[-121.006227959684,50.4387800254056],[-121.005989006723,50.4383882503422],[-121.005934481489,50.4380574120745],[-121.00595491084,50.4378310112062]]]}},{"type":"Feature","id":"921284584","properties":{"name":"SP_22kph_rough ground_AUG 21_DS","oid":"921284584","speedLimit":6.111111},"geometry":{"type":"Polygon","coordinates":[[[-121.039984996719,50.4678269242597],[-121.040544479154,50.4679711772941],[-121.040343707945,50.4682553692534],[-121.039116397068,50.4697896643],[-121.039354082001,50.4704381288751],[-121.039939347686,50.4707946720448],[-121.039580495568,50.4711147250388],[-121.038663147259,50.4705588340621],[-121.038403483162,50.4695229984103],[-121.039984996719,50.4678269242597]]]}},{"type":"Feature","id":"921727643","properties":{"name":"SP_35KPH_%TR_ HIGHMONT TRIAL_Aug 21_DS","oid":"921727643","speedLimit":9.722222},"geometry":{"type":"Polygon","coordinates":[[[-121.012708995197,50.4365928617972],[-121.010156171665,50.4366191958402],[-121.007266475179,50.4370213067909],[-121.006148073877,50.4371703233211],[-121.005263271637,50.4370780193546],[-121.004923862625,50.436854404682],[-121.005302298742,50.4361090523991],[-121.005969986292,50.4354594194193],[-121.006754614266,50.4347246726555],[-121.007316632758,50.4339047222302],[-121.007674216848,50.433051427334],[-121.007912042673,50.4323925369945],[-121.00790640699,50.4319204116427],[-121.00779510225,50.4313844734222],[-121.007511345608,50.431004652037],[-121.00698835422,50.4305645229969],[-121.005753012495,50.4297835793111],[-121.004890471203,50.4292688521286],[-121.004117114596,50.4288926258346],[-121.003316143142,50.4284986937165],[-121.003470138182,50.4283232532659],[-121.003115231041,50.4285317685555],[-121.004389318088,50.4291670211704],[-121.005350483833,50.4296954096994],[-121.006573990624,50.4304920819092],[-121.007130373433,50.4309176508299],[-121.007500356026,50.4313875292497],[-121.007671117222,50.4318534530691],[-121.007636316879,50.432537149538],[-121.007399195515,50.4332026907962],[-121.007172641056,50.4338689510727],[-121.006590193212,50.4345641518334],[-121.006158077214,50.4350396026445],[-121.005744699862,50.4354071108424],[-121.005112094439,50.4360624060907],[-121.004792692102,50.4366457096378],[-121.004711256482,50.4369333169338],[-121.004892866369,50.4370851196597],[-121.005450376315,50.4372769177752],[-121.00628333027,50.4372649640969],[-121.007586018408,50.4371450678054],[-121.008819810321,50.4369813114013],[-121.009458614995,50.436881367866],[-121.011036888034,50.4367895132858],[-121.012887364565,50.4367965237136],[-121.012878065688,50.436419129015],[-121.012708995197,50.4365928617972]]]}},{"type":"Feature","id":"922262468","properties":{"name":"SPD_20kph_HMT_DUMP_AUG_21_DS","oid":"922262468","speedLimit":5.5555553},"geometry":{"type":"Polygon","coordinates":[[[-121.012501179384,50.4364266787065],[-121.012481313601,50.4374173959638],[-121.016363735657,50.4384080233438],[-121.017180064348,50.4369601003632],[-121.016523084596,50.4359059297463],[-121.014770950734,50.4353089648526],[-121.012899481284,50.4352074035263],[-121.012501179384,50.4364266787065]]]}},{"type":"Feature","id":"922385545","properties":{"name":"SP_20KPH_RUTS_AUG 21_DS","oid":"922385545","speedLimit":5.5555553},"geometry":{"type":"Polygon","coordinates":[[[-121.007511345608,50.4337193054016],[-121.006869863984,50.433525889495],[-121.006518479146,50.4340724332346],[-121.007225757369,50.4343190564909],[-121.007511345608,50.4337193054016]]]}},{"type":"Feature","id":"923351007","properties":{"name":"iSP_17KPH_PERMISSIONS_AUG 18_NS","oid":"923351007","speedLimit":4.7222223},"geometry":{"type":"Polygon","coordinates":[[[-121.038853774238,50.4608781522351],[-121.038873217345,50.4611357405195],[-121.038783891768,50.4608904654224],[-121.038539162231,50.4608904654224],[-121.038535358145,50.4608310565404],[-121.038880966409,50.4608235967261],[-121.038853774238,50.4608781522351]]]}},{"type":"Feature","id":"923607825","properties":{"name":"MRK_CROSS DITCH ","oid":"923607825","speedLimit":2.7777777},"geometry":{"type":"Polygon","coordinates":[[[-121.035185789922,50.4458458176488],[-121.03561720146,50.4454864882834],[-121.035586768771,50.4454718382868],[-121.03513746394,50.4458270332972],[-121.035185789922,50.4458458176488]]]}},{"type":"Feature","id":"924222108","properties":{"name":"sp_11kph_rough ground _AUG 21_DS","oid":"924222108","speedLimit":3.0555556},"geometry":{"type":"Polygon","coordinates":[[[-121.03947412205,50.4712569108957],[-121.039829451867,50.4714080844807],[-121.040184922575,50.4716231608117],[-121.040663532959,50.4714386427559],[-121.0397808441,50.4709837738419],[-121.039644178786,50.4710728422263],[-121.03947412205,50.4712569108957]]]}},{"type":"Feature","id":"924266047","properties":{"name":"SP_7KPH_CROSS DITCH_AUG_21 NS ","oid":"924266047","speedLimit":1.9444444},"geometry":{"type":"Polygon","coordinates":[[[-121.037615896455,50.4473127946126],[-121.037893876522,50.4474719672755],[-121.037657459618,50.4477512159844],[-121.037462746768,50.4476925261206],[-121.037267893027,50.447513850088],[-121.037615896455,50.4473127946126]]]}}]}