{"type":"FeatureCollection","features":[{"type":"Feature","id":"702602533","properties":{"name":"iSP_4KPH_%TR_CR01_Slow Bump","oid":"702602533","speedLimit":1.1111112},"geometry":{"type":"Polygon","coordinates":[[[-121.033360447152,50.4648076744822],[-121.033655191915,50.4646906578279],[-121.033698586459,50.4647313709956],[-121.033370732222,50.4648695081675],[-121.033360447152,50.4648076744822]]]}},{"type":"Feature","id":"707947583","properties":{"name":"iSP_25KPH_%TR_Permission Gate 1 From West Dump","oid":"707947583","speedLimit":6.9444447},"geometry":{"type":"Polygon","coordinates":[[[-121.038630066477,50.4619777947618],[-121.038856760704,50.4617993039203],[-121.03814173696,50.4614080800367],[-121.037994082796,50.4616707833245],[-121.038193584987,50.4615667086043],[-121.038668529823,50.4618458589334],[-121.038630066477,50.4619777947618]]]}},{"type":"Feature","id":"742345972","properties":{"name":"iSP_4KPH_%TR_CR01_Pit Side_Slow Bump","oid":"742345972","speedLimit":1.1111112},"geometry":{"type":"Polygon","coordinates":[[[-121.033400319412,50.4648826298507],[-121.033707603507,50.4647441331807],[-121.033757760838,50.4647762183923],[-121.033476259864,50.464918130295],[-121.033400319412,50.4648826298507]]]}},{"type":"Feature","id":"776427243","properties":{"name":"iSP_7KPH_%TR_CR1_PermissionBlocker","oid":"776427243","speedLimit":1.9444444},"geometry":{"type":"Polygon","coordinates":[[[-121.034101535801,50.4652126491708],[-121.034053069167,50.4652329608174],[-121.03403193546,50.4652743929816],[-121.034117597418,50.4652253214813],[-121.034101535801,50.4652126491708]]]}},{"type":"Feature","id":"776901904","properties":{"name":"SP_35KPH_80%TR_1CR-Connector Parking_SPET_15_DS","oid":"776901904","speedLimit":9.722222},"geometry":{"type":"Polygon","coordinates":[[[-121.034268351192,50.4656276898082],[-121.034012210667,50.4654802056839],[-121.033532757307,50.4658615433679],[-121.032601606189,50.4667552558187],[-121.031096040922,50.4680969029895],[-121.030852298838,50.4684461554618],[-121.030628563329,50.4688678468153],[-121.030555158921,50.4691724316399],[-121.030575165497,50.4694257879753],[-121.030722115204,50.4697751303221],[-121.031706945938,50.4713531475397],[-121.032177664032,50.4721559968281],[-121.032768562472,50.4731228671565],[-121.033374113615,50.4730054011295],[-121.032899732345,50.4730089062366],[-121.031025877016,50.4699118295012],[-121.030745925847,50.4693078725755],[-121.03077382234,50.4689801001189],[-121.031220870683,50.4681719482325],[-121.032721786534,50.4668936626142],[-121.033525994521,50.4660554027561],[-121.034092941427,50.4655821234152],[-121.034268351192,50.4656276898082]]]}},{"type":"Feature","id":"776902235","properties":{"name":"SP_35KPH_80%TR_1cr-4cr sec2_SEPT_15_DS","oid":"776902235","speedLimit":9.722222},"geometry":{"type":"Polygon","coordinates":[[[-121.033393133951,50.4730313748722],[-121.032872117635,50.4731801172401],[-121.033048795423,50.4735341330631],[-121.033925421578,50.4743025604017],[-121.034054900754,50.4744917463137],[-121.034061945323,50.474664575059],[-121.033837082684,50.4749139769145],[-121.033427088773,50.4749662838982],[-121.033187573431,50.4749421975209],[-121.032695580738,50.4747571458378],[-121.032336166832,50.4744795233759],[-121.032083830374,50.4742622966067],[-121.031900953365,50.4741094200098],[-121.031630301028,50.4739599586456],[-121.031247780936,50.473918616356],[-121.030843140898,50.4739704739671],[-121.030409477236,50.4740617865023],[-121.030503592677,50.4742758676626],[-121.030540365327,50.4741270354202],[-121.030908655389,50.4740591801406],[-121.03124200439,50.4740218822054],[-121.031521532884,50.4740406659848],[-121.031856854364,50.4742320987604],[-121.032418870071,50.4746882120637],[-121.032798572336,50.474975361227],[-121.033269431321,50.4751071173064],[-121.033782275938,50.4750934563759],[-121.034190297369,50.4749703282527],[-121.034410933267,50.4746806626021],[-121.034328934485,50.4743628662197],[-121.03382440246,50.4739001920748],[-121.033062320995,50.4732821248459],[-121.033227727473,50.4731567498591],[-121.033310430712,50.4730941073029],[-121.033351711886,50.4730627410876],[-121.033393133951,50.4730313748722]]]}},{"type":"Feature","id":"776902464","properties":{"name":"SP_35KPH_80%TR_SkyWay-4CR_SEPT_15_DS","oid":"776902464","speedLimit":9.722222},"geometry":{"type":"Polygon","coordinates":[[[-121.029521579771,50.4752291669351],[-121.029200488321,50.4750682016295],[-121.02851237483,50.4759388163229],[-121.027003569061,50.4773120094581],[-121.027192786182,50.4773778874978],[-121.027135443391,50.477306527111],[-121.028523787031,50.476209518445],[-121.029229230162,50.4752840802806],[-121.029441412577,50.4752401316293],[-121.029521579771,50.4752291669351]]]}},{"type":"Feature","id":"794004438","properties":{"name":"iSP_11KPH_%TR_Lower_Fuel_Bay","oid":"794004438","speedLimit":3.0555556},"geometry":{"type":"Polygon","coordinates":[[[-121.036778331094,50.46069528504],[-121.036780444465,50.4607251233881],[-121.036750716384,50.4606706594153],[-121.037126896364,50.4605989395304],[-121.037536890274,50.4605558896245],[-121.0375446393,50.4605812342455],[-121.036946132725,50.4606500781451],[-121.036778331094,50.46069528504]]]}},{"type":"Feature","id":"801543391","properties":{"name":"iSP_4KPH_%TR_CR01_PermissionBlocker_2","oid":"801543391","speedLimit":1.1111112},"geometry":{"type":"Polygon","coordinates":[[[-121.033157000002,50.4645231316806],[-121.033156154653,50.4644737006822],[-121.033177711034,50.4644316393963],[-121.033109660498,50.4644592308809],[-121.033157000002,50.4645231316806]]]}},{"type":"Feature","id":"806473874","properties":{"name":"iSP_4KPH_%TR_CR04_PermissionBlocker","oid":"806473874","speedLimit":1.1111112},"geometry":{"type":"Polygon","coordinates":[[[-121.02272089384,50.4815449206619],[-121.022687784366,50.4815425839238],[-121.022680176231,50.4815712539029],[-121.022702296178,50.4815723323974],[-121.022706382028,50.48154824602],[-121.02272089384,50.4815449206619]]]}},{"type":"Feature","id":"824566967","properties":{"name":"iSP_3KPH_%TR_CR04","oid":"824566967","speedLimit":0.8333333},"geometry":{"type":"Polygon","coordinates":[[[-121.023303761471,50.4810680463393],[-121.023283614004,50.4810680463393],[-121.023280937068,50.4811861414882],[-121.023306015733,50.4811854224918],[-121.023303761471,50.4810680463393]]]}},{"type":"Feature","id":"826307302","properties":{"name":"iSP_4KPH_%TR_CR04_Pockets","oid":"826307302","speedLimit":1.1111112},"geometry":{"type":"Polygon","coordinates":[[[-121.023298971164,50.4813212229256],[-121.02333842075,50.4814768856332],[-121.023543135923,50.481437430709],[-121.02346212338,50.4811885681008],[-121.023053820166,50.4811892870971],[-121.023059174039,50.4813599588534],[-121.023284036678,50.4813259862763],[-121.023298971164,50.4813212229256]]]}},{"type":"Feature","id":"838667959","properties":{"name":"SP_35KPH_80%TR__SEPT_15_DS","oid":"838667959","speedLimit":9.722222},"geometry":{"type":"Polygon","coordinates":[[[-121.032607664518,50.4743664612014],[-121.033118959329,50.4747010641233],[-121.033458648442,50.4747157136737],[-121.033702249635,50.4746322202237],[-121.033732259499,50.474390907077],[-121.033634621773,50.4742807208879],[-121.033456675963,50.4743398583369],[-121.033708167073,50.4741899475999],[-121.033909500852,50.4743661017033],[-121.033984314174,50.4745826993508],[-121.033828910984,50.4747477988854],[-121.033552763883,50.4748432456495],[-121.033116000611,50.4748240124974],[-121.032767858015,50.4746578344683],[-121.032439440213,50.474364394087],[-121.032647254995,50.4742592408722],[-121.032607664518,50.4743664612014]]]}},{"type":"Feature","id":"853505792","properties":{"name":"SP_35KPH_80%TR_Skyway_SEPT_15_DS","oid":"853505792","speedLimit":9.722222},"geometry":{"type":"Polygon","coordinates":[[[-121.030413844869,50.4741010616774],[-121.029942985883,50.4742938425711],[-121.02975348698,50.4744883310811],[-121.029531442168,50.4747489672544],[-121.029209223586,50.4750623597842],[-121.029529047014,50.4752199997318],[-121.029424928286,50.4750076261878],[-121.029756445699,50.4745978881484],[-121.030150096209,50.4742768562825],[-121.030304090486,50.4742126858592],[-121.030496829891,50.4742769461571],[-121.030413844869,50.4741010616774]]]}},{"type":"Feature","id":"863534413","properties":{"name":"SP_35KPH_80%TRAC_1590_SEPT_15_NS","oid":"863534413","speedLimit":9.722222},"geometry":{"type":"Polygon","coordinates":[[[-121.012340439772,50.4562540446466],[-121.013046446468,50.4555688411344],[-121.013347108669,50.4553100024519],[-121.013390080539,50.4552184202931],[-121.012796786946,50.4550437041824],[-121.013142252605,50.4552072758498],[-121.011900435998,50.4565731891471],[-121.011628515638,50.4565411039354],[-121.012025688433,50.4566647713059],[-121.012340439772,50.4562540446466]]]}},{"type":"Feature","id":"883050998","properties":{"name":"iSP_22KPH_%TR_4CR_Brake_Temp_Ctrl","oid":"883050998","speedLimit":6.111111},"geometry":{"type":"Polygon","coordinates":[[[-121.031800638704,50.4745587927224],[-121.032189921582,50.4743121769778],[-121.032491570023,50.4745745207674],[-121.032793218463,50.47480190336],[-121.032971023382,50.4748843183155],[-121.033179824405,50.4749344683102],[-121.033463720532,50.4749592736839],[-121.033667590356,50.4749217061252],[-121.033828770093,50.4748622990525],[-121.033919926814,50.4748102616924],[-121.034009251948,50.474747079889],[-121.034059691061,50.4746579243428],[-121.034053914515,50.4745477381537],[-121.034057718582,50.4744833879813],[-121.033995585484,50.4743794031356],[-121.033877236727,50.4742593307468],[-121.033510355578,50.4739374001354],[-121.033062039213,50.4735597473077],[-121.032948762545,50.4734252051176],[-121.032823791892,50.4732206506588],[-121.032606960061,50.4728146873502],[-121.032253463594,50.4722087531845],[-121.032488470412,50.4721559069535],[-121.032431409404,50.4722054278265],[-121.032903959086,50.4730486307844],[-121.033043159768,50.4733093568323],[-121.033250974551,50.4735467154991],[-121.033743953483,50.4739613966383],[-121.034098999756,50.4742709245627],[-121.034204386507,50.4743942324351],[-121.034257079882,50.4744614585929],[-121.034264124451,50.4745925855504],[-121.034239186677,50.4746785954876],[-121.034184661714,50.4747913880385],[-121.03408716488,50.4748756004848],[-121.033974310886,50.4749374341701],[-121.03379171566,50.4750158946457],[-121.033532193742,50.4750641572751],[-121.03326421834,50.4750678421313],[-121.033072606066,50.475026050469],[-121.032808857406,50.4749163136526],[-121.032658103632,50.4748348873171],[-121.032496501221,50.4747051084777],[-121.032145963472,50.4744128364654],[-121.031800638704,50.4745587927224]]]}},{"type":"Feature","id":"883053336","properties":{"name":"iSP_22KPH_%TR_Brake_Temp_Ctrl","oid":"883053336","speedLimit":6.111111},"geometry":{"type":"Polygon","coordinates":[[[-121.032467195814,50.4721450321339],[-121.032252336462,50.4722252901004],[-121.031489691433,50.471008119171],[-121.03081778045,50.4699231536936],[-121.030662518152,50.4696600010331],[-121.030597708118,50.4694575136888],[-121.030551354854,50.4692565542117],[-121.030597708118,50.4689727304064],[-121.030723946792,50.468624107056],[-121.030885690094,50.4683753343223],[-121.031090123484,50.4680976219859],[-121.031689475407,50.4675363554678],[-121.032433381883,50.4668934828651],[-121.032789696179,50.466556003958],[-121.033148828302,50.466222209907],[-121.033485699587,50.4658705308221],[-121.033780726133,50.4660339227404],[-121.033588691184,50.4659931196981],[-121.032920584269,50.4666519000948],[-121.032555816491,50.4669910866183],[-121.032179777403,50.4673075348825],[-121.031775560039,50.4676682014217],[-121.031383177551,50.4680342604334],[-121.031148311623,50.4682861787761],[-121.03100995629,50.4684697025919],[-121.030906260236,50.4686543049022],[-121.030829756217,50.4688528377667],[-121.030768891142,50.4691911255447],[-121.030777626407,50.4694004433543],[-121.030874841458,50.469630162685],[-121.031028835735,50.4699349272587],[-121.031331752198,50.4704036229979],[-121.031531817955,50.4707108141843],[-121.031751467613,50.4710827150412],[-121.032147231494,50.4717286433784],[-121.032382520096,50.4721449422593],[-121.032467195814,50.4721450321339]]]}},{"type":"Feature","id":"883059532","properties":{"name":"iSP_22KPH_%TR_Brake_Ctrl","oid":"883059532","speedLimit":6.111111},"geometry":{"type":"Polygon","coordinates":[[[-121.027263372762,50.4773218057833],[-121.027031183771,50.4772096423542],[-121.027335650039,50.4769438833319],[-121.027717606566,50.476632288293],[-121.028034330384,50.4763225806195],[-121.028191565162,50.4761686255281],[-121.028622410996,50.4756922005782],[-121.028908420494,50.4753256023193],[-121.029265016572,50.4748874639245],[-121.029473817594,50.4746565762247],[-121.029692621904,50.4745402785667],[-121.029802658071,50.4744880614575],[-121.029953411845,50.4745924956759],[-121.029789836955,50.4745418963084],[-121.02955722529,50.4747913880385],[-121.029253040805,50.4751729054715],[-121.029074108754,50.4754778497943],[-121.028854318204,50.4757746155337],[-121.028697224318,50.4759745863908],[-121.028410087689,50.4762704533848],[-121.028042783866,50.476569825486],[-121.027245056883,50.4772192589302],[-121.027263372762,50.4773218057833]]]}},{"type":"Feature","id":"884401102","properties":{"name":"iSP_30KPH_%TR_Maint_Limit_Policy","oid":"884401102","speedLimit":8.333333},"geometry":{"type":"Polygon","coordinates":[[[-121.036993894903,50.461101158474],[-121.037109989398,50.4611076294411],[-121.038296294802,50.4609919609048],[-121.038279951402,50.4603978003042],[-121.038121448602,50.4605656859496],[-121.037034330728,50.4607083168486],[-121.036746630534,50.4605376450924],[-121.036993894903,50.461101158474]]]}},{"type":"Feature","id":"908328496","properties":{"name":"SP_25KPH_80%TR_1445_SOFT_GROUND_SEPT_15_NS","oid":"908328496","speedLimit":6.9444447},"geometry":{"type":"Polygon","coordinates":[[[-121.039333114454,50.4644966186906],[-121.039942187882,50.46470890236],[-121.039190391488,50.4666745484795],[-121.038828159755,50.4674276072713],[-121.038453388689,50.467894056147],[-121.037916451647,50.4682377363977],[-121.037181421327,50.4680256324773],[-121.03831446979,50.4667050159494],[-121.038795191172,50.4655657662484],[-121.039333114454,50.4644966186906]]]}},{"type":"Feature","id":"910445950","properties":{"name":"SP_22KPH_%80TR_1635_FLATS_SEP_15_NS","oid":"910445950","speedLimit":6.111111},"geometry":{"type":"Polygon","coordinates":[[[-121.017914525366,50.4571008425863],[-121.017758699501,50.4573815207826],[-121.016600572373,50.457135084787],[-121.017123561169,50.4561455660738],[-121.017774338444,50.454239686525],[-121.018181232744,50.4539929809058],[-121.018533742973,50.4537513981355],[-121.019043347087,50.4536550526259],[-121.018867655539,50.4543415143817],[-121.018262808852,50.4560719588234],[-121.018042877411,50.4566097680859],[-121.017987788882,50.4569254973538],[-121.017914525366,50.4571008425863]]]}},{"type":"Feature","id":"915576987","properties":{"name":"iSP_15KPH_%TR_Preventing Shifting","oid":"915576987","speedLimit":4.1666665},"geometry":{"type":"Polygon","coordinates":[[[-121.036999389666,50.444863165378],[-121.037513502305,50.4453130773379],[-121.037982811486,50.4457955238822],[-121.038526793097,50.4462188329775],[-121.03945949402,50.4468499320151],[-121.039916827434,50.4470996933688],[-121.040472784812,50.4471950502584],[-121.041225990119,50.4473227619833],[-121.041644437512,50.4475096111572],[-121.042322970389,50.4480950539272],[-121.042705631373,50.4485277998495],[-121.042849058795,50.4487948171153],[-121.043010520315,50.4493915840776],[-121.043189734148,50.4501981182223],[-121.043327244133,50.4505012650542],[-121.043688912301,50.451168673407],[-121.043859390868,50.4514889862765],[-121.044128352509,50.4522535490098],[-121.044385479274,50.4529381234002],[-121.044699244373,50.4537980430231],[-121.044738130394,50.4541946593792],[-121.044573710155,50.4550717450397],[-121.044218100317,50.456839217793],[-121.044053680079,50.4572072540446],[-121.043007420704,50.4583989006039],[-121.041907481715,50.4595372515595],[-121.041345606899,50.4600005548263],[-121.040374160847,50.4605974116632],[-121.03992570359,50.4607308753588],[-121.039136570981,50.4608070889709],[-121.038499178387,50.4608386349353],[-121.038646973442,50.461143399509],[-121.038759827436,50.4609494502462],[-121.039880900132,50.4608796177267],[-121.040708918761,50.4606317437384],[-121.041512985857,50.4600578049098],[-121.042875969049,50.4587001600705],[-121.044244869679,50.4571423646249],[-121.044430282732,50.4562900843382],[-121.044815902434,50.4544215027245],[-121.044812802824,50.4537865390816],[-121.044262903775,50.4523012723919],[-121.043835439334,50.4511858394446],[-121.043348236948,50.4503373338886],[-121.043052365054,50.4493096184949],[-121.042929789555,50.4486918208896],[-121.04224223963,50.4478871741104],[-121.041548772267,50.4473914261338],[-121.041094397572,50.4472217429975],[-121.040460809045,50.4471302507132],[-121.039919786152,50.4470196151514],[-121.038822805882,50.4463332432701],[-121.038198093512,50.4458717374942],[-121.037154933748,50.4449069342803],[-121.03737909193,50.4446972569725],[-121.036999389666,50.444863165378]]]}},{"type":"Feature","id":"917773475","properties":{"name":"SP_15KPH_%TR_1200_CORNER_Sept_15_DS","oid":"917773475","speedLimit":4.1666665},"geometry":{"type":"Polygon","coordinates":[[[-121.037100267893,50.444682427673],[-121.03692612615,50.444861997009],[-121.036630536038,50.4448204749704],[-121.036415958469,50.4448698160942],[-121.036324379074,50.4449675097219],[-121.036255764972,50.4450820098891],[-121.036243507423,50.4451448321943],[-121.036264641129,50.4452671514467],[-121.036317334505,50.445351363893],[-121.036185460175,50.4453951327952],[-121.036090358495,50.4451941733182],[-121.036164326468,50.4449315599049],[-121.036261118845,50.444791265744],[-121.036517963827,50.4447149622574],[-121.036715070865,50.4447116368994],[-121.036924435453,50.4447699654774],[-121.037095054912,50.4446835061675],[-121.037100267893,50.444682427673]]]}},{"type":"Feature","id":"921770139","properties":{"name":"SP_20KPH_%TR_HIGHMONT_SEPT 15_NS","oid":"921770139","speedLimit":5.5555553},"geometry":{"type":"Polygon","coordinates":[[[-121.001284834221,50.4285223558054],[-121.000923729618,50.4286573473683],[-121.000805521752,50.4287758918899],[-121.001072370022,50.4291788893386],[-121.001470951731,50.4289568992185],[-121.002116234243,50.4287154961973],[-121.002602732172,50.4286055796318],[-121.002406329591,50.4281544094283],[-121.001284834221,50.4285223558054]]]}},{"type":"Feature","id":"926367691","properties":{"name":"SP_25KPH_%TR_24SH_EMPTY_LANE_SEP_15_DS","oid":"926367691","speedLimit":6.9444447},"geometry":{"type":"Polygon","coordinates":[[[-121.038872540539,50.4508079169933],[-121.038636406589,50.4509565694866],[-121.038567510705,50.4519979458108],[-121.038787723929,50.4533670047171],[-121.03904442802,50.4533786884076],[-121.038824355687,50.451766878362],[-121.038872540539,50.4508079169933]]]}},{"type":"Feature","id":"929009157","properties":{"name":"iSP_22KPH_%TR_Long_Single_Lane","oid":"929009157","speedLimit":6.111111},"geometry":{"type":"Polygon","coordinates":[[[-121.005681349676,50.4380558877782],[-121.004751607471,50.4382239531727],[-121.005176113194,50.4381974401827],[-121.007936457074,50.4431703783696],[-121.008525242143,50.4445347637997],[-121.008212322393,50.4465095771225],[-121.007834310825,50.4466800691297],[-121.008935799619,50.446646815549],[-121.008825058996,50.4465928009489],[-121.0094051088,50.4448175091104],[-121.0087661664,50.4430682808893],[-121.008264452202,50.4415400541682],[-121.007260882916,50.4401560760879],[-121.006441176878,50.4389839323043],[-121.005862113314,50.4383129289698],[-121.005681349676,50.4380558877782]]]}},{"type":"Feature","id":"932268643","properties":{"name":"SP_25KPH_80%traction_1185_1170_SEP15_NS","oid":"932268643","speedLimit":6.9444447},"geometry":{"type":"Polygon","coordinates":[[[-121.03873052203,50.4481973311566],[-121.038468745849,50.4482555698602],[-121.038948621883,50.4498291832252],[-121.039507819763,50.4497912561683],[-121.039107265575,50.4497305009775],[-121.038623444582,50.4483440962845],[-121.038853520203,50.4481594040996],[-121.03873052203,50.4481973311566]]]}},{"type":"Feature","id":"932281958","properties":{"name":"SP_25KPH_80%TR_1185-1170_22shl_SEPT_15_NS","oid":"932281958","speedLimit":6.9444447},"geometry":{"type":"Polygon","coordinates":[[[-121.037376414994,50.4481141073302],[-121.037409947142,50.4479619497297],[-121.036983328049,50.447908654126],[-121.035925374691,50.4473799221923],[-121.035463673645,50.4471780639698],[-121.035099187649,50.4474259379581],[-121.035349833411,50.447347567357],[-121.036815949092,50.4479513445337],[-121.03721748952,50.448055419254],[-121.037335838277,50.4481910399386],[-121.037376414994,50.4481141073302]]]}},{"type":"Feature","id":"933274269","properties":{"name":"SP_15KPH_%TR_21SH_EMPTY_LANE_SEP_15_NS","oid":"933274269","speedLimit":4.1666665},"geometry":{"type":"Polygon","coordinates":[[[-121.039296200913,50.4524184687953],[-121.039546283109,50.4523080129826],[-121.039514300766,50.4511379363134],[-121.039187150986,50.4506000371764],[-121.039289860801,50.4512177449072],[-121.039296200913,50.4524184687953]]]}},{"type":"Feature","id":"934051091","properties":{"name":"iSP_17KPH_%TR_Ramp_Permission Blocker","oid":"934051091","speedLimit":4.7222223},"geometry":{"type":"Polygon","coordinates":[[[-121.039514441658,50.4610295284636],[-121.039466397698,50.460771498652],[-121.039018926681,50.4607920799223],[-121.039077819277,50.4610448071358],[-121.039165312822,50.4608997496242],[-121.039381299305,50.460886627941],[-121.039514441658,50.4610295284636]]]}},{"type":"Feature","id":"934181877","properties":{"name":"SP_35KPH_TR%_1590_7_SEPT 15_NS","oid":"934181877","speedLimit":9.722222},"geometry":{"type":"Polygon","coordinates":[[[-121.013996336139,50.4497857738212],[-121.013326115854,50.4498806813381],[-121.013674681123,50.4515052535687],[-121.014403653114,50.4513827545673],[-121.013985205721,50.4512794887179],[-121.013707931488,50.4500004841032],[-121.013996336139,50.4497857738212]]]}},{"type":"Feature","id":"934182014","properties":{"name":"SP_35KPH_TR%_1590_8_SEPT 15_NS","oid":"934182014","speedLimit":9.722222},"geometry":{"type":"Polygon","coordinates":[[[-121.014415065315,50.4514339830565],[-121.013700605137,50.4515371590313],[-121.013685247977,50.4519280234168],[-121.01347912389,50.4525263182463],[-121.013429530125,50.4528464513668],[-121.013599304236,50.4535848606082],[-121.01423458346,50.4534697313192],[-121.013763865366,50.4534029545341],[-121.013668904577,50.4530021140745],[-121.013677921625,50.4527109205567],[-121.013908560811,50.4520274246608],[-121.013971398366,50.4516617251473],[-121.014415065315,50.4514339830565]]]}},{"type":"Feature","id":"934183529","properties":{"name":"SP_35KPH_TR%_1590_10_SEPT_15_NS","oid":"934183529","speedLimit":9.722222},"geometry":{"type":"Polygon","coordinates":[[[-121.013537312029,50.4536271915177],[-121.012709434292,50.4537864492071],[-121.01335330789,50.4537445676703],[-121.013563517826,50.454211196295],[-121.013638049365,50.4545352838954],[-121.013480391913,50.4548454409416],[-121.013327102093,50.4550215051704],[-121.012718169557,50.4549935541877],[-121.013401492741,50.4552114999533],[-121.013607335044,50.4550102708526],[-121.013795706817,50.4548063455156],[-121.013852626934,50.4546554461587],[-121.013852626934,50.4544878301369],[-121.013795706817,50.4542614361643],[-121.013651152263,50.4539149698029],[-121.01356704011,50.4537032253807],[-121.013537312029,50.4536271915177]]]}},{"type":"Feature","id":"934183713","properties":{"name":"SP_35KPH_TR%_1590_11_SEPT_15_NS","oid":"934183713","speedLimit":9.722222},"geometry":{"type":"Polygon","coordinates":[[[-121.013506175035,50.4535868378481],[-121.013322311786,50.4528129281624],[-121.013338091621,50.4526386614245],[-121.01352716785,50.4521864127265],[-121.013605926131,50.4519016003013],[-121.013588173817,50.4515181056283],[-121.012906118655,50.4515580997997],[-121.013422062882,50.4516135523925],[-121.013373455357,50.4518579212736],[-121.013264546321,50.4522239802853],[-121.013109565805,50.4526596920674],[-121.013152537676,50.4530696098559],[-121.013275958523,50.453477820028],[-121.012796364272,50.4536845314758],[-121.013506175035,50.4535868378481]]]}},{"type":"Feature","id":"934183783","properties":{"name":"SP_35KPH_TR%_1590_12_SEPT15_NS","oid":"934183783","speedLimit":9.722222},"geometry":{"type":"Polygon","coordinates":[[[-121.012906118655,50.451540754013],[-121.013591836993,50.4515035459524],[-121.013247921139,50.449878524349],[-121.012518385583,50.4500003043542],[-121.012936551193,50.4501041094508],[-121.013210725815,50.4513831140654],[-121.012906118655,50.451540754013]]]}},{"type":"Feature","id":"934186247","properties":{"name":"SP_35KPH_TR80%_1590_18_SEPT 15_DS","oid":"934186247","speedLimit":9.722222},"geometry":{"type":"Polygon","coordinates":[[[-121.014232329198,50.4535429790714],[-121.013630582122,50.4536291687576],[-121.013824025984,50.4541042455894],[-121.013943360981,50.4544291420607],[-121.013972384605,50.4546409763574],[-121.013846568605,50.4548795033932],[-121.013501666511,50.4552393610615],[-121.014020710348,50.4553977200054],[-121.013904193178,50.4551693487929],[-121.013969144104,50.4550645550763],[-121.014111021721,50.4548692576954],[-121.014220635213,50.4546882503668],[-121.014217394712,50.4545113772671],[-121.013904615852,50.453715538193],[-121.014232329198,50.4535429790714]]]}},{"type":"Feature","id":"934773555","properties":{"name":"SP_10KPH_NEW RAMP_SEPT 15_DS","oid":"934773555","speedLimit":2.7777777},"geometry":{"type":"Polygon","coordinates":[[[-121.033904428763,50.4443400955406],[-121.034416005357,50.4442040254832],[-121.035776593395,50.4443190648976],[-121.036278589376,50.4444734693617],[-121.035933546391,50.4447855137733],[-121.034624242814,50.4446107077881],[-121.034346545907,50.444600911463],[-121.033904428763,50.4443400955406]]]}},{"type":"Feature","id":"935505135","properties":{"name":"SP_20KPH_%TR_1590_WATERHOLES_SEPT_15_DS","oid":"935505135","speedLimit":5.5555553},"geometry":{"type":"Polygon","coordinates":[[[-121.013404169677,50.4441735580133],[-121.012720282928,50.4442018684942],[-121.01296895621,50.4452613096014],[-121.013111115611,50.4462074189106],[-121.01327976259,50.446989237556],[-121.0137060999,50.4470969072579],[-121.01379500236,50.4467739880266],[-121.013439674304,50.4437486311762],[-121.013386417363,50.4441622338209],[-121.013404169677,50.4441735580133]]]}},{"type":"Feature","id":"936169885","properties":{"name":"SP_10KPH_%TR_24shl_loadplan_Sept_15_DS","oid":"936169885","speedLimit":2.7777777},"geometry":{"type":"Polygon","coordinates":[[[-121.039099516549,50.4536390549573],[-121.038507913652,50.4537560716117],[-121.038599633939,50.4547095506333],[-121.039461748282,50.4546452004609],[-121.039333396237,50.4543966973508],[-121.039287465647,50.4539022974924],[-121.039168271541,50.453785280838],[-121.039099516549,50.4536390549573]]]}},{"type":"Feature","id":"936513295","properties":{"name":"SP_30KPH_%TR_1635_FLATS_SEP_15_DS","oid":"936513295","speedLimit":8.333333},"geometry":{"type":"Polygon","coordinates":[[[-121.017434931114,50.4574536900402],[-121.015227867676,50.4585168160037],[-121.014499036577,50.4578795156227],[-121.016652843074,50.4569266657229],[-121.017434931114,50.4574536900402]]]}},{"type":"Feature","id":"937786749","properties":{"name":"SP_30KPH_%TR_24SH_Loaded_LANE_SEP_15_DS","oid":"937786749","speedLimit":8.333333},"geometry":{"type":"Polygon","coordinates":[[[-121.038520452985,50.4505393718602],[-121.038273470399,50.4509802064913],[-121.03825515452,50.4516606466528],[-121.038257690564,50.4529730845972],[-121.038538909755,50.4526663427836],[-121.038465364456,50.4516539959366],[-121.038520452985,50.4505393718602]]]}},{"type":"Feature","id":"937793793","properties":{"name":"SP_10KPH_%TR_21SH_LOAD_AREA_SEP_15_DS","oid":"937793793","speedLimit":2.7777777},"geometry":{"type":"Polygon","coordinates":[[[-121.039543183499,50.4523447716704],[-121.038962711021,50.4525983976294],[-121.039257737567,50.4533286282874],[-121.039709857999,50.4532447753393],[-121.039546283109,50.4524266473787],[-121.039543183499,50.4523447716704]]]}},{"type":"Feature","id":"938065675","properties":{"name":"SP_8KPH_CR01_YARD_RUTIING_SEP_15_DS","oid":"938065675","speedLimit":2.2222223},"geometry":{"type":"Polygon","coordinates":[[[-121.03429061203,50.4648010237661],[-121.03410040867,50.464857824477],[-121.033942187652,50.4649068061026],[-121.033830742572,50.465004769354],[-121.034045601924,50.4650686701537],[-121.033965575621,50.4650111504465],[-121.034243976984,50.4648879324487],[-121.034320621894,50.464937183698],[-121.03429061203,50.4648010237661]]]}},{"type":"Feature","id":"938165680","properties":{"name":"TR_22SH_10kph_%TR_sept13 ns","oid":"938165680","speedLimit":2.7777777},"geometry":{"type":"Polygon","coordinates":[[[-121.034454609594,50.4469675777912],[-121.035082844249,50.4473905273884],[-121.035950594247,50.446608888492],[-121.03532109157,50.4462973833276],[-121.034454609594,50.4469675777912]]]}},{"type":"Feature","id":"938217281","properties":{"name":"SP_20KPH_CRUSHER_YARD_WEATHER_SEPT_15_DS","oid":"938217281","speedLimit":5.5555553},"geometry":{"type":"Polygon","coordinates":[[[-121.036884985867,50.4639823565582],[-121.037243695316,50.4642843350211],[-121.034293429858,50.4654989894633],[-121.032880712009,50.4644541979065],[-121.036884985867,50.4639823565582]]]}},{"type":"Feature","id":"938718470","properties":{"name":"SP_35KPH_80%TR_1590 TO MAIN INTERSECTION_SEPT15_DS","oid":"938718470","speedLimit":9.722222},"geometry":{"type":"Polygon","coordinates":[[[-121.013946178809,50.455412729054],[-121.013632695492,50.4553367850656],[-121.0129740283,50.4558657866229],[-121.012553467536,50.4562530560266],[-121.012315361107,50.4565593484676],[-121.012410603678,50.4565543154932],[-121.01267252075,50.4563745664081],[-121.012553467536,50.4563518281489],[-121.013652561177,50.4554431066494],[-121.013914478249,50.4554228848773],[-121.013946178809,50.455412729054]]]}},{"type":"Feature","id":"939481274","properties":{"name":"SP_10KPH_%TR_LRNX_PIT_BOTTOM_SEP_15_NS1","oid":"939481274","speedLimit":2.7777777},"geometry":{"type":"Polygon","coordinates":[[[-121.034056732342,50.4452362346041],[-121.034063776911,50.4449960898264],[-121.033304231492,50.4447662806212],[-121.033470483318,50.4448875213791],[-121.033359320021,50.4469936414086],[-121.033816935217,50.4469739588838],[-121.033665195203,50.4469198544092],[-121.034056732342,50.4452362346041]]]}}]}