{"type":"FeatureCollection","features":[{"type":"Feature","id":"702602533","properties":{"name":"iSP_4KPH_%TR_CR01_SLOW BUMP","oid":"702602533","speedLimit":1.1111112},"geometry":{"type":"Polygon","coordinates":[[[-121.033359943127,50.464807466916],[-121.033654670005,50.4646904499254],[-121.033698061916,50.4647311632102],[-121.033370227573,50.4648693007789],[-121.033359943127,50.464807466916]]]}},{"type":"Feature","id":"707947583","properties":{"name":"iSP_25KPH_%TR_Permission Gate 1 from west dump_Jun","oid":"707947583","speedLimit":6.9444447},"geometry":{"type":"Polygon","coordinates":[[[-121.038629242696,50.4619775790656],[-121.038855923168,50.4617990877114],[-121.038140942811,50.4614078627038],[-121.037993297606,50.4616705667463],[-121.038192787692,50.4615664917271],[-121.038667703708,50.4618456428581],[-121.038629242696,50.4619775790656]]]}},{"type":"Feature","id":"742345972","properties":{"name":"iSP_4KPH_%TR_CR01_PITSIDE_SLOW BUMP","oid":"742345972","speedLimit":1.1111112},"geometry":{"type":"Polygon","coordinates":[[[-121.033399812968,50.4648824224998],[-121.033707078418,50.4647439254319],[-121.033757232705,50.4647760107357],[-121.033475748812,50.4649179230461],[-121.033399812968,50.4648824224998]]]}},{"type":"Feature","id":"776427243","properties":{"name":"iSP_7KPH_%TR_CR1_PermissionBlocker_DO_NOT_DELETE","oid":"776427243","speedLimit":1.9444444},"geometry":{"type":"Polygon","coordinates":[[[-121.034100986807,50.4652124427681],[-121.034052523114,50.465232754473],[-121.03403139069,50.4652741867562],[-121.03411704745,50.465225115115],[-121.034100986807,50.4652124427681]]]}},{"type":"Feature","id":"794004438","properties":{"name":"iSP_11KPH_%TR_LOWER_FUEL_BAY","oid":"794004438","speedLimit":3.0555556},"geometry":{"type":"Polygon","coordinates":[[[-121.036777619675,50.4606950656593],[-121.036779732917,50.4607249040931],[-121.03675000664,50.4606704399639],[-121.037126163794,50.4605987198729],[-121.037536132826,50.4605556698433],[-121.037543881382,50.4605810145371],[-121.036945411124,50.4606498586345],[-121.036777619675,50.4606950656593]]]}},{"type":"Feature","id":"801543391","properties":{"name":"iSP_4KPH_%TR_CR1_PermissionBlocker_DO_NOT_DELETE_","oid":"801543391","speedLimit":1.1111112},"geometry":{"type":"Polygon","coordinates":[[[-121.033156508322,50.4645229232969],[-121.033155663025,50.4644734921565],[-121.033177218098,50.4644314307498],[-121.033109171691,50.4644590223136],[-121.033156508322,50.4645229232969]]]}},{"type":"Feature","id":"806473874","properties":{"name":"iSP_4KPH_%TR_Permission Blocker - DO NOT DELETE","oid":"806473874","speedLimit":1.1111112},"geometry":{"type":"Polygon","coordinates":[[[-121.022721035415,50.4815447611801],[-121.02268792795,50.4815424244352],[-121.022680320277,50.4815710944967],[-121.022702438881,50.4815721729943],[-121.022706524483,50.4815480865477],[-121.022721035415,50.4815447611801]]]}},{"type":"Feature","id":"824566967","properties":{"name":"iSP_4Cr_3KPH","oid":"824566967","speedLimit":0.8333333},"geometry":{"type":"Polygon","coordinates":[[[-121.023303867678,50.4810678854874],[-121.023283721434,50.4810678854874],[-121.02328104466,50.4811859809756],[-121.023306121803,50.4811852619772],[-121.023303867678,50.4810678854874]]]}},{"type":"Feature","id":"826307302","properties":{"name":"iSP_4KPH_TR%_CRUSHER POCKETS","oid":"826307302","speedLimit":1.1111112},"geometry":{"type":"Polygon","coordinates":[[[-121.023299077662,50.481321062801],[-121.023338524854,50.4814767259559],[-121.023543227605,50.4814372709184],[-121.023462219978,50.4811884075952],[-121.02305394154,50.4811891265936],[-121.023059295087,50.4813597988402],[-121.023284144082,50.4813258261655],[-121.023299077662,50.481321062801]]]}},{"type":"Feature","id":"883050998","properties":{"name":"iSP_22kph_%TR_4CR_Brake_Temp_CTRL_NOREMOVE","oid":"883050998","speedLimit":6.111111},"geometry":{"type":"Polygon","coordinates":[[[-121.031800229327,50.4745586131702],[-121.032189488584,50.474311996717],[-121.032491118721,50.4745743412603],[-121.032792748858,50.4748017245061],[-121.032970542988,50.4748841396984],[-121.03317933134,50.4749342898372],[-121.033463210241,50.4749590952822],[-121.033667067694,50.4749215276155],[-121.03382823765,50.4748621203722],[-121.033919388841,50.4748100828626],[-121.034008708554,50.4747469008777],[-121.034059144607,50.4746577450754],[-121.034053368411,50.4745475585697],[-121.034057172248,50.4744832082124],[-121.03399504292,50.4743792230679],[-121.033876701344,50.4742591503342],[-121.033509842457,50.473937218798],[-121.033061553295,50.4735595648853],[-121.032948283501,50.4734250223086],[-121.032823320431,50.4732204672622],[-121.032606501758,50.4728145027873],[-121.03225302674,50.4722085668808],[-121.032488019298,50.472155720498],[-121.032430961753,50.4722052415132],[-121.032903482761,50.4730484468936],[-121.033042674996,50.4733091736905],[-121.033250477169,50.4735465330392],[-121.033743426187,50.4739612153698],[-121.034098450916,50.4742707441834],[-121.034203831272,50.47439405241],[-121.034256521451,50.474461278761],[-121.034263565592,50.4745924060952],[-121.034238629331,50.4746784162795],[-121.034184107676,50.4747912091544],[-121.034086616759,50.4748754218427],[-121.033973769613,50.4749372557056],[-121.033791185466,50.4750157164066],[-121.033531679296,50.4750639791746],[-121.033263720155,50.4750676640415],[-121.033072119507,50.4750258722591],[-121.032808386852,50.4749161351274],[-121.032657642225,50.474834708558],[-121.03249604962,50.4747049293457],[-121.032145533141,50.4744126564938],[-121.031800229327,50.4745586131702]]]}},{"type":"Feature","id":"883053336","properties":{"name":"iSP_22kph_%TR_Brake_Temp_CTRL_NOREMOVE","oid":"883053336","speedLimit":6.111111},"geometry":{"type":"Polygon","coordinates":[[[-121.032466745991,50.4721448456471],[-121.032251899677,50.4722251038442],[-121.031489300924,50.471007929418],[-121.030817430713,50.4699229608236],[-121.030662177835,50.4696598074071],[-121.030597371734,50.4694573194811],[-121.030551021283,50.4692563594266],[-121.030597371734,50.468972534806],[-121.030723602749,50.4686239104539],[-121.030885336236,50.4683751370055],[-121.031089757221,50.4680974238713],[-121.031689072775,50.4675361557408],[-121.032432934112,50.4668932812912],[-121.032789226787,50.4665558014145],[-121.033148337118,50.4662220064046],[-121.033485187962,50.4658703263094],[-121.033780196606,50.4660337186971],[-121.03358817331,50.4659929155375],[-121.032920106935,50.4666516978269],[-121.032555361291,50.4669908853248],[-121.03217934502,50.4673073344981],[-121.031775152184,50.4676680020734],[-121.031382793505,50.4680340621368],[-121.031147941829,50.4682859812032],[-121.031009594891,50.4684695055463],[-121.030905905129,50.468654108387],[-121.030829405753,50.4688526418218],[-121.030768544371,50.4691909305717],[-121.030777279106,50.4694002489826],[-121.030874488258,50.4696299689732],[-121.03102847319,50.4699347344225],[-121.031331371273,50.4704034315083],[-121.03153142489,50.4707106235772],[-121.03175106122,50.4710825255026],[-121.032146801087,50.4717284556954],[-121.032382075411,50.4721447557723],[-121.032466745991,50.4721448456471]]]}},{"type":"Feature","id":"883059532","properties":{"name":"iSP_22kph_%TR_Brake_CTRL_NOREMOVE","oid":"883059532","speedLimit":6.111111},"geometry":{"type":"Polygon","coordinates":[[[-121.027263238703,50.4773216341688],[-121.027031063801,50.4772094704175],[-121.027335511595,50.4769437106318],[-121.027717444944,50.4766321146977],[-121.028034149544,50.4763224061344],[-121.028191374781,50.4761684506007],[-121.028622194472,50.4756920242821],[-121.028908186614,50.4753254249699],[-121.029264761055,50.4748872853164],[-121.029473549407,50.4746563969534],[-121.02969234044,50.4745400989612],[-121.02980236993,50.474487881702],[-121.029953114557,50.4745923162204],[-121.029789549592,50.4745417167076],[-121.029556952042,50.4747912091544],[-121.029252786014,50.4751727276835],[-121.029073864821,50.4754776728824],[-121.028854087608,50.4757744394744],[-121.028697003254,50.475974410906],[-121.028409884048,50.47627027875],[-121.028042602513,50.4765696517112],[-121.027244923936,50.4772190870212],[-121.027263238703,50.4773216341688]]]}},{"type":"Feature","id":"884401102","properties":{"name":"iSP_30KPH_MAIN INT_LIMIT_POLICY_SEPT_8_NS","oid":"884401102","speedLimit":8.333333},"geometry":{"type":"Polygon","coordinates":[[[-121.036993170403,50.4611009402593],[-121.037109257854,50.461107411245],[-121.038295491274,50.4609917423764],[-121.038279148866,50.4603975800689],[-121.038120655683,50.4605654661966],[-121.037033603775,50.4607080975054],[-121.036745921038,50.4605374252588],[-121.036993170403,50.4611009402593]]]}},{"type":"Feature","id":"910445950","properties":{"name":"SP_22KPH_%TR_1635_FLATS_SEP_11_DS","oid":"910445950","speedLimit":6.111111},"geometry":{"type":"Polygon","coordinates":[[[-121.018918185212,50.4576031028899],[-121.018255754151,50.4578012768255],[-121.017442578462,50.4564350001049],[-121.017482448302,50.4564154073984],[-121.017774780172,50.454239448598],[-121.018181649783,50.45399274227],[-121.018534138621,50.4537511588057],[-121.019043711813,50.4536548130193],[-121.01922136506,50.4539286615371],[-121.01924672397,50.4568504014339],[-121.019159376616,50.4570727516909],[-121.019197414979,50.4574047492047],[-121.018918185212,50.4576031028899]]]}},{"type":"Feature","id":"917773475","properties":{"name":"SP_15KPH_%TR_1200_CORNER_Sept_11_DS","oid":"917773475","speedLimit":4.1666665},"geometry":{"type":"Polygon","coordinates":[[[-121.037099536939,50.444682162289],[-121.036925405762,50.4448617321409],[-121.036629833587,50.4448202099829],[-121.036415269039,50.4448695512485],[-121.0363236952,50.4449672451569],[-121.036255085262,50.445081745653],[-121.036242828456,50.4451445681388],[-121.03626396088,50.4452668877425],[-121.036316651059,50.4453511004308],[-121.036184784731,50.4453948694588],[-121.036089688821,50.4451939094044],[-121.036163652306,50.4449312952366],[-121.03626043881,50.4447910006727],[-121.036517268207,50.4447146969669],[-121.036714363285,50.4447113715993],[-121.036923715169,50.4447697003449],[-121.037094324274,50.4446832407866],[-121.037099536939,50.444682162289]]]}},{"type":"Feature","id":"926367691","properties":{"name":"SP_25KPH_%TR_24SH_SEP_11_DS","oid":"926367691","speedLimit":6.9444447},"geometry":{"type":"Polygon","coordinates":[[[-121.038554856562,50.4504032326039],[-121.038074727881,50.4496783923361],[-121.03754331785,50.4498592204351],[-121.038245900518,50.4520110927889],[-121.038397490442,50.4531299441831],[-121.038777874081,50.4530965107572],[-121.038843384596,50.4508305872814],[-121.038554856562,50.4504032326039]]]}},{"type":"Feature","id":"929009157","properties":{"name":"iSP_22kph_Long_Single_Lane_Aug30","oid":"929009157","speedLimit":6.111111},"geometry":{"type":"Polygon","coordinates":[[[-121.005682525197,50.4380556033568],[-121.004752839408,50.4382236692342],[-121.005177319372,50.438197156168],[-121.007937495757,50.4431701086416],[-121.008526245099,50.4445344979914],[-121.008213344336,50.4465093169878],[-121.007835355706,50.4466798094847],[-121.008936777663,50.4466465558085],[-121.008826043759,50.4465925410532],[-121.009406058366,50.4448172441145],[-121.008767154737,50.443068010868],[-121.008265470983,50.4415397797565],[-121.007261962592,50.4401557977002],[-121.006442306293,50.4389836505491],[-121.005863277866,50.4383126452869],[-121.005682525197,50.4380556033568]]]}},{"type":"Feature","id":"930116666","properties":{"name":"SP_25KPH_9023 Rough_SEP_11_DS","oid":"930116666","speedLimit":6.9444447},"geometry":{"type":"Polygon","coordinates":[[[-121.043598180074,50.4685538979842],[-121.043297958765,50.4689175314279],[-121.042549448295,50.4684622256874],[-121.042344886427,50.468040263498],[-121.043036762,50.4679069791686],[-121.043598180074,50.4685538979842]]]}},{"type":"Feature","id":"933252378","properties":{"name":"SP_20KPH_%TR_1615_ROUGH_SECTION_SEP_11_DS","oid":"933252378","speedLimit":5.5555553},"geometry":{"type":"Polygon","coordinates":[[[-121.007364102643,50.4314115188385],[-121.007546545907,50.4321453465864],[-121.007055287482,50.4322073601989],[-121.007400591296,50.4321235968846],[-121.007259567584,50.4314844073019],[-121.006911727879,50.4314549283672],[-121.007364102643,50.4314115188385]]]}},{"type":"Feature","id":"933252478","properties":{"name":"SP_30KPH_%TR_1605_PATCH_SEP_11_DS","oid":"933252478","speedLimit":8.333333},"geometry":{"type":"Polygon","coordinates":[[[-121.006595445928,50.4333405915612],[-121.007213498899,50.43343810572],[-121.006982591942,50.4339624353075],[-121.006680398274,50.43437846576],[-121.006276205438,50.4347749933808],[-121.00574296393,50.4345236135632],[-121.00621506229,50.4346037818854],[-121.006704066589,50.4339776241488],[-121.006897639596,50.4335508087201],[-121.006595445928,50.4333405915612]]]}},{"type":"Feature","id":"933252549","properties":{"name":"SP_35KPH_%TR_1590_ROUGH_SEP_11_DS","oid":"933252549","speedLimit":9.722222},"geometry":{"type":"Polygon","coordinates":[[[-121.004364848097,50.4363925600442],[-121.004781438622,50.4364497204175],[-121.004885691916,50.436210923072],[-121.005083632291,50.4359566672607],[-121.004586175022,50.4358321007869],[-121.004800176039,50.4359805739577],[-121.004629003402,50.436367844474],[-121.004364848097,50.4363925600442]]]}},{"type":"Feature","id":"933371104","properties":{"name":"SP_25KPH_1590_HMT_INTERSECT_SEPT_11_DS","oid":"933371104","speedLimit":6.9444447},"geometry":{"type":"Polygon","coordinates":[[[-121.006362284846,50.4374884933643],[-121.005864545812,50.4376809153126],[-121.006070516508,50.4377776205982],[-121.006390038764,50.4379881073815],[-121.006555857853,50.4382640230197],[-121.007089381127,50.43815338714],[-121.006747458501,50.4380707023234],[-121.006119121084,50.4376593453604],[-121.006362284846,50.4374884933643]]]}},{"type":"Feature","id":"934051091","properties":{"name":"iSP_17KPH_PERMISSIONS BLOCKER_SEPT 7_NS","oid":"934051091","speedLimit":4.7222223},"geometry":{"type":"Polygon","coordinates":[[[-121.039513564213,50.4610293100432],[-121.039465523169,50.4607712794903],[-121.039018079304,50.4607918608196],[-121.039076968326,50.4610445887593],[-121.039164456563,50.4608995308309],[-121.03938042994,50.46088640911],[-121.039513564213,50.4610293100432]]]}},{"type":"Feature","id":"934773555","properties":{"name":"SP_10KPH_NEW RAMP_SEPT 11_DS","oid":"934773555","speedLimit":2.7777777},"geometry":{"type":"Polygon","coordinates":[[[-121.035775942761,50.4443187984697],[-121.036277908281,50.4444732033774],[-121.035932886232,50.4447852486855],[-121.034509265246,50.4446686810689],[-121.034741017499,50.444151361716],[-121.035775942761,50.4443187984697]]]}},{"type":"Feature","id":"934888580","properties":{"name":"SP_12KPH_RUTS_SEPT 11_DS","oid":"934888580","speedLimit":3.3333333},"geometry":{"type":"Polygon","coordinates":[[[-121.038717294464,50.4531201478298],[-121.038178417643,50.4531790158243],[-121.038462719192,50.4532002262773],[-121.038508787877,50.4536173352274],[-121.03830028129,50.4537111645194],[-121.038743216905,50.4536381861812],[-121.038717294464,50.4531201478298]]]}},{"type":"Feature","id":"935505135","properties":{"name":"SP_15KPH_%TR_1590_WATERHOLES_AUG_11_DS","oid":"935505135","speedLimit":4.1666665},"geometry":{"type":"Polygon","coordinates":[[[-121.013404876584,50.4441732911673],[-121.012721031332,50.4442016017296],[-121.012969689525,50.4452610458805],[-121.013111840299,50.4462071579077],[-121.013280477046,50.4469889787992],[-121.013706788486,50.4470966488105],[-121.013795685551,50.4467737286515],[-121.013440379056,50.4437483631095],[-121.013387125347,50.4441619669424],[-121.013404876584,50.4441732911673]]]}},{"type":"Feature","id":"936169885","properties":{"name":"SP_12KPH_%TR_Sept_11_DS","oid":"936169885","speedLimit":3.3333333},"geometry":{"type":"Polygon","coordinates":[[[-121.039481302046,50.4535458847608],[-121.038612759405,50.4536145491086],[-121.039073023607,50.4545168022331],[-121.039592740363,50.4544387010312],[-121.039670648568,50.4542066442958],[-121.039447912815,50.4538987332285],[-121.039447912815,50.4538963964837],[-121.039481302046,50.4535458847608]]]}},{"type":"Feature","id":"936513295","properties":{"name":"SP_27KPH_%TR_1635_FLATS_SEP_11_DS1","oid":"936513295","speedLimit":7.5},"geometry":{"type":"Polygon","coordinates":[[[-121.018255754151,50.4578012768255],[-121.01525030076,50.4587001147076],[-121.014499677047,50.4578792881526],[-121.017442578462,50.4564350001049],[-121.018255754151,50.4578012768255]]]}}]}