{"type":"FeatureCollection","features":[{"type":"Feature","id":"702602533","properties":{"name":"iSP_4KPH_%TR_CR01_SLOW BUMP","oid":"702602533","speedLimit":1.1111112},"geometry":{"type":"Polygon","coordinates":[[[-121.033357224928,50.4648080797781],[-121.033651950839,50.4646910623971],[-121.033695342608,50.4647317758177],[-121.033367509341,50.4648699138474],[-121.033357224928,50.4648080797781]]]}},{"type":"Feature","id":"707947583","properties":{"name":"iSP_22KPH_%TR_Permission Gate 1 from west dump_Jun","oid":"707947583","speedLimit":6.111111},"geometry":{"type":"Polygon","coordinates":[[[-121.038626507199,50.4619781824846],[-121.038853186926,50.4617996905348],[-121.037979011842,50.4613512137827],[-121.03774190682,50.4615424679968],[-121.03795802037,50.4614967215706],[-121.038664968085,50.4618462458369],[-121.038626507199,50.4619781824846]]]}},{"type":"Feature","id":"742345972","properties":{"name":"iSP_4KPH_%TR_CR01_PITSIDE_SLOW BUMP","oid":"742345972","speedLimit":1.1111112},"geometry":{"type":"Polygon","coordinates":[[[-121.033397094638,50.4648830356121],[-121.033704359079,50.464744538082],[-121.033754513202,50.4647766234929],[-121.033473030234,50.4649185362768],[-121.033397094638,50.4648830356121]]]}},{"type":"Feature","id":"776427243","properties":{"name":"iSP_7KPH_%TR_CR1_PermissionBlocker_DO_NOT_DELETE","oid":"776427243","speedLimit":1.9444444},"geometry":{"type":"Polygon","coordinates":[[[-121.034098266176,50.4652130569816],[-121.034049802642,50.4652333687543],[-121.034028670287,50.4652748011757],[-121.034114326766,50.4652257293708],[-121.034098266176,50.4652130569816]]]}},{"type":"Feature","id":"794004438","properties":{"name":"iSP_11KPH_%TR_LOWER_FUEL_BAY","oid":"794004438","speedLimit":3.0555556},"geometry":{"type":"Polygon","coordinates":[[[-121.036774890256,50.4606956647987],[-121.036777003492,50.4607255033321],[-121.036747277312,50.4606710390211],[-121.037123433231,50.4605993186908],[-121.037533400917,50.4605562685176],[-121.037541149447,50.460581613296],[-121.036942681155,50.4606504576231],[-121.036774890256,50.4606956647987]]]}},{"type":"Feature","id":"801543391","properties":{"name":"iSP_4KPH_%TR_CR1_PermissionBlocker_DO_NOT_DELETE_","oid":"801543391","speedLimit":1.1111112},"geometry":{"type":"Polygon","coordinates":[[[-121.033153790791,50.4645235352096],[-121.033152945497,50.4644741039042],[-121.033174500499,50.4644320423571],[-121.033106454316,50.464459634013],[-121.033153790791,50.4645235352096]]]}},{"type":"Feature","id":"806473874","properties":{"name":"iSP_4KPH_%TR_Permission Blocker - DO NOT DELETE","oid":"806473874","speedLimit":1.1111112},"geometry":{"type":"Polygon","coordinates":[[[-121.022718352143,50.4815454298931],[-121.022685244787,50.4815430931405],[-121.022677637139,50.4815717632976],[-121.02269975567,50.4815728417988],[-121.022703841259,50.4815487552719],[-121.022718352143,50.4815454298931]]]}},{"type":"Feature","id":"824566967","properties":{"name":"iSP_4Cr_3KPH","oid":"824566967","speedLimit":0.8333333},"geometry":{"type":"Polygon","coordinates":[[[-121.023301182493,50.4810685526092],[-121.023281036314,50.4810685526092],[-121.023278359549,50.4811866484914],[-121.023303436611,50.4811859294906],[-121.023301182493,50.4810685526092]]]}},{"type":"Feature","id":"826307302","properties":{"name":"iSP_4KPH_TR%_CRUSHER POCKETS","oid":"826307302","speedLimit":1.1111112},"geometry":{"type":"Polygon","coordinates":[[[-121.023296392492,50.4813217307677],[-121.023335839555,50.481477394442],[-121.023540541633,50.4814379392728],[-121.023459534273,50.4811890751192],[-121.023051257175,50.48118979412],[-121.023056610705,50.481360466936],[-121.023281458962,50.481326494148],[-121.023296392492,50.4813217307677]]]}},{"type":"Feature","id":"849417440","properties":{"name":"iSP_Permissions_35_KPH_June_19_NS","oid":"849417440","speedLimit":9.722222},"geometry":{"type":"Polygon","coordinates":[[[-121.032693809865,50.4660343356511],[-121.033008400189,50.4660150125045],[-121.033215356385,50.4658141416546],[-121.033804103795,50.4653796854181],[-121.033724927905,50.4652508943989],[-121.033961046751,50.4654003566913],[-121.033424848464,50.4658086592734],[-121.033022488426,50.4661882018234],[-121.032693809865,50.4660343356511]]]}},{"type":"Feature","id":"853029148","properties":{"name":"SP_15KPH_%TR_1635 Flats_AUG_23_NS","oid":"853029148","speedLimit":4.1666665},"geometry":{"type":"Polygon","coordinates":[[[-121.018589089982,50.4569710608784],[-121.017425401635,50.4572810401005],[-121.01578792589,50.4579431499668],[-121.014823867856,50.4590966070083],[-121.018348181135,50.4588932196556],[-121.020691195772,50.4589873188859],[-121.020239526905,50.4572318784204],[-121.01942184565,50.4570967062691],[-121.018967640901,50.4570000905359],[-121.018589089982,50.4569710608784]]]}},{"type":"Feature","id":"859384545","properties":{"name":"SP_20KPH_TR%_MAINT_CREW_L1590_DUST_AUG_20_DS","oid":"859384545","speedLimit":5.5555553},"geometry":{"type":"Polygon","coordinates":[[[-121.013532962732,50.4515905082291],[-121.013428709781,50.4510356193578],[-121.012755573834,50.448326963575],[-121.012535233813,50.4488174119992],[-121.013393207425,50.4517794256906],[-121.013276415943,50.4521786508876],[-121.013115810045,50.452187908023],[-121.013441952723,50.4522151401784],[-121.013532962732,50.4515905082291]]]}},{"type":"Feature","id":"863534413","properties":{"name":"SP_20KPH_%TRAC_1590_AUG_20_DS","oid":"863534413","speedLimit":5.5555553},"geometry":{"type":"Polygon","coordinates":[[[-121.012338562029,50.456254396826],[-121.013044523568,50.4555691890588],[-121.013345166538,50.455310348769],[-121.013522678319,50.4551323960698],[-121.013056780333,50.4549761032698],[-121.013286277708,50.4550943789022],[-121.011898586399,50.4565735433083],[-121.011626683431,50.4565414578974],[-121.012023830823,50.4566651260359],[-121.012338562029,50.456254396826]]]}},{"type":"Feature","id":"878230085","properties":{"name":"SP_12KPH_TR%_PUNCH_OUT_L1590_DMP_AUG_20_DS1","oid":"878230085","speedLimit":3.3333333},"geometry":{"type":"Polygon","coordinates":[[[-121.013651867449,50.4533277040491],[-121.013644259802,50.4527798254357],[-121.013740059811,50.452449624316],[-121.013096931808,50.4524619372048],[-121.013064528864,50.452863139654],[-121.013204002406,50.4533676085938],[-121.013609320975,50.4545821807037],[-121.013327978889,50.4549548028709],[-121.013043255626,50.4549502192408],[-121.013782324521,50.4551891072582],[-121.014111989258,50.4546827509413],[-121.014058313077,50.4542962880086],[-121.013651867449,50.4533277040491]]]}},{"type":"Feature","id":"883050998","properties":{"name":"iSP_22kph_%TR_4CR_Brake_Temp_CTRL_NOREMOVE","oid":"883050998","speedLimit":6.111111},"geometry":{"type":"Polygon","coordinates":[[[-121.031797516249,50.4745592585711],[-121.032186774228,50.4743126412949],[-121.032488403374,50.4745749867137],[-121.032790032521,50.4748023707183],[-121.032967826067,50.4748847861855],[-121.033176613734,50.4749349364917],[-121.033460491703,50.4749597420195],[-121.033664348487,50.4749221742274],[-121.033825517914,50.4748627667859],[-121.033916668805,50.4748107291026],[-121.034005988226,50.4747475469069],[-121.034056424113,50.4746583908071],[-121.034050647936,50.4745482039337],[-121.03405445176,50.4744838533616],[-121.033992322636,50.4743798678702],[-121.033873981448,50.4742597947358],[-121.033507123766,50.4739378621253],[-121.033058836076,50.4735602069525],[-121.032945566653,50.4734256639268],[-121.032820603994,50.4732211081978],[-121.032603786032,50.4728151423683],[-121.032250312175,50.4722092044398],[-121.032485303962,50.4721563578806],[-121.032428246604,50.4722058790611],[-121.032900766061,50.4730490872552],[-121.033039957839,50.4733098149221],[-121.03324775933,50.4735471750629],[-121.03374070673,50.4739618587772],[-121.034095730293,50.4742713886238],[-121.034201110303,50.4743946972618],[-121.034253800308,50.4744619238371],[-121.034260844427,50.4745930516089],[-121.034235908248,50.4746790620802],[-121.034181386772,50.4747918553315],[-121.034083896174,50.4748760683008],[-121.033971049399,50.47493790237],[-121.033788465852,50.4750163633329],[-121.033528960533,50.4750646262619],[-121.033261002272,50.475068311141],[-121.033069402254,50.4750265192192],[-121.032805670464,50.4749167817214],[-121.032654926331,50.4748353548802],[-121.032493334257,50.4747055752349],[-121.032142818929,50.4744133014076],[-121.031797516249,50.4745592585711]]]}},{"type":"Feature","id":"883053336","properties":{"name":"iSP_22kph_%TR_Brake_Temp_CTRL_NOREMOVE","oid":"883053336","speedLimit":6.111111},"geometry":{"type":"Polygon","coordinates":[[[-121.032464030725,50.4721454829935],[-121.032249185116,50.4722257414583],[-121.031486588866,50.4710085629705],[-121.030814720861,50.4699235907557],[-121.030659468493,50.4696604364611],[-121.030594662604,50.4694579478594],[-121.030548312306,50.4692569871344],[-121.030594662604,50.4689731615666],[-121.030720893205,50.4686245360512],[-121.030882626161,50.4683757617727],[-121.031087046475,50.4680980477118],[-121.031686360062,50.4675367777083],[-121.032430218957,50.4668939011135],[-121.032786510462,50.4665564201107],[-121.033145619614,50.4662226239869],[-121.033482469352,50.4658709427182],[-121.033777477027,50.4660343356511],[-121.033585454362,50.4659935323554],[-121.03291739018,50.466652316843],[-121.032552645733,50.4669915054728],[-121.032176630697,50.4673079557021],[-121.031772439188,50.467668624481],[-121.031380081797,50.4680346857658],[-121.031145230892,50.4682866056729],[-121.031006884409,50.4684701306284],[-121.030903194987,50.4686547340851],[-121.030826695862,50.4688532681823],[-121.03076583468,50.4691915580611],[-121.030774569386,50.4694008771705],[-121.030871778219,50.4696305979277],[-121.031025762646,50.4699353643939],[-121.031328659734,50.4704040630437],[-121.031528712694,50.4707112561376],[-121.031748348303,50.471083159304],[-121.032144086871,50.4717290916523],[-121.032379360423,50.4721453931184],[-121.032464030725,50.4721454829935]]]}},{"type":"Feature","id":"883059532","properties":{"name":"iSP_22kph_%TR_Brake_CTRL_NOREMOVE","oid":"883059532","speedLimit":6.111111},"geometry":{"type":"Polygon","coordinates":[[[-121.02726054052,50.4773222887897],[-121.02702836638,50.4772101246641],[-121.027332813174,50.4769443639916],[-121.027714745269,50.4766327670177],[-121.028031448829,50.4763230574209],[-121.02818867355,50.4761691013735],[-121.028619491827,50.4756926734651],[-121.028905483031,50.4753260729296],[-121.0292620563,50.4748879318141],[-121.029470843967,50.4746570426806],[-121.029689634282,50.4745407443003],[-121.02979966341,50.4744885268669],[-121.029950407543,50.4745929617338],[-121.029786843115,50.4745423620522],[-121.029554246328,50.4747918553315],[-121.029250081299,50.4751733751337],[-121.029071160694,50.4754783213501],[-121.028851384202,50.4757750889324],[-121.028694300363,50.4759750610313],[-121.0284071821,50.4762709298625],[-121.028039901771,50.4765703038227],[-121.027242225812,50.4772197412999],[-121.02726054052,50.4773222887897]]]}},{"type":"Feature","id":"884401102","properties":{"name":"SP_15KPH_MAIN INT. DUST_AUG_ 23_NS","oid":"884401102","speedLimit":4.1666665},"geometry":{"type":"Polygon","coordinates":[[[-121.035770680748,50.4609092979129],[-121.035952559883,50.4612028299915],[-121.038292756872,50.4609923425058],[-121.038276414518,50.4603981782156],[-121.038117921856,50.4605660649036],[-121.035901419584,50.460851328473],[-121.03570826986,50.4607571393675],[-121.035770680748,50.4609092979129]]]}},{"type":"Feature","id":"891249991","properties":{"name":"SP_20KPH_TR%_1590 #1_AUG_23_NS","oid":"891249991","speedLimit":5.5555553},"geometry":{"type":"Polygon","coordinates":[[[-121.012956049441,50.4498608619175],[-121.013431668311,50.449822934625],[-121.012541855284,50.4443340824794],[-121.012137945539,50.4430839198297],[-121.011298709282,50.4419104206407],[-121.010528928032,50.4421498479088],[-121.011007928078,50.4427017709018],[-121.011239961336,50.4430299947693],[-121.011455511356,50.443520083693],[-121.011773482857,50.4445107769272],[-121.012956049441,50.4498608619175]]]}},{"type":"Feature","id":"893804793","properties":{"name":"SP_20KPH_%TR_1590Dynamic_AUG_23_NS","oid":"893804793","speedLimit":5.5555553},"geometry":{"type":"Polygon","coordinates":[[[-121.011185721624,50.441840947188],[-121.010483423028,50.4421102129894],[-121.005981386125,50.4380483078165],[-121.00651392147,50.4376817971562],[-121.010066552105,50.440733506198],[-121.011185721624,50.441840947188]]]}},{"type":"Feature","id":"908328496","properties":{"name":"SP_15KPH_%TR_9019_SOFT_GROUND_AUG_23_NS","oid":"908328496","speedLimit":4.1666665},"geometry":{"type":"Polygon","coordinates":[[[-121.039686506124,50.4639767350973],[-121.03969580436,50.4642094217329],[-121.039279637849,50.4648805191092],[-121.038799933392,50.4661305020088],[-121.039262309318,50.4662042894664],[-121.038926163992,50.4669793723342],[-121.037870673302,50.4685913721391],[-121.036175435787,50.4681969103224],[-121.035226593049,50.4668161591515],[-121.037879267127,50.465140168275],[-121.038518309541,50.4648146406605],[-121.039686506124,50.4639767350973]]]}},{"type":"Feature","id":"910445950","properties":{"name":"SP_20KPH_%TR_1635_FLATS_AUG_23_NS","oid":"910445950","speedLimit":5.5555553},"geometry":{"type":"Polygon","coordinates":[[[-121.020224311609,50.4571642923448],[-121.019043294731,50.4569614442426],[-121.018649669399,50.4569227979494],[-121.017841709028,50.4571471262005],[-121.018447644086,50.4564126668782],[-121.018502165562,50.4555081638655],[-121.019217143572,50.4555081638655],[-121.019235317397,50.4564590424301],[-121.019423113591,50.456892060665],[-121.01975644127,50.4570621043554],[-121.020224311609,50.4571642923448]]]}},{"type":"Feature","id":"917291012","properties":{"name":"SP_15KPH_%TR_CORNER_RUTS_AUG_23_NS","oid":"917291012","speedLimit":4.1666665},"geometry":{"type":"Polygon","coordinates":[[[-121.040608017683,50.4662216353608],[-121.04068226269,50.466107493983],[-121.040420362371,50.4659264855304],[-121.040527010322,50.4656656679883],[-121.040023778509,50.4656481423437],[-121.040217209998,50.4657710914814],[-121.040014480273,50.4663107914607],[-121.039931500559,50.466486137782],[-121.039992643506,50.4668202934061],[-121.040664793276,50.4667394956907],[-121.040546874736,50.4666225681847],[-121.040529405322,50.4663775686604],[-121.040608017683,50.4662216353608]]]}},{"type":"Feature","id":"917665392","properties":{"name":"SP_11KPH_%TR_22SH RUTS_AUG 20_DS","oid":"917665392","speedLimit":3.0555556},"geometry":{"type":"Polygon","coordinates":[[[-121.035645577207,50.445519804682],[-121.035213350106,50.4452079380828],[-121.033731972023,50.444756135952],[-121.033076023725,50.4452864889208],[-121.035584152495,50.4459568672964],[-121.036004404594,50.4464646616149],[-121.036506931995,50.4462082479528],[-121.035645577207,50.445519804682]]]}},{"type":"Feature","id":"920440343","properties":{"name":"iSP_17KPH_CAL_PAD_ROAD_LIMIT_AUG_23_NS","oid":"920440343","speedLimit":4.7222223},"geometry":{"type":"Polygon","coordinates":[[[-121.00595490024,50.4378308999481],[-121.00596856583,50.4376132224544],[-121.00558635197,50.4375784407904],[-121.005286131647,50.4376828756574],[-121.005190613402,50.4378352139529],[-121.005286131647,50.4381617301935],[-121.005988993773,50.4392588355469],[-121.007469808327,50.4413701814109],[-121.007674510405,50.4416487942228],[-121.007783694239,50.4421538024132],[-121.007933874842,50.4426631246085],[-121.008118148977,50.443233382122],[-121.008322851056,50.4436513013399],[-121.00868449609,50.4445611968587],[-121.008759586392,50.4449224947632],[-121.008759586392,50.4451793578008],[-121.008691399326,50.4456190267931],[-121.008493459601,50.4462284698505],[-121.008943860527,50.4462154379609],[-121.009134897016,50.4457322694199],[-121.009319171151,50.4449181807584],[-121.009216749671,50.4444523581118],[-121.008998382003,50.4437993256307],[-121.008773251981,50.4433770924079],[-121.008459366069,50.4427370918163],[-121.008295519877,50.4420754313255],[-121.008240998401,50.4417446010801],[-121.007920209252,50.4411960034658],[-121.006814705323,50.4398334070652],[-121.006603240891,50.439493858935],[-121.006227930266,50.4387798911356],[-121.005988993773,50.438388125572],[-121.005934472297,50.4380572953266],[-121.00595490024,50.4378308999481]]]}},{"type":"Feature","id":"921284584","properties":{"name":"SP_22kph_rough ground_23SH_AUG 23_NS","oid":"921284584","speedLimit":6.111111},"geometry":{"type":"Polygon","coordinates":[[[-121.039982640858,50.4678260856573],[-121.040542084735,50.4679703351938],[-121.040341327363,50.468254520262],[-121.039114101069,50.4697887781048],[-121.039351769621,50.4704372269558],[-121.039936994971,50.47079376148],[-121.039578167584,50.4711138067134],[-121.038660882496,50.470557929216],[-121.038401236295,50.4695221186812],[-121.039982640858,50.4678260856573]]]}},{"type":"Feature","id":"921727643","properties":{"name":"SP_35KPH_%TR_ HIGHMONT TRIAL_Aug 23_NS","oid":"921727643","speedLimit":9.722222},"geometry":{"type":"Polygon","coordinates":[[[-121.012708519124,50.4365927805618],[-121.010155871526,50.4366191139663],[-121.00726637419,50.4370212151665],[-121.006148049965,50.4371702280834],[-121.005263308703,50.437077926355],[-121.004923923082,50.4368543171047],[-121.005302333119,50.4361089828952],[-121.005969974653,50.4354593656678],[-121.006754548552,50.4347246367202],[-121.007316528312,50.4339047061771],[-121.007674087758,50.4330514319718],[-121.007911897193,50.4323925576091],[-121.007906261898,50.4319204437054],[-121.007794964829,50.4313845184804],[-121.007511227742,50.4310047063051],[-121.006988272398,50.4305645879374],[-121.005753015809,50.429783663188],[-121.004890533962,50.4292689484867],[-121.004117230652,50.4288927313155],[-121.003316314399,50.4284988087494],[-121.003470298825,50.428323372553],[-121.003115416144,50.4285318827864],[-121.004389415384,50.4291671199977],[-121.005350514888,50.4296954957143],[-121.006573937358,50.4304921486063],[-121.007130281824,50.4309177072077],[-121.007500238918,50.4313875742338],[-121.007670988346,50.4318534867555],[-121.007636190402,50.432537166646],[-121.007399085379,50.4332026917661],[-121.007172546534,50.4338689358871],[-121.006590138831,50.4345641197904],[-121.006158052613,50.4350395590728],[-121.005744703749,50.4354070583592],[-121.005112141924,50.4360623377179],[-121.004792761599,50.436645627121],[-121.004711331592,50.436933227443],[-121.004892928962,50.437085026488],[-121.005450400486,50.4372768199527],[-121.006283297036,50.4372648665643],[-121.007585895397,50.4371449731801],[-121.00881960228,50.4369812207468],[-121.009458362929,50.4368812796349],[-121.011036527198,50.436789427282],[-121.012886876199,50.4367964375399],[-121.012877577963,50.4364190519923],[-121.012708519124,50.4365927805618]]]}},{"type":"Feature","id":"923607825","properties":{"name":"MRK_CROSS DITCH ","oid":"923607825","speedLimit":2.7777777},"geometry":{"type":"Polygon","coordinates":[[[-121.035183764809,50.4458455120467],[-121.035615146616,50.4454861913944],[-121.035584716024,50.445471541753],[-121.035135442158,50.4458267281506],[-121.035183764809,50.4458455120467]]]}},{"type":"Feature","id":"924222108","properties":{"name":"sp_11kph_rough ground_23SH _AUG 23_NS","oid":"924222108","speedLimit":3.0555556},"geometry":{"type":"Polygon","coordinates":[[[-121.039471801397,50.4712559891226],[-121.039827106726,50.4714071590418],[-121.040182552936,50.4716222301576],[-121.040661130335,50.471437716576],[-121.039778502309,50.4709828586917],[-121.039641846414,50.4710719249165],[-121.039471801397,50.4712559891226]]]}},{"type":"Feature","id":"925208014","properties":{"name":"SP_BAD RAMPS_AUG 22_NS","oid":"925208014","speedLimit":5},"geometry":{"type":"Polygon","coordinates":[[[-121.036762774373,50.445160753655],[-121.036031313126,50.4452370576154],[-121.036302793446,50.4456361030622],[-121.037264174715,50.4467981881133],[-121.037917305366,50.4474349532013],[-121.038244011574,50.4478046993653],[-121.038869529281,50.4475376804413],[-121.03686857703,50.4452751646581],[-121.036762774373,50.445160753655]]]}},{"type":"Feature","id":"925221054","properties":{"name":"SP_11KPH_MUDDY GROUND NO SHIFTING_AUG 22_NS","oid":"925221054","speedLimit":3.0555556},"geometry":{"type":"Polygon","coordinates":[[[-121.038704978677,50.4481133304608],[-121.037510577974,50.4480199502313],[-121.037419990612,50.4487658236914],[-121.038169484802,50.4519075875841],[-121.039340639914,50.4515567151912],[-121.038714981325,50.4499629600318],[-121.038647357789,50.4489201392392],[-121.038704978677,50.4481133304608]]]}},{"type":"Feature","id":"925558402","properties":{"name":"SP_15KPH_LAKE2_AUG 23_NS","oid":"925558402","speedLimit":2.7777777},"geometry":{"type":"Polygon","coordinates":[[[-121.025276353271,50.4783483928136],[-121.025270013564,50.4783786807225],[-121.025224226795,50.4784259550254],[-121.025195909439,50.4784832953396],[-121.025184779732,50.4785366811494],[-121.025151672376,50.4786282638769],[-121.025080667664,50.478730991117],[-121.024998533244,50.4788125078332],[-121.0249102,50.4788688595213],[-121.0248518747,50.4789111906937],[-121.024717754688,50.4789514547388],[-121.024602512912,50.4789836300248],[-121.024496710255,50.4789886630304],[-121.024398937892,50.4789907301578],[-121.025241555326,50.4783504599409],[-121.025276353271,50.4783483928136]]]}},{"type":"Feature","id":"925558964","properties":{"name":"SP_15KPH_LAKE_AUG 23_NS","oid":"925558964","speedLimit":4.1666665},"geometry":{"type":"Polygon","coordinates":[[[-121.039604794351,50.4634625596466],[-121.039995742918,50.463425351355],[-121.040192555584,50.4642140952381],[-121.039993629683,50.464249775653],[-121.039844153492,50.4635404813589],[-121.039604794351,50.4634625596466]]]}},{"type":"Feature","id":"925579989","properties":{"name":"SP_5KPH_SWAIL_AUG 23_NS","oid":"925579989","speedLimit":1.3888888},"geometry":{"type":"Polygon","coordinates":[[[-121.038493796009,50.4502670973723],[-121.037648642693,50.4504741696042],[-121.037763461822,50.4507481089109],[-121.038592695431,50.4505069740159],[-121.038493796009,50.4502670973723]]]}},{"type":"Feature","id":"925615996","properties":{"name":"SP_10KPH_WET GROUND_AUG 23_NS","oid":"925615996","speedLimit":2.7777777},"geometry":{"type":"Polygon","coordinates":[[[-121.035900433408,50.447841997532],[-121.036228548439,50.4473197333223],[-121.037550729448,50.4477507743049],[-121.037547489154,50.4480575180234],[-121.037047215871,50.4481217787203],[-121.036296735504,50.4478378632774],[-121.035900433408,50.447841997532]]]}},{"type":"Feature","id":"923351007","properties":{"name":"iSP_17KPH_PERMISSIONS_AUG 18_NS","oid":"923351007","speedLimit":4.7222223},"geometry":{"type":"Polygon","coordinates":[[[-121.038851496338,50.4608774821272],[-121.038870938104,50.4611350641656],[-121.038781618684,50.460889795016],[-121.038536906013,50.460889795016],[-121.03853310219,50.4608303875745],[-121.038878686635,50.4608229279412],[-121.038851496338,50.4608774821272]]]}},{"type":"Feature","id":"922385545","properties":{"name":"SP_20KPH_RUTS_AUG 23_NS","oid":"922385545","speedLimit":5.5555553},"geometry":{"type":"Polygon","coordinates":[[[-121.007511227742,50.4337192938445],[-121.006869790328,50.433525882628],[-121.006518429706,50.4340724131149],[-121.007225659186,50.434319030391],[-121.007511227742,50.4337192938445]]]}},{"type":"Feature","id":"922262468","properties":{"name":"SPD_20kph_HMT_DUMP_AUG_23_NS","oid":"922262468","speedLimit":5.5555553},"geometry":{"type":"Polygon","coordinates":[[[-121.012500717633,50.4364266015008],[-121.012480853219,50.437417294735],[-121.016363007709,50.4384078980941],[-121.017179280141,50.436960010223],[-121.016522345666,50.4359058651677],[-121.014770332557,50.4353089147494],[-121.012898992083,50.4352073558856],[-121.012500717633,50.4364266015008]]]}},{"type":"Feature","id":"924266047","properties":{"name":"SP_12KPH_%TR_CROSS DITCH_AUG_22 DS ","oid":"924266047","speedLimit":3.3333333},"geometry":{"type":"Polygon","coordinates":[[[-121.037613703866,50.4473124534391],[-121.037891664775,50.4474716222424],[-121.037655264164,50.44775086418],[-121.037460564734,50.4476921757393],[-121.037265724421,50.4475135040392],[-121.037613703866,50.4473124534391]]]}}]}