{"type":"FeatureCollection","features":[{"type":"Feature","id":"702602533","properties":{"name":"iSP_4KPH_%TR_CR01_Slow Bump","oid":"702602533","speedLimit":1.1111112},"geometry":{"type":"Polygon","coordinates":[[[-121.033358225748,50.4648079693437],[-121.033652938683,50.4646909518761],[-121.033696328541,50.4647316653268],[-121.033368509708,50.4648698034586],[-121.033358225748,50.4648079693437]]]}},{"type":"Feature","id":"707947583","properties":{"name":"iSP_25KPH_%TR_Permission Gate 1 From West Dump","oid":"707947583","speedLimit":6.9444447},"geometry":{"type":"Polygon","coordinates":[[[-121.038627276034,50.4619780699576],[-121.038853945782,50.4617995778757],[-121.038138999249,50.4614083512734],[-121.037991361029,50.4616710563868],[-121.038190841678,50.4615669809433],[-121.038665735226,50.4618461332123],[-121.038627276034,50.4619780699576]]]}},{"type":"Feature","id":"742345972","properties":{"name":"iSP_4KPH_%TR_CR01_Pit Side_Slow Bump","oid":"742345972","speedLimit":1.1111112},"geometry":{"type":"Polygon","coordinates":[[[-121.033398093702,50.464882925233],[-121.033705344616,50.4647444276006],[-121.03375549653,50.4647765130352],[-121.033474025954,50.464918425924],[-121.033398093702,50.464882925233]]]}},{"type":"Feature","id":"776427243","properties":{"name":"iSP_7KPH_%TR_CR1_PermissionBlocker","oid":"776427243","speedLimit":1.9444444},"geometry":{"type":"Polygon","coordinates":[[[-121.03409923437,50.4652129468466],[-121.03405077297,50.4652332586344],[-121.034029641545,50.4652746910864],[-121.034115294253,50.4652256192452],[-121.03409923437,50.4652129468466]]]}},{"type":"Feature","id":"794004438","properties":{"name":"iSP_11KPH_%TR_Lower_Fuel_Bay","oid":"794004438","speedLimit":3.0555556},"geometry":{"type":"Polygon","coordinates":[[[-121.03677574061,50.4606955513232],[-121.036777853753,50.4607253898787],[-121.036748128882,50.4606709255274],[-121.03712426824,50.4605992051441],[-121.037534217877,50.4605561549391],[-121.037541966066,50.4605814997362],[-121.036943524122,50.4606503441142],[-121.03677574061,50.4606955513232]]]}},{"type":"Feature","id":"801543391","properties":{"name":"iSP_4KPH_%TR_CR01_PermissionBlocker_2","oid":"801543391","speedLimit":1.1111112},"geometry":{"type":"Polygon","coordinates":[[[-121.033154800567,50.4645234245647],[-121.03315395531,50.4644739932228],[-121.033175509363,50.4644319316446],[-121.033107466176,50.4644595233209],[-121.033154800567,50.4645234245647]]]}},{"type":"Feature","id":"806473874","properties":{"name":"iSP_4KPH_%TR_CR04_PermissionBlocker","oid":"806473874","speedLimit":1.1111112},"geometry":{"type":"Polygon","coordinates":[[[-121.022719821347,50.4815453318354],[-121.022686715448,50.481542995081],[-121.022679108135,50.4815716652593],[-121.022701225693,50.4815727437613],[-121.022705311102,50.4815486572166],[-121.022719821347,50.4815453318354]]]}},{"type":"Feature","id":"824566967","properties":{"name":"iSP_3KPH_%TR_CR04","oid":"824566967","speedLimit":0.8333333},"geometry":{"type":"Polygon","coordinates":[[[-121.023302626037,50.4810684541988],[-121.023282480746,50.4810684541988],[-121.023279804099,50.4811865501684],[-121.023304880056,50.481185831167],[-121.023302626037,50.4810684541988]]]}},{"type":"Feature","id":"826307302","properties":{"name":"iSP_4KPH_%TR_CR04_Pockets","oid":"826307302","speedLimit":1.1111112},"geometry":{"type":"Polygon","coordinates":[[[-121.023297836248,50.4813216325445],[-121.023337281574,50.4814772963339],[-121.02354197464,50.4814378411355],[-121.023460970846,50.4811889767979],[-121.023052711722,50.4811896957992],[-121.023058065017,50.4813603687415],[-121.023282903374,50.4813263959283],[-121.023297836248,50.4813216325445]]]}},{"type":"Feature","id":"883050998","properties":{"name":"iSP_22KPH_%TR_4CR_Brake_Temp_Ctrl","oid":"883050998","speedLimit":6.111111},"geometry":{"type":"Polygon","coordinates":[[[-121.031798585736,50.4745591553473],[-121.032187826577,50.4743125378888],[-121.032489442444,50.4745748835015],[-121.032791058311,50.4748022676742],[-121.03296884403,50.4748846832025],[-121.033177622505,50.4749348335457],[-121.033461487976,50.4749596390918],[-121.033665335785,50.474922071272],[-121.033826498117,50.4748626637865],[-121.033917644995,50.4748106260648],[-121.034006960483,50.4747474438223],[-121.03405739415,50.4746582876566],[-121.034051618227,50.4745481007017],[-121.034055421883,50.4744837500821],[-121.033993295495,50.4743797645138],[-121.033874959517,50.4742596912905],[-121.033508117986,50.473937758442],[-121.033059850032,50.4735601029899],[-121.032946585596,50.4734255598648],[-121.032821628439,50.4732210039845],[-121.032604820023,50.4728150378548],[-121.032251361727,50.4722090994782],[-121.032486343169,50.47215625288],[-121.032429288322,50.4722057740971],[-121.032901786976,50.4730489829147],[-121.033040972626,50.4733097107744],[-121.033248764968,50.4735470710907],[-121.033741690666,50.4739617551116],[-121.034096698599,50.4742712851871],[-121.03420207397,50.4743945939163],[-121.034254761655,50.4744618205413],[-121.034261805464,50.4745929484101],[-121.034236870383,50.474678958945],[-121.034182351307,50.4747917522797],[-121.034084865002,50.4748759653112],[-121.033972023194,50.4749377994262],[-121.033789447686,50.4750162604471],[-121.033529953792,50.4750645234118],[-121.033262007328,50.4750682082937],[-121.033070415745,50.475026416341],[-121.032806695566,50.4749166787619],[-121.03265595807,50.4748352518606],[-121.03249437311,50.4747054721193],[-121.032143873214,50.4744131980759],[-121.031798585736,50.4745591553473]]]}},{"type":"Feature","id":"883053336","properties":{"name":"iSP_22KPH_%TR_Brake_Temp_Ctrl","oid":"883053336","speedLimit":6.111111},"geometry":{"type":"Polygon","coordinates":[[[-121.032465070868,50.4721453779848],[-121.032250234718,50.472225636509],[-121.031487672042,50.4710084571211],[-121.030815833616,50.469923484104],[-121.030660588083,50.4696603296148],[-121.030595785048,50.4694578408633],[-121.03054943679,50.4692568799897],[-121.030595785048,50.4689730542121],[-121.030722010091,50.4686244284389],[-121.030883735927,50.4683756539764],[-121.031088147241,50.4680979397101],[-121.031687434443,50.4675366692917],[-121.032431260589,50.4668937922215],[-121.032787536407,50.4665563109691],[-121.033146629749,50.4662225145985],[-121.033483464658,50.4658708330697],[-121.033778459345,50.4660342261234],[-121.033586445133,50.4659934227976],[-121.032918410364,50.4666522077723],[-121.032553681975,50.4669913966529],[-121.032177683493,50.4673078471162],[-121.031773509779,50.4676685161618],[-121.031381169662,50.4680345777173],[-121.031146329097,50.4682864978107],[-121.031007988704,50.4684700229019],[-121.030904303847,50.4686546264951],[-121.03082780809,50.4688531607392],[-121.030766949587,50.4691914508681],[-121.030775683909,50.4694007701322],[-121.030872888462,50.4696304910593],[-121.03102686611,50.4699352577509],[-121.031329749862,50.4704039567473],[-121.031529794015,50.4707111500684],[-121.031749419955,50.4710830535098],[-121.032145141099,50.4717289863357],[-121.032380404293,50.4721452881096],[-121.032465070868,50.4721453779848]]]}},{"type":"Feature","id":"883059532","properties":{"name":"iSP_22KPH_%TR_Brake_Ctrl","oid":"883059532","speedLimit":6.111111},"geometry":{"type":"Polygon","coordinates":[[[-121.02726180975,50.4773221876091],[-121.027029645832,50.4772100234005],[-121.027334079223,50.4769442625315],[-121.027715994503,50.4766326653272],[-121.02803268412,50.4763229555014],[-121.028189901919,50.4761689993402],[-121.028620701228,50.4756925710794],[-121.028906679841,50.4753259702729],[-121.029263237412,50.4748878288333],[-121.029472015888,50.4746569395291],[-121.02969079657,50.4745406410628],[-121.029800820854,50.4744884235908],[-121.02995155835,50.4745928585349],[-121.029788001123,50.4745422588158],[-121.029555414577,50.4747917522797],[-121.029251262939,50.475173272364],[-121.02907235021,50.4754782188059],[-121.028852583394,50.4757749866076],[-121.028695506472,50.4759749588544],[-121.028408400849,50.4762708279045],[-121.02804113669,50.476570202086],[-121.027243495849,50.4772196400434],[-121.02726180975,50.4773221876091]]]}},{"type":"Feature","id":"884401102","properties":{"name":"iSP_30KPH_%TR_Maint_Limit_Policy","oid":"884401102","speedLimit":8.333333},"geometry":{"type":"Polygon","coordinates":[[[-121.036991281141,50.4611014275778],[-121.0371073631,50.4611078985898],[-121.038293540401,50.4609922292498],[-121.038277198766,50.4603980645202],[-121.038118713082,50.4605659513323],[-121.0370317126,50.4607085832225],[-121.036744043473,50.4605379102802],[-121.036991281141,50.4611014275778]]]}},{"type":"Feature","id":"908328496","properties":{"name":"SP_25KPH_%TR_1445_SOFT_GROUND_SEPT_17_NS","oid":"908328496","speedLimit":6.9444447},"geometry":{"type":"Polygon","coordinates":[[[-121.039330248092,50.4644969113904],[-121.039939255749,50.4647091965351],[-121.039187540538,50.4666748563144],[-121.03882534792,50.4674279203395],[-121.038450617324,50.4678943724567],[-121.037913738263,50.4682380550956],[-121.037178787315,50.4680259497013],[-121.038311713426,50.4667053239961],[-121.038792382898,50.4655660663781],[-121.039330248092,50.4644969113904]]]}},{"type":"Feature","id":"910445950","properties":{"name":"SP_22KPH_%TR_1635_FLATS_SEP_17_NS","oid":"910445950","speedLimit":6.111111},"geometry":{"type":"Polygon","coordinates":[[[-121.017913971888,50.4571010838907],[-121.017758162851,50.4573817640375],[-121.016600160783,50.4571353263294],[-121.017123093103,50.4561458007397],[-121.017773800105,50.4542399079464],[-121.018180650467,50.4539932006128],[-121.018533122629,50.4537516161637],[-121.019042671714,50.4536552699845],[-121.018866999138,50.4543417365108],[-121.018262217766,50.4560721929779],[-121.018042310074,50.4566100059777],[-121.017987227493,50.4569257374397],[-121.017913971888,50.4571010838907]]]}},{"type":"Feature","id":"915576987","properties":{"name":"iSP_15KPH_%TR_Preventing Shifting","oid":"915576987","speedLimit":4.1666665},"geometry":{"type":"Polygon","coordinates":[[[-121.036996775312,50.4448633216393],[-121.037510832434,50.4453132367257],[-121.037980090936,50.4457956866227],[-121.038524013806,50.4462189986597],[-121.039456614011,50.446850102083],[-121.03991389804,50.4470998651723],[-121.040469795383,50.4471952227246],[-121.041222919355,50.447322935337],[-121.041641321563,50.4475097858094],[-121.042319781168,50.4480952326478],[-121.04270240083,50.4485279815773],[-121.042845812765,50.4487950006987],[-121.043007256849,50.4493917718082],[-121.043186451329,50.4501983115577],[-121.043323946465,50.4505014604962],[-121.043685575578,50.451168873487],[-121.043856035737,50.4514891885826],[-121.044124968334,50.452253756629],[-121.044382067333,50.4529383357767],[-121.04469579855,50.4537982613754],[-121.044734680372,50.4541948804877],[-121.044570277888,50.4550719722434],[-121.04421470645,50.4568394572793],[-121.044050303967,50.4572074960885],[-121.043004157573,50.458399150929],[-121.041904337361,50.4595375097953],[-121.041342523219,50.4600008162816],[-121.040371182068,50.4605976772663],[-121.039922773238,50.4607311418894],[-121.039133725843,50.4608073560311],[-121.038496402077,50.4608389022147],[-121.038644181173,50.4611436689063],[-121.038757022981,50.4609497182958],[-121.039877974618,50.4608798852909],[-121.040705903834,50.4606320095801],[-121.041509884102,50.4600580667631],[-121.042872720112,50.458700412489],[-121.044241472922,50.4571426062179],[-121.044426865953,50.4562903200084],[-121.044812444014,50.4544217254095],[-121.044809344739,50.453786757354],[-121.044259505071,50.4523014803427],[-121.043832086789,50.451186039644],[-121.043344937014,50.4503375281915],[-121.043049097069,50.4493098056558],[-121.042926534807,50.4486920037573],[-121.042239059126,50.4478873513863],[-121.041545666647,50.4473915999647],[-121.041091341018,50.4472219156492],[-121.040457820909,50.4471304227291],[-121.039916856439,50.4470197863984],[-121.038819994626,50.4463334097474],[-121.038195349715,50.4458719007644],[-121.037152302597,50.4449070908457],[-121.037376436574,50.4446974120809],[-121.036996775312,50.4448633216393]]]}},{"type":"Feature","id":"917773475","properties":{"name":"SP_15KPH_%TR_1200_CORNER_Sept_17_NS","oid":"917773475","speedLimit":4.1666665},"geometry":{"type":"Polygon","coordinates":[[[-121.037097642645,50.4446825826783],[-121.036923519706,50.4448621532621],[-121.036627961514,50.4448206309349],[-121.036413407116,50.4448699724017],[-121.03632183761,50.4449676667083],[-121.036253230918,50.4450821676712],[-121.036240974692,50.445144990413],[-121.036262106116,50.4452673105154],[-121.036314793802,50.4453515235469],[-121.036182933712,50.4453952927533],[-121.036087842301,50.4451943318797],[-121.036161802288,50.4449317166415],[-121.036258584212,50.4447914215056],[-121.036515401459,50.4447151174888],[-121.036712487213,50.4447117921076],[-121.036921829192,50.444770121091],[-121.037092430227,50.4446836611803],[-121.037097642645,50.4446825826783]]]}},{"type":"Feature","id":"921770139","properties":{"name":"SP_20KPH_%TR_HIGHMONT_SEPT 17_NS","oid":"921770139","speedLimit":5.5555553},"geometry":{"type":"Polygon","coordinates":[[[-121.001747023307,50.4283060689825],[-121.001110826551,50.4282402803602],[-121.001000520514,50.4285433394236],[-121.001095611925,50.4288873815632],[-121.0015827617,50.4287564334447],[-121.001924949902,50.4286884878184],[-121.002548045176,50.4285670664677],[-121.002401393089,50.4281875236371],[-121.001747023307,50.4283060689825]]]}},{"type":"Feature","id":"926367691","properties":{"name":"SP_25KPH_%TR_24SH_EMPTY_LANE_SEP_17_NS","oid":"926367691","speedLimit":6.9444447},"geometry":{"type":"Polygon","coordinates":[[[-121.038782803319,50.4508575459083],[-121.03861163878,50.4512056324304],[-121.038637559994,50.4520121721798],[-121.038864511494,50.4535985587541],[-121.039043705974,50.4535756405865],[-121.038780831052,50.4517187297593],[-121.038782803319,50.4508575459083]]]}},{"type":"Feature","id":"929009157","properties":{"name":"iSP_22KPH_%TR_Long_Single_Lane","oid":"929009157","speedLimit":6.111111},"geometry":{"type":"Polygon","coordinates":[[[-121.005682117196,50.4380559967337],[-121.00475247539,50.4382240632962],[-121.005176935272,50.4381975501219],[-121.007936981077,50.4431705228672],[-121.008525702567,50.4445349177788],[-121.008212816606,50.4465097448252],[-121.007834845858,50.4466802380172],[-121.008936215709,50.4466469842053],[-121.008825487044,50.4465929692299],[-121.009405474211,50.4448176650544],[-121.008766600807,50.4430684246774],[-121.008264940787,50.4415401873362],[-121.007261479871,50.4401561996382],[-121.006441862349,50.4389840477091],[-121.005862861315,50.4383130397116],[-121.005682117196,50.4380559967337]]]}},{"type":"Feature","id":"932281958","properties":{"name":"SP_15KPH_%TR_1185-1170_22shl_SEPT_17_NS","oid":"932281958","speedLimit":4.1666665},"geometry":{"type":"Polygon","coordinates":[[[-121.037373759926,50.4481142861832],[-121.037407288453,50.4479621275253],[-121.036980715429,50.4479088315512],[-121.035922876313,50.4473800959433],[-121.035631826159,50.4472469009456],[-121.035474185731,50.4475380066118],[-121.035549413603,50.4474434579361],[-121.036813354546,50.4479515222556],[-121.037214851613,50.4480555976991],[-121.037333187591,50.4481912193262],[-121.037373759926,50.4481142861832]]]}},{"type":"Feature","id":"933274269","properties":{"name":"SP_15KPH_%TR_21SH_EMPTY_LANE_SEP_17_NS","oid":"933274269","speedLimit":4.1666665},"geometry":{"type":"Polygon","coordinates":[[[-121.039408152611,50.4523696057194],[-121.039604815736,50.4523825477434],[-121.039537054301,50.4510066488105],[-121.039310948058,50.4510519458947],[-121.039417450438,50.4515133650025],[-121.039408152611,50.4523696057194]]]}},{"type":"Feature","id":"934051091","properties":{"name":"iSP_17KPH_%TR_Ramp_Permission Blocker","oid":"934051091","speedLimit":4.7222223},"geometry":{"type":"Polygon","coordinates":[[[-121.039511555715,50.4610297970696],[-121.039463516943,50.4607717654649],[-121.039016094246,50.4607923468782],[-121.039074980483,50.461045075848],[-121.039162464581,50.4609000173284],[-121.03937842774,50.460886895554],[-121.039511555715,50.4610297970696]]]}},{"type":"Feature","id":"934773555","properties":{"name":"SP_10KPH_NEW RAMP_SEPT 17_NS","oid":"934773555","speedLimit":2.7777777},"geometry":{"type":"Polygon","coordinates":[[[-121.033902148617,50.4443402481668],[-121.034413669968,50.4442041771639],[-121.035774111084,50.4443192173778],[-121.036276052857,50.4444736229148],[-121.035931047131,50.4447856694949],[-121.034621884939,50.444610862295],[-121.03434421802,50.4446010659017],[-121.033902148617,50.4443402481668]]]}},{"type":"Feature","id":"936169885","properties":{"name":"SP_10KPH_%TR_24shl_loadplan_Sept_17_NS","oid":"936169885","speedLimit":2.7777777},"geometry":{"type":"Polygon","coordinates":[[[-121.039051454164,50.4535938852454],[-121.038510489694,50.4536891529225],[-121.038691656441,50.454508634696],[-121.039188385795,50.4544622591098],[-121.039180355854,50.4543766080756],[-121.039098929431,50.4539211207288],[-121.039076389245,50.4537567390482],[-121.039051454164,50.4535938852454]]]}},{"type":"Feature","id":"936513295","properties":{"name":"SP_30KPH_%TR_1635_FLATS_SEP_17_NS","oid":"936513295","speedLimit":8.333333},"geometry":{"type":"Polygon","coordinates":[[[-121.017434429426,50.4574539337967],[-121.015227604317,50.4585170671482],[-121.01449885192,50.4578797623384],[-121.016652425839,50.4569269058169],[-121.017434429426,50.4574539337967]]]}},{"type":"Feature","id":"937786749","properties":{"name":"SP_30KPH_%TR_24SH_Loaded_LANE_SEP_17_NS","oid":"937786749","speedLimit":8.333333},"geometry":{"type":"Polygon","coordinates":[[[-121.03840891798,50.4510853794568],[-121.038211832226,50.4510392734961],[-121.038252404561,50.4516608501517],[-121.038331717842,50.4527882442476],[-121.038494429811,50.452761012072],[-121.038402437676,50.4516753200536],[-121.03840891798,50.4510853794568]]]}},{"type":"Feature","id":"937793793","properties":{"name":"SP_10KPH_%TR_21SH_LOAD_AREA_SEP_17_NS","oid":"937793793","speedLimit":2.7777777},"geometry":{"type":"Polygon","coordinates":[[[-121.039609464649,50.4523982758976],[-121.039001865754,50.4524050165352],[-121.039057511839,50.4534374125795],[-121.039657221669,50.4534069448979],[-121.039617353714,50.4529280001325],[-121.039609464649,50.4523982758976]]]}},{"type":"Feature","id":"938065675","properties":{"name":"SP_8KPH_CR01_YARD_RUTIING_SEP_17_NS","oid":"938065675","speedLimit":2.2222223},"geometry":{"type":"Polygon","coordinates":[[[-121.034288290182,50.4648013185813],[-121.034098107361,50.4648581196869],[-121.033939903429,50.464907101653],[-121.033828470383,50.4650050655851],[-121.034043306533,50.4650689668289],[-121.033963288872,50.465011446722],[-121.034241660172,50.4648882278679],[-121.034318296805,50.4649374794595],[-121.034288290182,50.4648013185813]]]}},{"type":"Feature","id":"938165680","properties":{"name":"SP_22SH_10kph_%TR_Sept17_NS","oid":"938165680","speedLimit":2.7777777},"geometry":{"type":"Polygon","coordinates":[[[-121.034630337509,50.4470558263404],[-121.035054233886,50.4472506757027],[-121.035496021536,50.4474474124434],[-121.035794115499,50.4469122956986],[-121.034870531368,50.4467191539645],[-121.034630337509,50.4470558263404]]]}},{"type":"Feature","id":"938217281","properties":{"name":"SP_25KPH_CRUSHER_YARD_WEATHER_SEPT_17_NS","oid":"938217281","speedLimit":6.9444447},"geometry":{"type":"Polygon","coordinates":[[[-121.036882383866,50.4639826456843],[-121.03724105458,50.4642846262457],[-121.034291107706,50.4654992891289],[-121.032878542409,50.4644544903115],[-121.036882383866,50.4639826456843]]]}},{"type":"Feature","id":"939481274","properties":{"name":"SP_10KPH_%TR_LRNX_PIT_BOTTOM_SEP_17_NS1","oid":"939481274","speedLimit":2.7777777},"geometry":{"type":"Polygon","coordinates":[[[-121.03405443575,50.4452363934579],[-121.034061479558,50.4449962470114],[-121.033302016158,50.4447664362092],[-121.033468250032,50.4448876778096],[-121.033357098738,50.4469938124751],[-121.033814664519,50.4469741298135],[-121.03366294089,50.446920024963],[-121.03405443575,50.4452363934579]]]}},{"type":"Feature","id":"939584863","properties":{"name":"SP_40KPH_%TR_HMT EMPTY2_ROUGH_SECTION_SEPT 17_NS","oid":"939584863","speedLimit":11.111111},"geometry":{"type":"Polygon","coordinates":[[[-121.005961192877,50.4301700799479],[-121.005669720094,50.4303973742454],[-121.005922311056,50.4302830530329],[-121.006321694981,50.4305570824174],[-121.006714457726,50.4308738025062],[-121.007137649723,50.4312429198174],[-121.007265001775,50.4315321381051],[-121.007411794738,50.4321903838289],[-121.007318957346,50.4325924853264],[-121.007053405777,50.4326145047423],[-121.007547740236,50.4326902695082],[-121.007644944789,50.4323019189112],[-121.007586622057,50.4319287572175],[-121.007418275041,50.4313516687696],[-121.007305996739,50.4311740754394],[-121.007118208812,50.430983989461],[-121.006684310227,50.4306465980838],[-121.005961192877,50.4301700799479]]]}},{"type":"Feature","id":"939585115","properties":{"name":"SP_40KPH_%TR_HMT EMPTY22_ROUGH_SECTION_SEPT 17_NS","oid":"939585115","speedLimit":11.111111},"geometry":{"type":"Polygon","coordinates":[[[-121.00751970588,50.4327113002973],[-121.007046221092,50.4338271004967],[-121.006949580044,50.4340181751019],[-121.006753198671,50.4342996641252],[-121.005790169214,50.4352900884666],[-121.005290904089,50.4350887680923],[-121.005661267524,50.4351667797373],[-121.00661147725,50.4341291709333],[-121.006756297947,50.4339277606838],[-121.006962540651,50.4334119670999],[-121.007226542582,50.432783200431],[-121.00703016121,50.4326537801904],[-121.00751970588,50.4327113002973]]]}},{"type":"Feature","id":"940771585","properties":{"name":"SP_15KPH_%TR_1660_HMT_SEPT17_NS","oid":"940771585","speedLimit":4.1666665},"geometry":{"type":"Polygon","coordinates":[[[-121.002710475393,50.4281184995088],[-121.002605240898,50.4277113650018],[-121.002233609578,50.427697973602],[-121.002507050212,50.4277963869099],[-121.002535084569,50.4281140057504],[-121.002675397228,50.4280826393171],[-121.002710475393,50.4281184995088]]]}},{"type":"Feature","id":"940772885","properties":{"name":"SP_11KPH_%TR_1654_HMT_SEPT17_NS","oid":"940772885","speedLimit":3.0555556},"geometry":{"type":"Polygon","coordinates":[[[-121.0040638727,50.4264900513563],[-121.004414513473,50.4266376263806],[-121.004610753969,50.4261544574824],[-121.004379435308,50.4258055620837],[-121.003972725822,50.4255504963595],[-121.003537841104,50.4259173667916],[-121.003839456971,50.4258323448835],[-121.004183053935,50.4261097895243],[-121.00414797577,50.4264900513563],[-121.0040638727,50.4264900513563]]]}},{"type":"Feature","id":"940778315","properties":{"name":"SP_25KPH_%TR_HMT_SPILLING_ROCK_IN_CORNER_SEPT17_NS","oid":"940778315","speedLimit":6.9444447},"geometry":{"type":"Polygon","coordinates":[[[-121.004786144793,50.4367080489777],[-121.004772057177,50.4370436428516],[-121.004989429098,50.437276239784],[-121.005122697949,50.4371688389594],[-121.004891379288,50.436936242027],[-121.00488433548,50.4367573005693],[-121.005199898087,50.4367975646441],[-121.004800091533,50.4366991513362],[-121.004786144793,50.4367080489777]]]}}]}