{"type":"FeatureCollection","features":[{"type":"Feature","id":"702602533","properties":{"name":"iSP_4KPH_%TR_CR01_Slow Bump","oid":"702602533","speedLimit":1.1111112},"geometry":{"type":"Polygon","coordinates":[[[-121.033359153188,50.4648078436282],[-121.033653889531,50.4646908263397],[-121.033697282836,50.4647315397281],[-121.033369437965,50.4648696776486],[-121.033359153188,50.4648078436282]]]}},{"type":"Feature","id":"707947583","properties":{"name":"iSP_25KPH_%TR_Permission Gate 1 From West Dump","oid":"707947583","speedLimit":6.9444447},"geometry":{"type":"Polygon","coordinates":[[[-121.038628621975,50.4619779485715],[-121.038855309726,50.4617994567627],[-121.038140306409,50.4614082307589],[-121.037992656462,50.4616709354704],[-121.038192152955,50.4615668601862],[-121.038667084222,50.4618460120281],[-121.038628621975,50.4619779485715]]]}},{"type":"Feature","id":"742345972","properties":{"name":"iSP_4KPH_%TR_CR01_Pit Side_Slow Bump","oid":"742345972","speedLimit":1.1111112},"geometry":{"type":"Polygon","coordinates":[[[-121.033399024309,50.4648827994029],[-121.033706299627,50.4647443019823],[-121.033756455524,50.4647763873679],[-121.033474962593,50.4649183000396],[-121.033399024309,50.4648827994029]]]}},{"type":"Feature","id":"776427243","properties":{"name":"iSP_7KPH_%TR_CR1_PermissionBlocker","oid":"776427243","speedLimit":1.9444444},"geometry":{"type":"Polygon","coordinates":[[[-121.034100220666,50.4652128205116],[-121.034051755417,50.4652331322682],[-121.034030622314,50.4652745646569],[-121.034116281825,50.4652254928907],[-121.034100220666,50.4652128205116]]]}},{"type":"Feature","id":"794004438","properties":{"name":"iSP_11KPH_%TR_Lower_Fuel_Bay","oid":"794004438","speedLimit":3.0555556},"geometry":{"type":"Polygon","coordinates":[[[-121.036776939491,50.4606954318992],[-121.036779052801,50.4607252704091],[-121.03674932557,50.4606708061411],[-121.037125494803,50.4605990858675],[-121.037535477001,50.4605560357283],[-121.037543225805,50.4605813804867],[-121.036944736329,50.4606502247594],[-121.036776939491,50.4606954318992]]]}},{"type":"Feature","id":"801543391","properties":{"name":"iSP_4KPH_%TR_CR01_PermissionBlocker_2","oid":"801543391","speedLimit":1.1111112},"geometry":{"type":"Polygon","coordinates":[[[-121.03315571185,50.4645232992845],[-121.033154866526,50.4644738680183],[-121.033176422291,50.4644318065044],[-121.033108373699,50.4644593981385],[-121.03315571185,50.4645232992845]]]}},{"type":"Feature","id":"806473874","properties":{"name":"iSP_4KPH_%TR_CR04_PermissionBlocker","oid":"806473874","speedLimit":1.1111112},"geometry":{"type":"Polygon","coordinates":[[[-121.022719903819,50.4815451805139],[-121.022686795291,50.4815428437631],[-121.022679187374,50.4815715138975],[-121.022701306689,50.4815725923979],[-121.022705392422,50.48154850589],[-121.022719903819,50.4815451805139]]]}},{"type":"Feature","id":"824566967","properties":{"name":"iSP_3KPH_%TR_CR04","oid":"824566967","speedLimit":0.8333333},"geometry":{"type":"Polygon","coordinates":[[[-121.0233027548,50.4810683036069],[-121.023282607908,50.4810683036069],[-121.023279931048,50.4811863993957],[-121.023305008997,50.4811856803955],[-121.0233027548,50.4810683036069]]]}},{"type":"Feature","id":"826307302","properties":{"name":"iSP_4KPH_%TR_CR04_Pockets","oid":"826307302","speedLimit":1.1111112},"geometry":{"type":"Polygon","coordinates":[[[-121.02329796463,50.4813214815652],[-121.023337413089,50.4814771451165],[-121.023542122413,50.4814376899785],[-121.023461112185,50.4811888260215],[-121.023052820635,50.4811895450218],[-121.023058174354,50.481360217703],[-121.02328303057,50.4813262449418],[-121.02329796463,50.4813214815652]]]}},{"type":"Feature","id":"883050998","properties":{"name":"iSP_22KPH_%TR_4CR_Brake_Temp_Ctrl","oid":"883050998","speedLimit":6.111111},"geometry":{"type":"Polygon","coordinates":[[[-121.0317993893,50.4745590147137],[-121.032188661057,50.4743123976325],[-121.032490300881,50.4745747428439],[-121.032791940704,50.4748021266688],[-121.032969740544,50.4748845420709],[-121.033178535601,50.4749346923374],[-121.033462423618,50.4749594978456],[-121.033666287618,50.4749219300832],[-121.033827462751,50.4748625226887],[-121.033918616868,50.4748104850465],[-121.03400793945,50.4747473029007],[-121.034058377122,50.4746581468714],[-121.034052600741,50.4745479600851],[-121.0340564047,50.4744836095639],[-121.033994273377,50.4743796241547],[-121.033875928,50.4742595511151],[-121.033509057332,50.4739376187591],[-121.033060753774,50.4735599638848],[-121.032947480342,50.4734254209655],[-121.03282251326,50.4732208653982],[-121.032605687623,50.4728148998895],[-121.032252201254,50.47220896244],[-121.032487201359,50.4721561159226],[-121.032430141981,50.4722056370639],[-121.032902678164,50.4730488445915],[-121.033041874869,50.4733095720524],[-121.033249683715,50.4735469320055],[-121.033742648564,50.473961615392],[-121.034097684694,50.4742711449939],[-121.034203068434,50.4743944535345],[-121.034255760304,50.4744616800567],[-121.034262804672,50.4745928077248],[-121.034237867611,50.4746788181282],[-121.034183344205,50.4747916112903],[-121.034085850156,50.474875824193],[-121.033972999386,50.4749376582134],[-121.033790409377,50.4750161191142],[-121.033530894872,50.4750643820051],[-121.033262927126,50.4750680668813],[-121.033071320326,50.4750262749926],[-121.0328075792,50.4749165375814],[-121.032656829732,50.4748351108046],[-121.032495231938,50.4747053312619],[-121.032144704203,50.4744130576657],[-121.0317993893,50.4745590147137]]]}},{"type":"Feature","id":"883053336","properties":{"name":"iSP_22KPH_%TR_Brake_Temp_Ctrl","oid":"883053336","speedLimit":6.111111},"geometry":{"type":"Polygon","coordinates":[[[-121.032465927369,50.472145241044],[-121.032251074155,50.4722254994454],[-121.031488450912,50.4710083219197],[-121.030816559124,50.4699233505625],[-121.030661301261,50.4696601964758],[-121.030596493078,50.4694577080342],[-121.030550141139,50.469256747468],[-121.030596493078,50.4689729221245],[-121.030722728147,50.4686242968848],[-121.030884466828,50.4683755228028],[-121.031088894378,50.4680978089614],[-121.031688229179,50.4675365394016],[-121.032432114404,50.466893663315],[-121.03278841852,50.4665561825788],[-121.033147540384,50.4662223867189],[-121.033484402045,50.4658707057282],[-121.033779420163,50.466034098532],[-121.033587390701,50.4659932952685],[-121.032919302871,50.4666520792354],[-121.032554545514,50.4669912675971],[-121.032178517168,50.4673077175763],[-121.031774311351,50.46766838607],[-121.031381940073,50.4680344470656],[-121.031147080855,50.4682863667735],[-121.031008729474,50.4684698915839],[-121.030905036382,50.4686544948947],[-121.030828534549,50.4688530288351],[-121.030767671212,50.4691913184464],[-121.030776406228,50.4694006373904],[-121.030873618502,50.469630357966],[-121.031027608379,50.4699351241913],[-121.031330516189,50.4704038224707],[-121.03153057623,50.4707110153218],[-121.031750219614,50.4710829181942],[-121.032145972189,50.4717288500319],[-121.032381254069,50.472145151169],[-121.032465927369,50.472145241044]]]}},{"type":"Feature","id":"883059532","properties":{"name":"iSP_22KPH_%TR_Brake_Ctrl","oid":"883059532","speedLimit":6.111111},"geometry":{"type":"Polygon","coordinates":[[[-121.027262252976,50.4773220427484],[-121.027030070618,50.4772098787115],[-121.027334528188,50.476944118249],[-121.027716473803,50.4766325215214],[-121.028033188573,50.4763228121694],[-121.028190418859,50.4761688562438],[-121.028621252385,50.4756924287119],[-121.028907253713,50.4753258284662],[-121.029263839604,50.4748876876969],[-121.029472634661,50.4746567987459],[-121.029691432721,50.4745405004576],[-121.029801465744,50.4744882830654],[-121.029952215212,50.4745927178498],[-121.029788644995,50.4745421182082],[-121.029556039974,50.4747916112903],[-121.029251864179,50.4751731307909],[-121.02907293724,50.4754780767663],[-121.028853152969,50.475774844114],[-121.02869606357,50.4759748160549],[-121.028408935144,50.4762706846523],[-121.028041641814,50.4765700583758],[-121.02724393762,50.4772194953397],[-121.027262252976,50.4773220427484]]]}},{"type":"Feature","id":"884401102","properties":{"name":"iSP_30KPH_%TR_Maint_Limit_Policy","oid":"884401102","speedLimit":8.333333},"geometry":{"type":"Polygon","coordinates":[[[-121.036992497142,50.4611013075329],[-121.037108588321,50.461107778535],[-121.038294859835,50.4609921093719],[-121.038278516902,50.4603979455513],[-121.03812001863,50.4605658321066],[-121.037032931812,50.4607084637785],[-121.036745239837,50.4605377910973],[-121.036992497142,50.4611013075329]]]}},{"type":"Feature","id":"910445950","properties":{"name":"SP_22KPH_%TR_1635_FLATS_SEP_28_DS","oid":"910445950","speedLimit":6.111111},"geometry":{"type":"Polygon","coordinates":[[[-121.017369847466,50.4554938246866],[-121.018002995232,50.4544141559562],[-121.018148250093,50.4539984839443],[-121.018532872568,50.453751507363],[-121.018948912922,50.4536880555921],[-121.018866775595,50.4543416268073],[-121.018261946187,50.456072080627],[-121.018276034923,50.4557008068798],[-121.017369847466,50.4554938246866]]]}},{"type":"Feature","id":"915576987","properties":{"name":"iSP_15KPH_%TR_Preventing Shifting","oid":"915576987","speedLimit":4.1666665},"geometry":{"type":"Polygon","coordinates":[[[-121.036997991748,50.4448632264366],[-121.0375120897,50.4453131408347],[-121.037981385474,50.4457955899936],[-121.038525351545,50.446218901383],[-121.039458025824,50.4468500038407],[-121.039915346172,50.447099766548],[-121.040471287668,50.4471951239544],[-121.041224471459,50.4473228363714],[-121.041642906898,50.4475096865579],[-121.042321420391,50.4480951325007],[-121.042704070443,50.4485278807682],[-121.042847493768,50.4487948994811],[-121.043008950675,50.4493916696776],[-121.043188159389,50.4501982081931],[-121.043325665445,50.4505013566679],[-121.043687323281,50.4511687686377],[-121.043857796979,50.4514890832431],[-121.044126750936,50.4522536501198],[-121.044383870356,50.4529382282202],[-121.044697626491,50.4537981525034],[-121.044736511401,50.4541947710089],[-121.04457209586,50.4550718614227],[-121.04421649618,50.4568393437546],[-121.044052080639,50.4572073820008],[-121.043005851154,50.4583990350182],[-121.041905943587,50.459537392143],[-121.041344084822,50.4600006979205],[-121.040372666521,50.460597557992],[-121.039924222076,50.460731022411],[-121.03913511201,50.4608072364361],[-121.038497737624,50.4608387825714],[-121.038645528457,50.4611435487968],[-121.038758379227,50.4609495984829],[-121.039879419897,50.4608797655849],[-121.040707414872,50.4606318902533],[-121.041511458997,50.4600579483144],[-121.042874403253,50.4587002961174],[-121.044243264777,50.4571424922295],[-121.044428672534,50.4562902073239],[-121.04481428122,50.4544216155836],[-121.044811181698,50.4537866484996],[-121.044261298358,50.4523013737606],[-121.043833846129,50.4511859347683],[-121.043346657661,50.4503374246139],[-121.043050794219,50.4493097036506],[-121.042928222222,50.4486919026972],[-121.042240691938,50.4478872515572],[-121.041547244385,50.447391500894],[-121.041092882671,50.4472218168382],[-121.040459312243,50.447130324058],[-121.039918304807,50.4470196878966],[-121.038821355874,50.4463333122956],[-121.03819666135,50.4458718040187],[-121.037153531386,50.444906995576],[-121.037377683165,50.444697317132],[-121.036997991748,50.4448632264366]]]}},{"type":"Feature","id":"917773475","properties":{"name":"SP_15KPH_%TR_1200_CORNER_Sept_28_DS","oid":"917773475","speedLimit":4.1666665},"geometry":{"type":"Polygon","coordinates":[[[-121.037098867093,50.4446824877521],[-121.036924730325,50.4448620580612],[-121.036629148657,50.4448205357975],[-121.036414577218,50.4448698771888],[-121.036323000439,50.444967571346],[-121.036254388298,50.4450820721336],[-121.036242131098,50.4451448947793],[-121.036263264201,50.4452672146946],[-121.036315956071,50.4453514275973],[-121.036184085509,50.4453951967368],[-121.036088986545,50.4451942361706],[-121.036162952406,50.4449316213341],[-121.036259742017,50.4447913264129],[-121.036516579662,50.4447150225128],[-121.036713681069,50.4447116971367],[-121.036923039676,50.4447700260309],[-121.037093654261,50.4446835662524],[-121.037098867093,50.4446824877521]]]}},{"type":"Feature","id":"926367691","properties":{"name":"SP_30KPH_%TR_24SH_EMPTY_LANE_SEP_28_DS","oid":"926367691","speedLimit":6.9444447},"geometry":{"type":"Polygon","coordinates":[[[-121.038923499205,50.4549415426298],[-121.039203442376,50.4546234749001],[-121.039439006031,50.4538306872641],[-121.039920981666,50.4514268897226],[-121.039502546227,50.4515917205269],[-121.039433229649,50.4530470668811],[-121.0392042877,50.4540991439775],[-121.038923499205,50.4549415426298]]]}},{"type":"Feature","id":"929009157","properties":{"name":"iSP_22KPH_%TR_Long_Single_Lane","oid":"929009157","speedLimit":6.111111},"geometry":{"type":"Polygon","coordinates":[[[-121.005680846428,50.4380559119453],[-121.004751130784,50.4382239782507],[-121.00517562438,50.438197465117],[-121.007935889405,50.4431704302543],[-121.008524657654,50.4445348230785],[-121.008211746842,50.4465096471037],[-121.007833746074,50.4466801400348],[-121.008935203401,50.4466468862739],[-121.008824465942,50.4465928713811],[-121.009404499175,50.4448175699216],[-121.008765575028,50.4430683322206],[-121.008263875163,50.4415400972175],[-121.007260334546,50.4401561116368],[-121.006440651925,50.4389839615009],[-121.005861604903,50.43831295453],[-121.005680846428,50.4380559119453]]]}},{"type":"Feature","id":"932268643","properties":{"name":"SP_35KPH_%traction_1185_1170_SEP_28_DS","oid":"932268643","speedLimit":9.722222},"geometry":{"type":"Polygon","coordinates":[[[-121.038729074658,50.4481974102844],[-121.038467305956,50.4482556493035],[-121.038947168281,50.4498292711966],[-121.039506350186,50.4497913439341],[-121.03910580744,50.4497305884141],[-121.038622000269,50.4483441762077],[-121.038852069317,50.4481594830219],[-121.038729074658,50.4481974102844]]]}},{"type":"Feature","id":"934051091","properties":{"name":"iSP_17KPH_%TR_Ramp_Permission Blocker","oid":"934051091","speedLimit":4.7222223},"geometry":{"type":"Polygon","coordinates":[[[-121.039512971891,50.4610296771343],[-121.039464929304,50.4607716459243],[-121.03901747107,50.4607922273061],[-121.039076361984,50.4610449558893],[-121.03916385303,50.4608998975916],[-121.039379833343,50.4608867758372],[-121.039512971891,50.4610296771343]]]}},{"type":"Feature","id":"934181442","properties":{"name":"SP_30KPH_TR%_1590_3_SEPT 28_DS_Rough_section ","oid":"934181442","speedLimit":8.333333},"geometry":{"type":"Polygon","coordinates":[[[-121.011062320661,50.4415091802073],[-121.010401277199,50.4418072956805],[-121.011607132056,50.4432053017657],[-121.012272683913,50.4429312728005],[-121.011824521242,50.4429214764223],[-121.010901427304,50.4417730532942],[-121.011062320661,50.4415091802073]]]}},{"type":"Feature","id":"934181877","properties":{"name":"SP_30KPH_TR%_1590_7_SEPT 28_DS","oid":"934181877","speedLimit":8.333333},"geometry":{"type":"Polygon","coordinates":[[[-121.013995595356,50.4497858615573],[-121.013325394216,50.4498807695886],[-121.013673949528,50.4515053506235],[-121.014402900694,50.4513828509581],[-121.013984465255,50.4512795845491],[-121.013707198944,50.450000573003],[-121.013995595356,50.4497858615573]]]}},{"type":"Feature","id":"934182273","properties":{"name":"SP_30KPH_TR%_1590_17_SEPT 28_DS","oid":"934182273","speedLimit":8.333333},"geometry":{"type":"Polygon","coordinates":[[[-121.008849684778,50.4413696941614],[-121.009440707225,50.4411107642011],[-121.007219758988,50.4391735079383],[-121.00629821481,50.4396569457225],[-121.007075913,50.4394768361632],[-121.008913788524,50.4411152579526],[-121.008849684778,50.4413696941614]]]}},{"type":"Feature","id":"936169885","properties":{"name":"SP_15KPH_%TR_24shl_loadplan_Sept_28_DS","oid":"936169885","speedLimit":4.1666665},"geometry":{"type":"Polygon","coordinates":[[[-121.039168924975,50.4546366865294],[-121.038619041635,50.4545682017569],[-121.038154536031,50.4553922659032],[-121.038670042857,50.455519349195],[-121.038842066315,50.4552446012296],[-121.039002114348,50.4549473845067],[-121.039087492085,50.4547917209555],[-121.039168924975,50.4546366865294]]]}},{"type":"Feature","id":"936513295","properties":{"name":"SP_30KPH_%TR_1635_FLATS_SEP_28_DS","oid":"936513295","speedLimit":8.333333},"geometry":{"type":"Polygon","coordinates":[[[-121.017286019491,50.4555552093319],[-121.018050192495,50.4557851995326],[-121.0174340921,50.457453819332],[-121.015227091711,50.458516951057],[-121.014498281432,50.4578796472222],[-121.016177376908,50.4566194195572],[-121.017286019491,50.4555552093319]]]}},{"type":"Feature","id":"937786749","properties":{"name":"SP_15KPH_%TR_24SH_Loaded_LANE_SEP_28_DS","oid":"937786749","speedLimit":4.1666665},"geometry":{"type":"Polygon","coordinates":[[[-121.03828020755,50.4554283956651],[-121.038456457629,50.4555011944391],[-121.038969710257,50.4539575009308],[-121.039134266686,50.4529388573454],[-121.038910819344,50.4529279824669],[-121.038490693256,50.454854094226],[-121.03828020755,50.4554283956651]]]}},{"type":"Feature","id":"938065675","properties":{"name":"iSP_8KPH_CR01_YARD_RUTIING_SEP_28_DS","oid":"938065675","speedLimit":2.2222223},"geometry":{"type":"Polygon","coordinates":[[[-121.034289291494,50.464801192876],[-121.034099093568,50.4648579938947],[-121.03394087707,50.4649069757859],[-121.033829435173,50.4650049395681],[-121.034044288387,50.4650688407142],[-121.033964264371,50.4650113206952],[-121.034242657781,50.4648881020296],[-121.034319300501,50.4649373535459],[-121.034289291494,50.464801192876]]]}},{"type":"Feature","id":"938165680","properties":{"name":"SP_10KPH_%TR_22SH_Sept_28_DS","oid":"938165680","speedLimit":2.7777777},"geometry":{"type":"Polygon","coordinates":[[[-121.034080496437,50.4466113856372],[-121.035055296034,50.4472505768476],[-121.035497118774,50.4474473132874],[-121.035795236414,50.4469121973612],[-121.034854954218,50.4461953541252],[-121.034080496437,50.4466113856372]]]}},{"type":"Feature","id":"944724443","properties":{"name":"SP_12KPH_%TR_21SH_EMPTY_SEPT 28_DS","oid":"944724443","speedLimit":3.3333333},"geometry":{"type":"Polygon","coordinates":[[[-121.039134689348,50.4501831091881],[-121.038912791767,50.4501672911829],[-121.038927866713,50.4505369471796],[-121.039265573699,50.4511709256384],[-121.039344893279,50.4515559502651],[-121.039732474388,50.4514983403712],[-121.039710918623,50.4511095409932],[-121.039407306376,50.4509586408185],[-121.039104539454,50.4503565679952],[-121.039084674337,50.4502969808506],[-121.039134689348,50.4501831091881]]]}},{"type":"Feature","id":"944724972","properties":{"name":"SP_20KPH_%TR_21SH_LOADED_SEPT 28_DS","oid":"944724972","speedLimit":5.5555553},"geometry":{"type":"Polygon","coordinates":[[[-121.038746685577,50.4528630028205],[-121.039145678561,50.4529207924645],[-121.039173996919,50.452184266597],[-121.039258811106,50.4516354896663],[-121.039213445378,50.4512646652942],[-121.038913073541,50.4506402135886],[-121.038818538127,50.4509653814457],[-121.038886023169,50.4509782335749],[-121.039058187515,50.4512926164284],[-121.039102003482,50.4515746442713],[-121.039046916527,50.4519345038898],[-121.038989998036,50.4528594078193],[-121.038746685577,50.4528630028205]]]}},{"type":"Feature","id":"945606742","properties":{"name":"SP_20KPH_19SH_SEPT 28_DS","oid":"945606742","speedLimit":5.5555553},"geometry":{"type":"Polygon","coordinates":[[[-121.003173333315,50.4271972108702],[-121.002724043545,50.4276020978785],[-121.002069480902,50.4273943068101],[-121.002381264615,50.4270466701956],[-121.003173333315,50.4271972108702]]]}},{"type":"Feature","id":"947937278","properties":{"name":"SP_20KM_HDH_RAMP_SEPT_28_DS","oid":"947937278","speedLimit":5.5555553},"geometry":{"type":"Polygon","coordinates":[[[-121.035683935404,50.4530870612692],[-121.034802825897,50.4533740322387],[-121.033880577283,50.4522901393819],[-121.033033562515,50.4504454543995],[-121.032908877207,50.4481652350238],[-121.033815487325,50.4482010052855],[-121.033429596865,50.4497292402887],[-121.034151221888,50.4518553239887],[-121.03525887826,50.4531885301776],[-121.035683935404,50.4530870612692]]]}},{"type":"Feature","id":"948238095","properties":{"name":"SP_30KPH_CRUSHER YARD_sep28 ds","oid":"948238095","speedLimit":8.333333},"geometry":{"type":"Polygon","coordinates":[[[-121.035558968322,50.4644268633778],[-121.035668296908,50.4645727305508],[-121.036764964066,50.4642007378033],[-121.036576034125,50.4640972017692],[-121.035956552433,50.4643169462166],[-121.035558968322,50.4644268633778]]]}},{"type":"Feature","id":"948301528","properties":{"name":"SP_25KPH_%TR_24SH__LANE_SEP_28_DS","oid":"948301528","speedLimit":6.9444447},"geometry":{"type":"Polygon","coordinates":[[[-121.038886586719,50.4508956384227],[-121.038355018735,50.4507935403891],[-121.038184685925,50.4515244940048],[-121.038308525908,50.4527591971613],[-121.038334308294,50.4539972256939],[-121.03814340593,50.4547939678312],[-121.038721466741,50.4548071794606],[-121.039005354758,50.4538325746397],[-121.03884023478,50.4523641065312],[-121.038767959567,50.4514783881146],[-121.03887108911,50.4509811994509],[-121.038886586719,50.4508956384227]]]}},{"type":"Feature","id":"948333262","properties":{"name":"SP_15KPH_19SH_SEP 28 DS","oid":"948333262","speedLimit":4.1666665},"geometry":{"type":"Polygon","coordinates":[[[-121.001735718762,50.4276537760205],[-121.002115973729,50.4274006879372],[-121.001864771578,50.4271371743504],[-121.001669924368,50.4267522395987],[-121.002057223702,50.4262430975561],[-121.00173797296,50.426142797023],[-121.001735718762,50.4276537760205]]]}}]}