{"type":"FeatureCollection","features":[{"type":"Feature","id":"702602533","properties":{"name":"iSP_4KPH_%TR_CR01_SLOW BUMP","oid":"702602533","speedLimit":1.1111112},"geometry":{"type":"Polygon","coordinates":[[[-121.03335595602,50.4648077702793],[-121.033650690229,50.4646907539221],[-121.03369408322,50.4647314669865],[-121.033366240723,50.4648696038075],[-121.03335595602,50.4648077702793]]]}},{"type":"Feature","id":"707947583","properties":{"name":"iSP_25KPH_%TR_Permission Gate 1 from west dump_Jun","oid":"707947583","speedLimit":6.9444447},"geometry":{"type":"Polygon","coordinates":[[[-121.038625386655,50.4619778977458],[-121.038852072765,50.4617994073577],[-121.038137074624,50.4614081844677],[-121.037989425747,50.4616708870883],[-121.038188920795,50.4615668126324],[-121.038663848624,50.4618459622525],[-121.038625386655,50.4619778977458]]]}},{"type":"Feature","id":"742345972","properties":{"name":"iSP_4KPH_%TR_CR01_PITSIDE_SLOW BUMP","oid":"742345972","speedLimit":1.1111112},"geometry":{"type":"Polygon","coordinates":[[[-121.033395826853,50.4648827254574],[-121.033703099945,50.4647442291391],[-121.03375325548,50.4647763142693],[-121.033471764586,50.4649182258115],[-121.033395826853,50.4648827254574]]]}},{"type":"Feature","id":"776427243","properties":{"name":"iSP_7KPH_%TR_CR1_PermissionBlocker_DO_NOT_DELETE","oid":"776427243","speedLimit":1.9444444},"geometry":{"type":"Polygon","coordinates":[[[-121.034097018133,50.4652127439394],[-121.034048553234,50.4652330555344],[-121.034027420284,50.4652744875933],[-121.034113079175,50.4652254162177],[-121.034097018133,50.4652127439394]]]}},{"type":"Feature","id":"794004438","properties":{"name":"iSP_11KPH_%TR_LOWER_FUEL_BAY","oid":"794004438","speedLimit":3.0555556},"geometry":{"type":"Polygon","coordinates":[[[-121.036773717577,50.4606953912812],[-121.036775830872,50.4607252295535],[-121.036746103856,50.4606707657191],[-121.037122270366,50.4605990460163],[-121.037532249595,50.4605559962198],[-121.037539998344,50.4605813407764],[-121.0369415132,50.4606501845011],[-121.036773717577,50.4606953912812]]]}},{"type":"Feature","id":"801543391","properties":{"name":"iSP_4KPH_%TR_CR1_PermissionBlocker_DO_NOT_DELETE_","oid":"801543391","speedLimit":1.1111112},"geometry":{"type":"Polygon","coordinates":[[[-121.033152516155,50.4645232282003],[-121.033151670837,50.4644737973274],[-121.033173226446,50.4644317361484],[-121.033105178347,50.4644593275628],[-121.033152516155,50.4645232282003]]]}},{"type":"Feature","id":"806473874","properties":{"name":"iSP_4KPH_%TR_Permission Blocker - DO NOT DELETE","oid":"806473874","speedLimit":1.1111112},"geometry":{"type":"Polygon","coordinates":[[[-121.022716783682,50.4815449739516],[-121.022683675394,50.4815426372194],[-121.022676067532,50.4815713071257],[-121.022698186686,50.4815723856174],[-121.02270227239,50.4815482993012],[-121.022716783682,50.4815449739516]]]}},{"type":"Feature","id":"824566967","properties":{"name":"iSP_4Cr_3KPH","oid":"824566967","speedLimit":0.8333333},"geometry":{"type":"Polygon","coordinates":[[[-121.023299630443,50.4810681008401],[-121.023279483697,50.4810681008401],[-121.023276806857,50.481186195689],[-121.023301884624,50.4811854766945],[-121.023299630443,50.4810681008401]]]}},{"type":"Feature","id":"826307302","properties":{"name":"iSP_4KPH_TR%_CRUSHER POCKETS","oid":"826307302","speedLimit":1.1111112},"geometry":{"type":"Polygon","coordinates":[[[-121.023294840307,50.4813212767834],[-121.023334288481,50.4814769390957],[-121.023538996323,50.4814374842717],[-121.023457986681,50.4811886222955],[-121.023049698087,50.48118934129],[-121.023055051768,50.4813600126128],[-121.023279906356,50.481326040122],[-121.023294840307,50.4813212767834]]]}},{"type":"Feature","id":"883050998","properties":{"name":"iSP_22kph_%TR_4CR_Brake_Temp_CTRL_NOREMOVE","oid":"883050998","speedLimit":6.111111},"geometry":{"type":"Polygon","coordinates":[[[-121.031796203425,50.4745588637547],[-121.032185472364,50.4743122486363],[-121.032487110003,50.4745745917597],[-121.032788747643,50.4748019737748],[-121.032966546195,50.474884388521],[-121.033175339741,50.4749345383883],[-121.033459225703,50.4749593436991],[-121.033663088227,50.4749217762357],[-121.033824262192,50.474862369314],[-121.033915415649,50.474810332086],[-121.034004737585,50.4747471504431],[-121.034055174892,50.4746579951233],[-121.034049398552,50.474547809214],[-121.034053202483,50.474483459205],[-121.03399107161,50.4743794746234],[-121.03387272709,50.4742594025395],[-121.033505859079,50.4739374727458],[-121.033057558767,50.4735598208773],[-121.032944286155,50.4734252790288],[-121.032819319977,50.4732207250895],[-121.03260249591,50.472814762812],[-121.0322490121,50.4722088301851],[-121.032484010504,50.4721559840884],[-121.032426951539,50.4722055048355],[-121.032899484301,50.473048705652],[-121.033038679998,50.4733094310377],[-121.033246487339,50.4735467891017],[-121.033739448619,50.4739614691877],[-121.034094482179,50.4742709963261],[-121.034199865156,50.4743943038853],[-121.034252556645,50.4744615298723],[-121.034259600961,50.4745926564969],[-121.03423466408,50.4746786662156],[-121.03418014107,50.47479145848],[-121.034082647727,50.4748756707125],[-121.033969797774,50.4749375042407],[-121.033787209086,50.4750159645171],[-121.03352769646,50.4750642270238],[-121.033259730655,50.4750679118707],[-121.033068125242,50.4750261203146],[-121.032804386026,50.4749163837769],[-121.032653637649,50.4748349576481],[-121.032492041025,50.4747051791383],[-121.032141515828,50.4744129078683],[-121.031796203425,50.4745588637547]]]}},{"type":"Feature","id":"883053336","properties":{"name":"iSP_22kph_%TR_Brake_Temp_CTRL_NOREMOVE","oid":"883053336","speedLimit":6.111111},"geometry":{"type":"Polygon","coordinates":[[[-121.032462736668,50.4721451092963],[-121.03224788501,50.472225367059],[-121.031485267288,50.4710081992208],[-121.030813380365,50.4699232364989],[-121.030658123626,50.4696600845067],[-121.030593315913,50.4694575976767],[-121.030546964309,50.46925663871],[-121.030593315913,50.4689728156255],[-121.030719550067,50.4686241931605],[-121.030881287578,50.4683754210586],[-121.031085713647,50.4680977094275],[-121.031685044108,50.4675364443348],[-121.032428923948,50.4668935733649],[-121.032785225484,50.4665560953148],[-121.033144344748,50.4662223021116],[-121.033481203971,50.4658706239198],[-121.033776219952,50.4660340154232],[-121.03358419188,50.4659932124845],[-121.032916108888,50.4666519912081],[-121.032551354171,50.4669911768702],[-121.032175328548,50.4673076243307],[-121.031771125658,50.4676682899539],[-121.03137875722,50.4680343480359],[-121.031143899703,50.4682862657388],[-121.031005549323,50.4684697890885],[-121.030901856982,50.4686543909301],[-121.030825355703,50.4688529232903],[-121.030764492807,50.4691912102092],[-121.03077322776,50.4694005274871],[-121.03087043933,50.4696302462344],[-121.031024428092,50.4699350100341],[-121.031327333708,50.470403704583],[-121.031527392302,50.4707108949892],[-121.031747034095,50.4710827949016],[-121.032142783805,50.4717287215983],[-121.032378063982,50.472145019422],[-121.032462736668,50.4721451092963]]]}},{"type":"Feature","id":"883059532","properties":{"name":"iSP_22kph_%TR_Brake_CTRL_NOREMOVE","oid":"883059532","speedLimit":6.111111},"geometry":{"type":"Polygon","coordinates":[[[-121.027259099951,50.4773218697983],[-121.027026919274,50.4772097066541],[-121.02733137464,50.4769439483068],[-121.027713317489,50.4766323540592],[-121.028030029966,50.4763226471723],[-121.028187259114,50.4761686924719],[-121.028618089521,50.475692268732],[-121.028904088777,50.475325671404],[-121.029260672087,50.474887534122],[-121.029469465633,50.4746566470086],[-121.029688262108,50.474540349646],[-121.029798294334,50.4744881326694],[-121.029949042711,50.4745925666226],[-121.029785473678,50.4745419673836],[-121.029552870342,50.47479145848],[-121.029248696748,50.4751729749441],[-121.029069771105,50.4754779184924],[-121.028849988425,50.4757746834782],[-121.028692900164,50.4759746538274],[-121.028405773817,50.47627052007],[-121.028038483146,50.4765698914108],[-121.027240784728,50.4772193232057],[-121.027259099951,50.4773218697983]]]}},{"type":"Feature","id":"884401102","properties":{"name":"iSP_30KPH_MAIN INT_LIMIT_POLICY_SEPT_8_NS","oid":"884401102","speedLimit":8.333333},"geometry":{"type":"Polygon","coordinates":[[[-121.036989273667,50.4611012636844],[-121.037105364006,50.4611077346351],[-121.038291626931,50.4609920663926],[-121.038275284117,50.460397907301],[-121.038116786992,50.46056579252],[-121.037029708045,50.4607084230568],[-121.036742018153,50.460537751734],[-121.036989273667,50.4611012636844]]]}},{"type":"Feature","id":"910445950","properties":{"name":"SP_22KPH_%TR_1635_FLATS_SEP_11_DS","oid":"910445950","speedLimit":6.111111},"geometry":{"type":"Polygon","coordinates":[[[-121.01891383889,50.4576034452473],[-121.018251391351,50.4578016181103],[-121.017438195436,50.4564353487848],[-121.017478066268,50.4564157561842],[-121.01777040541,50.4542398091614],[-121.01817728514,50.4539931041688],[-121.018529782746,50.453751522012],[-121.019039368613,50.4536551767471],[-121.019217026279,50.4539290237827],[-121.019242385819,50.4568507478653],[-121.019155036292,50.4570730969188],[-121.019193075602,50.4574050926357],[-121.01891383889,50.4576034452473]]]}},{"type":"Feature","id":"917773475","properties":{"name":"SP_15KPH_%TR_1200_CORNER_Sept_11_DS","oid":"917773475","speedLimit":4.1666665},"geometry":{"type":"Polygon","coordinates":[[[-121.037095642849,50.4446825745819],[-121.036921507341,50.4448621434618],[-121.036625927814,50.4448206215286],[-121.036411357928,50.4448699625272],[-121.036319781812,50.4449676559068],[-121.036251170168,50.4450821557832],[-121.036238913057,50.4451449779288],[-121.036260046007,50.4452672968706],[-121.036312737495,50.445351509103],[-121.036180867887,50.4453952778941],[-121.036085769612,50.4451943189274],[-121.036159734937,50.4449317061811],[-121.036256523848,50.4447914123765],[-121.036513359634,50.4447151090837],[-121.036710459614,50.444711783734],[-121.036919816705,50.444770112164],[-121.037090430055,50.4446836530737],[-121.037095642849,50.4446825745819]]]}},{"type":"Feature","id":"926367691","properties":{"name":"SP_25KPH_%TR_24SH_SEP_11_DS","oid":"926367691","speedLimit":6.9444447},"geometry":{"type":"Polygon","coordinates":[[[-121.038550998671,50.4504036139311],[-121.038070998934,50.4511544239525],[-121.038242034942,50.4520114654134],[-121.038393628637,50.4531303107518],[-121.038774021736,50.4530968775069],[-121.038839533881,50.4508309662955],[-121.038550998671,50.4504036139311]]]}},{"type":"Feature","id":"929009157","properties":{"name":"iSP_22kph_Long_Single_Lane_Aug30","oid":"929009157","speedLimit":6.111111},"geometry":{"type":"Polygon","coordinates":[[[-121.005677849658,50.4380560515164],[-121.004748140745,50.4382241164841],[-121.005172631267,50.4381976035614],[-121.007932876307,50.4431705291186],[-121.008521640294,50.4445349110836],[-121.008208731748,50.446509719391],[-121.007830733716,50.4466802109652],[-121.008932183069,50.4466469574689],[-121.008821446411,50.446592943006],[-121.009401475445,50.4448176556763],[-121.008762555924,50.4430684318976],[-121.008260859691,50.4415402090577],[-121.00725732634,50.4401562344923],[-121.006437649653,50.4389840936856],[-121.005858606824,50.4383130920552],[-121.005677849658,50.4380560515164]]]}},{"type":"Feature","id":"930116666","properties":{"name":"SP_25KPH_9023 Rough_SEP_11_DS","oid":"930116666","speedLimit":6.9444447},"geometry":{"type":"Polygon","coordinates":[[[-121.043594447627,50.4685541810696],[-121.043294218851,50.4689178125452],[-121.042545689763,50.4684625092691],[-121.042341122807,50.4680405493636],[-121.043033015589,50.4679072657555],[-121.043594447627,50.4685541810696]]]}},{"type":"Feature","id":"933252378","properties":{"name":"SP_20KPH_%TR_1615_ROUGH_SECTION_SEP_11_DS","oid":"933252378","speedLimit":5.5555553},"geometry":{"type":"Polygon","coordinates":[[[-121.007359468931,50.4314120029596],[-121.007541916733,50.4321458267357],[-121.007050646089,50.4322078400125],[-121.007395958492,50.4321240771516],[-121.007254931272,50.4314848910285],[-121.006907082915,50.4314554122534],[-121.007359468931,50.4314120029596]]]}},{"type":"Feature","id":"933252478","properties":{"name":"SP_30KPH_%TR_1605_PATCH_SEP_11_DS","oid":"933252478","speedLimit":8.333333},"geometry":{"type":"Polygon","coordinates":[[[-121.006590793097,50.4333410652412],[-121.007208861441,50.4334385788721],[-121.006977948741,50.4339629056216],[-121.006675747556,50.4343789338223],[-121.006271544666,50.4347754592969],[-121.005738289895,50.4345240808399],[-121.006210399998,50.4346042487282],[-121.00669941646,50.4339780943807],[-121.006892994282,50.4335512812622],[-121.006590793097,50.4333410652412]]]}},{"type":"Feature","id":"933252549","properties":{"name":"SP_35KPH_%TR_1590_ROUGH_SEP_11_DS","oid":"933252549","speedLimit":9.722222},"geometry":{"type":"Polygon","coordinates":[[[-121.004360139784,50.4363930172052],[-121.004776740671,50.436450177269],[-121.004880996558,50.436211381216],[-121.005078941856,50.4359571267809],[-121.004581472213,50.4358325609814],[-121.004795478553,50.4359810333485],[-121.004624301658,50.4363683017687],[-121.004360139784,50.4363930172052]]]}},{"type":"Feature","id":"933371104","properties":{"name":"SP_25KPH_1590_HMT_INTERSECT_SEPT_11_DS","oid":"933371104","speedLimit":6.9444447},"geometry":{"type":"Polygon","coordinates":[[[-121.006357626216,50.4374889445934],[-121.005859874801,50.4376813655002],[-121.00606585062,50.4377780702624],[-121.006385380823,50.4379885559064],[-121.006551204038,50.4382644700512],[-121.007084740581,50.4381538347703],[-121.006742809451,50.4380711504012],[-121.006114456405,50.4376597956648],[-121.006357626216,50.4374889445934]]]}},{"type":"Feature","id":"934051091","properties":{"name":"iSP_17KPH_PERMISSIONS BLOCKER_SEPT 7_NS","oid":"934051091","speedLimit":4.7222223},"geometry":{"type":"Polygon","coordinates":[[[-121.039509730168,50.461029633856],[-121.039461687929,50.4607716046997],[-121.039014232934,50.4607921859177],[-121.039073123422,50.4610449124894],[-121.039160613835,50.4608998553462],[-121.039376592583,50.4608867336963],[-121.039509730168,50.461029633856]]]}},{"type":"Feature","id":"934773555","properties":{"name":"SP_10KPH_NEW RAMP_SEPT 11_DS","oid":"934773555","speedLimit":2.7777777},"geometry":{"type":"Polygon","coordinates":[[[-121.035772015748,50.4443192127293],[-121.036273993754,50.4444736168012],[-121.035928963124,50.4447856604204],[-121.034505306727,50.4446690934348],[-121.034737064745,50.4441517768818],[-121.035772015748,50.4443192127293]]]}},{"type":"Feature","id":"934888580","properties":{"name":"SP_12KPH_RUTS_SEPT 11_DS","oid":"934888580","speedLimit":3.3333333},"geometry":{"type":"Polygon","coordinates":[[[-121.038713440613,50.4531205144515],[-121.038174550389,50.4531793821274],[-121.038458859009,50.4532005924655],[-121.03850492884,50.4536176991581],[-121.038296417067,50.4537115279422],[-121.038739363698,50.453638549999],[-121.038713440613,50.4531205144515]]]}},{"type":"Feature","id":"935505135","properties":{"name":"SP_15KPH_%TR_1590_WATERHOLES_AUG_11_DS","oid":"935505135","speedLimit":4.1666665},"geometry":{"type":"Polygon","coordinates":[[[-121.013400393126,50.4441737062145],[-121.012716530865,50.4442020166235],[-121.012965195243,50.4452614550401],[-121.013107349553,50.4462075619464],[-121.013275990494,50.4469893786063],[-121.013702312538,50.4470970480348],[-121.013791211815,50.4467741296236],[-121.013435896482,50.4437487804566],[-121.013382641448,50.4441623820509],[-121.013400393126,50.4441737062145]]]}},{"type":"Feature","id":"936169885","properties":{"name":"SP_12KPH_%TR_Sept_11_DS","oid":"936169885","speedLimit":3.3333333},"geometry":{"type":"Polygon","coordinates":[[[-121.039477467198,50.4535462490782],[-121.038608902954,50.4536149130543],[-121.039069178604,50.4545171612953],[-121.039588908288,50.4544390605162],[-121.03966681843,50.4542070050367],[-121.039444077137,50.453899095636],[-121.039444077137,50.4538967589039],[-121.039477467198,50.4535462490782]]]}},{"type":"Feature","id":"936513295","properties":{"name":"SP_27KPH_%TR_1635_FLATS_SEP_11_DS1","oid":"936513295","speedLimit":7.5},"geometry":{"type":"Polygon","coordinates":[[[-121.018251391351,50.4578016181103],[-121.015245863205,50.4587004511273],[-121.014495220822,50.4578796290151],[-121.017438195436,50.4564353487848],[-121.018251391351,50.4578016181103]]]}}]}