{"type":"FeatureCollection","features":[{"type":"Feature","id":"702602533","properties":{"name":"iSP_4KPH_%TR_CR01_Slow Bump","oid":"702602533","speedLimit":1.1111112},"geometry":{"type":"Polygon","coordinates":[[[-121.033357368608,50.464807716269],[-121.033652116987,50.4646906988602],[-121.033695512063,50.4647314122905],[-121.033367653804,50.4648695503529],[-121.033357368608,50.464807716269]]]}},{"type":"Feature","id":"707947583","properties":{"name":"iSP_25KPH_%TR_Permission Gate 1 From West Dump","oid":"707947583","speedLimit":6.9444447},"geometry":{"type":"Polygon","coordinates":[[[-121.038627052582,50.4619778183046],[-121.03885374959,50.4617993263124],[-121.038138717074,50.4614080999067],[-121.037991061098,50.4616708048881],[-121.038190565737,50.4615667294969],[-121.0386655164,50.4618458816256],[-121.038627052582,50.4619778183046]]]}},{"type":"Feature","id":"742345972","properties":{"name":"iSP_4KPH_%TR_CR01_Pit Side_Slow Bump","oid":"742345972","speedLimit":1.1111112},"geometry":{"type":"Polygon","coordinates":[[[-121.033397241357,50.4648826721207],[-121.033704529222,50.4647441745578],[-121.033754687168,50.4647762599763],[-121.033473182741,50.4649181727939],[-121.033397241357,50.4648826721207]]]}},{"type":"Feature","id":"776427243","properties":{"name":"iSP_7KPH_%TR_CR1_PermissionBlocker","oid":"776427243","speedLimit":1.9444444},"geometry":{"type":"Polygon","coordinates":[[[-121.034098466348,50.4652126935685],[-121.03404999912,50.465233005346],[-121.034028865154,50.4652744377772],[-121.034114528163,50.4652253659606],[-121.034098466348,50.4652126935685]]]}},{"type":"Feature","id":"794004438","properties":{"name":"iSP_11KPH_%TR_Lower_Fuel_Bay","oid":"794004438","speedLimit":3.0555556},"geometry":{"type":"Polygon","coordinates":[[[-121.036775294481,50.4606953003146],[-121.036777407878,50.4607251388551],[-121.036747679432,50.4606706745312],[-121.037123864027,50.4605989541839],[-121.037533862967,50.4605559040005],[-121.037541612088,50.4605812487849],[-121.036943098171,50.4606500931283],[-121.036775294481,50.4606953003146]]]}},{"type":"Feature","id":"801543391","properties":{"name":"iSP_4KPH_%TR_CR01_PermissionBlocker_2","oid":"801543391","speedLimit":1.1111112},"geometry":{"type":"Polygon","coordinates":[[[-121.033153918962,50.464523171633],[-121.033153073603,50.4644737403159],[-121.033174630248,50.4644316787588],[-121.033106578878,50.4644592704213],[-121.033153918962,50.464523171633]]]}},{"type":"Feature","id":"806473874","properties":{"name":"iSP_4KPH_%TR_CR04_PermissionBlocker","oid":"806473874","speedLimit":1.1111112},"geometry":{"type":"Polygon","coordinates":[[[-121.022717684768,50.481545070352],[-121.022684574888,50.4815427335988],[-121.02267696666,50.4815714037627],[-121.022699086877,50.4815724822642],[-121.022703172778,50.4815483957315],[-121.022717684768,50.481545070352]]]}},{"type":"Feature","id":"824566967","properties":{"name":"iSP_3KPH_%TR_CR04","oid":"824566967","speedLimit":0.8333333},"geometry":{"type":"Polygon","coordinates":[[[-121.02330055955,50.481068192955],[-121.023280411835,50.481068192955],[-121.023277734866,50.4811862888652],[-121.023302813839,50.4811855698643],[-121.02330055955,50.481068192955]]]}},{"type":"Feature","id":"826307302","properties":{"name":"iSP_4KPH_%TR_CR04_Pockets","oid":"826307302","speedLimit":1.1111112},"geometry":{"type":"Polygon","coordinates":[[[-121.023295769184,50.4813213711735],[-121.023335219254,50.4814770348847],[-121.023539936938,50.4814375797062],[-121.023458923402,50.4811887154935],[-121.023050615179,50.4811894344945],[-121.023055969117,50.4813601073511],[-121.023280834515,50.481326134555],[-121.023295769184,50.4813213711735]]]}},{"type":"Feature","id":"883050998","properties":{"name":"iSP_22KPH_%TR_4CR_Brake_Temp_Ctrl","oid":"883050998","speedLimit":6.111111},"geometry":{"type":"Polygon","coordinates":[[[-121.031797541024,50.4745588973737],[-121.032186828678,50.4743122800391],[-121.032488480819,50.47457462552],[-121.03279013296,50.4748020095785],[-121.032967940061,50.4748844250653],[-121.033176743645,50.4749345753834],[-121.033460643255,50.474959380917],[-121.03366451558,50.4749218131161],[-121.033825697294,50.4748624056605],[-121.033916855134,50.4748103679649],[-121.034006181364,50.4747471857542],[-121.034056621096,50.4746580296332],[-121.034050844478,50.4745478427337],[-121.034054648592,50.4744834921464],[-121.033992514732,50.4743795066303],[-121.033874164523,50.4742594334674],[-121.033507278873,50.4739375007806],[-121.033058957008,50.4735598455182],[-121.03294567895,50.4734253024607],[-121.032820706764,50.4732207466832],[-121.032603872273,50.4728147807574],[-121.032250371469,50.4722088426853],[-121.032485381171,50.4721559961136],[-121.032428319462,50.4722055173058],[-121.032900874942,50.4730487256998],[-121.033040077331,50.4733094534285],[-121.033247894664,50.4735468136256],[-121.033740879644,50.4739614974382],[-121.034095930272,50.4742710273581],[-121.034201318316,50.4743943360254],[-121.034254012338,50.4744615626166],[-121.034261056993,50.4745926904195],[-121.034236118914,50.4746787009112],[-121.034181593281,50.4747914941893],[-121.034084095252,50.4748757071785],[-121.033971239873,50.4749375412624],[-121.033788642407,50.4750160022439],[-121.033529117305,50.4750642651843],[-121.033261138616,50.4750679500643],[-121.033069523991,50.4750261581326],[-121.032805772095,50.4749164206088],[-121.032655016471,50.4748349937483],[-121.032493412078,50.4747052140722],[-121.032142870028,50.4744129401757],[-121.031797541024,50.4745588973737]]]}},{"type":"Feature","id":"883053336","properties":{"name":"iSP_22KPH_%TR_Brake_Temp_Ctrl","oid":"883053336","speedLimit":6.111111},"geometry":{"type":"Polygon","coordinates":[[[-121.032464106312,50.4721451212239],[-121.032249244324,50.4722253797077],[-121.031486589938,50.4710082009314],[-121.030814670712,50.4699232284594],[-121.030659406509,50.4696600741023],[-121.03059459568,50.4694575854526],[-121.030548241848,50.46925662468],[-121.03059459568,50.4689727990449],[-121.030720835903,50.4686241734469],[-121.03088258119,50.4683753991094],[-121.031087017087,50.4680976849826],[-121.031686376363,50.4675364148461],[-121.032430291966,50.4668935380989],[-121.032786610633,50.466556057016],[-121.033145747161,50.4662222608132],[-121.033482622579,50.465870579461],[-121.033777652745,50.4660339724327],[-121.03358561544,50.4659931691273],[-121.032917500329,50.4666519537711],[-121.032552728076,50.4669911424813],[-121.032176684374,50.4673075927857],[-121.031772462051,50.46766826165],[-121.031380074749,50.4680343230216],[-121.03114520594,50.4682862429884],[-121.03100684891,50.4684697679874],[-121.030903151583,50.4686543714879],[-121.030826646626,50.4688529056322],[-121.030765780804,50.4691911955912],[-121.030774516177,50.4694005147502],[-121.03087173242,50.4696302355618],[-121.031025728586,50.4699350021003],[-121.031328648765,50.4704037008612],[-121.031528716977,50.470710894028],[-121.03174836933,50.4710827972826],[-121.032144138066,50.4717287297839],[-121.032379429554,50.4721450313487],[-121.032464106312,50.4721451212239]]]}},{"type":"Feature","id":"883059532","properties":{"name":"iSP_22KPH_%TR_Brake_Ctrl","oid":"883059532","speedLimit":6.111111},"geometry":{"type":"Polygon","coordinates":[[[-121.027260219418,50.4773219282474],[-121.027028027579,50.4772097640952],[-121.027332497582,50.4769440033596],[-121.027714458794,50.4766324063119],[-121.028031186498,50.4763226966417],[-121.028188423205,50.4761687405578],[-121.028619274325,50.4756923125364],[-121.028905287331,50.475325711914],[-121.029261887784,50.4748875706946],[-121.029470691368,50.4746566815064],[-121.029689498363,50.4745403830986],[-121.029799535879,50.4744881656527],[-121.029950291503,50.4745926005444],[-121.029786714606,50.4745420008508],[-121.029554100087,50.4747914941893],[-121.02924991187,50.4751730140819],[-121.029070977625,50.4754779603706],[-121.028851184378,50.4757747280232],[-121.028694088564,50.4759747001695],[-121.028406948413,50.476270569071],[-121.028039640084,50.4765699431021],[-121.027241903314,50.4772193807332],[-121.027260219418,50.4773219282474]]]}},{"type":"Feature","id":"884401102","properties":{"name":"iSP_30KPH_%TR_Maint_Limit_Policy","oid":"884401102","speedLimit":8.333333},"geometry":{"type":"Polygon","coordinates":[[[-121.037217698836,50.4610266698892],[-121.037674333395,50.4610798759614],[-121.037993315388,50.4608740619321],[-121.037906384341,50.460483284902],[-121.03785918515,50.4606705846561],[-121.037199523625,50.4607815804316],[-121.036971135899,50.4606590806405],[-121.037217698836,50.4610266698892]]]}},{"type":"Feature","id":"910445950","properties":{"name":"SP_30KPH_%TR_1635_FLATS_OCT_7_NS","oid":"910445950","speedLimit":8.333333},"geometry":{"type":"Polygon","coordinates":[[[-121.017367409937,50.4554936877574],[-121.018000583558,50.4544140179176],[-121.018145844351,50.4539983454787],[-121.018530482532,50.4537513686436],[-121.018946539876,50.4536879168075],[-121.018864399194,50.4543414886942],[-121.018259545088,50.456071944292],[-121.018273634398,50.4557006701632],[-121.017367409937,50.4554936877574]]]}},{"type":"Feature","id":"915576987","properties":{"name":"iSP_15KPH_%TR_Preventing Shifting","oid":"915576987","speedLimit":4.1666665},"geometry":{"type":"Polygon","coordinates":[[[-121.036996355765,50.4448630785846],[-121.037510474712,50.445312993445],[-121.03797978965,50.4457954430996],[-121.038523777934,50.4462187549239],[-121.0394564903,50.4468498580301],[-121.039913829324,50.447099620994],[-121.040469793523,50.4471949784984],[-121.041223008071,50.4473226910466],[-121.041641460598,50.4475095414251],[-121.042320001799,50.4480949879694],[-121.042702667477,50.4485277366816],[-121.042846096659,50.4487947556688],[-121.04300756016,50.4493915264785],[-121.043186776191,50.4501980658227],[-121.043324287863,50.450501214609],[-121.043685960468,50.4511686272645],[-121.043856441127,50.4514889421991],[-121.044125406068,50.4522535098614],[-121.044382535987,50.4529380886652],[-121.044696304936,50.4537980138319],[-121.044735191433,50.454194632745],[-121.044570769178,50.4550717240599],[-121.044215154977,50.4568392082079],[-121.044050732721,50.4572072468323],[-121.043004460511,50.458398901074],[-121.041904508028,50.4595372593684],[-121.041342626319,50.460000565622],[-121.040371168348,50.4605974263068],[-121.03992270559,50.4607308908629],[-121.0391335633,50.4608071049663],[-121.038496162886,50.4608386511341],[-121.038643959754,50.4611434176726],[-121.038756815133,50.4609494671594],[-121.039877901582,50.4608796341897],[-121.04070593037,50.4606317586034],[-121.041510007329,50.4600578160747],[-121.042873007243,50.4587001624827],[-121.044241924667,50.4571423569942],[-121.044427339995,50.4562900712129],[-121.044812964428,50.4544214775527],[-121.04480986478,50.4537865098163],[-121.044259958984,50.4523012335511],[-121.043832489299,50.4511857934128],[-121.043345280936,50.4503372823866],[-121.043049405412,50.4493095603673],[-121.04292682841,50.4486917587791],[-121.042239270049,50.4478871068124],[-121.041545794178,50.4473913556398],[-121.04109141391,50.4472216714096],[-121.040457817609,50.4471301785354],[-121.03991678808,50.4470195422603],[-121.038819794351,50.4463331659541],[-121.038195074317,50.445871657203],[-121.037151901755,50.444906847769],[-121.037376062688,50.4446971691095],[-121.036996355765,50.4448630785846]]]}},{"type":"Feature","id":"917773475","properties":{"name":"SP_15KPH_%TR_1200_CORNER_OCT_7_DS","oid":"917773475","speedLimit":4.1666665},"geometry":{"type":"Polygon","coordinates":[[[-121.03709723523,50.4446823397144],[-121.03692309135,50.444861910208],[-121.036627497612,50.4448203879017],[-121.036412917411,50.4448697293436],[-121.036321336892,50.4449674236012],[-121.036252721949,50.4450819245065],[-121.036240464248,50.4451447472168],[-121.036261598214,50.4452670672577],[-121.036314292236,50.445351280247],[-121.036182416288,50.4453950494314],[-121.036087313442,50.4451940886587],[-121.036161282322,50.4449314735524],[-121.036258075887,50.4447911784871],[-121.03651492402,50.4447148745085],[-121.036712033476,50.444711549129],[-121.036921400633,50.4447698780832],[-121.037092022185,50.4446834182159],[-121.03709723523,50.4446823397144]]]}},{"type":"Feature","id":"929009157","properties":{"name":"iSP_22KPH_%TR_Long_Single_Lane","oid":"929009157","speedLimit":6.111111},"geometry":{"type":"Polygon","coordinates":[[[-121.005677931559,50.4380557570989],[-121.004748177948,50.438223823577],[-121.005172688879,50.438197310416],[-121.007933066624,50.443170280663],[-121.008521858916,50.4445346748891],[-121.008208935327,50.4465095009434],[-121.007830919121,50.4466799940497],[-121.008932421429,50.4466467402546],[-121.008821679447,50.4465927253063],[-121.009401736367,50.4448174220227],[-121.008762786129,50.4430681825244],[-121.008261065776,50.441539945951],[-121.007257484177,50.4401559589483],[-121.006437768083,50.4389838076081],[-121.005858697415,50.4383127999477],[-121.005677931559,50.4380557570989]]]}},{"type":"Feature","id":"934051091","properties":{"name":"iSP_17KPH_%TR_Ramp_Permission Blocker","oid":"934051091","speedLimit":4.7222223},"geometry":{"type":"Polygon","coordinates":[[[-121.039511438612,50.4610295458931],[-121.039463394062,50.460771514418],[-121.039015917556,50.4607920958209],[-121.039074810874,50.4610448246638],[-121.039162305494,50.460899766217],[-121.039378294626,50.4608866444492],[-121.039511438612,50.4610295458931]]]}},{"type":"Feature","id":"938065675","properties":{"name":"iSP_8KPH_CR01_YARD_RUTIING_OCT_4_NS","oid":"938065675","speedLimit":2.2222223},"geometry":{"type":"Polygon","coordinates":[[[-121.034287544897,50.46480106551],[-121.034097339204,50.464857866587],[-121.033939116245,50.4649068485285],[-121.033827669797,50.4650048124114],[-121.034042531785,50.4650687136231],[-121.0339625045,50.4650111935451],[-121.034240909279,50.4648879747529],[-121.034317555129,50.4649372263197],[-121.034287544897,50.46480106551]]]}},{"type":"Feature","id":"938165680","properties":{"name":"SP_10KPH_%TR_22SH_OCT_7_DS","oid":"938165680","speedLimit":2.7777777},"geometry":{"type":"Polygon","coordinates":[[[-121.034078741313,50.4466112395814],[-121.035053580718,50.4472504314486],[-121.035495421501,50.4474471680905],[-121.035793551314,50.4469120516145],[-121.034853230721,50.4461952076419],[-121.034078741313,50.4466112395814]]]}},{"type":"Feature","id":"950380359","properties":{"name":"SP_20KPH_%TR_EMPTY_23SH_SOFT_OCT_7_DS","oid":"950380359","speedLimit":5.5555553},"geometry":{"type":"Polygon","coordinates":[[[-121.038899258064,50.464730333789],[-121.038784852861,50.4646500753051],[-121.038307647909,50.4649202399217],[-121.038376403745,50.4649519658397],[-121.038780907854,50.4647035510027],[-121.038891649836,50.4647279071607],[-121.038899258064,50.464730333789]]]}},{"type":"Feature","id":"950999947","properties":{"name":"SP_15KPH_%TR_23SH_HEADING_SOFT_OCT7_DS","oid":"950999947","speedLimit":4.1666665},"geometry":{"type":"Polygon","coordinates":[[[-121.038045445837,50.4652780327821],[-121.037530199746,50.464977220749],[-121.03719839648,50.4652223102065],[-121.036744297998,50.4653226108426],[-121.037381698412,50.4658350787879],[-121.038045445837,50.4652836050397],[-121.038045445837,50.4652780327821]]]}},{"type":"Feature","id":"951141721","properties":{"name":"SP_8KPH_%TR_CR1_SHOPSIDE_OCT_7_DS","oid":"951141721","speedLimit":2.2222223},"geometry":{"type":"Polygon","coordinates":[[[-121.03377201702,50.4647083143842],[-121.033828092477,50.4646112492525],[-121.033599563858,50.4645575039295],[-121.033278750254,50.4644628654261],[-121.033367090232,50.4646853063529],[-121.033563495223,50.4646291344017],[-121.033735948385,50.4646342572837],[-121.03377201702,50.4647134372661],[-121.03377201702,50.4647083143842]]]}},{"type":"Feature","id":"952717701","properties":{"name":"SP_15KPH_SLIMY SECTION_OCT 7_DS","oid":"952717701","speedLimit":4.1666665},"geometry":{"type":"Polygon","coordinates":[[[-121.038292995026,50.4618265584744],[-121.037890322527,50.4619115803398],[-121.037967250163,50.4620457638968],[-121.038093490387,50.4622849215963],[-121.0382015554,50.4624298002928],[-121.038262843901,50.4626873823923],[-121.03827820125,50.4628096125581],[-121.038744980112,50.4627671016255],[-121.038483059827,50.4626647338616],[-121.038371049807,50.4623262641524],[-121.03813491296,50.461925780609],[-121.038292995026,50.4618265584744]]]}}]}