{"type":"FeatureCollection","features":[{"type":"Feature","id":"702602533","properties":{"name":"iSP_4KPH_%TR_CR01_Slow Bump","oid":"702602533","speedLimit":1.1111112},"geometry":{"type":"Polygon","coordinates":[[[-121.03335885748,50.4648078689783],[-121.033653592411,50.4646908514772],[-121.033696985508,50.4647315649395],[-121.033369142207,50.464869703111],[-121.03335885748,50.4648078689783]]]}},{"type":"Feature","id":"707947583","properties":{"name":"iSP_25KPH_%TR_Permission Gate 1 From West Dump","oid":"707947583","speedLimit":6.9444447},"geometry":{"type":"Polygon","coordinates":[[[-121.038628301033,50.4619779687798],[-121.038854987699,50.4617994766468],[-121.038139987805,50.4614082499321],[-121.037992338566,50.4616709551209],[-121.038191834103,50.4615668796476],[-121.038666763096,50.4618460319967],[-121.038628301033,50.4619779687798]]]}},{"type":"Feature","id":"742345972","properties":{"name":"iSP_4KPH_%TR_CR01_Pit Side_Slow Bump","oid":"742345972","speedLimit":1.1111112},"geometry":{"type":"Polygon","coordinates":[[[-121.03339872841,50.4648828248892],[-121.033706002256,50.4647443272169],[-121.033756157913,50.4647764126608],[-121.033474666329,50.4649183255904],[-121.03339872841,50.4648828248892]]]}},{"type":"Feature","id":"776427243","properties":{"name":"iSP_7KPH_%TR_CR1_PermissionBlocker","oid":"776427243","speedLimit":1.9444444},"geometry":{"type":"Polygon","coordinates":[[[-121.034099921409,50.4652128465975],[-121.034051456392,50.465233158391],[-121.03403032339,50.465274590855],[-121.03411598249,50.4652255189996],[-121.034099921409,50.4652128465975]]]}},{"type":"Feature","id":"794004438","properties":{"name":"iSP_11KPH_%TR_Lower_Fuel_Bay","oid":"794004438","speedLimit":3.0555556},"geometry":{"type":"Polygon","coordinates":[[[-121.036776627416,50.4606954497773],[-121.036778740716,50.4607252883414],[-121.036749013627,50.4606708239745],[-121.037125181059,50.4605991035706],[-121.037535161294,50.4605560533532],[-121.037542910061,50.4605813981576],[-121.03694442345,50.4606502425553],[-121.036776627416,50.4606954497773]]]}},{"type":"Feature","id":"801543391","properties":{"name":"iSP_4KPH_%TR_CR01_PermissionBlocker_2","oid":"801543391","speedLimit":1.1111112},"geometry":{"type":"Polygon","coordinates":[[[-121.033155417116,50.4645233241176],[-121.033154571796,50.4644738927615],[-121.033176127458,50.4644318311713],[-121.033108079192,50.4644594228555],[-121.033155417116,50.4645233241176]]]}},{"type":"Feature","id":"806473874","properties":{"name":"iSP_4KPH_%TR_CR04_PermissionBlocker","oid":"806473874","speedLimit":1.1111112},"geometry":{"type":"Polygon","coordinates":[[[-121.022719659058,50.4815452362746],[-121.022686550688,50.4815428995196],[-121.022678942808,50.4815715697062],[-121.022701062016,50.4815726482085],[-121.02270514773,50.4815485616568],[-121.022719659058,50.4815452362746]]]}},{"type":"Feature","id":"824566967","properties":{"name":"iSP_3KPH_%TR_CR04","oid":"824566967","speedLimit":0.8333333},"geometry":{"type":"Polygon","coordinates":[[[-121.023302507247,50.4810683585012],[-121.023282360452,50.4810683585012],[-121.023279683605,50.4811864545046],[-121.023304761434,50.4811857355031],[-121.023302507247,50.4810683585012]]]}},{"type":"Feature","id":"826307302","properties":{"name":"iSP_4KPH_%TR_CR04_Pockets","oid":"826307302","speedLimit":1.1111112},"geometry":{"type":"Polygon","coordinates":[[[-121.0232977171,50.4813215369195],[-121.02333716537,50.4814772007536],[-121.023541873714,50.481437745544],[-121.023460863874,50.4811888811348],[-121.023052574279,50.4811896001364],[-121.023057927973,50.4813602731277],[-121.023282783112,50.4813263003048],[-121.0232977171,50.4813215369195]]]}},{"type":"Feature","id":"883050998","properties":{"name":"iSP_22KPH_%TR_4CR_Brake_Temp_Ctrl","oid":"883050998","speedLimit":6.111111},"geometry":{"type":"Polygon","coordinates":[[[-121.031799101061,50.4745590577811],[-121.032188370954,50.4743124402518],[-121.032490009333,50.4745747859398],[-121.032791647712,50.4748021701778],[-121.0329694467,50.4748845857297],[-121.033178240758,50.4749347360873],[-121.033462127415,50.4749595416406],[-121.033665990439,50.47492197381],[-121.033827164799,50.4748625663075],[-121.03391831848,50.4748105285708],[-121.034007640635,50.4747473463102],[-121.034058078066,50.4746581901188],[-121.034052301712,50.4745480031324],[-121.034056105652,50.4744836524942],[-121.033993974627,50.4743796668961],[-121.033875629817,50.4742595936384],[-121.033508760906,50.4739376606974],[-121.033060459494,50.4735600051369],[-121.032947186605,50.4734254619732],[-121.032822220121,50.4732209060342],[-121.032605395522,50.4728149397879],[-121.032251910846,50.4722090012374],[-121.032486909826,50.472156154624],[-121.032429850721,50.4722056758553],[-121.032902384641,50.473048884915],[-121.033041580679,50.4733096128495],[-121.03324938853,50.473546973234],[-121.033742351019,50.473961657374],[-121.034097385449,50.4742711875382],[-121.034202768685,50.4743944963029],[-121.034255460302,50.4744617229472],[-121.034262504636,50.4745928508536],[-121.034237567694,50.4746788614132],[-121.03418304455,50.4747916547803],[-121.034085550968,50.474875867836],[-121.033972700738,50.4749377019687],[-121.033790111603,50.4750161630121],[-121.033530598341,50.4750644259907],[-121.033262631878,50.4750681108736],[-121.033071025995,50.4750263189089],[-121.032807286133,50.4749165812984],[-121.032656537387,50.4748351543736],[-121.032494940366,50.4747053745951],[-121.03214441431,50.4744131004678],[-121.031799101061,50.4745590577811]]]}},{"type":"Feature","id":"883053336","properties":{"name":"iSP_22KPH_%TR_Brake_Temp_Ctrl","oid":"883053336","speedLimit":6.111111},"geometry":{"type":"Polygon","coordinates":[[[-121.032465635937,50.4721452797257],[-121.032250783752,50.4722255382729],[-121.031488164161,50.4710083585356],[-121.030816275591,50.4699233852071],[-121.030661018471,50.4696602306423],[-121.030596210599,50.4694577418328],[-121.030549858882,50.4692567809015],[-121.030596210599,50.4689729550423],[-121.030722445063,50.4686243291691],[-121.03088418297,50.4683755546352],[-121.031088609541,50.4680978402892],[-121.031687941471,50.4675365697096],[-121.032431823134,50.4668936924548],[-121.032788125545,50.4665562111056],[-121.033147245688,50.4662224146392],[-121.033484105737,50.4658707330094],[-121.033779122442,50.4660341261101],[-121.033587093899,50.4659933227725],[-121.032919009269,50.4666521079364],[-121.032554253658,50.4669912969143],[-121.032178227113,50.4673077474685],[-121.031774023232,50.4676684166175],[-121.031381653832,50.4680344782782],[-121.031146795739,50.4682863984438],[-121.03100844502,50.4684699235877],[-121.030904752425,50.4686545272339],[-121.030828250958,50.468853061535],[-121.030767387913,50.469191351761],[-121.030776122887,50.4694006710853],[-121.030873334696,50.4696303920783],[-121.031027323835,50.4699351588574],[-121.031330230194,50.4704038579883],[-121.031530289278,50.4707110513976],[-121.03174993161,50.4710829549457],[-121.03214568229,50.471728887957],[-121.032380963043,50.4721451898505],[-121.032465635937,50.4721452797257]]]}},{"type":"Feature","id":"883059532","properties":{"name":"iSP_22KPH_%TR_Brake_Ctrl","oid":"883059532","speedLimit":6.111111},"geometry":{"type":"Polygon","coordinates":[[[-121.027261986463,50.477322090836],[-121.027029805217,50.4772099265953],[-121.027334261329,50.4769441656499],[-121.027716205115,50.4766325683562],[-121.028032918368,50.4763228584415],[-121.028190147902,50.4761689022361],[-121.028620979365,50.4756924738386],[-121.028906979322,50.4753258729268],[-121.029263563506,50.4748877313615],[-121.029472357564,50.4746568419909],[-121.029691154575,50.4745405434913],[-121.029801187071,50.4744883260043],[-121.029951935818,50.4745927609784],[-121.029788366384,50.4745421612448],[-121.029555762477,50.4747916547803],[-121.029251588138,50.4751731749741],[-121.029072662056,50.4754781215035],[-121.028852878838,50.4757748893905],[-121.028695790191,50.4759748616946],[-121.02840866314,50.4762707308296],[-121.028041371569,50.4765701050971],[-121.027243671195,50.4772195432409],[-121.027261986463,50.477322090836]]]}},{"type":"Feature","id":"884401102","properties":{"name":"iSP_30KPH_%TR_Maint_Limit_Policy","oid":"884401102","speedLimit":8.333333},"geometry":{"type":"Polygon","coordinates":[[[-121.036992184034,50.4611013261484],[-121.037108274657,50.4611077971623],[-121.038294540491,50.4609921277891],[-121.038278197637,50.4603979628889],[-121.038119700123,50.4605658497492],[-121.037032618511,50.4607084816803],[-121.036744927913,50.460537808689],[-121.036992184034,50.4611013261484]]]}},{"type":"Feature","id":"910445950","properties":{"name":"SP_22KPH_%TR_1635_FLATS_SEP_26_NS","oid":"910445950","speedLimit":6.111111},"geometry":{"type":"Polygon","coordinates":[[[-121.017369628324,50.4554938331137],[-121.018002773058,50.4544141624216],[-121.018148027224,50.4539984896545],[-121.018532647856,50.4537515126244],[-121.018948686218,50.4536880607382],[-121.018866549285,50.4543416331409],[-121.018261722773,50.4560720901048],[-121.018275811441,50.455700815683],[-121.017369628324,50.4554938331137]]]}},{"type":"Feature","id":"915576987","properties":{"name":"iSP_15KPH_%TR_Preventing Shifting","oid":"915576987","speedLimit":4.1666665},"geometry":{"type":"Polygon","coordinates":[[[-121.036997678615,50.4448632155486],[-121.037511774105,50.4453131307642],[-121.037981067631,50.4457955807996],[-121.038525031098,50.4462188929581],[-121.03945770091,50.4468499965626],[-121.039915019069,50.4470997597236],[-121.040470957902,50.4471951173032],[-121.041224138086,50.4473228299523],[-121.041642571522,50.4475096804784],[-121.042321081766,50.4480951274848],[-121.042703729985,50.4485278765386],[-121.042847152624,50.4487948957366],[-121.043008608758,50.4493916670174],[-121.043187816613,50.4501982069984],[-121.043325322011,50.450501356024],[-121.043686978115,50.4511687692064],[-121.043857450996,50.4514890843938],[-121.044126403666,50.4522536526598],[-121.044383521854,50.452938232004],[-121.044697276487,50.4537981578495],[-121.044736161211,50.4541947770757],[-121.044571746457,50.4550718690831],[-121.04421614848,50.4568393546265],[-121.044051733726,50.4572073935413],[-121.043005509251,50.4583990487238],[-121.041905606951,50.459537407917],[-121.041343750876,50.4600007145363],[-121.040372337227,50.4605975756923],[-121.039923894929,50.4607310403537],[-121.039134788643,50.4608072545173],[-121.038497417309,50.46083880071],[-121.038645207434,50.4611435674891],[-121.038758057664,50.4609496168228],[-121.039879092966,50.4608797837979],[-121.040707083976,50.460631908016],[-121.041511124251,50.4600579650342],[-121.042874061979,50.4587003103704],[-121.044242916949,50.4571425036521],[-121.044428323818,50.4562902171979],[-121.044813930657,50.4544216220626],[-121.04481083115,50.4537866538248],[-121.044260950444,50.4523013763872],[-121.043833500261,50.4511859353682],[-121.043346314126,50.4503374236722],[-121.043050452101,50.4493097008415],[-121.042927880691,50.4486918987656],[-121.042240353699,50.4478872461637],[-121.041546909467,50.4473914945997],[-121.041092549928,50.4472218102355],[-121.040458982535,50.4471303172892],[-121.039917977689,50.4470196809267],[-121.038821034009,50.4463333040786],[-121.038196342476,50.4458717949632],[-121.037153217508,50.4449069847675],[-121.037377368214,50.4446973059425],[-121.036997678615,50.4448632155486]]]}},{"type":"Feature","id":"917773475","properties":{"name":"SP_15KPH_%TR_1200_CORNER_Sept_26_NS","oid":"917773475","speedLimit":4.1666665},"geometry":{"type":"Polygon","coordinates":[[[-121.037098553477,50.4446824765357],[-121.036924417542,50.4448620471711],[-121.03662883729,50.4448205248319],[-121.036414266879,50.4448698663128],[-121.036322690538,50.4449675606475],[-121.036254078725,50.4450820616432],[-121.036241821584,50.4451448844031],[-121.036262954586,50.4452672045406],[-121.036315646204,50.4453514175963],[-121.036183776272,50.4453951868153],[-121.036088677764,50.445194225884],[-121.036162643271,50.4449316105704],[-121.036259432419,50.4447913153943],[-121.036516268834,50.4447150113555],[-121.036713369297,50.4447116859734],[-121.036922726902,50.4447700149735],[-121.03709334067,50.444683555038],[-121.037098553477,50.4446824765357]]]}},{"type":"Feature","id":"926367691","properties":{"name":"SP_30KPH_%TR_24SH_EMPTY_LANE_SEP_26_NS","oid":"926367691","speedLimit":8.333333},"geometry":{"type":"Polygon","coordinates":[[[-121.038923176851,50.4549415500534],[-121.039203118682,50.4546234817458],[-121.039438681208,50.4538306926694],[-121.039920654536,50.4514268907604],[-121.0395022211,50.4515917218641],[-121.039432904854,50.4530470708626],[-121.039203964002,50.4540991498705],[-121.038923176851,50.4549415500534]]]}},{"type":"Feature","id":"929009157","properties":{"name":"iSP_22KPH_%TR_Long_Single_Lane","oid":"929009157","speedLimit":6.111111},"geometry":{"type":"Polygon","coordinates":[[[-121.00568068326,50.4380558886888],[-121.004750972068,50.4382239552996],[-121.005175463631,50.4381974421176],[-121.007935715438,50.4431704162905],[-121.008524480868,50.4445348115938],[-121.008211571555,50.4465096392071],[-121.007833572596,50.446680132448],[-121.00893502465,50.4466468786266],[-121.00882428772,50.4465928636357],[-121.009404318176,50.4448175589506],[-121.008765397089,50.4430683180714],[-121.008263699626,50.4415400802915],[-121.007260163814,50.4401560921963],[-121.006440485118,50.4389839399306],[-121.005861440869,50.4383129317405],[-121.00568068326,50.4380558886888]]]}},{"type":"Feature","id":"932268643","properties":{"name":"SP_20KPH_%traction_1185_1170_SEP26_NS","oid":"932268643","speedLimit":5.5555553},"geometry":{"type":"Polygon","coordinates":[[[-121.038728753235,50.4481974054543],[-121.038466985786,50.4482556445793],[-121.038946845813,50.4498292693316],[-121.039506025041,50.4497913420002],[-121.039105484213,50.4497305863698],[-121.038621679359,50.4483441716443],[-121.038851747305,50.4481594781229],[-121.038728753235,50.4481974054543]]]}},{"type":"Feature","id":"932654885","properties":{"name":"SP_11KPH_%TR_LOTS OF MUD_SEPT_26_NS","oid":"932654885","speedLimit":3.0555556},"geometry":{"type":"Polygon","coordinates":[[[-121.036365097428,50.4453590569877],[-121.036057541808,50.4454651097153],[-121.036262531926,50.4454606159557],[-121.038009244967,50.4473914047245],[-121.038175491248,50.4473146513098],[-121.036365097428,50.4453590569877]]]}},{"type":"Feature","id":"934051091","properties":{"name":"iSP_17KPH_%TR_Ramp_Permission Blocker","oid":"934051091","speedLimit":4.7222223},"geometry":{"type":"Polygon","coordinates":[[[-121.039512646715,50.4610296956197],[-121.039464604357,50.4607716639409],[-121.039017148266,50.4607922453601],[-121.039076038898,50.4610449744025],[-121.039163529525,50.4608999158411],[-121.039379508803,50.460886794063],[-121.039512646715,50.4610296956197]]]}},{"type":"Feature","id":"936169885","properties":{"name":"SP_15KPH_%TR_24shl_loadplan_Sept_26_NS","oid":"936169885","speedLimit":4.1666665},"geometry":{"type":"Polygon","coordinates":[[[-121.039168601445,50.4546366933992],[-121.038618720739,50.4545682085022],[-121.038154217359,50.4553922741458],[-121.038669721716,50.4555193576685],[-121.038841744351,50.4552446092039],[-121.039001791618,50.454947391941],[-121.039087168945,50.4547917281069],[-121.039168601445,50.4546366933992]]]}},{"type":"Feature","id":"936513295","properties":{"name":"SP_30KPH_%TR_1635_FLATS_SEP_26_NS","oid":"936513295","speedLimit":8.333333},"geometry":{"type":"Polygon","coordinates":[[[-121.017285800751,50.4555552178705],[-121.018049970095,50.4557852084891],[-121.01743387265,50.4574538313202],[-121.01522688283,50.4585169649769],[-121.014498076041,50.4578796599842],[-121.016177163477,50.4566194300295],[-121.017285800751,50.4555552178705]]]}},{"type":"Feature","id":"937786749","properties":{"name":"SP_32KPH_%TR_24SH_Loaded_LANE_SEP_26_NS","oid":"937786749","speedLimit":8.888889},"geometry":{"type":"Polygon","coordinates":[[[-121.038279888277,50.4554284039733],[-121.038456137512,50.4555012028796],[-121.038969387682,50.4539575065665],[-121.039256796506,50.4521234235052],[-121.038991647777,50.4522688415673],[-121.038490372975,50.4548541014908],[-121.038279888277,50.4554284039733]]]}},{"type":"Feature","id":"938065675","properties":{"name":"SP_8KPH_CR01_YARD_RUTIING_SEP_26_NS","oid":"938065675","speedLimit":2.2222223},"geometry":{"type":"Polygon","coordinates":[[[-121.034288991332,50.464801218214],[-121.034098794316,50.4648580193359],[-121.033940578576,50.4649070013161],[-121.033829137213,50.4650049652763],[-121.034043989398,50.4650688665384],[-121.033963965764,50.465011346415],[-121.034242357841,50.4648881275256],[-121.034319000194,50.4649373791313],[-121.034288991332,50.464801218214]]]}},{"type":"Feature","id":"938165680","properties":{"name":"SP_10KPH_%TR_22SH_Sept_26_NS","oid":"938165680","speedLimit":2.7777777},"geometry":{"type":"Polygon","coordinates":[[[-121.034080197274,50.4466113779254],[-121.035054992203,50.4472505702972],[-121.035496812828,50.4474473070945],[-121.035794929039,50.446912190196],[-121.034854651346,50.4461953456576],[-121.034080197274,50.4466113779254]]]}},{"type":"Feature","id":"940771585","properties":{"name":"SP_20KPH_%TR_1660_HMT_SEPT26_DS","oid":"940771585","speedLimit":5.5555553},"geometry":{"type":"Polygon","coordinates":[[[-121.002708819662,50.4281183886112],[-121.002603577313,50.4277112539874],[-121.002231918255,50.4276978625837],[-121.002505379298,50.4277962759199],[-121.002533415747,50.4281138948516],[-121.002673738879,50.4280825284093],[-121.002708819662,50.4281183886112]]]}},{"type":"Feature","id":"940778315","properties":{"name":"SP_20KPH_%TR_HMT_SPILLING_ROCK_IN_CORNER_SEPT26_NS","oid":"940778315","speedLimit":5.5555553},"geometry":{"type":"Polygon","coordinates":[[[-121.004784643984,50.4367079405459],[-121.004770555317,50.4370435345162],[-121.004987943462,50.4372761315153],[-121.00512122226,50.4371687306598],[-121.004889886333,50.4369361336606],[-121.004882841999,50.4367571921516],[-121.00519842816,50.436797456238],[-121.004798591766,50.4366990429018],[-121.004784643984,50.4367079405459]]]}},{"type":"Feature","id":"944724443","properties":{"name":"SP_12KPH_%TR_21SH_EMPTY_SEPT 26_NS","oid":"944724443","speedLimit":3.3333333},"geometry":{"type":"Polygon","coordinates":[[[-121.039134365982,50.450183107966],[-121.038912469464,50.450167289932],[-121.038927544338,50.4505369466004],[-121.039265249707,50.451170926211],[-121.039344568907,50.4515559515374],[-121.03973214816,50.4514983415387],[-121.039710592498,50.4511095414543],[-121.039406981706,50.4509586410054],[-121.039104216233,50.4503565670883],[-121.039084351212,50.4502969798354],[-121.039134365982,50.450183107966]]]}},{"type":"Feature","id":"944724972","properties":{"name":"SP_20KPH_%TR_21SH_LOADED_SEPT 26_NS","oid":"944724972","speedLimit":5.5555553},"geometry":{"type":"Polygon","coordinates":[[[-121.038847802478,50.4522167139555],[-121.039181422133,50.4521684509769],[-121.039250597492,50.4519691976743],[-121.039327380732,50.4516355809583],[-121.039213121636,50.4512646660372],[-121.038912751237,50.450640213197],[-121.038818216276,50.4509653816449],[-121.038885700995,50.4509782337975],[-121.039057864516,50.4512926172222],[-121.039101680273,50.4515746455775],[-121.039046593582,50.4519345058498],[-121.038996860584,50.4521382529121],[-121.038847802478,50.4522167139555]]]}},{"type":"Feature","id":"945606742","properties":{"name":"SP_20KPH_19SH_SEPT 26_NS","oid":"945606742","speedLimit":5.5555553},"geometry":{"type":"Polygon","coordinates":[[[-121.002893803871,50.4271196954678],[-121.002444516253,50.4275245832118],[-121.001789956744,50.4273167917659],[-121.002101738964,50.4269691545198],[-121.002893803871,50.4271196954678]]]}}]}