{"type":"FeatureCollection","features":[{"type":"Feature","id":"702602533","properties":{"name":"iSP_4KPH_%TR_CR01_SLOW BUMP","oid":"702602533","speedLimit":1.1111112},"geometry":{"type":"Polygon","coordinates":[[[-121.033359760888,50.464808196184],[-121.03365450959,50.4646911788638],[-121.033697904714,50.4647318922633],[-121.033370046096,50.4648700302211],[-121.033359760888,50.464808196184]]]}},{"type":"Feature","id":"707947583","properties":{"name":"iSP_22KPH_%TR_Permission Gate 1 from west dump_Jun","oid":"707947583","speedLimit":6.111111},"geometry":{"type":"Polygon","coordinates":[[[-121.038629450631,50.4619783003612],[-121.038856147887,50.4617998085041],[-121.037981905204,50.461351331985],[-121.037744781846,50.4615425860997],[-121.037960912108,50.4614968396973],[-121.038667914491,50.461846363782],[-121.038629450631,50.4619783003612]]]}},{"type":"Feature","id":"742345972","properties":{"name":"iSP_4KPH_%TR_CR01_PITSIDE_SLOW BUMP","oid":"742345972","speedLimit":1.1111112},"geometry":{"type":"Polygon","coordinates":[[[-121.033399633681,50.464883151979],[-121.033706921883,50.4647446545209],[-121.033757079884,50.4647767399152],[-121.033475575149,50.4649186526253],[-121.033399633681,50.464883151979]]]}},{"type":"Feature","id":"776427243","properties":{"name":"iSP_7KPH_%TR_CR1_PermissionBlocker_DO_NOT_DELETE","oid":"776427243","speedLimit":1.9444444},"geometry":{"type":"Polygon","coordinates":[[[-121.03410085944,50.465213173177],[-121.034052392158,50.4652334849392],[-121.034031258169,50.4652749173391],[-121.034116921272,50.4652258455596],[-121.03410085944,50.465213173177]]]}},{"type":"Feature","id":"794004438","properties":{"name":"iSP_11KPH_%TR_LOWER_FUEL_BAY","oid":"794004438","speedLimit":3.0555556},"geometry":{"type":"Polygon","coordinates":[[[-121.036777690503,50.4606957833417],[-121.036779803902,50.4607256218596],[-121.036750075424,50.4606711575769],[-121.037126260431,50.4605994372839],[-121.03753625982,50.460556387133],[-121.037544008949,50.4605817318982],[-121.036945494377,50.4606505761896],[-121.036777690503,50.4606957833417]]]}},{"type":"Feature","id":"801543391","properties":{"name":"iSP_4KPH_%TR_CR1_PermissionBlocker_DO_NOT_DELETE_","oid":"801543391","speedLimit":1.1111112},"geometry":{"type":"Polygon","coordinates":[[[-121.033156311019,50.4645236517633],[-121.03315546566,50.4644742204837],[-121.033177022329,50.4644321589584],[-121.033108970884,50.4644597506],[-121.033156311019,50.4645236517633]]]}},{"type":"Feature","id":"806473874","properties":{"name":"iSP_4KPH_%TR_Permission Blocker - DO NOT DELETE","oid":"806473874","speedLimit":1.1111112},"geometry":{"type":"Polygon","coordinates":[[[-121.022720065401,50.4815455376011],[-121.022686955485,50.4815432008497],[-121.022679347249,50.4815718709919],[-121.022701467491,50.4815729494926],[-121.022705553395,50.4815488629781],[-121.022720065401,50.4815455376011]]]}},{"type":"Feature","id":"824566967","properties":{"name":"iSP_4Cr_3KPH","oid":"824566967","speedLimit":0.8333333},"geometry":{"type":"Polygon","coordinates":[[[-121.023302940821,50.481068660565],[-121.023282793085,50.481068660565],[-121.023280116113,50.4811867563858],[-121.023305195114,50.4811860373854],[-121.023302940821,50.481068660565]]]}},{"type":"Feature","id":"826307302","properties":{"name":"iSP_4KPH_TR%_CRUSHER POCKETS","oid":"826307302","speedLimit":1.1111112},"geometry":{"type":"Polygon","coordinates":[[[-121.023298150451,50.4813218385919],[-121.023337600564,50.4814775021853],[-121.023542318472,50.4814380470366],[-121.023461304847,50.4811891830123],[-121.023052996177,50.4811899020127],[-121.023058350121,50.4813605747401],[-121.023283215765,50.4813266019698],[-121.023298150451,50.4813218385919]]]}},{"type":"Feature","id":"849417440","properties":{"name":"iSP_Permissions_35_KPH_June_19_NS","oid":"849417440","speedLimit":9.722222},"geometry":{"type":"Polygon","coordinates":[[[-121.032696294523,50.4660344514198],[-121.033010909174,50.4660151282832],[-121.033217881374,50.4658142575376],[-121.033806674312,50.465379801527],[-121.033727492299,50.4652510105747],[-121.033963629404,50.4654004727894],[-121.033427389653,50.4658087751594],[-121.0330249985,50.4661883175121],[-121.032696294523,50.4660344514198]]]}},{"type":"Feature","id":"853029148","properties":{"name":"SP_30KPH_%TR_1635 Flats_AUG_11_DS","oid":"853029148","speedLimit":8.333333},"geometry":{"type":"Polygon","coordinates":[[[-121.018590483926,50.456971181357],[-121.017409234826,50.4572899681732],[-121.01643073113,50.4584578046239],[-121.018349556449,50.4588933391352],[-121.020692752271,50.4589874383167],[-121.020241048476,50.4572319987635],[-121.01942330399,50.4570968266824],[-121.018969064117,50.4570002109994],[-121.018590483926,50.456971181357]]]}},{"type":"Feature","id":"883050998","properties":{"name":"iSP_22kph_%TR_4CR_Brake_Temp_CTRL_NOREMOVE","oid":"883050998","speedLimit":6.111111},"geometry":{"type":"Polygon","coordinates":[[[-121.031799931597,50.4745593699096],[-121.032189219677,50.4743127527616],[-121.032490872148,50.474575098044],[-121.03279252462,50.4748024819304],[-121.032970331915,50.4748848973549],[-121.033179135728,50.474935047635],[-121.033463035648,50.4749598531498],[-121.033666908197,50.4749222853773],[-121.033828090087,50.4748628779666],[-121.033919248027,50.4748108403104],[-121.034008574354,50.4747476581475],[-121.034059014142,50.474658502094],[-121.034053237518,50.4745483152779],[-121.034057041636,50.4744839647393],[-121.033994907708,50.4743799793019],[-121.033876557369,50.4742599062299],[-121.033509671318,50.4739379737867],[-121.033061348962,50.4735603188101],[-121.03294807078,50.4734257758544],[-121.032823098458,50.4732212202317],[-121.032606263729,50.4728152546131],[-121.032252762538,50.4722093169996],[-121.032487772497,50.4721564704679],[-121.032430710726,50.4722059916226],[-121.032903266723,50.4730491993785],[-121.033042469265,50.4733099269099],[-121.033250286824,50.4735472869273],[-121.033743272344,50.4739619704261],[-121.034098323362,50.4742715001118],[-121.034203711521,50.4743948086858],[-121.0342564056,50.4744620352262],[-121.034263450263,50.4745931629298],[-121.034238512156,50.4746791733564],[-121.034183986464,50.4747919665491],[-121.034086488328,50.4748761794746],[-121.033973632826,50.4749380135117],[-121.03379103516,50.4750164744338],[-121.033531509773,50.4750647373378],[-121.033263530791,50.475068422215],[-121.033071915956,50.4750266303149],[-121.032808163772,50.4749168928741],[-121.032657407983,50.4748354660752],[-121.032495803413,50.4747056864973],[-121.03214526098,50.474413412822],[-121.031799931597,50.4745593699096]]]}},{"type":"Feature","id":"883053336","properties":{"name":"iSP_22kph_%TR_Brake_Temp_CTRL_NOREMOVE","oid":"883053336","speedLimit":6.111111},"geometry":{"type":"Polygon","coordinates":[[[-121.032466497614,50.4721455955863],[-121.032251635391,50.4722258540095],[-121.03148898017,50.4710086761542],[-121.030817060209,50.4699237045032],[-121.030661795836,50.4696605503454],[-121.030596984936,50.4694580618489],[-121.030550631053,50.4692571012283],[-121.030596984936,50.468973275808],[-121.030723225298,50.4686246504738],[-121.030884970761,50.4683758763246],[-121.031089406883,50.468098162408],[-121.031688766814,50.4675368926962],[-121.032432683232,50.4668940164355],[-121.032789002288,50.466556535608],[-121.03314813921,50.4662227396577],[-121.033485014997,50.4658710585717],[-121.033780045485,50.4660344514198],[-121.033588007971,50.4659936481453],[-121.032919892128,50.4666524322905],[-121.032555119475,50.466991620744],[-121.032179075362,50.4673080708089],[-121.031774852597,50.4676687394003],[-121.031382464865,50.4680348004949],[-121.031147595799,50.4682867202711],[-121.031009238617,50.4684702451312],[-121.030905541177,50.468654848492],[-121.030829036137,50.4688533824861],[-121.030768170248,50.469191672189],[-121.03077690563,50.4694009911896],[-121.03087412198,50.4696307118274],[-121.031028118314,50.4699354781353],[-121.031331038825,50.4704041765415],[-121.031531107255,50.4707113694758],[-121.031750759849,50.471083272449],[-121.032146529019,50.4717292044615],[-121.032381820765,50.4721455057113],[-121.032466497614,50.4721455955863]]]}},{"type":"Feature","id":"883059532","properties":{"name":"iSP_22kph_%TR_Brake_CTRL_NOREMOVE","oid":"883059532","speedLimit":6.111111},"geometry":{"type":"Polygon","coordinates":[[[-121.027262605025,50.4773223986923],[-121.027030412931,50.477210234625],[-121.027334883267,50.4769444740906],[-121.027716844898,50.4766328772786],[-121.028033572948,50.4763231678428],[-121.028190809827,50.4761692118754],[-121.028621661419,50.4756927842146],[-121.028907674738,50.4753261838696],[-121.029264275582,50.4748880429817],[-121.029473079394,50.4746571539682],[-121.029691886628,50.4745408556484],[-121.029801924265,50.4744886382421],[-121.029952680054,50.4745930730548],[-121.029789102978,50.4745424733994],[-121.029556488205,50.4747919665491],[-121.029252299654,50.475173486153],[-121.029073365213,50.475478432211],[-121.028853571726,50.475775199639],[-121.02869647574,50.475975171634],[-121.028409335275,50.4762710403115],[-121.028042026544,50.4765704141161],[-121.027244288901,50.4772198512558],[-121.027262605025,50.4773223986923]]]}},{"type":"Feature","id":"908328496","properties":{"name":"SP_25KPH_%TR_9019_SOFT_GROUND_AUG_11_DS","oid":"908328496","speedLimit":6.9444447},"geometry":{"type":"Polygon","coordinates":[[[-121.039287703945,50.4643962988119],[-121.039589638203,50.4649891146676],[-121.038653402485,50.4651686850253],[-121.03820296673,50.4657217761072],[-121.037625163467,50.4662172572794],[-121.03744552456,50.4665120474563],[-121.037342813373,50.466733140089],[-121.036964092287,50.4670238858884],[-121.035975303383,50.4664712441818],[-121.037882152775,50.4651402845083],[-121.038521244606,50.464814757063],[-121.039287703945,50.4643962988119]]]}},{"type":"Feature","id":"910445950","properties":{"name":"SP_30KPH_%TR_1635_FLATS_AUG_11_DS","oid":"910445950","speedLimit":8.333333},"geometry":{"type":"Polygon","coordinates":[[[-121.020225832004,50.4571644127229],[-121.019044723799,50.4569615647262],[-121.018651068028,50.456922918453],[-121.01745474335,50.4572319987635],[-121.018090735529,50.4544693294809],[-121.018772095339,50.453899431764],[-121.018938772066,50.4535130589072],[-121.019559547774,50.4545176822599],[-121.020225832004,50.4571450895863],[-121.020210756425,50.4571450895863],[-121.020225832004,50.4571644127229]]]}},{"type":"Feature","id":"915576987","properties":{"name":"iSP_15kph_prevent shifting","oid":"915576987","speedLimit":4.1666665},"geometry":{"type":"Polygon","coordinates":[[[-121.03699875203,50.4448635735927],[-121.037512871538,50.4453134881126],[-121.03798218699,50.4457959374021],[-121.03852617587,50.446219248906],[-121.039458889257,50.4468503515347],[-121.039916228782,50.4471001143095],[-121.040472193589,50.4471954717418],[-121.041225408962,50.4473231841934],[-121.041643861947,50.4475100344305],[-121.042322403891,50.4480954805317],[-121.042705069988,50.4485282289164],[-121.042848499327,50.4487952477016],[-121.043009963004,50.4493920180596],[-121.043189179232,50.4501985567935],[-121.043326691054,50.4505017053504],[-121.043688364055,50.4511691175009],[-121.043858844901,50.451489432193],[-121.044127810136,50.4522539992768],[-121.044384940337,50.4529385775625],[-121.044698709629,50.4537985020784],[-121.044737596169,50.4541951206914],[-121.044573173733,50.4550722113426],[-121.044217559143,50.4568396941531],[-121.044053136707,50.4572077324989],[-121.043006863352,50.4583993858389],[-121.041906909665,50.4595377432719],[-121.04134502734,50.4600010491748],[-121.040373568307,50.460597909408],[-121.039925105058,50.460731373863],[-121.039135961903,50.4608075879088],[-121.038944769748,50.4608057005326],[-121.039001549733,50.4612938119505],[-121.039061288475,50.4609277508558],[-121.039880301001,50.4608801170773],[-121.040708330695,50.4606322416785],[-121.041512408534,50.4600582995842],[-121.04287540994,50.4587006470196],[-121.044244328862,50.45714284271],[-121.044429744394,50.4562905575736],[-121.044815369249,50.4544219653275],[-121.044812269597,50.4537869980715],[-121.0442623632,50.4523017229304],[-121.043834893046,50.4511862836362],[-121.04334768415,50.4503377732521],[-121.043051808302,50.4493100520105],[-121.042929231166,50.4486922508898],[-121.042241672053,50.447887599532],[-121.041548195423,50.4473918487346],[-121.041093814656,50.4472221646328],[-121.040460217662,50.4471306718279],[-121.039919187541,50.4470200356365],[-121.038822192612,50.4463336598497],[-121.038197471893,50.4458721514478],[-121.03715429819,50.4449073427439],[-121.037378459368,50.4446976642431],[-121.03699875203,50.4448635735927]]]}},{"type":"Feature","id":"919196848","properties":{"name":"SP_15kph_%TR_1445bench_aug11_DS","oid":"919196848","speedLimit":4.1666665},"geometry":{"type":"Polygon","coordinates":[[[-121.0379506269,50.4666027313857],[-121.038171829319,50.4661905643884],[-121.038502928482,50.4655874129016],[-121.038789364482,50.4653576023887],[-121.039388442627,50.4645710159167],[-121.04001724925,50.4646084938142],[-121.039130889746,50.466004792652],[-121.038954491384,50.4664606389255],[-121.039056498104,50.4670053716273],[-121.039010144222,50.4672540559015],[-121.038786828403,50.4677763198398],[-121.037524424786,50.4673163393139],[-121.037746331672,50.4668802655522],[-121.0379506269,50.4666027313857]]]}},{"type":"Feature","id":"919564513","properties":{"name":"SP_15KPH_BAT_CONST_AUG_12_DS","oid":"919564513","speedLimit":4.1666665},"geometry":{"type":"Polygon","coordinates":[[[-121.04133854625,50.4520311990181],[-121.040125877954,50.4521457897118],[-121.040135881376,50.453059369635],[-121.041298532564,50.4530370806216],[-121.04133854625,50.4520311990181]]]}}]}