{"type":"FeatureCollection","features":[{"type":"Feature","id":"702602533","properties":{"name":"iSP_4KPH_%TR_CR01_Slow Bump","oid":"702602533","speedLimit":1.1111112},"geometry":{"type":"Polygon","coordinates":[[[-121.033345797399,50.4648077344833],[-121.033640443896,50.4646907171631],[-121.033683823973,50.4647314305625],[-121.033356079041,50.4648695685204],[-121.033345797399,50.4648077344833]]]}},{"type":"Feature","id":"707947583","properties":{"name":"iSP_25KPH_%TR_Permission Gate 1 From West Dump","oid":"707947583","speedLimit":6.9444447},"geometry":{"type":"Polygon","coordinates":[[[-121.038613659871,50.461977838661],[-121.038840278521,50.4617993468039],[-121.03812549316,50.4614081206942],[-121.037977888223,50.4616708254768],[-121.038177323902,50.4615667501644],[-121.038652110394,50.4618459020818],[-121.038613659871,50.461977838661]]]}},{"type":"Feature","id":"742345972","properties":{"name":"iSP_4KPH_%TR_CR01_Pit Side_Slow Bump","oid":"742345972","speedLimit":1.1111112},"geometry":{"type":"Polygon","coordinates":[[[-121.033385656366,50.4648826902782],[-121.033692838015,50.4647441928202],[-121.033742978624,50.4647762782144],[-121.033461571501,50.4649181909245],[-121.033385656366,50.4648826902782]]]}},{"type":"Feature","id":"776427243","properties":{"name":"iSP_7KPH_%TR_CR1_PermissionBlocker","oid":"776427243","speedLimit":1.9444444},"geometry":{"type":"Polygon","coordinates":[[[-121.034086638975,50.4652127114762],[-121.034038188499,50.4652330232384],[-121.034017061838,50.4652744556382],[-121.034102695237,50.4652253838588],[-121.034086638975,50.4652127114762]]]}},{"type":"Feature","id":"794004438","properties":{"name":"iSP_11KPH_%TR_Lower_Fuel_Bay","oid":"794004438","speedLimit":3.0555556},"geometry":{"type":"Polygon","coordinates":[[[-121.036762541844,50.4606953216417],[-121.03676465451,50.4607251601596],[-121.03673493634,50.4606706958769],[-121.037110990904,50.4605989755839],[-121.037520848126,50.4605559254331],[-121.037528594568,50.4605812701983],[-121.036930287531,50.4606501144896],[-121.036762541844,50.4606953216417]]]}},{"type":"Feature","id":"801543391","properties":{"name":"iSP_4KPH_%TR_CR01_PermissionBlocker_2","oid":"801543391","speedLimit":1.1111112},"geometry":{"type":"Polygon","coordinates":[[[-121.033142418077,50.4645231900626],[-121.03314157301,50.464473758783],[-121.033163122205,50.4644316972577],[-121.033095094356,50.4644592888993],[-121.033142418077,50.4645231900626]]]}},{"type":"Feature","id":"806473874","properties":{"name":"iSP_4KPH_%TR_CR04_PermissionBlocker","oid":"806473874","speedLimit":1.1111112},"geometry":{"type":"Polygon","coordinates":[[[-121.022709791237,50.4815450758972],[-121.022676692802,50.4815427391458],[-121.022669087204,50.4815714092879],[-121.022691199776,50.4815724877886],[-121.022695284263,50.4815484012741],[-121.022709791237,50.4815450758972]]]}},{"type":"Feature","id":"824566967","properties":{"name":"iSP_3KPH_%TR_CR04","oid":"824566967","speedLimit":0.8333333},"geometry":{"type":"Polygon","coordinates":[[[-121.023292464545,50.4810681988611],[-121.023272323795,50.4810681988611],[-121.023269647751,50.481186294682],[-121.023294718055,50.4811855756815],[-121.023292464545,50.4810681988611]]]}},{"type":"Feature","id":"826307302","properties":{"name":"iSP_4KPH_%TR_CR04_Pockets","oid":"826307302","speedLimit":1.1111112},"geometry":{"type":"Polygon","coordinates":[[[-121.023287675835,50.481321376888],[-121.023327112269,50.4814770404813],[-121.02353175919,50.4814375853327],[-121.023450773657,50.4811887213084],[-121.023042606569,50.4811894403088],[-121.023047958656,50.4813601130362],[-121.023272746328,50.4813261402658],[-121.023287675835,50.481321376888]]]}},{"type":"Feature","id":"883050998","properties":{"name":"iSP_22KPH_%TR_4CR_Brake_Temp_Ctrl","oid":"883050998","speedLimit":6.111111},"geometry":{"type":"Polygon","coordinates":[[[-121.03178650898,50.4745589082069],[-121.032175662074,50.474312291059],[-121.032477209947,50.4745746363414],[-121.032778757821,50.4748020202277],[-121.032956503461,50.4748844356522],[-121.033165234871,50.4749345859323],[-121.033449036349,50.4749593914471],[-121.033652838204,50.4749218236746],[-121.033813964205,50.474862416264],[-121.033905090535,50.4748103786078],[-121.033994385889,50.4747471964449],[-121.034044808186,50.4746580403914],[-121.034039033565,50.4745478535753],[-121.034042836364,50.4744835030367],[-121.033980723981,50.4743795175993],[-121.03386241468,50.4742594445273],[-121.033495655847,50.4739375120842],[-121.033047488947,50.4735598571077],[-121.032934250045,50.473425314152],[-121.032809321057,50.4732207585293],[-121.032592561516,50.4728147929108],[-121.032239182901,50.4722088552974],[-121.03247411137,50.4721560087657],[-121.032417069386,50.4722055299204],[-121.032889461524,50.4730487376761],[-121.033028615797,50.4733094652075],[-121.033236361296,50.4735468252249],[-121.033729175872,50.4739615087236],[-121.034084103775,50.4742710384093],[-121.034189455391,50.4743943469832],[-121.034242131199,50.4744615735236],[-121.034249173419,50.4745927012272],[-121.034224243959,50.4746787116538],[-121.034169737174,50.4747915048464],[-121.034072272845,50.474875717772],[-121.033959456476,50.474937551809],[-121.033776922126,50.4750160127311],[-121.03351748673,50.475064275635],[-121.03324960067,50.4750679605123],[-121.033058052278,50.4750261686122],[-121.03279439155,50.4749164311714],[-121.032643688035,50.4748350043725],[-121.032482139502,50.4747052247947],[-121.03213171862,50.4744129511194],[-121.03178650898,50.4745589082069]]]}},{"type":"Feature","id":"883053336","properties":{"name":"iSP_22KPH_%TR_Brake_Temp_Ctrl","oid":"883053336","speedLimit":6.111111},"geometry":{"type":"Polygon","coordinates":[[[-121.032452843865,50.4721451338842],[-121.032238056146,50.4722253923073],[-121.031475665376,50.4710082144523],[-121.030803978404,50.4699232428015],[-121.030648767869,50.4696600886437],[-121.030583979442,50.4694576001472],[-121.030537641633,50.4692566395267],[-121.030583979442,50.4689728141064],[-121.03071017603,50.4686241887724],[-121.030871865408,50.4683754146231],[-121.031076230641,50.4680977007066],[-121.031675382744,50.4675364309949],[-121.032419041208,50.4668935547343],[-121.03277523671,50.4665560739069],[-121.033134249101,50.4662222779567],[-121.033471008076,50.4658705968708],[-121.033765936262,50.4660339897188],[-121.033573965337,50.4659931864443],[-121.032906081164,50.4666519705894],[-121.032541434997,50.4669911590429],[-121.032165521277,50.4673076091077],[-121.031761438676,50.467668277699],[-121.031369187006,50.4680343387936],[-121.031134399381,50.4682862585697],[-121.030996090174,50.4684697834297],[-121.030892428691,50.4686543867905],[-121.030815950179,50.4688529207845],[-121.030755105396,50.4691912104874],[-121.030763837749,50.469400529488],[-121.030861020389,50.4696302501258],[-121.031014963325,50.4699350164336],[-121.031317778797,50.4704037148397],[-121.031517777854,50.4707109077739],[-121.031737354283,50.471082810747],[-121.032132986219,50.4717287427594],[-121.032368196377,50.4721450440091],[-121.032452843865,50.4721451338842]]]}},{"type":"Feature","id":"883059532","properties":{"name":"iSP_22KPH_%TR_Brake_Ctrl","oid":"883059532","speedLimit":6.111111},"geometry":{"type":"Polygon","coordinates":[[[-121.02725075573,50.4773219369892],[-121.027018644149,50.4772097729219],[-121.027323008911,50.4769440123875],[-121.027704838095,50.4766324155756],[-121.02802145632,50.4763227061398],[-121.028178638677,50.4761687501725],[-121.02860934087,50.4756923225117],[-121.028895255015,50.4753257221669],[-121.029251732206,50.4748875812791],[-121.029460463616,50.4746566922656],[-121.029679194978,50.4745403939458],[-121.029789194459,50.4744881765395],[-121.029939897974,50.4745926113521],[-121.029776377618,50.4745420116968],[-121.029543843504,50.4747915048464],[-121.029239760432,50.4751730244503],[-121.029060888036,50.4754779705082],[-121.028841170763,50.4757747379362],[-121.02868412925,50.4759747099311],[-121.028397088351,50.4762705786086],[-121.028029906984,50.4765699524131],[-121.027232445958,50.4772193895527],[-121.02725075573,50.4773219369892]]]}},{"type":"Feature","id":"884401102","properties":{"name":"iSP_30KPH_%TR_Maint_Limit_Policy","oid":"884401102","speedLimit":8.333333},"geometry":{"type":"Polygon","coordinates":[[[-121.036978033785,50.4611011973852],[-121.037094089575,50.461107668389],[-121.038279999474,50.4609919991947],[-121.038263661523,50.4603978352133],[-121.038105211566,50.460565721814],[-121.037018456129,50.4607083535245],[-121.036730851852,50.4605376807972],[-121.036978033785,50.4611011973852]]]}},{"type":"Feature","id":"910445950","properties":{"name":"SP_22KPH_%TR_1635_FLATS_OCT_2_NS","oid":"910445950","speedLimit":6.111111},"geometry":{"type":"Polygon","coordinates":[[[-121.017361365765,50.4554937130218],[-121.017994320525,50.4544140439993],[-121.018139531108,50.453998371875],[-121.018524036336,50.4537513952268],[-121.018939949867,50.4536879434388],[-121.018857837578,50.4543415148308],[-121.018253192543,50.4560719691187],[-121.018267276984,50.455700695271],[-121.017361365765,50.4554937130218]]]}},{"type":"Feature","id":"915576987","properties":{"name":"iSP_15KPH_%TR_Preventing Shifting","oid":"915576987","speedLimit":4.1666665},"geometry":{"type":"Polygon","coordinates":[[[-121.036983526717,50.4448631118957],[-121.037497467954,50.4453130264156],[-121.03796662067,50.445795475705],[-121.038510420922,50.4462187872088],[-121.039442810889,50.4468498898374],[-121.039899991831,50.4470996526122],[-121.040455763857,50.4471950100444],[-121.041208718052,50.447322722496],[-121.041627025937,50.447509572733],[-121.042305332597,50.4480950188342],[-121.042687866003,50.4485277672188],[-121.042831245609,50.4487947860039],[-121.042992653298,50.4493915563618],[-121.043171807382,50.4501980950956],[-121.043309271522,50.4505012436524],[-121.043670819113,50.4511686558027],[-121.043841240844,50.4514889704948],[-121.044110112815,50.4522535375784],[-121.044367153856,50.452938115864],[-121.044680814348,50.4537980403798],[-121.044719687404,50.4541946589927],[-121.044555321982,50.4550717496438],[-121.044199830701,50.4568392324539],[-121.04403546528,50.4572072707996],[-121.042989554721,50.4583989241394],[-121.041889982443,50.4595372815721],[-121.041328294952,50.460000587475],[-121.040357172773,50.460597447708],[-121.039908865029,50.4607309121631],[-121.039119995511,50.4608071262088],[-121.038482815418,50.4608386723527],[-121.0386305612,50.4611434386605],[-121.038743377569,50.4609494882942],[-121.039864076508,50.4608796553773],[-121.040691819082,50.4606317799786],[-121.041495618107,50.4600578378844],[-121.04285814689,50.45870018532],[-121.044226591139,50.4571423810107],[-121.044411942377,50.4562900958745],[-121.044797433516,50.4544215036287],[-121.044794334939,50.4537865363729],[-121.044244619223,50.452301261232],[-121.043817297295,50.451185821938],[-121.043330257339,50.4503373115541],[-121.043034484086,50.4493095903127],[-121.042911949453,50.4486917891921],[-121.042224628752,50.4478871378345],[-121.041531392586,50.4473913870372],[-121.041077169376,50.4472217029354],[-121.040443792083,50.4471302101305],[-121.039902949564,50.4470195739392],[-121.038806335019,50.4463331981525],[-121.038181830923,50.4458716897507],[-121.037139018941,50.444906881047],[-121.037363102391,50.4446972025462],[-121.036983526717,50.4448631118957]]]}},{"type":"Feature","id":"917773475","properties":{"name":"SP_15KPH_%TR_1200_CORNER_OCT_2_NS","oid":"917773475","speedLimit":4.1666665},"geometry":{"type":"Polygon","coordinates":[[[-121.037084371311,50.4446823731623],[-121.036910287626,50.44486194352],[-121.036614796062,50.4448204212451],[-121.036400290032,50.4448697626497],[-121.036308741168,50.4449674568333],[-121.036240149942,50.445081957652],[-121.036227896479,50.4451447803147],[-121.03624902314,50.445267100263],[-121.036301698947,50.4453513131886],[-121.036169868583,50.4453950823398],[-121.036074798609,50.4451941217193],[-121.036148741922,50.4449315068118],[-121.036245502029,50.4447912118526],[-121.036502261381,50.4447149079318],[-121.036699302705,50.4447115825548],[-121.036908597493,50.4447699114648],[-121.037079160068,50.444683451663],[-121.037084371311,50.4446823731623]]]}},{"type":"Feature","id":"929009157","properties":{"name":"iSP_22KPH_%TR_Long_Single_Lane","oid":"929009157","speedLimit":6.111111},"geometry":{"type":"Polygon","coordinates":[[[-121.005675927934,50.4380557955628],[-121.004746495699,50.4382238619136],[-121.005170859894,50.4381973487727],[-121.007930283496,50.4431703152554],[-121.008518872268,50.4445347084488],[-121.008206056843,50.4465095330082],[-121.007828171302,50.4466800259855],[-121.008929292867,50.4466467722156],[-121.008818589164,50.4465927573082],[-121.009398445584,50.4448174553684],[-121.008759716203,50.4430682171942],[-121.008258169273,50.4415399817776],[-121.007254934569,50.4401559958225],[-121.006435501815,50.4389838453694],[-121.005856631307,50.438312838217],[-121.005675927934,50.4380557955628]]]}},{"type":"Feature","id":"932268643","properties":{"name":"SP_35KPH_%traction_1185_1170_OCT_2_NS","oid":"932268643","speedLimit":9.722222},"geometry":{"type":"Polygon","coordinates":[[[-121.038714081933,50.4481972966455],[-121.038452393027,50.4482555356805],[-121.038932109073,50.4498291579993],[-121.039491120521,50.4497912307266],[-121.039090699875,50.4497304751901],[-121.038607040184,50.4483440626086],[-121.038837039099,50.4481593693728],[-121.038714081933,50.4481972966455]]]}},{"type":"Feature","id":"933371104","properties":{"name":"SP_17KPH_%TR_1590_HMT_INTERSECT_OCT_2_NS","oid":"933371104","speedLimit":4.7222223},"geometry":{"type":"Polygon","coordinates":[[[-121.006355502193,50.4374886839726],[-121.005857898906,50.437681106463],[-121.005939025284,50.4378151101684],[-121.006248601288,50.4380937228355],[-121.006600571459,50.4383161635939],[-121.007157611085,50.4382766185702],[-121.006786204386,50.4381830586391],[-121.006112404748,50.4376595364501],[-121.006355502193,50.4374886839726]]]}},{"type":"Feature","id":"934051091","properties":{"name":"iSP_17KPH_%TR_Ramp_Permission Blocker","oid":"934051091","speedLimit":4.7222223},"geometry":{"type":"Polygon","coordinates":[[[-121.039497740208,50.4610295669672],[-121.039449712265,50.4607715356874],[-121.039002390432,50.4607921170748],[-121.039061263394,50.4610448457264],[-121.03914872777,50.4608997873893],[-121.039364642244,50.4608866656315],[-121.039497740208,50.4610295669672]]]}},{"type":"Feature","id":"936169885","properties":{"name":"SP_10KPH_%TR_24shl_loadplan_OCT_2_NS","oid":"936169885","speedLimit":2.7777777},"geometry":{"type":"Polygon","coordinates":[[[-121.039006193231,50.454605387989],[-121.038142535333,50.4544776755374],[-121.037799297516,50.4553099185366],[-121.038016620435,50.4554559654992],[-121.038594364188,50.4554924547711],[-121.039080559077,50.4554887698939],[-121.039166474165,50.4553136034138],[-121.039006193231,50.454605387989]]]}},{"type":"Feature","id":"936513295","properties":{"name":"SP_30KPH_%TR_1635_FLATS_OCT_2_NS","oid":"936513295","speedLimit":8.333333},"geometry":{"type":"Polygon","coordinates":[[[-121.017277563343,50.4555550976837],[-121.018041503401,50.4557850879466],[-121.017425590814,50.4574537081974],[-121.015219263194,50.4585168402101],[-121.014490675082,50.4578795362028],[-121.016169258712,50.456619308197],[-121.017277563343,50.4555550976837]]]}},{"type":"Feature","id":"938065675","properties":{"name":"iSP_8KPH_CR01_YARD_RUTIING_OCT_2_NS","oid":"938065675","speedLimit":2.2222223},"geometry":{"type":"Polygon","coordinates":[[[-121.034275652167,50.4648010837293],[-121.034085512219,50.4648578847634],[-121.033927343951,50.4649068666677],[-121.033815936026,50.4650048304765],[-121.034030723745,50.4650687316398],[-121.033950724123,50.4650112116053],[-121.034229032669,50.4648879929064],[-121.034305652026,50.464937244436],[-121.034275652167,50.4648010837293]]]}},{"type":"Feature","id":"938165680","properties":{"name":"SP_10KPH_%TR_22SH_OCT_2_NS","oid":"938165680","speedLimit":2.7777777},"geometry":{"type":"Polygon","coordinates":[[[-121.034066920758,50.4466112715693],[-121.035041423203,50.4472504629526],[-121.03548311126,50.4474471994456],[-121.035781138023,50.4469120833747],[-121.034841142457,50.4461952399447],[-121.034066920758,50.4466112715693]]]}},{"type":"Feature","id":"944724443","properties":{"name":"SP_10KPH_%TR_21SH_EMPTY_OCT_2_NS","oid":"944724443","speedLimit":2.7777777},"geometry":{"type":"Polygon","coordinates":[[[-121.039119572978,50.4501829960865],[-121.039025911448,50.4503427939324],[-121.038936193561,50.4506116102186],[-121.03893647525,50.4512094590772],[-121.039422106762,50.451512607634],[-121.039927033957,50.4513548769144],[-121.039695626598,50.4511094281422],[-121.039490416299,50.4509152081507],[-121.039089432275,50.4503564549406],[-121.039069573214,50.4502968677798],[-121.039119572978,50.4501829960865]]]}},{"type":"Feature","id":"948333262","properties":{"name":"SP_15KPH_%TR_19SH_LOADAREA_OCT_2_NS","oid":"948333262","speedLimit":4.1666665},"geometry":{"type":"Polygon","coordinates":[[[-121.00182510103,50.4258158917214],[-121.00135327227,50.4259954620791],[-121.001486933611,50.4262928586325],[-121.001511299693,50.4266962178744],[-121.001607496423,50.4268353444579],[-121.001751439406,50.426952271903],[-121.001944959619,50.4270054779349],[-121.002353408397,50.4268576334712],[-121.00182510103,50.4258158917214]]]}},{"type":"Feature","id":"949509237","properties":{"name":"SP_20KPH_%TR_24SH__LANE_OCT_2_NS","oid":"949509237","speedLimit":5.5555553},"geometry":{"type":"Polygon","coordinates":[[[-121.03848605484,50.4535460307286],[-121.038387745444,50.4537047500738],[-121.03815394373,50.4544229416296],[-121.039017742472,50.4545688987172],[-121.039303656616,50.4537390823444],[-121.03848605484,50.4535460307286]]]}},{"type":"Feature","id":"950375436","properties":{"name":"SP_22KPH_%TR_1445_RAC_OCT_2_NS","oid":"950375436","speedLimit":6.111111},"geometry":{"type":"Polygon","coordinates":[[[-121.039791400794,50.4640111718805],[-121.039732105299,50.4638809429274],[-121.039075347834,50.4641958651163],[-121.038229577176,50.4645745985935],[-121.037799156672,50.464837303376],[-121.037680424837,50.4647592019542],[-121.037825072042,50.4649249315536],[-121.038563378419,50.4645177975594],[-121.038997460878,50.4643260041944],[-121.039509430294,50.4641224371973],[-121.039784076885,50.4640017349999],[-121.039791400794,50.4640111718805]]]}},{"type":"Feature","id":"950380359","properties":{"name":"SP_20KPH_%TR_EMPTY_23SH_SOFT_OCT_2_NS","oid":"950380359","speedLimit":5.5555553},"geometry":{"type":"Polygon","coordinates":[[[-121.038885771264,50.4647303520619],[-121.038771405606,50.4646500936387],[-121.038294365603,50.4649202580508],[-121.038363097673,50.4649519839448],[-121.038767461963,50.4647035692958],[-121.038878165666,50.4647279254354],[-121.038885771264,50.4647303520619]]]}},{"type":"Feature","id":"950427531","properties":{"name":"SP_15KPH_%TR_1590_DUMP_HEAD_OCT_2_NS","oid":"950427531","speedLimit":4.1666665},"geometry":{"type":"Polygon","coordinates":[[[-121.014462365356,50.4503498041866],[-121.014245605816,50.4491357719584],[-121.014354056008,50.4478526258138],[-121.014442647139,50.4473997454172],[-121.013683636636,50.4470537264596],[-121.013545749962,50.4483117974642],[-121.013939973455,50.450532250546],[-121.014551097332,50.4504252992319],[-121.014462365356,50.4503498041866]]]}},{"type":"Feature","id":"950999947","properties":{"name":"SP_15KPH_%TR_23SH_HEADING_SOFT_OCT_3_NS","oid":"950999947","speedLimit":4.1666665},"geometry":{"type":"Polygon","coordinates":[[[-121.038032254164,50.4652780506404],[-121.037517186171,50.464977238835],[-121.037185497595,50.465222328107],[-121.036731556074,50.4653226286671],[-121.037368736167,50.4658350962245],[-121.038032254164,50.4652836228937],[-121.038032254164,50.4652780506404]]]}}]}