{"type":"FeatureCollection","features":[{"type":"Feature","id":"702602533","properties":{"name":"iSP_4KPH_%TR_CR01_Slow Bump","oid":"702602533","speedLimit":1.1111112},"geometry":{"type":"Polygon","coordinates":[[[-121.033357368342,50.4648077872165],[-121.033652119223,50.464690769238],[-121.033695514668,50.4647314828664],[-121.033367653626,50.4648696216014],[-121.033357368342,50.4648077872165]]]}},{"type":"Feature","id":"707947583","properties":{"name":"iSP_25KPH_%TR_Permission Gate 1 From West Dump","oid":"707947583","speedLimit":6.9444447},"geometry":{"type":"Polygon","coordinates":[[[-121.038627097051,50.461977875473],[-121.038853795984,50.4617993826118],[-121.038138757398,50.461408154301],[-121.037991100168,50.4616708605616],[-121.038190606501,50.4615667846636],[-121.038665561195,50.4618459381516],[-121.038627097051,50.461977875473]]]}},{"type":"Feature","id":"742345972","properties":{"name":"iSP_4KPH_%TR_CR01_Pit Side_Slow Bump","oid":"742345972","speedLimit":1.1111112},"geometry":{"type":"Polygon","coordinates":[[[-121.033397241429,50.4648827434332],[-121.033704531904,50.4647442451959],[-121.033754690275,50.4647763307706],[-121.033473183458,50.4649182442792],[-121.033397241429,50.4648827434332]]]}},{"type":"Feature","id":"776427243","properties":{"name":"iSP_7KPH_%TR_CR1_PermissionBlocker","oid":"776427243","speedLimit":1.9444444},"geometry":{"type":"Polygon","coordinates":[[[-121.034098472374,50.4652127664878],[-121.034050004734,50.4652330783643],[-121.034028870588,50.4652745109972],[-121.034114534324,50.4652254389417],[-121.034098472374,50.4652127664878]]]}},{"type":"Feature","id":"794004438","properties":{"name":"iSP_11KPH_%TR_Lower_Fuel_Bay","oid":"794004438","speedLimit":3.0555556},"geometry":{"type":"Polygon","coordinates":[[[-121.036775323231,50.4606953512383],[-121.036777436645,50.460725189924],[-121.036747707947,50.460670725335],[-121.037123895735,50.4605990046384],[-121.037533898156,50.4605559542454],[-121.037541647343,50.4605812991532],[-121.036943128345,50.4606501438318],[-121.036775323231,50.4606953512383]]]}},{"type":"Feature","id":"801543391","properties":{"name":"iSP_4KPH_%TR_CR01_PermissionBlocker_2","oid":"801543391","speedLimit":1.1111112},"geometry":{"type":"Polygon","coordinates":[[[-121.033153916969,50.464523241195],[-121.033153071603,50.4644738096372],[-121.033174628431,50.4644317478753],[-121.033106576483,50.4644593396721],[-121.033153916969,50.464523241195]]]}},{"type":"Feature","id":"806473874","properties":{"name":"iSP_4KPH_%TR_CR04_PermissionBlocker","oid":"806473874","speedLimit":1.1111112},"geometry":{"type":"Polygon","coordinates":[[[-121.02271759418,50.4815452227955],[-121.022684484019,50.4815428860309],[-121.022676875727,50.4815715563344],[-121.022698996132,50.4815726348411],[-121.022703082067,50.4815485481912],[-121.02271759418,50.4815452227955]]]}},{"type":"Feature","id":"817097804","properties":{"name":"SP_25KPH_%TR_prevent shifting_OCT9TH","oid":"817097804","speedLimit":6.9444447},"geometry":{"type":"Polygon","coordinates":[[[-121.054617050568,50.4680342299287],[-121.054597325366,50.4683934625402],[-121.054577600164,50.468443702978],[-121.054546603417,50.4684976283137],[-121.054436846755,50.468608984132],[-121.05429031668,50.4686843897264],[-121.053944280273,50.468773456406],[-121.053728852884,50.4688208208258],[-121.053667845651,50.4686736046593],[-121.053733220608,50.4687361580488],[-121.054159848556,50.4686167134301],[-121.054316663915,50.4685403192045],[-121.054401482285,50.4684611388365],[-121.054445300413,50.4681832436064],[-121.054459389844,50.4674612732366],[-121.054333993914,50.4674320636797],[-121.05462268634,50.4674361080799],[-121.054617050568,50.4680342299287]]]}},{"type":"Feature","id":"824566967","properties":{"name":"iSP_3KPH_%TR_CR04","oid":"824566967","speedLimit":0.8333333},"geometry":{"type":"Polygon","coordinates":[[[-121.02330047391,50.4810683430765],[-121.023280326025,50.4810683430765],[-121.023277649033,50.4811864395618],[-121.023302728219,50.4811857205573],[-121.02330047391,50.4810683430765]]]}},{"type":"Feature","id":"826307302","properties":{"name":"iSP_4KPH_%TR_CR04_Pockets","oid":"826307302","speedLimit":1.1111112},"geometry":{"type":"Polygon","coordinates":[[[-121.023295683504,50.4813215225278],[-121.023335133909,50.4814771869969],[-121.02353985333,50.4814377316262],[-121.023458839106,50.4811888662019],[-121.023050527417,50.4811895852063],[-121.023055881401,50.4813602588939],[-121.023280748708,50.4813262859324],[-121.023295683504,50.4813215225278]]]}},{"type":"Feature","id":"883050998","properties":{"name":"iSP_22KPH_%TR_4CR_Brake_Temp_Ctrl","oid":"883050998","speedLimit":6.111111},"geometry":{"type":"Polygon","coordinates":[[[-121.031797527517,50.4745590158007],[-121.032186818475,50.4743123972653],[-121.032488473177,50.4745747440236],[-121.032790127879,50.4748021291893],[-121.032967936489,50.4748845450774],[-121.033176741846,50.4749346956396],[-121.033460643866,50.4749595012941],[-121.033664517922,50.4749219333102],[-121.033825701004,50.4748625255653],[-121.033916859618,50.4748104876163],[-121.034006186606,50.474747305098],[-121.034056626766,50.4746581485429],[-121.034050850099,50.4745479611069],[-121.034054654246,50.4744836102063],[-121.033992519858,50.4743796241839],[-121.033874168644,50.4742595504363],[-121.03350727988,50.473937616182],[-121.033058954209,50.4735599590808],[-121.032945675189,50.4734254153681],[-121.032820701943,50.4732208585946],[-121.032603865611,50.4728148906921],[-121.032250361805,50.4722089496697],[-121.032485373502,50.4721561028406],[-121.03242831131,50.472205624274],[-121.032900870801,50.4730488367736],[-121.033040074372,50.4733095657719],[-121.033247893468,50.4735469271246],[-121.033740882634,50.4739616129564],[-121.034095936276,50.4742711443835],[-121.034201325215,50.4743944536512],[-121.034254019684,50.4744616805697],[-121.034261064399,50.4745928090111],[-121.034236126108,50.4746788199216],[-121.034181600012,50.4747916137488],[-121.034084101155,50.4748758271481],[-121.033971244818,50.4749376615331],[-121.033788645802,50.4750161228966],[-121.033529118497,50.4750643860721],[-121.033261137533,50.47506807097],[-121.033069521281,50.4750262788348],[-121.032805767147,50.4749165407766],[-121.032655010243,50.4748351135196],[-121.032493404478,50.4747053332117],[-121.032142859453,50.474413057892],[-121.031797527517,50.4745590158007]]]}},{"type":"Feature","id":"883053336","properties":{"name":"iSP_22KPH_%TR_Brake_Temp_Ctrl","oid":"883053336","speedLimit":6.111111},"geometry":{"type":"Polygon","coordinates":[[[-121.032464098463,50.472145227898],[-121.032249234651,50.4722254867726],[-121.031486573791,50.4710083020697],[-121.030814648861,50.4699233243148],[-121.03065938334,50.4696601686765],[-121.03059457196,50.4694576790408],[-121.030548217735,50.4692567172896],[-121.03059457196,50.4689728902726],[-121.030720813256,50.4686242629771],[-121.030882559915,50.4683754874283],[-121.031086997548,50.4680977719493],[-121.031686361912,50.4675364990799],[-121.03243028383,50.4668936192025],[-121.032786605522,50.4665561364764],[-121.033145745099,50.4662223386482],[-121.033482623377,50.4658706555837],[-121.033777656047,50.466034049351],[-121.033585617112,50.4659932458469],[-121.032917496329,50.4666520336984],[-121.032552720979,50.4669912240601],[-121.032176674085,50.4673076759053],[-121.031772448331,50.4676683465258],[-121.031380057698,50.4680344096798],[-121.031145186895,50.4682863308732],[-121.03100682869,50.4684698567658],[-121.030903130483,50.4686544611651],[-121.030826624877,50.4688529962762],[-121.030765758538,50.4691912878823],[-121.030774493985,50.4694006080605],[-121.030871711054,50.4696303299907],[-121.031025708527,50.4699350980131],[-121.031328631277,50.4704037990562],[-121.031528701187,50.4707109937187],[-121.031748355405,50.4710828987841],[-121.032144127501,50.4717288344306],[-121.032379420987,50.4721451380224],[-121.032464098463,50.472145227898]]]}},{"type":"Feature","id":"883059532","properties":{"name":"iSP_22KPH_%TR_Brake_Ctrl","oid":"883059532","speedLimit":6.111111},"geometry":{"type":"Polygon","coordinates":[[[-121.027260167393,50.4773220601279],[-121.027027973582,50.4772098954296],[-121.02733244617,50.4769441334],[-121.027714410625,50.476632534835],[-121.028031141017,50.4763228236568],[-121.028188379059,50.4761688668233],[-121.028619233837,50.4756924364822],[-121.028905249271,50.4753258340748],[-121.029261852751,50.474887690722],[-121.029470658108,50.4746568004095],[-121.02968946696,50.4745405014354],[-121.02979950541,50.4744882837354],[-121.029950262314,50.4745927191356],[-121.029786684029,50.4745421191955],[-121.029554067535,50.4747916137488],[-121.029249876735,50.4751731354991],[-121.029070940971,50.4754780832726],[-121.028851145859,50.4757748523703],[-121.028694048711,50.4759748254903],[-121.028406906122,50.4762706958323],[-121.028039594675,50.4765700713212],[-121.027241851134,50.4772195121144],[-121.027260167393,50.4773220601279]]]}},{"type":"Feature","id":"884401102","properties":{"name":"iSP_30KPH_%TR_Maint_Limit_Policy","oid":"884401102","speedLimit":8.333333},"geometry":{"type":"Polygon","coordinates":[[[-121.037217731341,50.4610267224263],[-121.037674369776,50.4610799287576],[-121.037993354477,50.4608741137262],[-121.037906422693,50.4604833347933],[-121.037859223101,50.4606706354594],[-121.037199555976,50.4607816317754],[-121.036971166311,50.4606591313878],[-121.037217731341,50.4610267224263]]]}},{"type":"Feature","id":"910445950","properties":{"name":"SP_30KPH_%TR_1635_FLATS_OCT_9_NS","oid":"910445950","speedLimit":8.333333},"geometry":{"type":"Polygon","coordinates":[[[-121.017633423268,50.4550418190405],[-121.018000452926,50.454414038257],[-121.018145714952,50.4539983637941],[-121.018530356398,50.4537513857565],[-121.018946417274,50.4536879336115],[-121.018864275896,50.4543415086805],[-121.018733525983,50.4547410954182],[-121.018507531521,50.4552110547191],[-121.017633423268,50.4550418190405]]]}},{"type":"Feature","id":"915576987","properties":{"name":"iSP_15KPH_%TR_Preventing Shifting","oid":"915576987","speedLimit":4.1666665},"geometry":{"type":"Polygon","coordinates":[[[-121.036996386391,50.4448630524195],[-121.037510509702,50.4453129694706],[-121.037979828624,50.4457954214742],[-121.038523821527,50.4462187353597],[-121.039456541811,50.4468498415388],[-121.039913884717,50.4470996057188],[-121.040469853636,50.4471949636875],[-121.041223074578,50.4473226768576],[-121.041641530657,50.4475095281459],[-121.042320077618,50.4480949775408],[-121.042702746545,50.44852772836],[-121.042846176945,50.4487947486475],[-121.043007641816,50.4493915223628],[-121.043186859369,50.4501980656342],[-121.043324372208,50.4505012158966],[-121.043686047883,50.4511686318018],[-121.043856529989,50.451488948296],[-121.044125497213,50.4522535196811],[-121.044382629316,50.4529381018182],[-121.044696400928,50.4537980311719],[-121.044735287755,50.4541946520162],[-121.044570864104,50.4550717476018],[-121.044215246884,50.4568392403559],[-121.044050823233,50.4572072807722],[-121.043004542141,50.4583989408163],[-121.04190458032,50.4595373046535],[-121.041342693841,50.460000613163],[-121.040371227624,50.4605974767539],[-121.039922761058,50.4607309419598],[-121.039133612069,50.4608071564343],[-121.038496206244,50.4608387027557],[-121.038644004367,50.4611434707782],[-121.038756860704,50.4609495193207],[-121.03987795667,50.4608796860109],[-121.040705992487,50.4606318092177],[-121.041510076272,50.4600578638944],[-121.042873087756,50.4587002036919],[-121.044242016801,50.4571423906182],[-121.044427433704,50.456290100687],[-121.04481306141,50.4544214979285],[-121.044809961736,50.4537865271003],[-121.044260051272,50.4523012436032],[-121.043832577958,50.4511857980337],[-121.043345365459,50.450337282876],[-121.043049487423,50.4493095558525],[-121.04292690938,50.4486917512562],[-121.042239345183,50.4478870953716],[-121.041545863425,50.4473913417851],[-121.041091479299,50.4472216567287],[-121.04045787762,50.4471301634091],[-121.039916843498,50.4470195265953],[-121.038819840457,50.446333146947],[-121.038195115119,50.4458716359487],[-121.037151933702,50.444906821817],[-121.037376096537,50.4446971421366],[-121.036996386391,50.4448630524195]]]}},{"type":"Feature","id":"917773475","properties":{"name":"SP_15KPH_%TR_1200_CORNER_OCT_9_NS","oid":"917773475","speedLimit":4.1666665},"geometry":{"type":"Polygon","coordinates":[[[-121.037097266712,50.4446823126692],[-121.036923121354,50.4448618840372],[-121.036627525107,50.4448203615287],[-121.036412943084,50.4448697032109],[-121.036321361787,50.4449673979441],[-121.036252746262,50.445081899407],[-121.036240488458,50.4451447224231],[-121.036261622603,50.4452670430596],[-121.036314317072,50.445351256459],[-121.036182440005,50.4453950258564],[-121.036087336351,50.4451940641053],[-121.036161305859,50.4449314477203],[-121.036258100245,50.4447911519718],[-121.036514950559,50.4447148476218],[-121.036712061689,50.4447115222261],[-121.036921430622,50.4447698514642],[-121.037092053623,50.444683391176],[-121.037097266712,50.4446823126692]]]}},{"type":"Feature","id":"929009157","properties":{"name":"iSP_22KPH_%TR_Long_Single_Lane","oid":"929009157","speedLimit":6.111111},"geometry":{"type":"Polygon","coordinates":[[[-121.005677696319,50.4380556977882],[-121.004747934815,50.4382237650846],[-121.005172449349,50.4381972517945],[-121.007932850528,50.4431702462554],[-121.008521647819,50.4445346471249],[-121.008208721572,50.4465094827948],[-121.007830702158,50.4466799767313],[-121.008932213817,50.4466467227743],[-121.008821470895,50.446592707563],[-121.009401532739,50.4448173956352],[-121.008762577076,50.4430681476198],[-121.008260852464,50.4415399036052],[-121.007257262346,50.4401559098638],[-121.006437539293,50.4389837528161],[-121.005858463709,50.4383127418885],[-121.005677696319,50.4380556977882]]]}},{"type":"Feature","id":"934051091","properties":{"name":"iSP_17KPH_%TR_Ramp_Permission Blocker","oid":"934051091","speedLimit":4.7222223},"geometry":{"type":"Polygon","coordinates":[[[-121.039511490589,50.4610295984442],[-121.039463445632,50.4607715657128],[-121.039015965326,50.4607921472159],[-121.039074859145,50.4610448772893],[-121.039162354507,50.4608998181362],[-121.039378345473,50.4608866963045],[-121.039511490589,50.4610295984442]]]}},{"type":"Feature","id":"938065675","properties":{"name":"iSP_8KPH_CR01_YARD_RUTIING_OCT_4_NS","oid":"938065675","speedLimit":2.2222223},"geometry":{"type":"Polygon","coordinates":[[[-121.034287552528,50.4648011364251],[-121.034097345219,50.4648579377787],[-121.033939120917,50.4649069199587],[-121.033827673524,50.4650048843186],[-121.034042537336,50.4650687858414],[-121.033962509372,50.4650112654833],[-121.034240916514,50.4648880460912],[-121.034317563014,50.4649372978978],[-121.034287552528,50.4648011364251]]]}},{"type":"Feature","id":"938165680","properties":{"name":"SP_10KPH_%TR_22SH_OCT_9_NS","oid":"938165680","speedLimit":2.7777777},"geometry":{"type":"Polygon","coordinates":[[[-121.034078747171,50.4466112219282],[-121.035053594852,50.4472504169078],[-121.035495439385,50.4474471545076],[-121.035793571729,50.446912035426],[-121.034853243153,50.4461951879631],[-121.034078747171,50.4466112219282]]]}},{"type":"Feature","id":"948301528","properties":{"name":"SP_15KPH_%TR_24SH__LANES_OCT 9 NS","oid":"948301528","speedLimit":4.1666665},"geometry":{"type":"Polygon","coordinates":[[[-121.039030759228,50.4526157181861],[-121.0390809176,50.4528875917537],[-121.038936500939,50.454841126916],[-121.039750729115,50.4549416976672],[-121.039876688621,50.4528380703204],[-121.039861190248,50.4526212904708],[-121.03937989531,50.4526061913768],[-121.039030759228,50.4526157181861]]]}},{"type":"Feature","id":"950999947","properties":{"name":"SP_15KPH_%TR_23SH_HEADING_SOFT_OCT9_NS","oid":"950999947","speedLimit":4.1666665},"geometry":{"type":"Polygon","coordinates":[[[-121.038131853577,50.4653454228137],[-121.037616603112,50.4650446093159],[-121.037284797029,50.4652896999668],[-121.036830694692,50.4653900010912],[-121.037468100517,50.4659024715318],[-121.038131853577,50.4653509950984],[-121.038131853577,50.4653454228137]]]}},{"type":"Feature","id":"951141721","properties":{"name":"SP_8KPH_%TR_CR1_SHOPSIDE_OCT_9_NS","oid":"951141721","speedLimit":2.2222223},"geometry":{"type":"Polygon","coordinates":[[[-121.033772020274,50.4647083848476],[-121.033828096207,50.4646113192433],[-121.033599565648,50.4645575736587],[-121.033278749321,50.4644629346945],[-121.033367090049,50.4646853767044],[-121.033563496706,50.4646292044797],[-121.033735951333,50.4646343273866],[-121.033772020274,50.4647135077545],[-121.033772020274,50.4647083848476]]]}},{"type":"Feature","id":"954548484","properties":{"name":"SP_15KPH_Main Intersection_FuelBrute_October9_DS","oid":"954548484","speedLimit":4.1666665},"geometry":{"type":"Polygon","coordinates":[[[-121.038038017971,50.4606481665695],[-121.038519735592,50.461155963481],[-121.038182293737,50.4616399433691],[-121.037207305163,50.4612976972384],[-121.037348622148,50.4607383117557],[-121.038038017971,50.4606481665695]]]}},{"type":"Feature","id":"954559984","properties":{"name":"SP_15KPH_%TR_CR4_October9_DS","oid":"954559984","speedLimit":4.1666665},"geometry":{"type":"Polygon","coordinates":[[[-121.022811711574,50.4804496397246],[-121.022354227773,50.4802447234488],[-121.022000583074,50.4805986534023],[-121.022561905976,50.4807621370451],[-121.022811711574,50.4804496397246]]]}},{"type":"Feature","id":"954641224","properties":{"name":"Caution  Ditch Ahead","oid":"954641224","speedLimit":4.1666665},"geometry":{"type":"Polygon","coordinates":[[[-121.039579260748,50.4603358490001],[-121.039814413339,50.4610393050047],[-121.03808972618,50.4610826250244],[-121.037708184409,50.4606792635131],[-121.038173417396,50.4603558912499],[-121.039364960514,50.4603391743958],[-121.039579260748,50.4603358490001]]]}}]}