{"type":"FeatureCollection","features":[{"type":"Feature","id":"702602533","properties":{"name":"iSP_4KPH_%TR_CR01_SLOW BUMP","oid":"702602533","speedLimit":1.1111112},"geometry":{"type":"Polygon","coordinates":[[[-121.033353748829,50.4648103845321],[-121.033648233269,50.4646926472266],[-121.033691912779,50.4647339900972],[-121.033363611944,50.46487150008],[-121.033353748829,50.4648103845321]]]}},{"type":"Feature","id":"707947583","properties":{"name":"iSP_22KPH_%TR_Permission Gate 1 from west dump_Jun","oid":"707947583","speedLimit":6.111111},"geometry":{"type":"Polygon","coordinates":[[[-121.038623470388,50.4619801954086],[-121.038850322038,50.4618013425551],[-121.037976731833,50.4613528622844],[-121.037738608051,50.4615442977506],[-121.037955596586,50.4614984610897],[-121.038661513832,50.4618480779741],[-121.038623470388,50.4619801954086]]]}},{"type":"Feature","id":"742345972","properties":{"name":"iSP_4KPH_%TR_CR01_PITSIDE_SLOW BUMP","oid":"742345972","speedLimit":1.1111112},"geometry":{"type":"Polygon","coordinates":[[[-121.03339320129,50.4648849814509],[-121.033700366878,50.46474657271],[-121.033751091471,50.4647789280001],[-121.033469288179,50.4649209317732],[-121.03339320129,50.4648849814509]]]}},{"type":"Feature","id":"776427243","properties":{"name":"iSP_4KPH_%TR_CR1_PermissionBlocker_DO_NOT_DELETE","oid":"776427243","speedLimit":1.1111112},"geometry":{"type":"Polygon","coordinates":[[[-121.033921582462,50.4651555076263],[-121.034051211977,50.465244484674],[-121.034076574273,50.465229205787],[-121.034162524277,50.4651806728519],[-121.033921582462,50.4651555076263]]]}},{"type":"Feature","id":"794004438","properties":{"name":"iSP_11KPH_%TR_LOWER_FUEL_BAY","oid":"794004438","speedLimit":3.0555556},"geometry":{"type":"Polygon","coordinates":[[[-121.03677202276,50.4606976676603],[-121.036773431776,50.4607273266762],[-121.036743842431,50.4606725024347],[-121.037120049826,50.4606015005482],[-121.037530073615,50.4605583601614],[-121.037538527714,50.460583525387],[-121.036939695719,50.4606527297574],[-121.03677202276,50.4606976676603]]]}},{"type":"Feature","id":"801543391","properties":{"name":"iSP_4KPH_%TR_CR1_PermissionBlocker_DO_NOT_DELETE_","oid":"801543391","speedLimit":1.1111112},"geometry":{"type":"Polygon","coordinates":[[[-121.033150850459,50.4645254782279],[-121.033149441442,50.4644760465347],[-121.033170576689,50.464433804906],[-121.033102943899,50.4644616664058],[-121.033150850459,50.4645254782279]]]}},{"type":"Feature","id":"806473874","properties":{"name":"iSP_4KPH_%TR_Permission Blocker - DO NOT DELETE","oid":"806473874","speedLimit":1.1111112},"geometry":{"type":"Polygon","coordinates":[[[-121.022712856526,50.4815479558398],[-121.022680449148,50.4815452595656],[-121.022671995049,50.4815740198234],[-121.022694539312,50.4815749185815],[-121.022698766362,50.4815506521139],[-121.022712856526,50.4815479558398]]]}},{"type":"Feature","id":"824566967","properties":{"name":"iSP_4Cr_3KPH","oid":"824566967","speedLimit":0.8333333},"geometry":{"type":"Polygon","coordinates":[[[-121.023296189341,50.4810707153112],[-121.02327646311,50.4810707153112],[-121.023273645077,50.4811884526167],[-121.023299007374,50.4811884526167],[-121.023296189341,50.4810707153112]]]}},{"type":"Feature","id":"826307302","properties":{"name":"iSP_4KPH_TR%_CRUSHER POCKETS","oid":"826307302","speedLimit":1.1111112},"geometry":{"type":"Polygon","coordinates":[[[-121.023291962291,50.4813241650834],[-121.023331414752,50.4814796502274],[-121.023535722139,50.4814401048728],[-121.023453999184,50.4811911488909],[-121.023046793427,50.4811920476489],[-121.023051020477,50.4813628116799],[-121.02327646311,50.4813286588737],[-121.023291962291,50.4813241650834]]]}},{"type":"Feature","id":"849417440","properties":{"name":"iSP_Permissions_35_KPH_June_19_NS","oid":"849417440","speedLimit":9.722222},"geometry":{"type":"Polygon","coordinates":[[[-121.032690102077,50.4660362905228],[-121.033004312747,50.4660174166036],[-121.033211438167,50.4658160947986],[-121.033800407047,50.4653819946568],[-121.033721502125,50.4652525734965],[-121.033956807874,50.4654026660921],[-121.033421381619,50.4658107022503],[-121.033018402912,50.4661899781506],[-121.032690102077,50.4660362905228]]]}},{"type":"Feature","id":"853029148","properties":{"name":"SP_25KPH_%TR_1635 Flats_July_24_NS","oid":"853029148","speedLimit":6.9444447},"geometry":{"type":"Polygon","coordinates":[[[-121.018583029283,50.4569732142694],[-121.01740227349,50.4572913746218],[-121.016423007051,50.4584597600968],[-121.018342087469,50.4588947589967],[-121.020685281841,50.4589891285927],[-121.020234396574,50.4572338541061],[-121.019415758011,50.4570981416394],[-121.018962054711,50.4570019745273],[-121.018583029283,50.4569732142694]]]}},{"type":"Feature","id":"883050998","properties":{"name":"iSP_22kph_%TR_4CR_Brake_Temp_CTRL_NOREMOVE","oid":"883050998","speedLimit":6.111111},"geometry":{"type":"Polygon","coordinates":[[[-121.031793967608,50.4745610106996],[-121.032182856151,50.4743147509918],[-121.032484385674,50.4745771883446],[-121.032785915196,50.4748045741332],[-121.03296345127,50.4748863611165],[-121.033173394722,50.4749366915677],[-121.033456607031,50.4749618567933],[-121.033660914417,50.4749241089549],[-121.033821542294,50.4748647909231],[-121.033913128364,50.4748126629557],[-121.0340018964,50.4747497498917],[-121.034052620993,50.474660772844],[-121.034046984927,50.4745502256029],[-121.034051211977,50.4744855150227],[-121.033989215252,50.4743821578461],[-121.03387085787,50.4742617242664],[-121.033503104574,50.4739399688818],[-121.03305503734,50.4735624904975],[-121.032942316023,50.4734276767889],[-121.032816913558,50.4732227599517],[-121.032599925023,50.4728174200677],[-121.032246261892,50.4722107583788],[-121.032481567641,50.4721586304115],[-121.032425206982,50.4722080621047],[-121.032897227496,50.4730510971627],[-121.033036720126,50.4733117369994],[-121.033243845545,50.4735490091267],[-121.033737001306,50.4739642353493],[-121.034092073454,50.4742734081211],[-121.034197749688,50.474396537975],[-121.034249883297,50.4744639448294],[-121.03425692838,50.4745951635058],[-121.0342329751,50.4746814442793],[-121.034178023458,50.4747937890365],[-121.034080801322,50.4748782722939],[-121.033968080005,50.4749402865999],[-121.033784907866,50.4750184785509],[-121.033525648837,50.475067011486],[-121.03325793571,50.4750706065183],[-121.033066309471,50.4750283648896],[-121.032801414377,50.4749187164065],[-121.032650649616,50.4748369294233],[-121.032490021739,50.474707508263],[-121.032139176641,50.4744154118942],[-121.031793967608,50.4745610106996]]]}},{"type":"Feature","id":"883053336","properties":{"name":"iSP_22kph_%TR_Brake_Temp_CTRL_NOREMOVE","oid":"883053336","speedLimit":6.111111},"geometry":{"type":"Polygon","coordinates":[[[-121.032460432394,50.4721478453148],[-121.032244852875,50.4722278347819],[-121.031482574971,50.4710109163719],[-121.03081047412,50.4699252166382],[-121.030655482309,50.4696627792854],[-121.030590667552,50.4694596599644],[-121.030544170009,50.4692592369175],[-121.030590667552,50.4689752293713],[-121.030717479033,50.4686265112449],[-121.03087810691,50.468377555263],[-121.031082414296,50.4680998390231],[-121.031682655308,50.4675390139952],[-121.032426615999,50.4668955032259],[-121.032783097163,50.4665584689543],[-121.03314239636,50.4662250297149],[-121.033479151294,50.4658727165563],[-121.033773635734,50.4660362905228],[-121.033582009496,50.4659958464102],[-121.032914135694,50.4666546360664],[-121.032549200431,50.4669934678542],[-121.032172993036,50.4673098306905],[-121.031768605312,50.4676702326716],[-121.03137548972,50.4680369259591],[-121.031141592988,50.4682885782152],[-121.031003509375,50.468471924859],[-121.030899242157,50.4686570690189],[-121.030823155268,50.4688556945496],[-121.03076256756,50.4691936275793],[-121.030771021659,50.4694030382067],[-121.030868243794,50.4696322215114],[-121.031021826588,50.469936900493],[-121.031324765127,50.4704060521991],[-121.031524845465,50.4707134274548],[-121.031744652032,50.4710855132906],[-121.032140585657,50.471730821576],[-121.032375891406,50.4721478453148],[-121.032460432394,50.4721478453148]]]}},{"type":"Feature","id":"883059532","properties":{"name":"iSP_22kph_%TR_Brake_CTRL_NOREMOVE","oid":"883059532","speedLimit":6.111111},"geometry":{"type":"Polygon","coordinates":[[[-121.027255525592,50.4773246917269],[-121.027024446893,50.4772123469697],[-121.027328794448,50.4769463145846],[-121.027710637909,50.4766344455386],[-121.028027666612,50.4763252727668],[-121.028184067439,50.4761715851389],[-121.028615226476,50.4756943446103],[-121.028901256817,50.4753285500808],[-121.029257737981,50.4748899561487],[-121.029466272417,50.4746589753279],[-121.029686078985,50.4745430355384],[-121.029795982269,50.4744909075711],[-121.02994674703,50.4745951635058],[-121.029783301121,50.4745448330545],[-121.029550813405,50.4747937890365],[-121.029246465849,50.475175761211],[-121.029067520759,50.4754804401926],[-121.028847714191,50.4757770303516],[-121.028689904348,50.4759774533984],[-121.02840246499,50.4762731447994],[-121.028036120711,50.4765724312326],[-121.027237208378,50.4772213345502],[-121.027255525592,50.4773246917269]]]}},{"type":"Feature","id":"884401102","properties":{"name":"SP_25KPH_MAIN INT. DUST_JULY 25_DS","oid":"884401102","speedLimit":6.9444447},"geometry":{"type":"Polygon","coordinates":[[[-121.036552216192,50.460770467063],[-121.036673391608,50.4610427907545],[-121.038289533487,50.4609942578193],[-121.038274034306,50.4604001787432],[-121.038114815446,50.4605682465],[-121.036683254723,50.460739909289],[-121.036549398159,50.460614083161],[-121.036552216192,50.460770467063]]]}},{"type":"Feature","id":"886231481","properties":{"name":"SP_15KPH_%TR_1200_SWITCHBACK_July_24_NS","oid":"886231481","speedLimit":4.1666665},"geometry":{"type":"Polygon","coordinates":[[[-121.036904470307,50.4452291427301],[-121.036963648999,50.444682697831],[-121.036278866999,50.4447474084112],[-121.036035107152,50.4452767769072],[-121.036518399797,50.4453477787937],[-121.0366128039,50.4451042153601],[-121.036766386694,50.4451329756179],[-121.036904470307,50.4452291427301]]]}},{"type":"Feature","id":"899288147","properties":{"name":"SP_30KPH_%TR_1185_BENCH_JULY_24_NS","oid":"899288147","speedLimit":8.333333},"geometry":{"type":"Polygon","coordinates":[[[-121.039754910605,50.4500581697739],[-121.03953792207,50.4496339559706],[-121.039835224543,50.4495917143419],[-121.040146617181,50.4505452966411],[-121.04032978932,50.4509551303154],[-121.040195932757,50.4511950987168],[-121.040012760617,50.4506028171568],[-121.039754910605,50.4500581697739]]]}},{"type":"Feature","id":"902935346","properties":{"name":"SP_20KPH_%TRX_NEW LANES_July24_NS","oid":"902935346","speedLimit":5.5555553},"geometry":{"type":"Polygon","coordinates":[[[-121.039147624511,50.4482813250939],[-121.039116626149,50.4482930089486],[-121.039071537622,50.4483262629968],[-121.039240619597,50.4487280078485],[-121.039505514692,50.4492699589573],[-121.039623872074,50.4495854230355],[-121.039825361428,50.4495440801649],[-121.039704186012,50.4493157956182],[-121.039222302383,50.448299300255],[-121.039147624511,50.4482813250939]]]}},{"type":"Feature","id":"903864124","properties":{"name":"SP_15KPH_%TR_OLD_GARBAGEDUMP_July_24_NS","oid":"903864124","speedLimit":4.1666665},"geometry":{"type":"Polygon","coordinates":[[[-121.042579988606,50.4670042529509],[-121.042127694323,50.4673305021258],[-121.039928219629,50.4663014241498],[-121.040718677863,50.4661252675705],[-121.042258732854,50.4668280963716],[-121.042579988606,50.4670042529509]]]}},{"type":"Feature","id":"908328496","properties":{"name":"SP_15KPH_%TR_9019_SOFT_GROUND_July 24_NS","oid":"908328496","speedLimit":4.1666665},"geometry":{"type":"Polygon","coordinates":[[[-121.038995450733,50.4644913254217],[-121.039319524519,50.4647052298394],[-121.039498469609,50.4648804876606],[-121.039387157309,50.4652175219322],[-121.038206401516,50.4655626450264],[-121.037876691664,50.4651420262554],[-121.03851497612,50.4648166758385],[-121.038995450733,50.4644913254217]]]}},{"type":"Feature","id":"908575258","properties":{"name":"iSP_15km_permissions ","oid":"908575258","speedLimit":4.1666665},"geometry":{"type":"Polygon","coordinates":[[[-121.041865617261,50.4595526498949],[-121.041454184455,50.4599148493921],[-121.041079386077,50.4602078445189],[-121.040683452452,50.4604253439688],[-121.040342470469,50.4605862216612],[-121.039952172909,50.4607156428215],[-121.039512559774,50.4607821509177],[-121.039171577791,50.4607974298047],[-121.039116626149,50.4612135547854],[-121.039250482712,50.4609394335778],[-121.039798590115,50.460847760256],[-121.040269201613,50.4607066552409],[-121.040935666398,50.4603938874368],[-121.041538725443,50.4599876487948],[-121.041938886117,50.4596533107973],[-121.042086832846,50.4595301809434],[-121.041938886117,50.459492433105],[-121.041865617261,50.4595526498949]]]}},{"type":"Feature","id":"910445950","properties":{"name":"SP_30KPH_%TR_1635_FLATS_JULY24_NS","oid":"910445950","speedLimit":8.333333},"geometry":{"type":"Polygon","coordinates":[[[-121.020218897393,50.4571664472518],[-121.0190381416,50.4569633279308],[-121.018643616991,50.4569246813343],[-121.017447362017,50.4572338541061],[-121.018084237457,50.4544710718369],[-121.018764792407,50.4539012592284],[-121.018931056349,50.4535147932636],[-121.019552432608,50.454519604772],[-121.020218897393,50.4571466745745],[-121.020203398212,50.4571466745745],[-121.020218897393,50.4571664472518]]]}},{"type":"Feature","id":"911981461","properties":{"name":"SP_15KPH_%TR_NEWLANES_21SH_1185_JULY_24_NS","oid":"911981461","speedLimit":4.1666665},"geometry":{"type":"Polygon","coordinates":[[[-121.040574958184,50.4503996978358],[-121.040422784407,50.4504230655453],[-121.040448146703,50.4507106681237],[-121.040411512275,50.4509012048319],[-121.040233976201,50.4512391378616],[-121.040453782769,50.4518772560825],[-121.040962437711,50.4517873802768],[-121.040484781131,50.4504769910287],[-121.040596093431,50.4503996978358],[-121.040574958184,50.4503996978358]]]}}]}