{"type":"FeatureCollection","features":[{"type":"Feature","id":"702602533","properties":{"name":"iSP_4KPH_%TR_CR01_SLOW BUMP","oid":"702602533","speedLimit":1.1111112},"geometry":{"type":"Polygon","coordinates":[[[-121.033359347662,50.4648078906127],[-121.033654091131,50.4646908733633],[-121.033697485484,50.4647315867381],[-121.033369632687,50.4648697246123],[-121.033359347662,50.4648078906127]]]}},{"type":"Feature","id":"707947583","properties":{"name":"iSP_22KPH_%TR_Permission Gate 1 from west dump_Jun","oid":"707947583","speedLimit":6.111111},"geometry":{"type":"Polygon","coordinates":[[[-121.038628943846,50.4619779965028],[-121.038855637078,50.4617995047538],[-121.037981409916,50.4613510285062],[-121.037744290768,50.4615422825052],[-121.037960417193,50.4614965361304],[-121.038667407024,50.4618460600035],[-121.038628943846,50.4619779965028]]]}},{"type":"Feature","id":"742345972","properties":{"name":"iSP_4KPH_%TR_CR01_PITSIDE_SLOW BUMP","oid":"742345972","speedLimit":1.1111112},"geometry":{"type":"Polygon","coordinates":[[[-121.033399219747,50.4648828463623],[-121.033706502493,50.464744348988],[-121.033756659603,50.4647764343628],[-121.033475159866,50.4649183469871],[-121.033399219747,50.4648828463623]]]}},{"type":"Feature","id":"776427243","properties":{"name":"iSP_7KPH_%TR_CR1_PermissionBlocker_DO_NOT_DELETE","oid":"776427243","speedLimit":1.9444444},"geometry":{"type":"Polygon","coordinates":[[[-121.034100433056,50.4652128673605],[-121.034051966635,50.4652331791104],[-121.034030833021,50.4652746114852],[-121.034116494603,50.4652255397354],[-121.034100433056,50.4652128673605]]]}},{"type":"Feature","id":"794004438","properties":{"name":"iSP_11KPH_%TR_LOWER_FUEL_BAY","oid":"794004438","speedLimit":3.0555556},"geometry":{"type":"Polygon","coordinates":[[[-121.036777216595,50.4606954802597],[-121.036779329956,50.4607253187595],[-121.036749602006,50.4606708545098],[-121.037125780334,50.4605991342602],[-121.037535772444,50.4605560841355],[-121.037543521436,50.4605814288853],[-121.03694501749,50.4606502731349],[-121.036777216595,50.4606954802597]]]}},{"type":"Feature","id":"801543391","properties":{"name":"iSP_4KPH_%TR_CR1_PermissionBlocker_DO_NOT_DELETE_","oid":"801543391","speedLimit":1.1111112},"geometry":{"type":"Polygon","coordinates":[[[-121.033155901405,50.4645233463642],[-121.033155056061,50.4644739151145],[-121.033176612347,50.4644318536147],[-121.03310856211,50.4644594452395],[-121.033155901405,50.4645233463642]]]}},{"type":"Feature","id":"806473874","properties":{"name":"iSP_4KPH_%TR_Permission Blocker - DO NOT DELETE","oid":"806473874","speedLimit":1.1111112},"geometry":{"type":"Polygon","coordinates":[[[-121.022719841072,50.481545221898],[-121.022686731744,50.481542885148],[-121.022679123643,50.4815715552729],[-121.022701243492,50.4815726337729],[-121.022705329324,50.481548547273],[-121.022719841072,50.481545221898]]]}},{"type":"Feature","id":"824566967","properties":{"name":"iSP_4Cr_3KPH","oid":"824566967","speedLimit":0.8333333},"geometry":{"type":"Polygon","coordinates":[[[-121.023302706144,50.4810683451506],[-121.023282558765,50.4810683451506],[-121.023279881841,50.4811864408999],[-121.023304960396,50.4811857218999],[-121.023302706144,50.4810683451506]]]}},{"type":"Feature","id":"826307302","properties":{"name":"iSP_4KPH_TR%_CRUSHER POCKETS","oid":"826307302","speedLimit":1.1111112},"geometry":{"type":"Polygon","coordinates":[[[-121.023297915858,50.4813215230242],[-121.023337365271,50.4814771865234],[-121.023542079544,50.4814377313986],[-121.023461067358,50.4811888675249],[-121.023052765937,50.4811895865249],[-121.023058119786,50.481360259149],[-121.023282981438,50.4813262863992],[-121.023297915858,50.4813215230242]]]}},{"type":"Feature","id":"835348611","properties":{"name":"SP_35KPH_%TR_switchback to 1 gate_AUG_27_DS","oid":"835348611","speedLimit":9.722222},"geometry":{"type":"Polygon","coordinates":[[[-121.03992077122,50.4634034139952],[-121.039548537833,50.4634578782449],[-121.039801718528,50.4633742046204],[-121.039545438236,50.4629227624978],[-121.039365520737,50.4625823159996],[-121.039179404043,50.4622611926263],[-121.038987229048,50.4620179908776],[-121.038746305849,50.4618369826286],[-121.038563288752,50.4617300313792],[-121.038026494959,50.4614322755058],[-121.037959290067,50.4614147498808],[-121.037840378266,50.4614576202556],[-121.037954922453,50.4613477930062],[-121.03814540676,50.461385630381],[-121.038483967255,50.46157041338],[-121.038867753684,50.4617907868788],[-121.039055279284,50.4619262285031],[-121.039239846179,50.462130514377],[-121.039454000134,50.4625355809998],[-121.039582069834,50.4627535278737],[-121.039759028628,50.463060990247],[-121.039862724227,50.463259434246],[-121.039944722649,50.4633238746206],[-121.03992077122,50.4634034139952]]]}},{"type":"Feature","id":"849417440","properties":{"name":"iSP_Permissions_35_KPH_June_19_NS","oid":"849417440","speedLimit":9.722222},"geometry":{"type":"Polygon","coordinates":[[[-121.032695893076,50.4660341451061],[-121.033010502141,50.4660148219812],[-121.033217470667,50.4658139513573],[-121.033806253151,50.4653794956096],[-121.033727072544,50.4652507047353],[-121.033963205457,50.4654001668595],[-121.033426975226,50.4658084689823],[-121.033024591217,50.4661880111053],[-121.032695893076,50.4660341451061]]]}},{"type":"Feature","id":"853029148","properties":{"name":"SP_15KPH_%TR_1635 Flats_AUG_27_DS","oid":"853029148","speedLimit":4.1666665},"geometry":{"type":"Polygon","coordinates":[[[-121.017602688689,50.4567739644057],[-121.016438931016,50.457083943279],[-121.014801357719,50.4577460524005],[-121.013837242253,50.4588995081443],[-121.014982543236,50.4587966012699],[-121.01911853237,50.457457733402],[-121.019253223936,50.4570347816543],[-121.018435493968,50.456899609655],[-121.01798126216,50.4568029940306],[-121.017602688689,50.4567739644057]]]}},{"type":"Feature","id":"855316169","properties":{"name":"SP_30KPH_TR%_CRUSHER YARD EMPTY_AUG_27_DS","oid":"855316169","speedLimit":8.333333},"geometry":{"type":"Polygon","coordinates":[[[-121.037912655225,50.4622348592515],[-121.037771200903,50.4621194597521],[-121.037596637252,50.4622033131266],[-121.03754619836,50.4622375555014],[-121.03760931742,50.4622265008765],[-121.037905751578,50.4624612543752],[-121.037947455243,50.463258355746],[-121.037501535989,50.4637414338684],[-121.037077877476,50.4639814001171],[-121.036452181613,50.4642045597409],[-121.036236618751,50.4641030908664],[-121.036399206687,50.4643263403653],[-121.036720860291,50.4642316121158],[-121.037063083946,50.4640565356167],[-121.037842350736,50.4636953279936],[-121.03798028279,50.4635589876194],[-121.038131881247,50.4633172238707],[-121.038185983299,50.4629460401226],[-121.038121596222,50.4624941486251],[-121.037912655225,50.4622348592515]]]}},{"type":"Feature","id":"859384545","properties":{"name":"SP_20KPH_TR%_MAINT_CREW_L1590_DUST_AUG_27_DS","oid":"859384545","speedLimit":5.5555553},"geometry":{"type":"Polygon","coordinates":[[[-121.013533904447,50.4515903339335],[-121.013429645285,50.4510354456865],[-121.012756469237,50.448326792951],[-121.012536116089,50.4488172408233],[-121.013394140814,50.4517792511825],[-121.013277342375,50.4521784759303],[-121.013116726909,50.4521877330553],[-121.013442889017,50.4522149651801],[-121.013533904447,50.4515903339335]]]}},{"type":"Feature","id":"878230085","properties":{"name":"SP_30KPH_TR%_PUNCH_OUT_L1590_DMP_AUG_27_DS1","oid":"878230085","speedLimit":8.333333},"geometry":{"type":"Polygon","coordinates":[[[-121.013652816248,50.4533275277992],[-121.013645208147,50.4527796498021],[-121.013741013864,50.4524494490539],[-121.013097847547,50.4524617619288],[-121.013065442672,50.4528629639267],[-121.013204924524,50.453367432299],[-121.013610267239,50.4545820030425],[-121.013328908392,50.4549546247905],[-121.013044168168,50.4549500411655],[-121.013783281092,50.4551889289142],[-121.014112965469,50.4546825731669],[-121.014059286089,50.454296110669],[-121.013652816248,50.4533275277992]]]}},{"type":"Feature","id":"883050998","properties":{"name":"iSP_22kph_%TR_4CR_Brake_Temp_CTRL_NOREMOVE","oid":"883050998","speedLimit":6.111111},"geometry":{"type":"Polygon","coordinates":[[[-121.031799546064,50.4745590584354],[-121.032188827232,50.4743124414368],[-121.032490474348,50.4745747865603],[-121.032792121464,50.4748021703091],[-121.032969925603,50.4748845856837],[-121.033178725708,50.4749347359334],[-121.033462620589,50.4749595414333],[-121.033666489517,50.4749219736835],[-121.033827668546,50.4748625663088],[-121.033918824868,50.4748105286841],[-121.034008149609,50.4747473465594],[-121.034058588501,50.4746581905599],[-121.03405281198,50.4745480038105],[-121.03405661603,50.4744836533108],[-121.033994483205,50.4743796679364],[-121.033876134967,50.474259594937],[-121.03350925543,50.4739376626888],[-121.033060941033,50.4735600079408],[-121.032947664863,50.4734254650665],[-121.032822694759,50.4732209095676],[-121.03260586388,50.4728149441948],[-121.032252368965,50.472209006948],[-121.032487374752,50.4721561604483],[-121.032430313994,50.472205681573],[-121.032902861601,50.4730488888185],[-121.033042061672,50.4733096161921],[-121.033249875542,50.4735469760659],[-121.033742852309,50.4739616593136],[-121.034097897023,50.474271188812],[-121.034203283311,50.4743944973113],[-121.034255976455,50.474461723811],[-121.034263020993,50.4745928514353],[-121.034238083328,50.4746788618098],[-121.034183558605,50.4747916549342],[-121.034086062199,50.4748758678087],[-121.033973208701,50.4749377018084],[-121.033790614276,50.475016162683],[-121.033531093498,50.4750644255577],[-121.033263119273,50.4750681104327],[-121.03307150784,50.4750263185579],[-121.032807760339,50.4749165811835],[-121.032657007226,50.474835154434],[-121.032495405525,50.4747053749346],[-121.032144869315,50.4744131014362],[-121.031799546064,50.4745590584354]]]}},{"type":"Feature","id":"883053336","properties":{"name":"iSP_22kph_%TR_Brake_Temp_CTRL_NOREMOVE","oid":"883053336","speedLimit":6.111111},"geometry":{"type":"Polygon","coordinates":[[[-121.032466100247,50.4721452855734],[-121.032251241839,50.4722255439479],[-121.031488600158,50.4710083668294],[-121.030816692126,50.4699233958353],[-121.030661430509,50.4696602418367],[-121.03059662076,50.4694577534628],[-121.0305502677,50.4692567929638],[-121.03059662076,50.4689729677154],[-121.03072285888,50.4686243425922],[-121.030884601472,50.4683755685936],[-121.031089033964,50.468097854845],[-121.031688383255,50.4675365854731],[-121.032432286465,50.4668937096015],[-121.032788599195,50.4665562289783],[-121.033147729741,50.4662224332301],[-121.033484599547,50.465870752357],[-121.033779624797,50.4660341451061],[-121.033587590692,50.4659933418563],[-121.032919486711,50.4666521256028],[-121.032554720535,50.466991313851],[-121.032178683098,50.4673077637243],[-121.031774467509,50.4676684320974],[-121.031382086744,50.4680344929704],[-121.031147221848,50.468286412594],[-121.031008867122,50.468469937343],[-121.030905171523,50.4686545405921],[-121.030828667841,50.468853074466],[-121.030767803033,50.4691913639642],[-121.03077653826,50.4694006828381],[-121.030873752884,50.4696304033368],[-121.031027746484,50.4699351694602],[-121.031330661617,50.4704038675827],[-121.031530726495,50.470711060331],[-121.031750375189,50.4710829630791],[-121.032146137332,50.4717288947006],[-121.032381424901,50.4721451956984],[-121.032466100247,50.4721452855734]]]}},{"type":"Feature","id":"883059532","properties":{"name":"iSP_22kph_%TR_Brake_CTRL_NOREMOVE","oid":"883059532","speedLimit":6.111111},"geometry":{"type":"Polygon","coordinates":[[[-121.027262300047,50.4773220855456],[-121.027030112076,50.4772099215462],[-121.027334577007,50.4769441611727],[-121.027716531856,50.4766325645493],[-121.028033254283,50.476322855301],[-121.02819048837,50.4761688994268],[-121.028621332313,50.4756924720544],[-121.028907340554,50.4753258719313],[-121.029263935066,50.4748877313087],[-121.029472735172,50.4746568424349],[-121.029691538521,50.4745405441855],[-121.029801574204,50.4744883268108],[-121.029952327317,50.4745927615602],[-121.029788753145,50.4745421619355],[-121.029556142502,50.4747916549342],[-121.029251959352,50.4751731743071],[-121.029073028087,50.4754781201805],[-121.028853238503,50.4757748874289],[-121.028696145306,50.4759748593028],[-121.028409009938,50.4762707278013],[-121.028041707728,50.4765701014247],[-121.027243984248,50.4772195381712],[-121.027262300047,50.4773220855456]]]}},{"type":"Feature","id":"891249991","properties":{"name":"SP_30KPH_TR%_1590 #1_AUG_27_DS","oid":"891249991","speedLimit":8.333333},"geometry":{"type":"Polygon","coordinates":[[[-121.012956956788,50.4498606895678],[-121.013847527278,50.4497487951934],[-121.013378924612,50.4450041142188],[-121.012138804148,50.4430837551041],[-121.011299517894,50.4419102572353],[-121.010529690784,50.4421496842341],[-121.011008719366,50.4427016066061],[-121.011240766447,50.4430298301044],[-121.011456329309,50.4435199184767],[-121.011774319753,50.4445106105964],[-121.012956956788,50.4498606895678]]]}},{"type":"Feature","id":"893804793","properties":{"name":"SP_20KPH_%TR_1590Dynamic_AUG_27_DS","oid":"893804793","speedLimit":5.5555553},"geometry":{"type":"Polygon","coordinates":[[[-121.011186523504,50.4418407838607],[-121.010484183069,50.4421100493593],[-121.00598187796,50.438048148756],[-121.006514445031,50.437681638508],[-121.010067287311,50.4407333441166],[-121.011186523504,50.4418407838607]]]}},{"type":"Feature","id":"903996942","properties":{"name":"MRK_CULVERT_1185EL_JULY_6_DS","oid":"903996942","speedLimit":1.9444444},"geometry":{"type":"Polygon","coordinates":[[[-121.036707898341,50.4471634509572],[-121.036651823819,50.4471421505823],[-121.037062520383,50.4468897815837],[-121.037120708267,50.4469100034586],[-121.036707898341,50.4471634509572]]]}},{"type":"Feature","id":"908328496","properties":{"name":"SP_15KPH_%TR_9019_SOFT_GROUND_AUG_27_DS","oid":"908328496","speedLimit":4.1666665},"geometry":{"type":"Polygon","coordinates":[[[-121.038886210373,50.4644516261146],[-121.038900581231,50.464753066863],[-121.039282113407,50.4648803298623],[-121.039728314442,50.4650715838613],[-121.039264783844,50.4662040987302],[-121.038928618492,50.466979180726],[-121.037502663115,50.4696996969615],[-121.035469609457,50.4697243227113],[-121.035228827149,50.4668159677269],[-121.037881659258,50.4651399787359],[-121.038520739743,50.4648144514876],[-121.038886210373,50.4644516261146]]]}},{"type":"Feature","id":"910445950","properties":{"name":"SP_25KPH_%TR_1635_FLATS_AUG_27_DS","oid":"910445950","speedLimit":6.9444447},"geometry":{"type":"Polygon","coordinates":[[[-121.020225651958,50.4571641117786],[-121.019044564721,50.4569612639047],[-121.01865091594,50.4569226176549],[-121.017842907434,50.4571469456537],[-121.01844887859,50.4564124871576],[-121.018505234894,50.4561073615343],[-121.019236035263,50.4561250669092],[-121.019236598826,50.4564588626574],[-121.019424406209,50.4568918804051],[-121.019757753746,50.4570619239042],[-121.020225651958,50.4571641117786]]]}},{"type":"Feature","id":"917291012","properties":{"name":"SP_20KPH_%TR_CORNER_RUTS_AUG_27_DS","oid":"917291012","speedLimit":5.5555553},"geometry":{"type":"Polygon","coordinates":[[[-121.040610572378,50.4662214446051],[-121.040684821808,50.4661073033557],[-121.040422905886,50.4659262951067],[-121.04012111788,50.4658981642318],[-121.040016999608,50.4663106006046],[-121.039934014951,50.4664859467287],[-121.039995161541,50.4668201019769],[-121.040667351354,50.4667393043523],[-121.040549425788,50.466622376978],[-121.040531955334,50.4663773777293],[-121.040610572378,50.4662214446051]]]}},{"type":"Feature","id":"920440343","properties":{"name":"iSP_17KPH_CAL_PAD_ROAD_LIMIT_AUG_23_NS","oid":"920440343","speedLimit":4.7222223},"geometry":{"type":"Polygon","coordinates":[[[-121.005955390497,50.4378307411322],[-121.005969056901,50.4376130638834],[-121.005586820271,50.4375782822586],[-121.005286582062,50.437682717008],[-121.005191058127,50.4378350551322],[-121.005286582062,50.4381615710054],[-121.005989486061,50.4392586751246],[-121.007470388834,50.4413700186132],[-121.007675103107,50.4416486311117],[-121.007784293446,50.442153638734],[-121.007934482995,50.4426629603563],[-121.008118768108,50.4432332172283],[-121.008323482382,50.443651135976],[-121.008685148961,50.4445610304711],[-121.008760243736,50.4449223279692],[-121.008760243736,50.4451791907178],[-121.008692052609,50.4456188592155],[-121.008494101092,50.4462283015872],[-121.00894452885,50.4462152697123],[-121.009135576719,50.4457321017149],[-121.009319861833,50.4449180139692],[-121.009217434251,50.4444521918467],[-121.008999053573,50.4437991601002],[-121.00877391014,50.4433769273525],[-121.008460005528,50.4427369274809],[-121.008296149575,50.4420752677345],[-121.008241624851,50.4417444378612],[-121.007920816591,50.4411958408642],[-121.006815246802,50.4398332459965],[-121.006603769772,50.4394936982483],[-121.006228436789,50.4387797312521],[-121.005989486061,50.4383879661292],[-121.005934961337,50.438057136256],[-121.005955390497,50.4378307411322]]]}},{"type":"Feature","id":"922262468","properties":{"name":"SP_20kph_HMT_DUMP_AUG_27_DS","oid":"922262468","speedLimit":5.5555553},"geometry":{"type":"Polygon","coordinates":[[[-121.012501597853,50.4364264442647],[-121.012481732256,50.4374171363844],[-121.016364118023,50.4384077386291],[-121.017180439083,50.4369598523869],[-121.016523465472,50.4359057085175],[-121.014771347988,50.4353087587707],[-121.01289989603,50.4352072000213],[-121.012501597853,50.4364264442647]]]}},{"type":"Feature","id":"922385545","properties":{"name":"SP_27KPH_RUTS_AUG 27_DS","oid":"922385545","speedLimit":7.5},"geometry":{"type":"Polygon","coordinates":[[[-121.007511810717,50.4337191396542],[-121.006870335089,50.4335257286553],[-121.006518953535,50.4340722585273],[-121.007226225147,50.434318875526],[-121.007511810717,50.4337191396542]]]}},{"type":"Feature","id":"923351007","properties":{"name":"iSP_17KPH_PERMISSIONS_AUG 18_NS","oid":"923351007","speedLimit":4.7222223},"geometry":{"type":"Polygon","coordinates":[[[-121.038853946389,50.4608772973837],[-121.038873389314,50.4611348791324],[-121.038784064572,50.4608896102587],[-121.038539337323,50.4608896102587],[-121.038535533273,50.460830202884],[-121.038881138306,50.460822743259],[-121.038853946389,50.4608772973837]]]}},{"type":"Feature","id":"923607825","properties":{"name":"MRK_CROSS DITCH ","oid":"923607825","speedLimit":2.7777777},"geometry":{"type":"Polygon","coordinates":[[[-121.035185996358,50.4458453442143],[-121.035617403863,50.4454860239662],[-121.035586971459,50.4454713743413],[-121.035137670827,50.4458265603394],[-121.035185996358,50.4458453442143]]]}},{"type":"Feature","id":"924222108","properties":{"name":"SP_11kph_rough ground_23SH _AUG_27_DS","oid":"924222108","speedLimit":3.0555556},"geometry":{"type":"Polygon","coordinates":[[[-121.039474288403,50.4712557927031],[-121.039829614898,50.4714069624523],[-121.041446195472,50.4722544836978],[-121.041822655581,50.4718505854499],[-121.039781007586,50.4709826625796],[-121.03964434355,50.4710717287041],[-121.039474288403,50.4712557927031]]]}},{"type":"Feature","id":"924266047","properties":{"name":"SP_12KPH_%TR_CROSS DITCH_AUG_27_DNS ","oid":"924266047","speedLimit":3.3333333},"geometry":{"type":"Polygon","coordinates":[[[-121.037616080177,50.4473122839564],[-121.037894057645,50.4474714525806],[-121.037657642951,50.4477506942041],[-121.037462931921,50.4476920058294],[-121.037268080001,50.4475133343303],[-121.037616080177,50.4473122839564]]]}},{"type":"Feature","id":"925558402","properties":{"name":"SP_15KPH_LAKE2_AUG 27_DS","oid":"925558402","speedLimit":4.1666665},"geometry":{"type":"Polygon","coordinates":[[[-121.025277994591,50.4783481884151],[-121.025271654507,50.47837847629],[-121.02522586501,50.4784257505397],[-121.025197545968,50.4784830907894],[-121.025186415598,50.4785364765391],[-121.025153306269,50.4786280591636],[-121.025082297326,50.4787307862881],[-121.025000158014,50.4788123029126],[-121.024911819507,50.4788686545373],[-121.024853490733,50.4789109856621],[-121.02471936273,50.4789512496619],[-121.024604114089,50.4789834249117],[-121.024498305128,50.4789884579117],[-121.024400526941,50.4789905250367],[-121.025243194574,50.4783502555401],[-121.025277994591,50.4783481884151]]]}},{"type":"Feature","id":"926023128","properties":{"name":"SP_10KPH_TR%_4CR_1_AUG_27_DS","oid":"926023128","speedLimit":2.7777777},"geometry":{"type":"Polygon","coordinates":[[[-121.02286228163,50.4811968663999],[-121.022835794167,50.4815104402732],[-121.022151487749,50.4816164028976],[-121.021885767776,50.4812731702745],[-121.021985377543,50.4808324232768],[-121.022417207721,50.4808789785266],[-121.022510195622,50.4812223010247],[-121.022822409545,50.4810188240258],[-121.022981897885,50.4812604080245],[-121.02286228163,50.4811968663999]]]}},{"type":"Feature","id":"926367691","properties":{"name":"SP_10KPH_%TR_AUG_27_DS","oid":"926367691","speedLimit":2.7777777},"geometry":{"type":"Polygon","coordinates":[[[-121.03876504432,50.4500238126919],[-121.037839955594,50.4500348673168],[-121.038207398694,50.4520286543061],[-121.038181474794,50.4523871656792],[-121.038951020122,50.4525305163034],[-121.039076412898,50.4524588859288],[-121.038821259733,50.4510165719366],[-121.03876504432,50.4500238126919]]]}}]}