{"type":"FeatureCollection","features":[{"type":"Feature","id":"702602533","properties":{"name":"iSP_4KPH_%TR_CR01_Slow Bump","oid":"702602533","speedLimit":1.1111112},"geometry":{"type":"Polygon","coordinates":[[[-121.03335794753,50.4648079792255],[-121.033652657422,50.4646909617288],[-121.033696046833,50.4647316751897],[-121.033368231384,50.4648698133559],[-121.03335794753,50.4648079792255]]]}},{"type":"Feature","id":"707947583","properties":{"name":"iSP_25KPH_%TR_Permission Gate 1 From West Dump","oid":"707947583","speedLimit":6.9444447},"geometry":{"type":"Polygon","coordinates":[[[-121.038626943409,50.4619780791343],[-121.038853610816,50.461799587008],[-121.038138671666,50.4614083603081],[-121.037991034971,50.461671065487],[-121.038190513559,50.4615669900176],[-121.038665402205,50.4618461423561],[-121.038626943409,50.4619780791343]]]}},{"type":"Feature","id":"742345972","properties":{"name":"iSP_4KPH_%TR_CR01_Pit Side_Slow Bump","oid":"742345972","speedLimit":1.1111112},"geometry":{"type":"Polygon","coordinates":[[[-121.033397815073,50.4648829351336],[-121.033705062814,50.4647444374666],[-121.033755214211,50.4647765229092],[-121.033473746542,50.4649184358334],[-121.033397815073,50.4648829351336]]]}},{"type":"Feature","id":"776427243","properties":{"name":"iSP_7KPH_%TR_CR1_PermissionBlocker","oid":"776427243","speedLimit":1.9444444},"geometry":{"type":"Polygon","coordinates":[[[-121.034098948502,50.4652129568293],[-121.034050487602,50.4652332686222],[-121.034029356395,50.4652747010845],[-121.034115008218,50.4652256292311],[-121.034098948502,50.4652129568293]]]}},{"type":"Feature","id":"794004438","properties":{"name":"iSP_11KPH_%TR_Lower_Fuel_Bay","oid":"794004438","speedLimit":3.0555556},"geometry":{"type":"Polygon","coordinates":[[[-121.036775427104,50.4606955601804],[-121.036777540225,50.4607253987433],[-121.036747815661,50.4606709343784],[-121.037123951135,50.4605992139772],[-121.037533896539,50.4605561637615],[-121.037541644648,50.4605815085649],[-121.036943208883,50.46065035296],[-121.036775427104,50.4606955601804]]]}},{"type":"Feature","id":"801543391","properties":{"name":"iSP_4KPH_%TR_CR01_PermissionBlocker_2","oid":"801543391","speedLimit":1.1111112},"geometry":{"type":"Polygon","coordinates":[[[-121.03315452445,50.4645234343756],[-121.033153679202,50.4644740030214],[-121.033175233032,50.4644319414327],[-121.033107190548,50.4644595331159],[-121.03315452445,50.4645234343756]]]}},{"type":"Feature","id":"806473874","properties":{"name":"iSP_4KPH_%TR_CR04_PermissionBlocker","oid":"806473874","speedLimit":1.1111112},"geometry":{"type":"Polygon","coordinates":[[[-121.022719652981,50.4815453458878],[-121.022686547424,50.4815430091328],[-121.02267894019,50.4815716793183],[-121.022701057519,50.4815727578206],[-121.022705142886,50.4815486712698],[-121.022719652981,50.4815453458878]]]}},{"type":"Feature","id":"824566967","properties":{"name":"iSP_3KPH_%TR_CR04","oid":"824566967","speedLimit":0.8333333},"geometry":{"type":"Polygon","coordinates":[[[-121.023302451653,50.4810684681324],[-121.02328230657,50.4810684681324],[-121.02327962995,50.4811865641314],[-121.023304705648,50.4811858451298],[-121.023302451653,50.4810684681324]]]}},{"type":"Feature","id":"826307302","properties":{"name":"iSP_4KPH_%TR_CR04_Pockets","oid":"826307302","speedLimit":1.1111112},"geometry":{"type":"Polygon","coordinates":[[[-121.023297661913,50.4813216465411],[-121.023337106832,50.4814773103693],[-121.023541797784,50.4814378551612],[-121.023460794826,50.4811889907615],[-121.023052539919,50.481189709763],[-121.023057893158,50.4813603827478],[-121.023282729194,50.4813264099262],[-121.023297661913,50.4813216465411]]]}},{"type":"Feature","id":"883050998","properties":{"name":"iSP_22KPH_%TR_4CR_Brake_Temp_Ctrl","oid":"883050998","speedLimit":6.111111},"geometry":{"type":"Polygon","coordinates":[[[-121.031798323623,50.4745591676589],[-121.032187560445,50.4743125501389],[-121.032489173198,50.474574895817],[-121.032790785951,50.4748022800464],[-121.032968569834,50.4748846955952],[-121.033177346153,50.4749348459509],[-121.033461208692,50.4749596515032],[-121.033665054397,50.474922083674],[-121.033826215064,50.4748626761738],[-121.033917361001,50.474810638439],[-121.034006675567,50.4747474561808],[-121.034057108713,50.4746582999929],[-121.03405133285,50.4745481130106],[-121.034055136467,50.4744837623749],[-121.03399301072,50.4743797767807],[-121.033874675964,50.4742597035275],[-121.033507838221,50.4739377705988],[-121.033059574896,50.4735601150526],[-121.03294631163,50.4734255718939],[-121.032821355763,50.4732210159627],[-121.032604549585,50.4728150497318],[-121.032251094939,50.4722091112043],[-121.032486073954,50.4721562645929],[-121.032429019697,50.4722057858223],[-121.032901513472,50.47304899485],[-121.033040697685,50.4733097227747],[-121.033248487881,50.4735470831501],[-121.033741408489,50.4739617672744],[-121.034096412757,50.474271297427],[-121.034201787039,50.4743946061869],[-121.034254474181,50.4744618328287],[-121.034261517916,50.4745929607301],[-121.034236583093,50.4746789712864],[-121.03418206458,50.4747917646493],[-121.034084579281,50.4748759777018],[-121.033971738639,50.4749378118322],[-121.033789165016,50.4750162728726],[-121.033529673801,50.4750645358493],[-121.033261730104,50.4750682207321],[-121.033070140499,50.475026428769],[-121.032806423043,50.4749166911626],[-121.032655687104,50.474835264241],[-121.032494103813,50.4747054844674],[-121.032143607536,50.4744132103512],[-121.031798323623,50.4745591676589]]]}},{"type":"Feature","id":"883053336","properties":{"name":"iSP_22KPH_%TR_Brake_Temp_Ctrl","oid":"883053336","speedLimit":6.111111},"geometry":{"type":"Polygon","coordinates":[[[-121.032464801873,50.4721453896949],[-121.032249967942,50.4722256482391],[-121.03148741314,50.471008468548],[-121.030815581651,50.4699234952605],[-121.030660337721,50.4696603407057],[-121.030595535355,50.4694578519038],[-121.030549187576,50.4692568909801],[-121.030595535355,50.4689730651317],[-121.030721759095,50.4686244392717],[-121.030883483261,50.4683756647472],[-121.031087892464,50.4680979504117],[-121.031687173478,50.4675366798534],[-121.032430991943,50.466893802623],[-121.032787264083,50.4665563212865],[-121.033146353717,50.4662225248328],[-121.033483185147,50.4658708432164],[-121.033778176788,50.4660342363108],[-121.03358616456,50.4659934329748],[-121.032918136688,50.4666522181137],[-121.032553412065,50.4669914070788],[-121.032177417466,50.467307857621],[-121.031773247925,50.4676685267564],[-121.03138091186,50.4680345884032],[-121.031146073719,50.4682865085593],[-121.031007734755,50.4684700336962],[-121.030904050969,50.4686546373354],[-121.030827556001,50.468853171629],[-121.030766698127,50.4691914618422],[-121.030775432359,50.4694007811585],[-121.030872635908,50.4696305021428],[-121.031026611966,50.4699352689104],[-121.031329492591,50.4704039680235],[-121.031529534678,50.4707111614212],[-121.03174915835,50.4710830649552],[-121.032144875408,50.471728997942],[-121.032380136173,50.4721452998197],[-121.032464801873,50.4721453896949]]]}},{"type":"Feature","id":"883059532","properties":{"name":"iSP_22KPH_%TR_Brake_Ctrl","oid":"883059532","speedLimit":6.111111},"geometry":{"type":"Polygon","coordinates":[[[-121.027261594484,50.4773222006091],[-121.027029432963,50.4772100363727],[-121.02733386321,50.4769442754374],[-121.027715774547,50.4766326781554],[-121.028032460894,50.4763229682525],[-121.028189677069,50.4761690120529],[-121.02862047193,50.4756925836734],[-121.02890644759,50.4753259827755],[-121.02926300148,50.4748878412268],[-121.029471777799,50.474656951865],[-121.029690556222,50.4745406533698],[-121.02980057937,50.4744884358847],[-121.029951315309,50.4745928708549],[-121.029787759772,50.4745422711232],[-121.029555175627,50.4747917646493],[-121.029251027129,50.4751732848286],[-121.029072116248,50.4754782313465],[-121.028852351702,50.4757749992222],[-121.028695276401,50.4759749715188],[-121.028408173743,50.4762708406426],[-121.028040913376,50.4765702148987],[-121.027243280772,50.477219653018],[-121.027261594484,50.4773222006091]]]}},{"type":"Feature","id":"884401102","properties":{"name":"iSP_30KPH_%TR_Maint_Limit_Policy","oid":"884401102","speedLimit":8.333333},"geometry":{"type":"Polygon","coordinates":[[[-121.036990965409,50.4611014365361],[-121.03710704617,50.4611079075497],[-121.038293211222,50.4609922381808],[-121.038276869756,50.4603980733032],[-121.038118385708,50.4605659601571],[-121.037031396451,50.4607085920828],[-121.036743730295,50.460537919098],[-121.036990965409,50.4611014365361]]]}},{"type":"Feature","id":"887797506","properties":{"name":"SP_20KPH_%TR_LNX WEST_FLATS_SEPT 18_NS","oid":"887797506","speedLimit":5.5555553},"geometry":{"type":"Polygon","coordinates":[[[-121.055037438299,50.4668458092719],[-121.054275728746,50.4668725920783],[-121.053999614315,50.4667283423992],[-121.053445976708,50.4663378347009],[-121.053420478385,50.4658516099258],[-121.053445976708,50.4654410600602],[-121.054106397345,50.4652519626616],[-121.0548430312,50.4651439326838],[-121.054776679212,50.4656839028222],[-121.054836128339,50.46590104128],[-121.05501024948,50.4663530236079],[-121.055037438299,50.4668458092719]]]}},{"type":"Feature","id":"908328496","properties":{"name":"SP_25KPH_%TR_1445_SOFT_GROUND_SEPT_17_NS","oid":"908328496","speedLimit":6.9444447},"geometry":{"type":"Polygon","coordinates":[[[-121.039329908208,50.4644969211947],[-121.039938909577,50.4647092063923],[-121.039187202128,50.4666748666615],[-121.03882501325,50.4674279308742],[-121.038450286523,50.4678943831076],[-121.037913413006,50.4682380658321],[-121.037178469648,50.468025960385],[-121.03831138406,50.4667053343507],[-121.038792048568,50.4655660764488],[-121.039329908208,50.4644969211947]]]}},{"type":"Feature","id":"910445950","properties":{"name":"SP_22KPH_%TR_1635_FLATS_SEP_17_NS","oid":"910445950","speedLimit":6.111111},"geometry":{"type":"Polygon","coordinates":[[[-121.017913853146,50.4571010918522],[-121.017758045718,50.4573817720689],[-121.016600055607,50.4571353342994],[-121.017122982528,50.4561458084632],[-121.017773682811,50.454239915195],[-121.018180528971,50.4539932077998],[-121.018532997494,50.4537516232905],[-121.019042541318,50.4536552770874],[-121.018866870555,50.4543417437847],[-121.018262095428,50.456072200683],[-121.018042190007,50.4566100138168],[-121.017987107995,50.4569257453575],[-121.017913853146,50.4571010918522]]]}},{"type":"Feature","id":"915576987","properties":{"name":"iSP_15KPH_%TR_Preventing Shifting","oid":"915576987","speedLimit":4.1666665},"geometry":{"type":"Polygon","coordinates":[[[-121.036996459523,50.4448633265514],[-121.037510511337,50.44531324175],[-121.037979764994,50.4457956917671],[-121.038523682247,50.4462190039096],[-121.039456272823,50.4468501074901],[-121.039913552129,50.4470998706417],[-121.040469443732,50.4471952282177],[-121.041222559928,50.447322940862],[-121.041640957815,50.4475097913809],[-121.042319410415,50.4480952383652],[-121.042702026126,50.4485279874026],[-121.04284543658,50.4487950065905],[-121.043006878997,50.4493917778487],[-121.043186071627,50.4501983177991],[-121.043323565343,50.4505014668132],[-121.043685190722,50.4511688799703],[-121.04385564912,50.4514891951457],[-121.044124578941,50.4522537633826],[-121.044381675285,50.4529383427009],[-121.044695403263,50.4537982685139],[-121.044734284682,50.454194887725],[-121.044569883897,50.4550719796992],[-121.04421431613,50.4568394651756],[-121.044049915345,50.4572075040765],[-121.043003779753,50.4583991592139],[-121.041903970897,50.4595375183639],[-121.041342162557,50.4600008249656],[-121.040370831436,50.460597686099],[-121.039922427236,50.4607311507554],[-121.039133387989,50.4608073649161],[-121.038496070804,50.4608389111076],[-121.038643848374,50.4611436778751],[-121.038756689016,50.4609497272162],[-121.039877629078,50.460879894194],[-121.040705549745,50.4606320184214],[-121.041509521711,50.4600580754614],[-121.042872343649,50.458700420849],[-121.044241082325,50.4571426141897],[-121.044426473443,50.4562903277678],[-121.044812047522,50.4544217327033],[-121.044808948278,50.4537867644896],[-121.044259114288,50.4523014871082],[-121.04383170042,50.4511860461315],[-121.043344555675,50.4503375344676],[-121.043048718785,50.4493098116759],[-121.042926157788,50.4486920096234],[-121.042238689207,50.4478873570519],[-121.041545303887,50.4473916055067],[-121.04109098295,50.447221921149],[-121.040457469382,50.4471304282061],[-121.039916510498,50.4470197918479],[-121.038819660011,50.4463334150258],[-121.03819502155,50.4458719059278],[-121.037151985202,50.4449070957687],[-121.037376116865,50.4446974169516],[-121.036996459523,50.4448633265514]]]}},{"type":"Feature","id":"917773475","properties":{"name":"SP_15KPH_%TR_1200_CORNER_Sept_17_NS","oid":"917773475","speedLimit":4.1666665},"geometry":{"type":"Polygon","coordinates":[[[-121.037097325815,50.4446825875454],[-121.036923204674,50.4448621581739],[-121.036627649534,50.4448206358364],[-121.036413097352,50.4448699773154],[-121.036321528791,50.4449676716464],[-121.036252922807,50.4450821726378],[-121.036240666708,50.4451449953952],[-121.036261797914,50.4452673155281],[-121.036314485055,50.4453515285807],[-121.036182626327,50.445395297798],[-121.036087535898,50.4451943368743],[-121.036161495121,50.4449317215706],[-121.036258276046,50.4447914263998],[-121.036515090641,50.4447151223639],[-121.03671217436,50.4447117969819],[-121.036921514178,50.4447701259799],[-121.037092113451,50.4446836660476],[-121.037097325815,50.4446825875454]]]}},{"type":"Feature","id":"921770139","properties":{"name":"SP_20KPH_%TR_HIGHMONT_SEPT 17_NS","oid":"921770139","speedLimit":5.5555553},"geometry":{"type":"Polygon","coordinates":[[[-121.001747071504,50.4283060697689],[-121.001110881316,50.4282402811302],[-121.001000576419,50.4285433402691],[-121.001095666848,50.4288873824945],[-121.001582811592,50.4287564343434],[-121.001924996261,50.4286884887001],[-121.002548085101,50.4285670673191],[-121.002401434528,50.428187524394],[-121.001747071504,50.4283060697689]]]}},{"type":"Feature","id":"926367691","properties":{"name":"SP_25KPH_%TR_24SH_EMPTY_LANE_SEP_17_NS","oid":"926367691","speedLimit":6.9444447},"geometry":{"type":"Polygon","coordinates":[[[-121.038782469088,50.450857552314],[-121.038611306316,50.4512056389228],[-121.038637227263,50.4520121788733],[-121.038864176419,50.4535985658428],[-121.03904336905,50.4535756476695],[-121.038780496842,50.4517187363796],[-121.038782469088,50.450857552314]]]}},{"type":"Feature","id":"929009157","properties":{"name":"iSP_22KPH_%TR_Long_Single_Lane","oid":"929009157","speedLimit":6.111111},"geometry":{"type":"Polygon","coordinates":[[[-121.005682124759,50.4380559999496],[-121.004752492552,50.4382240665539],[-121.005176948052,50.438197553373],[-121.007936965357,50.4431705273575],[-121.008525680767,50.444534922609],[-121.008212798038,50.4465097501475],[-121.007834831193,50.446680243382],[-121.00893618967,50.4466469895619],[-121.008825462149,50.446592974573],[-121.009405443327,50.4448176699551],[-121.00876657652,50.4430684291422],[-121.00826492168,50.4415401914203],[-121.007261471126,50.4401562033774],[-121.006441862067,50.4389840511562],[-121.005862867011,50.4383130429915],[-121.005682124759,50.4380559999496]]]}},{"type":"Feature","id":"929572873","properties":{"name":"SP_11KPH_%TR_1665_FLATS_WATERHOLE_SEPT 18_NS","oid":"929572873","speedLimit":3.0555556},"geometry":{"type":"Polygon","coordinates":[[[-121.053568115081,50.4666492522325],[-121.053359620511,50.467003809855],[-121.053259317718,50.4671269388646],[-121.053004616243,50.4671859868641],[-121.05278076633,50.4671269388646],[-121.052271363381,50.4664178236196],[-121.052256008038,50.465428118033],[-121.052734559425,50.4650982760876],[-121.053560366972,50.4651130156186],[-121.053622070094,50.4653297047005],[-121.053359620511,50.4654232647727],[-121.05336736862,50.466344036089],[-121.053552618863,50.4666345127014],[-121.053568115081,50.4666492522325]]]}},{"type":"Feature","id":"932114358","properties":{"name":"SP_20KPH_%TR_23SH_LOADED_LANES_SEP_","oid":"932114358","speedLimit":5.5555553},"geometry":{"type":"Polygon","coordinates":[[[-121.042096546625,50.4671398808919],[-121.041263836218,50.4667318475316],[-121.040732738564,50.4664970036615],[-121.040687236033,50.4664766019935],[-121.040375621176,50.4667814586362],[-121.040592145604,50.4666720805306],[-121.04176464581,50.4671899413724],[-121.04183705541,50.4675479142521],[-121.042096546625,50.4671398808919]]]}},{"type":"Feature","id":"932281958","properties":{"name":"SP_15KPH_%TR_1185-1170_22shl_SEPT_17_NS","oid":"932281958","speedLimit":4.1666665},"geometry":{"type":"Polygon","coordinates":[[[-121.037373440245,50.4481142919054],[-121.037406968426,50.4479621332096],[-121.036980399806,50.4479088372222],[-121.035922571614,50.4473801014825],[-121.035631524464,50.4472469064517],[-121.035473885665,50.4475380121904],[-121.035549112759,50.4474434634911],[-121.036813040652,50.4479515279372],[-121.037214533573,50.4480556034066],[-121.037332868329,50.4481912250676],[-121.037373440245,50.4481142919054]]]}},{"type":"Feature","id":"933274269","properties":{"name":"SP_15KPH_%TR_21SH_EMPTY_LANE_SEP_17_NS","oid":"933274269","speedLimit":4.1666665},"geometry":{"type":"Polygon","coordinates":[[[-121.039407811923,50.4523696125018],[-121.039604473017,50.4523825545291],[-121.039536712282,50.4510066552533],[-121.039310608373,50.4510519523488],[-121.039417109654,50.4515133715716],[-121.039407811923,50.4523696125018]]]}},{"type":"Feature","id":"934051091","properties":{"name":"iSP_17KPH_%TR_Ramp_Permission Blocker","oid":"934051091","speedLimit":4.7222223},"geometry":{"type":"Polygon","coordinates":[[[-121.039511213959,50.46102980601],[-121.039463175683,50.460771774341],[-121.039015757607,50.4607923557594],[-121.039074643235,50.4610450847923],[-121.03916212643,50.4609000262364],[-121.039378087359,50.4608869044588],[-121.039511213959,50.46102980601]]]}},{"type":"Feature","id":"934181339","properties":{"name":"SP_30KPH_TR%_1590_2_SEPT 16_NS_ROUGH_SECTION.","oid":"934181339","speedLimit":8.333333},"geometry":{"type":"Polygon","coordinates":[[[-121.009625207874,50.4401266344401],[-121.008921397826,50.4404385912228],[-121.010383818183,50.44179858259],[-121.01109537634,50.4414569669948],[-121.010561461192,50.4414850080539],[-121.009451931981,50.4404074944072],[-121.009625207874,50.4401266344401]]]}},{"type":"Feature","id":"934773555","properties":{"name":"SP_10KPH_NEW RAMP_SEPT 17_NS","oid":"934773555","speedLimit":2.7777777},"geometry":{"type":"Polygon","coordinates":[[[-121.033901864783,50.4443402529486],[-121.034413380853,50.4442041819117],[-121.035773807921,50.4443192221543],[-121.03627574451,50.4444736277298],[-121.035930742347,50.4447856743877],[-121.034621593673,50.4446108671441],[-121.034343929621,50.4446010707485],[-121.033901864783,50.4443402529486]]]}},{"type":"Feature","id":"936169885","properties":{"name":"SP_10KPH_%TR_24shl_loadplan_Sept_17_NS","oid":"936169885","speedLimit":2.7777777},"geometry":{"type":"Polygon","coordinates":[[[-121.039051117159,50.453593892333],[-121.038510158275,50.4536891600338],[-121.038691323151,50.4545086420115],[-121.039188047376,50.4544622664138],[-121.039180017518,50.4543766153582],[-121.039098591936,50.4539211278979],[-121.039076051982,50.4537567461763],[-121.039051117159,50.453593892333]]]}},{"type":"Feature","id":"936513295","properties":{"name":"SP_30KPH_%TR_1635_FLATS_SEP_17_NS","oid":"936513295","speedLimit":8.333333},"geometry":{"type":"Polygon","coordinates":[[[-121.017434315636,50.4574539418461],[-121.015227513314,50.4585170754625],[-121.014498768443,50.4578797704938],[-121.016652320124,50.4569269137349],[-121.017434315636,50.4574539418461]]]}},{"type":"Feature","id":"937786749","properties":{"name":"SP_30KPH_%TR_24SH_Loaded_LANE_SEP_17_NS","oid":"937786749","speedLimit":8.333333},"geometry":{"type":"Polygon","coordinates":[[[-121.038408587609,50.4510853859193],[-121.038211503891,50.4510392799471],[-121.038252075807,50.4516608567576],[-121.038331388269,50.4527882511344],[-121.038494098558,50.452761018952],[-121.038402107373,50.4516753266631],[-121.038408587609,50.4510853859193]]]}},{"type":"Feature","id":"937793793","properties":{"name":"SP_10KPH_%TR_21SH_LOAD_AREA_SEP_17_NS","oid":"937793793","speedLimit":2.7777777},"geometry":{"type":"Polygon","coordinates":[[[-121.039609121882,50.4523982826873],[-121.039001529261,50.4524050233265],[-121.039057174771,50.4534374196281],[-121.039656878409,50.4534069519388],[-121.039617010866,50.4529280070541],[-121.039609121882,50.4523982826873]]]}},{"type":"Feature","id":"938065675","properties":{"name":"SP_8KPH_CR01_YARD_RUTIING_SEP_17_NS","oid":"938065675","speedLimit":2.2222223},"geometry":{"type":"Polygon","coordinates":[[[-121.034288002361,50.4648013284615],[-121.034097821504,50.4648581295813],[-121.033939619205,50.4649071115595],[-121.03382818731,50.4650050755161],[-121.034043021242,50.4650689767758],[-121.033963004407,50.4650114566545],[-121.034241372833,50.4648882377697],[-121.034318008675,50.4649374893736],[-121.034288002361,50.4648013284615]]]}},{"type":"Feature","id":"938165680","properties":{"name":"SP_22SH_10kph_%TR_Sept17_NS","oid":"938165680","speedLimit":2.7777777},"geometry":{"type":"Polygon","coordinates":[[[-121.034630046156,50.4470558317988],[-121.035053938156,50.4472506812096],[-121.035495721245,50.4474474179994],[-121.03579381213,50.4469123011212],[-121.034870237535,50.446719159339],[-121.034630046156,50.4470558317988]]]}},{"type":"Feature","id":"938217281","properties":{"name":"SP_25KPH_CRUSHER_YARD_WEATHER_SEPT_17_NS","oid":"938217281","speedLimit":6.9444447},"geometry":{"type":"Polygon","coordinates":[[[-121.036882069259,50.4639826553605],[-121.037240736269,50.4642846359972],[-121.034290819856,50.465499299183],[-121.032878269145,50.4644545001053],[-121.036882069259,50.4639826553605]]]}},{"type":"Feature","id":"939481274","properties":{"name":"SP_10KPH_%TR_LRNX_PIT_BOTTOM_SEP_17_NS1","oid":"939481274","speedLimit":2.7777777},"geometry":{"type":"Polygon","coordinates":[[[-121.034054150344,50.4452363984629],[-121.034061194079,50.4449962519566],[-121.033301738521,50.4447664410971],[-121.033467970678,50.4448876827277],[-121.033356820533,50.4469938179181],[-121.033814381589,50.4469741352516],[-121.033662659527,50.4469200303875],[-121.034054150344,50.4452363984629]]]}},{"type":"Feature","id":"939584863","properties":{"name":"SP_40KPH_%TR_HMT EMPTY2_ROUGH_SECTION_SEPT 17_NS","oid":"939584863","speedLimit":11.111111},"geometry":{"type":"Polygon","coordinates":[[[-121.005961197558,50.4301700811988],[-121.005669727785,50.430397375553],[-121.005922316139,50.4302830543119],[-121.00632169594,50.4305570837647],[-121.006714454629,50.4308738039324],[-121.007137642256,50.4312429213356],[-121.007264992993,50.4315321396954],[-121.00741178444,50.4321903855832],[-121.007318948007,50.4325924871809],[-121.00705339918,50.4326145066023],[-121.007547728535,50.4326902713871],[-121.007644932084,50.4323019206933],[-121.007586609955,50.4319287589066],[-121.007418264677,50.4313516703149],[-121.007305987534,50.4311740769405],[-121.007118201546,50.4309839909147],[-121.006684307441,50.4306465994534],[-121.005961197558,50.4301700811988]]]}},{"type":"Feature","id":"939585115","properties":{"name":"SP_40KPH_%TR_HMT EMPTY22_ROUGH_SECTION_SEPT 17_NS","oid":"939585115","speedLimit":11.111111},"geometry":{"type":"Polygon","coordinates":[[[-121.007519694468,50.4327113021814],[-121.00704621457,50.4338271026588],[-121.006949574519,50.4340181773117],[-121.006753195174,50.4342996664051],[-121.005790175661,50.4352900909932],[-121.005290915691,50.4350887705688],[-121.005661275302,50.4351667822333],[-121.006611475217,50.4341291731707],[-121.006756294418,50.433927762871],[-121.006962534992,50.4334119691586],[-121.007226534198,50.432783202333],[-121.007030154853,50.4326537820601],[-121.007519694468,50.4327113021814]]]}},{"type":"Feature","id":"940771585","properties":{"name":"SP_15KPH_%TR_1660_HMT_SEPT17_NS","oid":"940771585","speedLimit":4.1666665},"geometry":{"type":"Polygon","coordinates":[[[-121.002710513641,50.4281185002484],[-121.002605280233,50.4277113656401],[-121.00223365275,50.4276979742368],[-121.00250709056,50.4277963875693],[-121.002535124628,50.428114006489],[-121.002675435838,50.4280826400478],[-121.002710513641,50.4281185002484]]]}},{"type":"Feature","id":"940772885","properties":{"name":"SP_11KPH_%TR_1654_HMT_SEPT17_NS","oid":"940772885","speedLimit":3.0555556},"geometry":{"type":"Polygon","coordinates":[[[-121.004063896973,50.4264900516902],[-121.004414534125,50.4266376267513],[-121.004610772595,50.4261544577327],[-121.004379456322,50.4258055622471],[-121.003972751036,50.4255504964593],[-121.003537870809,50.4259173669828],[-121.003839483561,50.4258323450536],[-121.004183076977,50.4261097897635],[-121.004147999175,50.4264900516902],[-121.004063896973,50.4264900516902]]]}},{"type":"Feature","id":"940778315","properties":{"name":"SP_25KPH_%TR_HMT_SPILLING_ROCK_IN_CORNER_SEPT17_NS","oid":"940778315","speedLimit":6.9444447},"geometry":{"type":"Polygon","coordinates":[[[-121.004786161608,50.4367080518577],[-121.004772074137,50.4370436458152],[-121.004989443814,50.4372762428056],[-121.005122711289,50.4371688419542],[-121.004891395016,50.4369362449638],[-121.00488435128,50.4367573034616],[-121.005199910629,50.4367975675464],[-121.004800108204,50.436699154214],[-121.004786161608,50.4367080518577]]]}}]}