{"type":"FeatureCollection","features":[{"type":"Feature","id":"702602533","properties":{"name":"iSP_4KPH_%TR_CR01_SLOW BUMP","oid":"702602533","speedLimit":1.1111112},"geometry":{"type":"Polygon","coordinates":[[[-121.033359320725,50.4648080857782],[-121.033654064365,50.4646910684433],[-121.033697458744,50.4647317818478],[-121.033369605756,50.464869919823],[-121.033359320725,50.4648080857782]]]}},{"type":"Feature","id":"707947583","properties":{"name":"iSP_22KPH_%TR_Permission Gate 1 from west dump_Jun","oid":"707947583","speedLimit":6.111111},"geometry":{"type":"Polygon","coordinates":[[[-121.038628919974,50.4619781896009],[-121.038855613338,50.4617996977214],[-121.037981385667,50.4613512211462],[-121.037744266381,50.4615424752849],[-121.037960392932,50.4614967288767],[-121.038667383174,50.4618462530052],[-121.038628919974,50.4619781896009]]]}},{"type":"Feature","id":"742345972","properties":{"name":"iSP_4KPH_%TR_CR01_PITSIDE_SLOW BUMP","oid":"742345972","speedLimit":1.1111112},"geometry":{"type":"Polygon","coordinates":[[[-121.033399192833,50.4648830415825],[-121.033706475758,50.4647445441071],[-121.033756632898,50.4647766295054],[-121.033475132997,50.4649185422333],[-121.033399192833,50.4648830415825]]]}},{"type":"Feature","id":"776427243","properties":{"name":"iSP_7KPH_%TR_CR1_PermissionBlocker_DO_NOT_DELETE","oid":"776427243","speedLimit":1.9444444},"geometry":{"type":"Polygon","coordinates":[[[-121.034100406551,50.4652130628219],[-121.034051940101,50.4652333745866],[-121.034030806475,50.4652748069916],[-121.034116468107,50.4652257352061],[-121.034100406551,50.4652130628219]]]}},{"type":"Feature","id":"794004438","properties":{"name":"iSP_11KPH_%TR_LOWER_FUEL_BAY","oid":"794004438","speedLimit":3.0555556},"geometry":{"type":"Polygon","coordinates":[[[-121.036777191646,50.4606956724208],[-121.036779305008,50.4607255109424],[-121.036749577041,50.4606710466529],[-121.037125755587,50.4605993263509],[-121.037535747936,50.4605562761947],[-121.037543496932,50.4605816209631],[-121.036944992638,50.460650465263],[-121.036777191646,50.4606956724208]]]}},{"type":"Feature","id":"801543391","properties":{"name":"iSP_4KPH_%TR_CR1_PermissionBlocker_DO_NOT_DELETE_","oid":"801543391","speedLimit":1.1111112},"geometry":{"type":"Polygon","coordinates":[[[-121.03315587435,50.4645235413218],[-121.033155029005,50.464474110036],[-121.033176585304,50.4644320485055],[-121.033108535027,50.4644596401505],[-121.03315587435,50.4645235413218]]]}},{"type":"Feature","id":"806473874","properties":{"name":"iSP_4KPH_%TR_Permission Blocker - DO NOT DELETE","oid":"806473874","speedLimit":1.1111112},"geometry":{"type":"Polygon","coordinates":[[[-121.022719807948,50.4815454292913],[-121.022686698601,50.4815430925396],[-121.022679090495,50.4815717626854],[-121.022701210357,50.4815728411862],[-121.022705296192,50.4815487546687],[-121.022719807948,50.4815454292913]]]}},{"type":"Feature","id":"824566967","properties":{"name":"iSP_4Cr_3KPH","oid":"824566967","speedLimit":0.8333333},"geometry":{"type":"Polygon","coordinates":[[[-121.023302673359,50.4810685521955],[-121.023282525969,50.4810685521955],[-121.023279849043,50.4811866480311],[-121.023304927613,50.4811859290306],[-121.023302673359,50.4810685521955]]]}},{"type":"Feature","id":"826307302","properties":{"name":"iSP_4KPH_TR%_CRUSHER POCKETS","oid":"826307302","speedLimit":1.1111112},"geometry":{"type":"Polygon","coordinates":[[[-121.02329788307,50.4813217302541],[-121.023337332506,50.481477393867],[-121.023542046899,50.4814379387134],[-121.023461034665,50.4811890746579],[-121.023052733007,50.4811897936584],[-121.023058086858,50.4813604664072],[-121.023282948641,50.4813264936325],[-121.02329788307,50.4813217302541]]]}},{"type":"Feature","id":"835348611","properties":{"name":"SP_30KPH_%TR_switchback to 1 gate_AUG_26_DS","oid":"835348611","speedLimit":8.333333},"geometry":{"type":"Polygon","coordinates":[[[-121.039920748098,50.4634036081346],[-121.039548514495,50.4634580724241],[-121.039801695337,50.4633743987384],[-121.039545414897,50.462922956286],[-121.039365497292,50.4625825095392],[-121.039179380491,50.4622613859313],[-121.038987205383,50.4620181840049],[-121.038746282045,50.4618371756236],[-121.038563264842,50.4617302242961],[-121.038026470736,50.4614324682051],[-121.037959265805,50.4614149425674],[-121.037840353935,50.4614578129735],[-121.037954898189,50.4613479856439],[-121.038145382606,50.4613858230463],[-121.038483943298,50.4615706061803],[-121.03886772995,50.4617909798401],[-121.03905525566,50.4619264215634],[-121.039239822662,50.4621307075865],[-121.039453976741,50.4625357745053],[-121.039582046516,50.4627537215383],[-121.039759005412,50.4630611841363],[-121.039862701072,50.4632596282802],[-121.039944699541,50.4633240687019],[-121.039920748098,50.4634036081346]]]}},{"type":"Feature","id":"849417440","properties":{"name":"iSP_Permissions_35_KPH_June_19_NS","oid":"849417440","speedLimit":9.722222},"geometry":{"type":"Polygon","coordinates":[[[-121.032695865753,50.4660343411675],[-121.033010475002,50.4660150180284],[-121.033217443648,50.4658141472578],[-121.033806226474,50.4653796911927],[-121.033727045821,50.4652509002243],[-121.033963178871,50.4654003624577],[-121.033426948329,50.4658086648788],[-121.033024564086,50.4661882072791],[-121.032695865753,50.4660343411675]]]}},{"type":"Feature","id":"853029148","properties":{"name":"SP_15KPH_%TR_1635 Flats_AUG_24_NS","oid":"853029148","speedLimit":4.1666665},"geometry":{"type":"Polygon","coordinates":[[[-121.018590297388,50.4569710699697],[-121.017426539038,50.4572810490695],[-121.015788964789,50.4579431586746],[-121.014824848762,50.4590966152611],[-121.018349374049,50.4588932279886],[-121.020692529632,50.4589873271819],[-121.020240833594,50.4572318874088],[-121.019423103151,50.4570967153108],[-121.018968871079,50.4570000996157],[-121.018590297388,50.4569710699697]]]}},{"type":"Feature","id":"855316169","properties":{"name":"SP_20KPH_TR%_CRUSHER YARD EMPTY_AUG_24_NS","oid":"855316169","speedLimit":5.5555553},"geometry":{"type":"Polygon","coordinates":[[[-121.037912630936,50.4622350525372],[-121.037771176532,50.4621196529535],[-121.037596612779,50.4622035063893],[-121.037546173858,50.4622377487891],[-121.037609292955,50.4622266941561],[-121.037905727285,50.4624614478264],[-121.037947430974,50.4632585497794],[-121.037501511461,50.4637416282548],[-121.037077852701,50.4639815946788],[-121.036452156475,50.4642047544656],[-121.036236593487,50.464103285517],[-121.036399181518,50.4643265351789],[-121.036720835309,50.4642318068602],[-121.037063059163,50.4640567302333],[-121.037842326406,50.4636955223463],[-121.03798025854,50.4635591818724],[-121.038131857085,50.4633174179471],[-121.038185959169,50.4629462339279],[-121.038121572054,50.4624943421002],[-121.037912630936,50.4622350525372]]]}},{"type":"Feature","id":"859384545","properties":{"name":"SP_20KPH_TR%_MAINT_CREW_L1590_DUST_AUG_20_NS","oid":"859384545","speedLimit":5.5555553},"geometry":{"type":"Polygon","coordinates":[[[-121.013533865982,50.4515905194426],[-121.013429606759,50.4510356307902],[-121.012756430319,50.4483269760759],[-121.012536077044,50.4488174243065],[-121.013394102267,50.4517794368296],[-121.01327730376,50.4521786618692],[-121.013116688201,50.4521879190009],[-121.013442850499,50.4522151511456],[-121.013533865982,50.4515905194426]]]}},{"type":"Feature","id":"863534413","properties":{"name":"SP_20KPH_%TRAC_1590_AUG_24_NS","oid":"863534413","speedLimit":5.5555553},"geometry":{"type":"Polygon","coordinates":[[[-121.012339393429,50.4562544061999],[-121.013045397435,50.455569198703],[-121.013346058491,50.4553103585153],[-121.013523580951,50.4551324058862],[-121.013057654938,50.4549761131479],[-121.013287166119,50.4550943887337],[-121.011899391331,50.4565735525564],[-121.011627472008,50.4565414671581],[-121.012024643289,50.4566651352478],[-121.012339393429,50.4562544061999]]]}},{"type":"Feature","id":"878230085","properties":{"name":"SP_20KPH_TR%_PUNCH_OUT_L1590_DMP_AUG_24_NS1","oid":"878230085","speedLimit":5.5555553},"geometry":{"type":"Polygon","coordinates":[[[-121.013652777852,50.4533277145775],[-121.013645169747,50.4527798361801],[-121.013740975519,50.4524496351907],[-121.013097808828,50.4524619480746],[-121.013065403935,50.4528631503656],[-121.013204885867,50.4533676191064],[-121.013610228818,50.4545821907372],[-121.013328869808,50.4549548127574],[-121.013044129417,50.4549502291291],[-121.013783242771,50.4551891170524],[-121.01411292734,50.4546827609352],[-121.01405924793,50.4542962981549],[-121.013652777852,50.4533277145775]]]}},{"type":"Feature","id":"883050998","properties":{"name":"iSP_22kph_%TR_4CR_Brake_Temp_CTRL_NOREMOVE","oid":"883050998","speedLimit":6.111111},"geometry":{"type":"Polygon","coordinates":[[[-121.03179951822,50.4745592607248],[-121.032188799615,50.474312643546],[-121.032490446906,50.4745749888612],[-121.032792094198,50.4748023727762],[-121.032969898439,50.4748847882109],[-121.033178698666,50.4749349384973],[-121.033462593712,50.4749597440153],[-121.033666462759,50.474922176238],[-121.033827641882,50.47486276882],[-121.033918798256,50.4748107311572],[-121.03400812305,50.4747475489864],[-121.034058561971,50.4746583929217],[-121.034052785446,50.4745482060918],[-121.034056589499,50.4744838555452],[-121.033994456638,50.4743798700948],[-121.033876108331,50.4742597970077],[-121.03350922858,50.4739378645242],[-121.033060913923,50.4735602095003],[-121.032947637687,50.4734256665278],[-121.03282266751,50.4732211108794],[-121.032605836505,50.47281514521],[-121.032252341384,50.4722092075206],[-121.032487347308,50.4721563609822],[-121.032430286517,50.4722058821431],[-121.032902834399,50.4730490900046],[-121.03304203455,50.4733098175687],[-121.033249848541,50.4735471776159],[-121.033742825595,50.4739618611666],[-121.034097870515,50.4742713908911],[-121.034203256865,50.4743946994805],[-121.034255950039,50.4744619260293],[-121.034262994582,50.4745930537494],[-121.034238056903,50.4746790641867],[-121.034183532147,50.4747918573935],[-121.034086035685,50.4748760703296],[-121.033973182121,50.4749379043744],[-121.03379058759,50.4750163653063],[-121.033531066661,50.4750646282163],[-121.03326309228,50.475068313094],[-121.033071480736,50.4750265211887],[-121.032807733081,50.4749167837341],[-121.032656979881,50.4748353569251],[-121.032495378086,50.474705577331],[-121.032144841672,50.474413303619],[-121.03179951822,50.4745592607248]]]}},{"type":"Feature","id":"883053336","properties":{"name":"iSP_22kph_%TR_Brake_Temp_CTRL_NOREMOVE","oid":"883053336","speedLimit":6.111111},"geometry":{"type":"Polygon","coordinates":[[[-121.032466072791,50.4721454860993],[-121.032251214258,50.4722257445326],[-121.031488572133,50.4710085665248],[-121.030816663711,50.469923594738],[-121.030661402004,50.4696604405472],[-121.030596592217,50.4694579520253],[-121.03055023913,50.4692569913796],[-121.030596592217,50.4689731659237],[-121.030722830411,50.4686245405459],[-121.030884573096,50.4683757663655],[-121.031089005707,50.4680980524141],[-121.031688355346,50.467536782632],[-121.032432258989,50.4668939062908],[-121.032788571927,50.4665564254211],[-121.033147702681,50.466222629429],[-121.033484572683,50.465870948299],[-121.033779598105,50.4660343411675],[-121.033587563888,50.4659935378879],[-121.032919459518,50.4666523221156],[-121.03255469313,50.4669915106116],[-121.032178655474,50.4673079607161],[-121.03177443965,50.4676686293527],[-121.031382058657,50.4680346904932],[-121.031147193625,50.4682866103008],[-121.031008838818,50.4684701351839],[-121.030905143159,50.4686547385678],[-121.030828639432,50.4688532725868],[-121.030767774589,50.4691915623321],[-121.030776509821,50.4694008813589],[-121.030873724502,50.4696306020255],[-121.031027718191,50.4699353683715],[-121.0313306335,50.4704040668364],[-121.031530698495,50.4707112598092],[-121.031750347317,50.4710831628289],[-121.03214610969,50.4717290949224],[-121.032381397395,50.4721453962243],[-121.032466072791,50.4721454860993]]]}},{"type":"Feature","id":"883059532","properties":{"name":"iSP_22kph_%TR_Brake_CTRL_NOREMOVE","oid":"883059532","speedLimit":6.111111},"geometry":{"type":"Polygon","coordinates":[[[-121.027262269565,50.4773222898536],[-121.027030081458,50.4772101257723],[-121.027334546566,50.4769443652046],[-121.027716501637,50.4766327683536],[-121.028033224249,50.476323058879],[-121.028190458428,50.4761691028923],[-121.028621302621,50.4756926751718],[-121.028907311029,50.475326074781],[-121.029263905748,50.4748879338382],[-121.029472705975,50.4746570447958],[-121.029691509452,50.4745407464614],[-121.029801545199,50.4744885290486],[-121.029952298399,50.4745929638743],[-121.029788724132,50.4745423642126],[-121.029556113353,50.4747918573935],[-121.029251930027,50.4751733770452],[-121.029072998658,50.4754783231414],[-121.028853208946,50.4757750906066],[-121.028696115657,50.4759750626266],[-121.028408980123,50.4762709313412],[-121.028041677699,50.4765703051833],[-121.027243953755,50.4772197424043],[-121.027262269565,50.4773222898536]]]}},{"type":"Feature","id":"891249991","properties":{"name":"SP_30KPH_TR%_1590 #1_AUG_24_NS","oid":"891249991","speedLimit":8.333333},"geometry":{"type":"Polygon","coordinates":[[[-121.012956917987,50.4498608738133],[-121.013847488995,50.4497489793571],[-121.013378886057,50.4450042949162],[-121.012138764871,50.4430839343985],[-121.011299478129,50.4419104356725],[-121.010529650572,50.4421498628461],[-121.011008679432,50.4427017856214],[-121.011240726648,50.4430300093594],[-121.011456289635,50.4435200980898],[-121.011774280264,50.4445107909333],[-121.012956917987,50.4498608738133]]]}},{"type":"Feature","id":"893804793","properties":{"name":"SP_20KPH_%TR_1590Dynamic_AUG_24_NS","oid":"893804793","speedLimit":5.5555553},"geometry":{"type":"Polygon","coordinates":[[[-121.011186483674,50.4418409622471],[-121.01048414283,50.4421102279424],[-121.005981835103,50.4380483243716],[-121.006514402483,50.4376818138559],[-121.01006724683,50.440733521694],[-121.011186483674,50.4418409622471]]]}},{"type":"Feature","id":"903864124","properties":{"name":"SP_15KPH_%TR_OLD_GARBAGEDUMP_AUG_24_NS","oid":"903864124","speedLimit":4.1666665},"geometry":{"type":"Polygon","coordinates":[[[-121.042585134799,50.4670023854945],[-121.042132311635,50.4673289914814],[-121.04089402203,50.4666616691224],[-121.040723685003,50.4661232276069],[-121.042264326354,50.466826499992],[-121.042585134799,50.4670023854945]]]}},{"type":"Feature","id":"903865068","properties":{"name":"SP_15KPH_%TR_OLD_GARBAGE_DUMP_AUG_24_NS","oid":"903865068","speedLimit":4.1666665},"geometry":{"type":"Polygon","coordinates":[[[-121.042926654199,50.467201638514],[-121.042599505665,50.4670069691228],[-121.042142737558,50.4673432816167],[-121.042537231913,50.4674836664685],[-121.043338619019,50.4678204283378],[-121.0437557968,50.468475707438],[-121.043667176461,50.468588860145],[-121.044339366665,50.4682704327891],[-121.044047863514,50.468266208661],[-121.043766222723,50.4678703089989],[-121.04331368134,50.4674095195398],[-121.042926654199,50.467201638514]]]}},{"type":"Feature","id":"903996942","properties":{"name":"MRK_CULVERT_1185EL_JULY_6_DS","oid":"903996942","speedLimit":1.9444444},"geometry":{"type":"Polygon","coordinates":[[[-121.036707873352,50.4471636332322],[-121.036651798797,50.4471423328417],[-121.0370624956,50.4468899636587],[-121.037120683517,50.4469101855484],[-121.036707873352,50.4471636332322]]]}},{"type":"Feature","id":"908328496","properties":{"name":"SP_15KPH_%TR_9019_SOFT_GROUND_AUG_24_NS","oid":"908328496","speedLimit":4.1666665},"geometry":{"type":"Polygon","coordinates":[[[-121.03888618665,50.4644518210198],[-121.038900557516,50.4647532619884],[-121.039282089914,50.4648805250807],[-121.039728291209,50.4650717792194],[-121.039264760341,50.4662042949157],[-121.038928594793,50.4669793774778],[-121.037505174623,50.469461726778],[-121.035259515503,50.4690835325038],[-121.035228801299,50.4668161643595],[-121.037881634951,50.465140174144],[-121.038520715808,50.4648146466579],[-121.03888618665,50.4644518210198]]]}},{"type":"Feature","id":"910445950","properties":{"name":"SP_20KPH_%TR_1635_FLATS_AUG_24_NS","oid":"910445950","speedLimit":5.5555553},"geometry":{"type":"Polygon","coordinates":[[[-121.020225617384,50.4571643013598],[-121.01904452946,50.4569614533377],[-121.01865088045,50.4569228070597],[-121.017842871474,50.4571471352224],[-121.018448842983,50.4564126761897],[-121.018503367739,50.4555081735338],[-121.019218388759,50.4555081735338],[-121.019236563677,50.4564590517233],[-121.019424371169,50.4568920697874],[-121.019757718899,50.4570621134107],[-121.020225617384,50.4571643013598]]]}},{"type":"Feature","id":"917291012","properties":{"name":"SP_15KPH_%TR_CORNER_RUTS_AUG_24_NS","oid":"917291012","speedLimit":4.1666665},"geometry":{"type":"Polygon","coordinates":[[[-121.040610549658,50.4662216408033],[-121.040684799131,50.4661074994705],[-121.040422883057,50.4659264910892],[-121.040121094875,50.4658983601938],[-121.040016976543,50.466310796868],[-121.039933991837,50.4664861431201],[-121.039995138463,50.4668202986125],[-121.040667328667,50.4667395009289],[-121.040549403032,50.4666225734691],[-121.040531932568,50.4663775740414],[-121.040610549658,50.4662216408033]]]}},{"type":"Feature","id":"917773475","properties":{"name":"SP_11KPH_%TR_1200_CORNER_AUG_24_NS","oid":"917773475","speedLimit":3.0555556},"geometry":{"type":"Polygon","coordinates":[[[-121.037099127218,50.444682721933],[-121.036924986138,50.4448622923132],[-121.036629397153,50.4448207700331],[-121.036414820402,50.4448701114439],[-121.036323241355,50.4449678056398],[-121.036254627515,50.4450823064728],[-121.036242370012,50.4451451291433],[-121.036263503638,50.445267449107],[-121.036316196813,50.4453516620431],[-121.036184322985,50.4453954311999],[-121.036089221667,50.4451944705541],[-121.036163189359,50.4449318556137],[-121.036259981367,50.4447915606369],[-121.036516825371,50.4447152567066],[-121.036713931658,50.4447119313292],[-121.036923295448,50.4447702602465],[-121.037093914257,50.4446838004338],[-121.037099127218,50.444682721933]]]}},{"type":"Feature","id":"920440343","properties":{"name":"iSP_17KPH_CAL_PAD_ROAD_LIMIT_AUG_23_NS","oid":"920440343","speedLimit":4.7222223},"geometry":{"type":"Polygon","coordinates":[[[-121.005955347625,50.437830916589],[-121.005969014037,50.4376132391811],[-121.005586777184,50.4375784575309],[-121.005286538801,50.4376828923566],[-121.005191014811,50.4378352305921],[-121.005286538801,50.4381617467039],[-121.005989443209,50.4392588516245],[-121.007470346842,50.4413701966557],[-121.007675061235,50.4416488093578],[-121.007784251637,50.442153817349],[-121.007934441274,50.4426631393434],[-121.008118726494,50.4432333966319],[-121.008323440887,50.443651315685],[-121.008685107676,50.4445612108449],[-121.008760202495,50.4449225086069],[-121.008760202495,50.4451793715432],[-121.008692011328,50.445619040362],[-121.008494059696,50.446228483179],[-121.008944487715,50.4462154512946],[-121.009135535696,50.4457322829442],[-121.009319820917,50.4449181946038],[-121.009217393275,50.4444523721409],[-121.008999012471,50.4437993399174],[-121.008773868906,50.4433771068612],[-121.008459964112,50.442737106522],[-121.008296108063,50.4420754462922],[-121.008241583308,50.4417446161772],[-121.007920774862,50.4411960187794],[-121.00681520443,50.4398334229162],[-121.006603727277,50.43949387492],[-121.006228394076,50.4387799074022],[-121.005989443209,50.4383881419931],[-121.005934918453,50.4380573118782],[-121.005955347625,50.437830916589]]]}},{"type":"Feature","id":"921284584","properties":{"name":"SP_22kph_rough ground_23SH_AUG 24_NS","oid":"921284584","speedLimit":6.111111},"geometry":{"type":"Polygon","coordinates":[[[-121.039975272854,50.4679547915602],[-121.040298617335,50.4674448404404],[-121.040047127183,50.4668717970248],[-121.040675782117,50.4668030425999],[-121.040882468982,50.4674219222988],[-121.040343843295,50.4682545249026],[-121.039116543176,50.4697887821402],[-121.039354226025,50.4704372307355],[-121.03993948658,50.4707937651191],[-121.039580637607,50.4711138102262],[-121.038663297339,50.470557932948],[-121.038403635518,50.4695221228218],[-121.039975272854,50.4679547915602]]]}},{"type":"Feature","id":"921727643","properties":{"name":"SP_35KPH_%TR_ HIGHMONT TRIAL_Aug 24_NS","oid":"921727643","speedLimit":9.722222},"geometry":{"type":"Polygon","coordinates":[[[-121.012709372778,50.4365927976911],[-121.010156571624,50.4366191310852],[-121.007266900467,50.4370212321268],[-121.006148508968,50.4371702449849],[-121.005263714485,50.4370779432929],[-121.004924308448,50.4368543341308],[-121.005302741248,50.4361090002152],[-121.005970422945,50.4354593832441],[-121.006755044041,50.4347246545863],[-121.007317057607,50.4339047243667],[-121.007674638562,50.4330514504978],[-121.007912462302,50.432392576395],[-121.007906826669,50.4319204626776],[-121.007795522904,50.431384537664],[-121.00751176875,50.4310047256385],[-121.006988781946,50.4305646074444],[-121.005753451049,50.429783683003],[-121.004890917318,50.4292689685048],[-121.00411756749,50.4288927514819],[-121.003316603057,50.4284988290712],[-121.003470596747,50.428323392944],[-121.003115692717,50.4285319030952],[-121.004389768596,50.4291671400559],[-121.005350925915,50.4296955155641],[-121.006574421982,50.4304921681418],[-121.007130799914,50.4309177265754],[-121.007500779264,50.4313875934162],[-121.007671538964,50.4318535057541],[-121.007636738926,50.4325371853749],[-121.00739961964,50.4332027102326],[-121.007173067167,50.4338689540907],[-121.006590624429,50.4345641377199],[-121.006158512218,50.4350395768147],[-121.00574513849,50.4354070759562],[-121.005112538612,50.4360623550564],[-121.004793139074,50.4366456442294],[-121.004711704168,50.436933244438],[-121.004893312463,50.4370850434231],[-121.005450817522,50.4372768368122],[-121.006283764176,50.4372648834285],[-121.007586440895,50.4371449900915],[-121.008820221993,50.4369812377228],[-121.009459021068,50.4368812966503],[-121.011037280273,50.4367894443337],[-121.012887740584,50.4367964545888],[-121.012878441788,50.4364190691901],[-121.012709372778,50.4365927976911]]]}},{"type":"Feature","id":"922262468","properties":{"name":"SP_20kph_HMT_DUMP_AUG_24_NS","oid":"922262468","speedLimit":5.5555553},"geometry":{"type":"Polygon","coordinates":[[[-121.012501558787,50.4364266186956],[-121.012481693179,50.437417311539],[-121.016364081203,50.4384079145074],[-121.017180402738,50.4369600272074],[-121.016523428745,50.4359058825679],[-121.014771310242,50.435308932385],[-121.012899857196,50.4352073735614],[-121.012501558787,50.4364266186956]]]}},{"type":"Feature","id":"922385545","properties":{"name":"SP_20KPH_RUTS_AUG 24_NS","oid":"922385545","speedLimit":5.5555553},"geometry":{"type":"Polygon","coordinates":[[[-121.00751176875,50.4337193121072],[-121.006870292749,50.4335259009669],[-121.00651891099,50.4340724312383],[-121.007226183014,50.4343190484171],[-121.00751176875,50.4337193121072]]]}},{"type":"Feature","id":"923351007","properties":{"name":"iSP_17KPH_PERMISSIONS_AUG 18_NS","oid":"923351007","speedLimit":4.7222223},"geometry":{"type":"Polygon","coordinates":[[[-121.038853922647,50.4608774896776],[-121.038873365584,50.4611350716144],[-121.03878404079,50.4608898025616],[-121.038539313399,50.4608898025616],[-121.038535509346,50.4608303951435],[-121.03888111458,50.4608229355131],[-121.038853922647,50.4608774896776]]]}},{"type":"Feature","id":"923607825","properties":{"name":"MRK_CROSS DITCH ","oid":"923607825","speedLimit":2.7777777},"geometry":{"type":"Polygon","coordinates":[[[-121.035185970483,50.4458455255263],[-121.03561737824,50.4454862050157],[-121.035586945818,50.4454715553801],[-121.035137644925,50.4458267416377],[-121.035185970483,50.4458455255263]]]}},{"type":"Feature","id":"924222108","properties":{"name":"sp_11kph_rough ground_23SH _AUG 24_NS","oid":"924222108","speedLimit":3.0555556},"geometry":{"type":"Polygon","coordinates":[[[-121.039474265022,50.4712559925793],[-121.039829591724,50.4714071624389],[-121.041446173238,50.4722546843035],[-121.041822633566,50.4718507857606],[-121.039780984384,50.4709828622562],[-121.039644320268,50.4710719284458],[-121.039474265022,50.4712559925793]]]}},{"type":"Feature","id":"924266047","properties":{"name":"SP_12KPH_%TR_CROSS DITCH_AUG_24 NS ","oid":"924266047","speedLimit":3.3333333},"geometry":{"type":"Polygon","coordinates":[[[-121.037616055715,50.4473124663401],[-121.037894033345,50.4474716350806],[-121.037657618513,50.4477508769081],[-121.037462907371,50.4476921884905],[-121.037268055337,50.4475135168609],[-121.037616055715,50.4473124663401]]]}},{"type":"Feature","id":"925208014","properties":{"name":"SP_18KPH_BAD RAMPS_AUG 24_NS","oid":"925208014","speedLimit":5},"geometry":{"type":"Polygon","coordinates":[[[-121.036765075033,50.4451607674047],[-121.036033569785,50.445237071335],[-121.036305066436,50.4456361166244],[-121.037266505538,50.4467982012172],[-121.037919675478,50.447434966054],[-121.03824640134,50.4478047120721],[-121.038871956675,50.4475376932535],[-121.036870884055,50.4452751783627],[-121.036765075033,50.4451607674047]]]}},{"type":"Feature","id":"925558402","properties":{"name":"SP_15KPH_LAKE2_AUG 24_NS","oid":"925558402","speedLimit":4.1666665},"geometry":{"type":"Polygon","coordinates":[[[-121.025277962955,50.4783483934728],[-121.025271622867,50.4783786813697],[-121.025225833344,50.478425955654],[-121.025197514285,50.4784832959456],[-121.025186383908,50.4785366817343],[-121.02515327456,50.4786282644257],[-121.025082265576,50.4787309916252],[-121.025000126216,50.4788125083094],[-121.024911787658,50.4788688599752],[-121.02485345885,50.4789111911309],[-121.024719330769,50.4789514551601],[-121.024604082061,50.4789836304335],[-121.024498273039,50.4789886634371],[-121.024400494795,50.4789907305636],[-121.025243162917,50.4783504605993],[-121.025277962955,50.4783483934728]]]}},{"type":"Feature","id":"925953053","properties":{"name":"SP_10KPH_TR%_CR4_AUG24_NS","oid":"925953053","speedLimit":2.7777777},"geometry":{"type":"Polygon","coordinates":[[[-121.023426093736,50.4818269179954],[-121.023320566496,50.4815910858244],[-121.022660492904,50.4817321896768],[-121.022802369981,50.4819995679956],[-121.023234763974,50.4818858760382],[-121.02362094577,50.4820626602914],[-121.023426093736,50.4818289851219],[-121.023426093736,50.4818269179954]]]}},{"type":"Feature","id":"926023128","properties":{"name":"SP_10KPH_TR%_4CR_1_AUG24_NS","oid":"926023128","speedLimit":2.7777777},"geometry":{"type":"Polygon","coordinates":[[[-121.022862248589,50.4811970735387],[-121.022835761111,50.4815106476411],[-121.022151454294,50.4816166103429],[-121.021885734167,50.481273377469],[-121.021985343992,50.4808326301494],[-121.022417174421,50.4808791854331],[-121.022510162376,50.4812225081821],[-121.022822376481,50.4810190310346],[-121.022981864913,50.4812606152098],[-121.022862248589,50.4811970735387]]]}},{"type":"Feature","id":"926367691","properties":{"name":"SP_10KPH_%TR_Aug25_NS","oid":"926367691","speedLimit":2.7777777},"geometry":{"type":"Polygon","coordinates":[[[-121.038765020527,50.4500239970566],[-121.037839931262,50.4500350516896],[-121.038207374576,50.4520288401355],[-121.038181450662,50.4523873517705],[-121.038950996437,50.4525307024994],[-121.039076389286,50.4524590720725],[-121.038821235972,50.4510167570265],[-121.038765020527,50.4500239970566]]]}},{"type":"Feature","id":"926715370","properties":{"name":"speed limit 30 truck single lane","oid":"926715370","speedLimit":4.1666665},"geometry":{"type":"Polygon","coordinates":[[[-121.037522363306,50.445827191013],[-121.038065356608,50.4456008855989],[-121.036950628271,50.4446301450199],[-121.036668142135,50.4451354226363],[-121.037434870093,50.4457038824236],[-121.037522363306,50.445827191013]]]}}]}