{"type":"FeatureCollection","features":[{"type":"Feature","id":"702602533","properties":{"name":"iSP_4KPH_%TR_CR01_SLOW BUMP","oid":"702602533","speedLimit":1.1111112},"geometry":{"type":"Polygon","coordinates":[[[-121.033359632323,50.4648079282247],[-121.033654369039,50.4646909105608],[-121.033697762399,50.4647316240798],[-121.033369917112,50.4648697624434],[-121.033359632323,50.4648079282247]]]}},{"type":"Feature","id":"707947583","properties":{"name":"iSP_25KPH_%TR_Permission Gate 1 from west dump_Jun","oid":"707947583","speedLimit":6.9444447},"geometry":{"type":"Polygon","coordinates":[[[-121.038629107789,50.46197802409],[-121.038855795828,50.4617995317087],[-121.038140791604,50.4614083044499],[-121.03799314147,50.4616710100041],[-121.038192638215,50.461566934386],[-121.038667570085,50.4618460871234],[-121.038629107789,50.46197802409]]]}},{"type":"Feature","id":"742345972","properties":{"name":"iSP_4KPH_%TR_CR01_PITSIDE_SLOW BUMP","oid":"742345972","speedLimit":1.1111112},"geometry":{"type":"Polygon","coordinates":[[[-121.033399503494,50.4648828842398],[-121.033706779201,50.4647443863749],[-121.033756935162,50.4647764718634],[-121.033475441874,50.4649183849904],[-121.033399503494,50.4648828842398]]]}},{"type":"Feature","id":"776427243","properties":{"name":"iSP_7KPH_%TR_CR1_PermissionBlocker_DO_NOT_DELETE","oid":"776427243","speedLimit":1.9444444},"geometry":{"type":"Polygon","coordinates":[[[-121.03410070074,50.4652129064071],[-121.034052235429,50.465233218229],[-121.034031102299,50.4652746507505],[-121.034116761919,50.4652255788269],[-121.03410070074,50.4652129064071]]]}},{"type":"Feature","id":"794004438","properties":{"name":"iSP_11KPH_%TR_LOWER_FUEL_BAY","oid":"794004438","speedLimit":3.0555556},"geometry":{"type":"Polygon","coordinates":[[[-121.036777422958,50.4606955033036],[-121.036779536271,50.4607253419092],[-121.036749809002,50.4606708774665],[-121.037125978712,50.4605991569629],[-121.037535961429,50.4605561066856],[-121.037543710244,50.4605814515252],[-121.036945220008,50.4606502960187],[-121.036777422958,50.4606955033036]]]}},{"type":"Feature","id":"801543391","properties":{"name":"iSP_4KPH_%TR_CR1_PermissionBlocker_DO_NOT_DELETE_","oid":"801543391","speedLimit":1.1111112},"geometry":{"type":"Polygon","coordinates":[[[-121.033156190727,50.4645233829682],[-121.033155345401,50.4644739515434],[-121.033176901194,50.4644318898946],[-121.033108852516,50.4644594816172],[-121.033156190727,50.4645233829682]]]}},{"type":"Feature","id":"806473874","properties":{"name":"iSP_4KPH_%TR_Permission Blocker - DO NOT DELETE","oid":"806473874","speedLimit":1.1111112},"geometry":{"type":"Polygon","coordinates":[[[-121.022720369467,50.4815453188014],[-121.022687260897,50.4815429820431],[-121.02267965297,50.4815716522695],[-121.022701772313,50.4815727307733],[-121.022705858051,50.4815486441881],[-121.022720369467,50.4815453188014]]]}},{"type":"Feature","id":"824566967","properties":{"name":"iSP_4Cr_3KPH","oid":"824566967","speedLimit":0.8333333},"geometry":{"type":"Polygon","coordinates":[[[-121.023303221186,50.4810684403646],[-121.023283074269,50.4810684403646],[-121.023280397406,50.4811865365323],[-121.023305475387,50.4811858175298],[-121.023303221186,50.4810684403646]]]}},{"type":"Feature","id":"826307302","properties":{"name":"iSP_4KPH_TR%_CRUSHER POCKETS","oid":"826307302","speedLimit":1.1111112},"geometry":{"type":"Polygon","coordinates":[[[-121.02329843101,50.4813216191351],[-121.023337879519,50.4814772831857],[-121.023542589103,50.4814378279212],[-121.023461578772,50.4811889631659],[-121.023053286705,50.4811896821685],[-121.023058640431,50.4813603553972],[-121.023283496932,50.481326382527],[-121.02329843101,50.4813216191351]]]}},{"type":"Feature","id":"835348611","properties":{"name":"SP_35KPH_%TR_switchback to 1 gate_SEP_6_NS","oid":"835348611","speedLimit":9.722222},"geometry":{"type":"Polygon","coordinates":[[[-121.039920905569,50.4634034466319],[-121.039548680709,50.4634579110745],[-121.039801855604,50.4633742371536],[-121.039545581184,50.4629227934318],[-121.039365667806,50.4625823457276],[-121.039179555376,50.4622612212167],[-121.038987384783,50.4620180186065],[-121.038746467103,50.4618370097163],[-121.038563454199,50.461730058088],[-121.038077251327,50.4614748121851],[-121.038039916131,50.4615169637092],[-121.037959328463,50.4615574076023],[-121.038034139742,50.4613738822031],[-121.03814558178,50.4613856558698],[-121.038484134519,50.4615704395234],[-121.038867912156,50.4617908138029],[-121.03905543346,50.4619262559069],[-121.039239996127,50.4621305425045],[-121.039454145176,50.4625356105623],[-121.039582211942,50.4627535582082],[-121.039759166682,50.4630610216707],[-121.039862859906,50.4632594663726],[-121.039944856449,50.4633239069756],[-121.039920905569,50.4634034466319]]]}},{"type":"Feature","id":"859384545","properties":{"name":"SP_30KPH_MAINT_CREW_L1590_ROUGH_SEP_6_NS","oid":"859384545","speedLimit":8.333333},"geometry":{"type":"Polygon","coordinates":[[[-121.013973507939,50.4518293031931],[-121.013917575589,50.4511529914259],[-121.013838115021,50.4497616316295],[-121.012656491291,50.4498957256038],[-121.013142271501,50.4500387172346],[-121.013401645447,50.451796768328],[-121.01322511337,50.4523054626273],[-121.012545331029,50.4524639128127],[-121.013761190429,50.452443061739],[-121.013973507939,50.4518293031931]]]}},{"type":"Feature","id":"875953603","properties":{"name":"SP_35_KPH_%TR_CR01_YARD_LOADED_Sept_06_NS","oid":"875953603","speedLimit":9.722222},"geometry":{"type":"Polygon","coordinates":[[[-121.038111486997,50.4622577160793],[-121.038365366329,50.462896010587],[-121.038316337468,50.4633433200442],[-121.03810218842,50.4637140557306],[-121.03762612945,50.4639750536537],[-121.037928896756,50.4642050445922],[-121.037829571046,50.4640213394424],[-121.038275620972,50.4637269977763],[-121.038556973373,50.4631644681616],[-121.038356490415,50.4621661331304],[-121.038111486997,50.4622577160793]]]}},{"type":"Feature","id":"878230085","properties":{"name":"SP_35KPH_TR%_PUNCH_OUT_L1590_DMP_Sep 6_NS","oid":"878230085","speedLimit":9.722222},"geometry":{"type":"Polygon","coordinates":[[[-121.013763162854,50.4533975376151],[-121.013625656623,50.4529077171325],[-121.013785986634,50.452512894861],[-121.013098596366,50.4524617558051],[-121.013066192234,50.4528629592242],[-121.01320567089,50.4533674293836],[-121.01361100432,50.4545820044296],[-121.013329651918,50.4549546274976],[-121.013044918217,50.4549500438564],[-121.013784014209,50.4551889324514],[-121.014084104652,50.4546990220935],[-121.013992386868,50.4541360431022],[-121.013763162854,50.4533975376151]]]}},{"type":"Feature","id":"883050998","properties":{"name":"iSP_22kph_%TR_4CR_Brake_Temp_CTRL_NOREMOVE","oid":"883050998","speedLimit":6.111111},"geometry":{"type":"Polygon","coordinates":[[[-121.031799866457,50.4745591305906],[-121.032189138708,50.4743125127183],[-121.032490778914,50.4745748587712],[-121.032792419119,50.4748022433255],[-121.032970219184,50.474884658992],[-121.033179014507,50.4749348094194],[-121.033462902883,50.4749596150071],[-121.033666767142,50.4749220471242],[-121.033827942478,50.4748626395391],[-121.033919096712,50.4748106017301],[-121.034008419407,50.4747474193816],[-121.034058857143,50.4746582630662],[-121.034053080754,50.4745480759265],[-121.034056884718,50.4744837251989],[-121.033994753316,50.4743797394561],[-121.033876407789,50.4742596660314],[-121.033509536656,50.4739377326426],[-121.03306123253,50.4735600765568],[-121.032947958954,50.473425533206],[-121.032822991714,50.4732209769824],[-121.032606165802,50.4728150101715],[-121.032252678985,50.4722090707782],[-121.032487679388,50.4721562240913],[-121.032430619938,50.4722057453914],[-121.032903156719,50.473048955624],[-121.033042353601,50.4733096839212],[-121.03325016271,50.4735470446357],[-121.033743128184,50.4739617293525],[-121.034098164765,50.4742712599474],[-121.034203548638,50.4743945688835],[-121.034256240575,50.4744617956213],[-121.034263284952,50.4745929237101],[-121.034238347859,50.4746789343893],[-121.034183824384,50.4747917279133],[-121.034086330212,50.4748759410862],[-121.033973479299,50.4749377753049],[-121.033790889058,50.4750162364574],[-121.033531374224,50.4750644995031],[-121.033263406138,50.4750681843912],[-121.033071799095,50.4750263923683],[-121.032808057635,50.4749166546052],[-121.032657307976,50.4748352275672],[-121.032495709977,50.4747054476081],[-121.032145181798,50.4744131730743],[-121.031799866457,50.4745591305906]]]}},{"type":"Feature","id":"883053336","properties":{"name":"iSP_22kph_%TR_Brake_Temp_CTRL_NOREMOVE","oid":"883053336","speedLimit":6.111111},"geometry":{"type":"Polygon","coordinates":[[[-121.032466405371,50.4721453491778],[-121.032251551884,50.4722256078367],[-121.031488927675,50.4710084264064],[-121.030817035035,50.4699234515688],[-121.030661776975,50.469660296638],[-121.03059696871,50.4694578075467],[-121.030550616712,50.4692568463359],[-121.03059696871,50.468973020082],[-121.030723203939,50.4686243937239],[-121.030884942826,50.4683756188439],[-121.031089370634,50.4680979041116],[-121.031688706195,50.4675366327514],[-121.032432592363,50.4668937546024],[-121.032788896931,50.4665562727837],[-121.03314801925,50.4662224758531],[-121.033484881338,50.4658707937341],[-121.03377989983,50.4660341870621],[-121.033587870124,50.4659933836677],[-121.032919781448,50.4666521697479],[-121.032555023628,50.4669913591977],[-121.032178994806,50.467307810192],[-121.031774788477,50.4676684798427],[-121.0313824167,50.4680345420125],[-121.031147557185,50.4682864625286],[-121.031009205629,50.4684699879277],[-121.030905512405,50.4686545918307],[-121.030829010475,50.4688531264079],[-121.030768147062,50.4691914171045],[-121.030776882089,50.4694007367199],[-121.030874094486,50.4696304580324],[-121.031028084558,50.4699352252354],[-121.031330992751,50.4704039250182],[-121.031531053047,50.4707111188548],[-121.031750696709,50.4710830229203],[-121.032146449786,50.47172895683],[-121.032381731964,50.4721452593025],[-121.032466405371,50.4721453491778]]]}},{"type":"Feature","id":"883059532","properties":{"name":"iSP_22kph_%TR_Brake_CTRL_NOREMOVE","oid":"883059532","speedLimit":6.111111},"geometry":{"type":"Polygon","coordinates":[[[-121.027262724381,50.4773221674887],[-121.027030541729,50.477210003092],[-121.027334999685,50.476944241777],[-121.027716945784,50.4766326440498],[-121.028033660956,50.4763229337043],[-121.028190891441,50.4761689772848],[-121.028621725514,50.4756925482246],[-121.028907727203,50.4753259468029],[-121.029264313547,50.4748878046281],[-121.029473108869,50.4746569149365],[-121.029691907206,50.4745406162751],[-121.029801940368,50.4744883987154],[-121.029952690027,50.4745928338348],[-121.029789119603,50.4745422340308],[-121.029556514288,50.4747917279133],[-121.029252338106,50.4751732486378],[-121.029073410941,50.4754781955914],[-121.028853626391,50.4757749638911],[-121.028696536793,50.4759749364734],[-121.028409408003,50.4762708060199],[-121.028042114208,50.4765701807039],[-121.027244409002,50.477219619751],[-121.027262724381,50.4773221674887]]]}},{"type":"Feature","id":"884401102","properties":{"name":"SP_30KPH_MAIN INT_LIMIT_POLICY_SEPT_6_NS","oid":"884401102","speedLimit":8.333333},"geometry":{"type":"Polygon","coordinates":[[[-121.036992980882,50.4611013802393],[-121.037109072208,50.4611078512622],[-121.038295345226,50.460992181728],[-121.038279002272,50.4603980160014],[-121.038120503799,50.4605659030952],[-121.037033415603,50.4607085352247],[-121.036745723263,50.460537861996],[-121.036992980882,50.4611013802393]]]}},{"type":"Feature","id":"891249991","properties":{"name":"SP_20KPH_TR%_1590_rough section_ #1_SEPT 6_NS","oid":"891249991","speedLimit":5.5555553},"geometry":{"type":"Polygon","coordinates":[[[-121.012957708834,50.4498606742298],[-121.013848258923,50.4497487794591],[-121.013379666992,50.4450040816766],[-121.011853291472,50.4421437996845],[-121.007783614227,50.4388899536754],[-121.006732452352,50.4393240514608],[-121.010930900801,50.4427669052635],[-121.0110936259,50.4430957590517],[-121.011457115733,50.4435198806769],[-121.011775098892,50.444510576306],[-121.012957708834,50.4498606742298]]]}},{"type":"Feature","id":"901482363","properties":{"name":"SP_25KPH_1200-1185_%TRAC_RAMP_SEPT_6_NS","oid":"901482363","speedLimit":6.9444447},"geometry":{"type":"Polygon","coordinates":[[[-121.03666710802,50.4451090560479],[-121.036261915479,50.4451194815848],[-121.039069099551,50.4482665557163],[-121.03908797848,50.4482638594568],[-121.038804371879,50.4476152292875],[-121.038216448208,50.4469312781183],[-121.036577221775,50.4451796081725],[-121.036694862864,50.4451090560479],[-121.03666710802,50.4451090560479]]]}},{"type":"Feature","id":"903864124","properties":{"name":"SP_15KPH_%TR_OLD_GARBAGEDUMP_SEP_6_NS","oid":"903864124","speedLimit":4.1666665},"geometry":{"type":"Polygon","coordinates":[[[-121.042485622199,50.4669871350577],[-121.042132417156,50.4673288410164],[-121.042023933757,50.4669792260298],[-121.041686789893,50.4668099009308],[-121.041835285352,50.4667104089539],[-121.042485622199,50.4669871350577]]]}},{"type":"Feature","id":"908328496","properties":{"name":"SP_15KPH_%TR_1445_SOFT_GROUND_SEPT_6_NS","oid":"908328496","speedLimit":4.1666665},"geometry":{"type":"Polygon","coordinates":[[[-121.039332136573,50.4644968697494],[-121.039941193373,50.4647091552503],[-121.039189417503,50.466674818328],[-121.038827195659,50.4674278836167],[-121.038452434824,50.4678943365166],[-121.03791551244,50.4682380197322],[-121.037180502187,50.468025913982],[-121.038313519718,50.4667052860608],[-121.038794227976,50.4655660265311],[-121.039332136573,50.4644968697494]]]}},{"type":"Feature","id":"910445950","properties":{"name":"SP_22KPH_%TR_1635_FLATS_SEP_6_NS","oid":"910445950","speedLimit":6.111111},"geometry":{"type":"Polygon","coordinates":[[[-121.018917392319,50.457603522742],[-121.015249385428,50.4587005408723],[-121.014498736658,50.4578797095939],[-121.017481607482,50.456415820416],[-121.017773949111,50.4542398490944],[-121.018441756012,50.4540101277818],[-121.019220582288,50.4539290602451],[-121.019245942044,50.4568508169546],[-121.019158591774,50.4570731684911],[-121.019196631408,50.4574051679154],[-121.018917392319,50.457603522742]]]}},{"type":"Feature","id":"917773475","properties":{"name":"SP_15KPH_%TR_1200_CORNER_Sept_6_NS","oid":"917773475","speedLimit":4.1666665},"geometry":{"type":"Polygon","coordinates":[[[-121.037099350968,50.4446825077892],[-121.036925213979,50.4448620786744],[-121.036629631937,50.4448205562775],[-121.036415060226,50.444869897827],[-121.03632348333,50.4449675922976],[-121.036254871102,50.4450820934526],[-121.036242613887,50.4451449162998],[-121.036263747017,50.4452672366074],[-121.036316438954,50.4453514497803],[-121.036184568224,50.4453952190601],[-121.03608946914,50.4451942578493],[-121.036163435094,50.4449316421704],[-121.036260224828,50.4447913467992],[-121.036517062799,50.4447150426543],[-121.036714164456,50.4447117172675],[-121.036923523328,50.4447700463488],[-121.037094138129,50.444683586293],[-121.037099350968,50.4446825077892]]]}},{"type":"Feature","id":"921770139","properties":{"name":"SP_30KPH_%TR_HIGHMONT_SEPT 6_NS","oid":"921770139","speedLimit":8.333333},"geometry":{"type":"Polygon","coordinates":[[[-121.002513997873,50.4281368212656],[-121.00213684195,50.4281569533368],[-121.001469175937,50.4282385601254],[-121.001504679595,50.4285897928678],[-121.002055408957,50.4286074084301],[-121.002473985814,50.4285801762087],[-121.002750688926,50.4285621112698],[-121.002513997873,50.4281368212656]]]}},{"type":"Feature","id":"922262468","properties":{"name":"SP_20kph_HMT_DUMP_SEP_6_NS","oid":"922262468","speedLimit":5.5555553},"geometry":{"type":"Polygon","coordinates":[[[-121.012502360331,50.4364263813365],[-121.012482495189,50.4374170769657],[-121.014763041668,50.4387148765561],[-121.017332830249,50.4379497679749],[-121.016524135816,50.4359056437446],[-121.01477205847,50.4353086918831],[-121.013003919945,50.4354273273028],[-121.012502360331,50.4364263813365]]]}},{"type":"Feature","id":"925542039","properties":{"name":"SP_12KPH_DRAINAGE DITCHSEPT_6_NS","oid":"925542039","speedLimit":3.3333333},"geometry":{"type":"Polygon","coordinates":[[[-121.018172238163,50.4555314472879],[-121.018488953335,50.4557207247074],[-121.018468947306,50.455835675239],[-121.018124899953,50.4556371406617],[-121.018172238163,50.4555314472879]]]}},{"type":"Feature","id":"926367691","properties":{"name":"SP_20KPH_%TR_24SH_SEP_6_NS","oid":"926367691","speedLimit":5.5555553},"geometry":{"type":"Polygon","coordinates":[[[-121.038554719172,50.4504036110253],[-121.038074574464,50.4496787665864],[-121.037543146694,50.449859595726],[-121.038245752815,50.4520114804624],[-121.038397347799,50.453130338295],[-121.038777744135,50.4530969046767],[-121.038843256837,50.4508309681619],[-121.038554719172,50.4504036110253]]]}},{"type":"Feature","id":"927549571","properties":{"name":"SP_40_KPH_TR%_CRUSHER YARD EMPTY_SEPT_6_NS","oid":"927549571","speedLimit":11.111111},"geometry":{"type":"Polygon","coordinates":[[[-121.037755464204,50.4619283230392],[-121.037449033822,50.4612608190532],[-121.036779113608,50.4614646562742],[-121.037247564652,50.4615093243072],[-121.037920584391,50.4626184756054],[-121.037947634797,50.4632583878688],[-121.037501725759,50.4637414677025],[-121.037078076951,50.4639814348013],[-121.036452395422,50.4642045952156],[-121.036236837498,50.4641031259817],[-121.03639942171,50.4643263762714],[-121.036721067945,50.4642316476863],[-121.037431422881,50.4639642686156],[-121.037847463762,50.4637352663056],[-121.037980461592,50.4635590208072],[-121.038210812707,50.4632688134057],[-121.038184466739,50.4627772852921],[-121.038026954478,50.4623109222675],[-121.037755464204,50.4619283230392]]]}},{"type":"Feature","id":"929009157","properties":{"name":"iSP_22kph_Long_Single_Lane_Aug30","oid":"929009157","speedLimit":6.111111},"geometry":{"type":"Polygon","coordinates":[[[-121.005869938882,50.4378881135068],[-121.00481060553,50.4381070497812],[-121.005176067787,50.438197464351],[-121.007936336311,50.4431704454409],[-121.008525105307,50.4445348426419],[-121.008212194099,50.446509673002],[-121.007834192851,50.4466801664801],[-121.008935651575,50.4466469126125],[-121.008824913975,50.4465928975464],[-121.009404947944,50.444817590392],[-121.008766022987,50.4430683470798],[-121.008264322486,50.4415401071742],[-121.007260780596,50.4401561171539],[-121.006441096936,50.4389839632579],[-121.005690870829,50.4380213986032],[-121.005869938882,50.4378881135068]]]}},{"type":"Feature","id":"930116666","properties":{"name":"SP_15KPH_9023 Rough_SEP_6_NS","oid":"930116666","speedLimit":4.1666665},"geometry":{"type":"Polygon","coordinates":[[[-121.043598211038,50.4685543808512],[-121.043297979707,50.4689180163874],[-121.04254944425,50.468462708027],[-121.042344875554,50.4680407434094],[-121.043036774223,50.467907458313],[-121.043598211038,50.4685543808512]]]}},{"type":"Feature","id":"930976872","properties":{"name":"SP_13KPH_%TR_21SH_SEP_6_NS","oid":"930976872","speedLimit":3.6111112},"geometry":{"type":"Polygon","coordinates":[[[-121.036323060668,50.4472476392373],[-121.03621274573,50.4473474008402],[-121.036121309722,50.4473525237333],[-121.036018743599,50.4473181913618],[-121.035311206414,50.4469667788689],[-121.03551577511,50.4467739064367],[-121.036323060668,50.4472476392373]]]}},{"type":"Feature","id":"931933206","properties":{"name":"SP_15KPH_PUNCH_OUT_SEPT_6_NS","oid":"931933206","speedLimit":4.1666665},"geometry":{"type":"Polygon","coordinates":[[[-121.012903889797,50.4365389052345],[-121.012960667473,50.4368160807149],[-121.013593393378,50.4368185073485],[-121.01356817451,50.4365706312217],[-121.013503366245,50.4366690446948],[-121.013008287458,50.4366706624505],[-121.012903889797,50.4365389052345]]]}},{"type":"Feature","id":"932114358","properties":{"name":"SP_35KPH_%TR_23SH_LOADED_LANES_SEP_6_NS","oid":"932114358","speedLimit":9.722222},"geometry":{"type":"Polygon","coordinates":[[[-121.042099026811,50.4671398332228],[-121.04126624061,50.4667317992796],[-121.040735094615,50.4664969550739],[-121.040511928765,50.4663968339698],[-121.040354980054,50.4663121714203],[-121.040361038218,50.466065823174],[-121.040451488014,50.4657770537776],[-121.040517846041,50.4655114722132],[-121.04044542985,50.46513031099],[-121.04023423944,50.4644142743323],[-121.039984023183,50.4634788520236],[-121.039864973218,50.4631628504059],[-121.039698162381,50.4628771367703],[-121.038921590305,50.4631294167876],[-121.039550512247,50.4630533822687],[-121.039764802183,50.4635153414027],[-121.039914424742,50.46422562604],[-121.040083348893,50.4647222770467],[-121.040276505699,50.4653843885137],[-121.040246355767,50.4657154891848],[-121.040101523384,50.4659579727925],[-121.03998078277,50.4662197795935],[-121.040161823248,50.4664854510332],[-121.041767095786,50.4671898937749],[-121.041839511977,50.4675478671661],[-121.042099026811,50.4671398332228]]]}},{"type":"Feature","id":"932118723","properties":{"name":"SP_35KPH_%TR_1635_TO_1620_SEP_6_NS","oid":"932118723","speedLimit":9.722222},"geometry":{"type":"Polygon","coordinates":[[[-121.018237750866,50.4539384971535],[-121.018530374269,50.4537443664668],[-121.018241695717,50.453642357981],[-121.017621367914,50.4534681796149],[-121.017126007352,50.4534432841519],[-121.01641198934,50.453440767643],[-121.016060897611,50.4534805824088],[-121.015776163909,50.4535129375232],[-121.015503123872,50.4536050597241],[-121.015897045412,50.4538315455252],[-121.01582293857,50.4536672534441],[-121.016252081992,50.4536050597241],[-121.016614867386,50.453607576233],[-121.017324940547,50.4535950835638],[-121.017742390304,50.4536548506502],[-121.018120814214,50.4537145278613],[-121.018265083047,50.4537692619299],[-121.018237750866,50.4539384971535]]]}},{"type":"Feature","id":"932281958","properties":{"name":"SP_15KPH_%TR_1185-1170_22shl_SEPT_6_NS","oid":"932281958","speedLimit":4.1666665},"geometry":{"type":"Polygon","coordinates":[[[-121.037375490531,50.4481142170525],[-121.037409021763,50.4479620581393],[-121.036982414317,50.4479087620758],[-121.03592448984,50.4473800255806],[-121.035453925484,50.4469919439579],[-121.035098325353,50.4474260417433],[-121.035348964272,50.4473476704661],[-121.036815039929,50.4479514528518],[-121.037216569395,50.4480555284699],[-121.037334914921,50.4481911503246],[-121.037375490531,50.4481142170525]]]}},{"type":"Feature","id":"932364856","properties":{"name":"SP_35km_%_1170rOUGH_SEPT_6_NS","oid":"932364856","speedLimit":9.722222},"geometry":{"type":"Polygon","coordinates":[[[-121.038074292689,50.4473201686188],[-121.037832247909,50.4473891029877],[-121.037706717118,50.4473851484737],[-121.037727850248,50.4480410585437],[-121.03832535427,50.4498588767235],[-121.03877689881,50.4502069638297],[-121.038722516223,50.4496640270343],[-121.038331553322,50.4483823151258],[-121.038104583508,50.4473256510132],[-121.038074292689,50.4473201686188]]]}},{"type":"Feature","id":"933252285","properties":{"name":"SP_17KPH_%TR1645_PATCH_SEP_6_NS","oid":"933252285","speedLimit":4.7222223},"geometry":{"type":"Polygon","coordinates":[[[-121.004300310889,50.4287925515849],[-121.004057139009,50.4290157119993],[-121.005061948887,50.4295096667464],[-121.005320054845,50.4293123005483],[-121.005134365078,50.4293871666881],[-121.004308905029,50.4289749086049],[-121.004300310889,50.4287925515849]]]}},{"type":"Feature","id":"933252378","properties":{"name":"SP_20KPH_%TR_1615_ROUGH_SECTION_SEP_6_NS","oid":"933252378","speedLimit":5.5555553},"geometry":{"type":"Polygon","coordinates":[[[-121.007362924057,50.4314117879744],[-121.007545373411,50.432145619945],[-121.007054098587,50.4322076339144],[-121.007399413928,50.4321238701181],[-121.007258385508,50.4314846768572],[-121.006910534192,50.431455197753],[-121.007362924057,50.4314117879744]]]}},{"type":"Feature","id":"933252478","properties":{"name":"SP_20KPH_%TR_1605_PATCH_SEP_6_NS","oid":"933252478","speedLimit":5.5555553},"geometry":{"type":"Polygon","coordinates":[[[-121.006594241683,50.4333408717978],[-121.007212315285,50.4334383865177],[-121.006981400621,50.4339627191223],[-121.006679196865,50.4343787519688],[-121.006274990536,50.4347752818714],[-121.005741731228,50.4345239006072],[-121.006213845347,50.4346040693908],[-121.00670286597,50.433977908051],[-121.006896445439,50.4335510901663],[-121.006594241683,50.4333408717978]]]}},{"type":"Feature","id":"933252549","properties":{"name":"SP_35KPH_%TR_1590_ROUGH_SEP_6_NS","oid":"933252549","speedLimit":9.722222},"geometry":{"type":"Polygon","coordinates":[[[-121.004363569391,50.4363928578429],[-121.004780173823,50.4364500185451],[-121.004884430596,50.4362112198254],[-121.005082377579,50.4359569625511],[-121.004584903704,50.4358323953605],[-121.004798911865,50.4359808693857],[-121.004627733513,50.4363681421305],[-121.004363569391,50.4363928578429]]]}},{"type":"Feature","id":"933371104","properties":{"name":"SP_12KPH_1590_HMT_INTERSECT_SEPT_6_NS","oid":"933371104","speedLimit":3.3333333},"geometry":{"type":"Polygon","coordinates":[[[-121.006262028883,50.4373387955638],[-121.006005472687,50.4376215433139],[-121.006184118078,50.437748806764],[-121.006388827662,50.4379884143616],[-121.006554652287,50.4382643315875],[-121.00708819337,50.4381536950712],[-121.00674625933,50.4380710097787],[-121.006308521768,50.4375951199704],[-121.006262028883,50.4373387955638]]]}}]}