{"type":"FeatureCollection","features":[{"type":"Feature","id":"702602533","properties":{"name":"iSP_4KPH_%TR_CR01_Slow Bump","oid":"702602533","speedLimit":1.1111112},"geometry":{"type":"Polygon","coordinates":[[[-121.033359524068,50.4648079792255],[-121.033654245224,50.4646909617288],[-121.033697636293,50.4647316751897],[-121.033369808315,50.4648698133559],[-121.033359524068,50.4648079792255]]]}},{"type":"Feature","id":"707947583","properties":{"name":"iSP_25KPH_%TR_Permission Gate 1 From West Dump","oid":"707947583","speedLimit":6.9444447},"geometry":{"type":"Polygon","coordinates":[[[-121.038628721327,50.4619780791343],[-121.038855397397,50.461799587008],[-121.038140430923,50.4614083603081],[-121.037992788585,50.461671065487],[-121.038192274797,50.4615669900176],[-121.038667181592,50.4618461423561],[-121.038628721327,50.4619780791343]]]}},{"type":"Feature","id":"742345972","properties":{"name":"iSP_4KPH_%TR_CR01_Pit Side_Slow Bump","oid":"742345972","speedLimit":1.1111112},"geometry":{"type":"Polygon","coordinates":[[[-121.033399393135,50.4648829351336],[-121.033706652619,50.4647444374666],[-121.033756805932,50.4647765229092],[-121.033475327505,50.4649184358334],[-121.033399393135,50.4648829351336]]]}},{"type":"Feature","id":"776427243","properties":{"name":"iSP_7KPH_%TR_CR1_PermissionBlocker","oid":"776427243","speedLimit":1.9444444},"geometry":{"type":"Polygon","coordinates":[[[-121.03410055336,50.4652129568293],[-121.034052090608,50.4652332686222],[-121.034030958594,50.4652747010845],[-121.034116613691,50.4652256292311],[-121.03410055336,50.4652129568293]]]}},{"type":"Feature","id":"794004438","properties":{"name":"iSP_11KPH_%TR_Lower_Fuel_Bay","oid":"794004438","speedLimit":3.0555556},"geometry":{"type":"Polygon","coordinates":[[[-121.036777134257,50.4606955601804],[-121.036779247459,50.4607253987433],[-121.036749521759,50.4606709343784],[-121.037125671609,50.4605992139772],[-121.037535632681,50.4605561637615],[-121.037543381086,50.4605815085649],[-121.036944922449,50.46065035296],[-121.036777134257,50.4606955601804]]]}},{"type":"Feature","id":"801543391","properties":{"name":"iSP_4KPH_%TR_CR01_PermissionBlocker_2","oid":"801543391","speedLimit":1.1111112},"geometry":{"type":"Polygon","coordinates":[[[-121.033156093213,50.4645234343756],[-121.033155247932,50.4644740030214],[-121.033176802587,50.4644319414327],[-121.033108757502,50.4644595331159],[-121.033156093213,50.4645234343756]]]}},{"type":"Feature","id":"806473874","properties":{"name":"iSP_4KPH_%TR_CR04_PermissionBlocker","oid":"806473874","speedLimit":1.1111112},"geometry":{"type":"Polygon","coordinates":[[[-121.022720822924,50.4815453458878],[-121.022687716102,50.4815430091328],[-121.022680108577,50.4815716793183],[-121.022702226751,50.4815727578206],[-121.022706312274,50.4815486712698],[-121.022720822924,50.4815453458878]]]}},{"type":"Feature","id":"824566967","properties":{"name":"iSP_3KPH_%TR_CR04","oid":"824566967","speedLimit":0.8333333},"geometry":{"type":"Polygon","coordinates":[[[-121.023303643871,50.4810684681324],[-121.023283498017,50.4810684681324],[-121.023280821296,50.4811865641314],[-121.023305897952,50.4811858451298],[-121.023303643871,50.4810684681324]]]}},{"type":"Feature","id":"826307302","properties":{"name":"iSP_4KPH_%TR_CR04_Pockets","oid":"826307302","speedLimit":1.1111112},"geometry":{"type":"Polygon","coordinates":[[[-121.023298853948,50.4813216465411],[-121.023338300374,50.4814773103693],[-121.02354299915,50.4814378551612],[-121.023461993096,50.4811889907615],[-121.023053722585,50.481189709763],[-121.023059076028,50.4813603827478],[-121.023283920658,50.4813264099262],[-121.023298853948,50.4813216465411]]]}},{"type":"Feature","id":"883050998","properties":{"name":"iSP_22KPH_%TR_4CR_Brake_Temp_Ctrl","oid":"883050998","speedLimit":6.111111},"geometry":{"type":"Polygon","coordinates":[[[-121.031799840552,50.4745591676589],[-121.032189092251,50.4743125501389],[-121.032490716531,50.474574895817],[-121.032792340811,50.4748022800464],[-121.032970131489,50.4748846955952],[-121.033178915788,50.4749348459509],[-121.033462789177,50.4749596515032],[-121.033666642672,50.474922083674],[-121.033827809499,50.4748626761738],[-121.03391895892,50.474810638439],[-121.034008276899,50.4747474561808],[-121.034058711972,50.4746582999929],[-121.034052935888,50.4745481130106],[-121.034056739651,50.4744837623749],[-121.03399461153,50.4743797767807],[-121.033876272251,50.4742597035275],[-121.033509420488,50.4739377705988],[-121.03306114003,50.4735601150526],[-121.032947872435,50.4734255718939],[-121.032822911792,50.4732210159627],[-121.032606097328,50.4728150497318],[-121.032252629173,50.4722091112043],[-121.032487617169,50.4721562645929],[-121.032430560731,50.4722057858223],[-121.032903072565,50.47304899485],[-121.033042262097,50.4733097227747],[-121.033250060235,50.4735470831501],[-121.033742999683,50.4739617672744],[-121.034098017518,50.474271297427],[-121.034203395828,50.4743946061869],[-121.034256084983,50.4744618328287],[-121.034263128988,50.4745929607301],[-121.034238193212,50.4746789712864],[-121.034183672615,50.4747917646493],[-121.034086183591,50.4748759777018],[-121.033973338636,50.4749378118322],[-121.033790758034,50.4750162728726],[-121.033531256902,50.4750645358493],[-121.033263302964,50.4750682207321],[-121.033071706037,50.475026428769],[-121.032807978502,50.4749166911626],[-121.032657236802,50.474835264241],[-121.032495647334,50.4747054844674],[-121.032145137662,50.4744132103512],[-121.031799840552,50.4745591676589]]]}},{"type":"Feature","id":"883053336","properties":{"name":"iSP_22KPH_%TR_Brake_Temp_Ctrl","oid":"883053336","speedLimit":6.111111},"geometry":{"type":"Polygon","coordinates":[[[-121.032466344275,50.4721453896949],[-121.032251502132,50.4722256482391],[-121.031488918186,50.471008468548],[-121.03081706102,50.4699234952605],[-121.030661811157,50.4696603407057],[-121.030597006314,50.4694578519038],[-121.030550656763,50.4692568909801],[-121.030597006314,50.4689730651317],[-121.030723234877,50.4686244392717],[-121.030884965225,50.4683756647472],[-121.031089382241,50.4680979504117],[-121.031688686159,50.4675366798534],[-121.032432533052,50.466893802623],[-121.032788818809,50.4665563212865],[-121.033147922168,50.4662225248328],[-121.033484766471,50.4658708432164],[-121.033779769387,50.4660342363108],[-121.03358774982,50.4659934329748],[-121.032919696416,50.4666522181137],[-121.032554957854,50.4669914070788],[-121.032178948884,50.467307857621],[-121.031774763896,50.4676685267564],[-121.031382412835,50.4680345884032],[-121.031147565719,50.4682865085593],[-121.031009221467,50.4684700336962],[-121.030905533719,50.4686546373354],[-121.030829035828,50.468853171629],[-121.030768175627,50.4691914618422],[-121.030776910193,50.4694007811585],[-121.030874117458,50.4696305021428],[-121.0310280994,50.4699352689104],[-121.031330991601,50.4704039680235],[-121.031531041334,50.4707111614212],[-121.0317506734,50.4710830649552],[-121.032146405582,50.471728997942],[-121.032381675339,50.4721452998197],[-121.032466344275,50.4721453896949]]]}},{"type":"Feature","id":"883059532","properties":{"name":"iSP_22KPH_%TR_Brake_Ctrl","oid":"883059532","speedLimit":6.111111},"geometry":{"type":"Polygon","coordinates":[[[-121.02726293802,50.4773222006091],[-121.027030767626,50.4772100363727],[-121.027335209508,50.4769442754374],[-121.027717135441,50.4766326781554],[-121.028033833892,50.4763229682525],[-121.028191056076,50.4761690120529],[-121.028621867402,50.4756925836734],[-121.028907853992,50.4753259827755],[-121.029264421509,50.4748878412268],[-121.029473205807,50.474656951865],[-121.029691992593,50.4745406533698],[-121.029802019946,50.4744884358847],[-121.029952761646,50.4745928708549],[-121.029789199857,50.4745422711232],[-121.029556606823,50.4747917646493],[-121.029252446701,50.4751732848286],[-121.029073528982,50.4754782313465],[-121.028853756036,50.4757749992222],[-121.028696674732,50.4759749715188],[-121.028409561101,50.4762708406426],[-121.028042286697,50.4765702148987],[-121.027244623608,50.477219653018],[-121.02726293802,50.4773222006091]]]}},{"type":"Feature","id":"884401102","properties":{"name":"iSP_30KPH_%TR_Maint_Limit_Policy","oid":"884401102","speedLimit":8.333333},"geometry":{"type":"Polygon","coordinates":[[[-121.036992680801,50.4611014365361],[-121.037108765998,50.4611079075497],[-121.038294976385,50.4609922381808],[-121.038278634294,50.4603980733032],[-121.038120144189,50.4605659601571],[-121.037033113387,50.4607085920828],[-121.036745436236,50.460537919098],[-121.036992680801,50.4611014365361]]]}},{"type":"Feature","id":"887797506","properties":{"name":"SP_20KPH_%TR_LNX WEST_FLATS_SEPT 18_NS","oid":"887797506","speedLimit":5.5555553},"geometry":{"type":"Polygon","coordinates":[[[-121.055039843424,50.4668458092719],[-121.054278104759,50.4668725920783],[-121.054001979775,50.4667283423992],[-121.053448321008,50.4663378347009],[-121.053422821711,50.4658516099258],[-121.053448321008,50.4654410600602],[-121.054108766886,50.4652519626616],[-121.054845428895,50.4651439326838],[-121.054779074371,50.4656839028222],[-121.054838525771,50.46590104128],[-121.055012653566,50.4663530236079],[-121.055039843424,50.4668458092719]]]}},{"type":"Feature","id":"908328496","properties":{"name":"SP_25KPH_%TR_1445_SOFT_GROUND_SEPT_17_NS","oid":"908328496","speedLimit":6.9444447},"geometry":{"type":"Polygon","coordinates":[[[-121.039331712994,50.4644969211947],[-121.039940737638,50.4647092063923],[-121.039189001459,50.4666748666615],[-121.038826798738,50.4674279308742],[-121.03845205769,50.4678943831076],[-121.037915163653,50.4682380658321],[-121.037180192205,50.468025960385],[-121.038313149917,50.4667053343507],[-121.038793832797,50.4655660764488],[-121.039331712994,50.4644969211947]]]}},{"type":"Feature","id":"910445950","properties":{"name":"SP_22KPH_%TR_1635_FLATS_SEP_17_NS","oid":"910445950","speedLimit":6.111111},"geometry":{"type":"Polygon","coordinates":[[[-121.017503469539,50.4573018730255],[-121.016222305968,50.4569707728274],[-121.016995455922,50.4561043760008],[-121.018004157392,50.4544142730626],[-121.018149404768,50.4539986003112],[-121.018534007424,50.4537516232905],[-121.01895002634,50.4536881714067],[-121.018867893245,50.4543417437847],[-121.018263095004,50.456072200683],[-121.018043181178,50.4566100138168],[-121.017503469539,50.4573018730255]]]}},{"type":"Feature","id":"915576987","properties":{"name":"iSP_15KPH_%TR_Preventing Shifting","oid":"915576987","speedLimit":4.1666665},"geometry":{"type":"Polygon","coordinates":[[[-121.036998175124,50.4448633265514],[-121.037512246586,50.44531324175],[-121.037981518177,50.4457956917671],[-121.038525456218,50.4462190039096],[-121.039458082438,50.4468501074901],[-121.039915379221,50.4470998706417],[-121.04047129207,50.4471952282177],[-121.041224437051,50.447322940862],[-121.041642850928,50.4475097913809],[-121.042321329459,50.4480952383652],[-121.042703959793,50.4485279874026],[-121.042847375728,50.4487950065905],[-121.043008824315,50.4493917778487],[-121.043188023794,50.4501983177991],[-121.043325522766,50.4505014668132],[-121.043687161966,50.4511688799703],[-121.043857626879,50.4514891951457],[-121.044126566978,50.4522537633826],[-121.044383673148,50.4529383427009],[-121.044697413117,50.4537982685139],[-121.044736296023,50.454194887725],[-121.044571888953,50.4550719796992],[-121.044216307597,50.4568394651756],[-121.044051900528,50.4572075040765],[-121.043005724953,50.4583991592139],[-121.041905874063,50.4595375183639],[-121.04134404425,50.4600008249656],[-121.040372676005,50.460597686099],[-121.039924254667,50.4607311507554],[-121.039135185263,50.4608073649161],[-121.03849784372,50.4608389111076],[-121.038645626938,50.4611436778751],[-121.038758471893,50.4609497272162],[-121.039879454797,50.460879894194],[-121.040707407107,50.4606320184214],[-121.041511409801,50.4600580754614],[-121.042874283826,50.458700420849],[-121.044243074815,50.4571426141897],[-121.044428473018,50.4562903277678],[-121.044814061834,50.4544217327033],[-121.044810962472,50.4537867644896],[-121.044261107467,50.4523014871082],[-121.043833677263,50.4511860461315],[-121.0433465139,50.4503375344676],[-121.043050665703,50.4493098116759],[-121.042928100022,50.4486920096234],[-121.042240605165,50.4478873570519],[-121.041547193345,50.4473916055067],[-121.041092855043,50.447221921149],[-121.040459317262,50.4471304282061],[-121.039918337703,50.4470197918479],[-121.038821445295,50.4463334150258],[-121.03819678296,50.4458719059278],[-121.037153706747,50.4449070957687],[-121.037377846976,50.4446974169516],[-121.036998175124,50.4448633265514]]]}},{"type":"Feature","id":"917773475","properties":{"name":"SP_15KPH_%TR_1200_CORNER_Sept_17_NS","oid":"917773475","speedLimit":4.1666665},"geometry":{"type":"Polygon","coordinates":[[[-121.037099045271,50.4446825875454],[-121.036924917476,50.4448621581739],[-121.036629351039,50.4448206358364],[-121.036414790657,50.4448699773154],[-121.036323218596,50.4449676716464],[-121.03625460999,50.4450821726378],[-121.036242353422,50.4451449953952],[-121.036263485436,50.4452673155281],[-121.036316174591,50.4453515285807],[-121.036184310824,50.445395297798],[-121.036089216761,50.4451943368743],[-121.03616317881,50.4449317215706],[-121.036259963434,50.4447914263998],[-121.036516787845,50.4447151223639],[-121.036713879095,50.4447117969819],[-121.036923226914,50.4447701259799],[-121.037093832708,50.4446836660476],[-121.037099045271,50.4446825875454]]]}},{"type":"Feature","id":"921770139","properties":{"name":"SP_20KPH_%TR_HIGHMONT_SEPT 17_NS","oid":"921770139","speedLimit":5.5555553},"geometry":{"type":"Polygon","coordinates":[[[-121.001747439877,50.4283060697689],[-121.001111225374,50.4282402811302],[-121.001000916261,50.4285433402691],[-121.001096010324,50.4288873824945],[-121.001583173688,50.4287564343434],[-121.001925371435,50.4286884887001],[-121.002548484089,50.4285670673191],[-121.002401827911,50.428187524394],[-121.001747439877,50.4283060697689]]]}},{"type":"Feature","id":"926367691","properties":{"name":"SP_25KPH_%TR_24SH_EMPTY_LANE_SEP_17_NS","oid":"926367691","speedLimit":6.9444447},"geometry":{"type":"Polygon","coordinates":[[[-121.03878425295,50.450857552314],[-121.038613083637,50.4512056389228],[-121.038639005574,50.4520121788733],[-121.038865963404,50.4535985658428],[-121.039045162883,50.4535756476695],[-121.038782280629,50.4517187363796],[-121.03878425295,50.450857552314]]]}},{"type":"Feature","id":"929009157","properties":{"name":"iSP_22KPH_%TR_Long_Single_Lane","oid":"929009157","speedLimit":6.111111},"geometry":{"type":"Polygon","coordinates":[[[-121.00568264353,50.4380559999496],[-121.004752975793,50.4382240665539],[-121.005177447514,50.438197553373],[-121.007937570307,50.4431705273575],[-121.008526308218,50.444534922609],[-121.00821341353,50.4465097501475],[-121.007835432239,50.446680243382],[-121.008936832811,50.4466469895619],[-121.008826101057,50.446592974573],[-121.009406104402,50.4448176699551],[-121.008767213178,50.4430684291422],[-121.008265539165,50.4415401914203],[-121.007262050259,50.4401562033774],[-121.006442409874,50.4389840511562],[-121.00586339269,50.4383130429915],[-121.00568264353,50.4380559999496]]]}},{"type":"Feature","id":"929572873","properties":{"name":"SP_11KPH_%TR_1665_FLATS_WATERHOLE_SEPT 18_NS","oid":"929572873","speedLimit":3.0555556},"geometry":{"type":"Polygon","coordinates":[[[-121.053570464049,50.4666492522325],[-121.05336196151,50.467003809855],[-121.053261654884,50.4671269388646],[-121.053006943674,50.4671859868641],[-121.052783085206,50.4671269388646],[-121.052273662788,50.4664178236196],[-121.052258306857,50.465428118033],[-121.052736876535,50.4650982760876],[-121.053562715644,50.4651130156186],[-121.053624421124,50.4653297047005],[-121.05336196151,50.4654232647727],[-121.053369709915,50.466344036089],[-121.053554967238,50.4666345127014],[-121.053570464049,50.4666492522325]]]}},{"type":"Feature","id":"932114358","properties":{"name":"SP_20KPH_%TR_23SH_LOADED_LANES_SEP_","oid":"932114358","speedLimit":5.5555553},"geometry":{"type":"Polygon","coordinates":[[[-121.042098457151,50.4671398808919],[-121.041265714918,50.4667318475316],[-121.040734596965,50.4664970036615],[-121.040689092695,50.4664766019935],[-121.040377465928,50.4667814586362],[-121.040593998632,50.4666720805306],[-121.041766543651,50.4671899413724],[-121.041838956019,50.4675479142521],[-121.042098457151,50.4671398808919]]]}},{"type":"Feature","id":"932281958","properties":{"name":"SP_15KPH_%TR_1185-1170_22shl_SEPT_17_NS","oid":"932281958","speedLimit":4.1666665},"geometry":{"type":"Polygon","coordinates":[[[-121.037375170255,50.4481142919054],[-121.037408699717,50.4479621332096],[-121.036982114794,50.4479088372222],[-121.035924246171,50.4473801014825],[-121.035633187898,50.4472469064517],[-121.035475543073,50.4475380121904],[-121.035550773043,50.4474434634911],[-121.036814749242,50.4479515279372],[-121.037216257509,50.4480556034066],[-121.037334596788,50.4481912250676],[-121.037375170255,50.4481142919054]]]}},{"type":"Feature","id":"933274269","properties":{"name":"SP_15KPH_%TR_21SH_EMPTY_LANE_SEP_17_NS","oid":"933274269","speedLimit":4.1666665},"geometry":{"type":"Polygon","coordinates":[[[-121.039409619685,50.4523696125018],[-121.039606288296,50.4523825545291],[-121.039538524971,50.4510066552533],[-121.039312412421,50.4510519523488],[-121.039418917772,50.4515133715716],[-121.039409619685,50.4523696125018]]]}},{"type":"Feature","id":"934051091","properties":{"name":"iSP_17KPH_%TR_Ramp_Permission Blocker","oid":"934051091","speedLimit":4.7222223},"geometry":{"type":"Polygon","coordinates":[[[-121.039513025674,50.46102980601],[-121.039464985562,50.460771774341],[-121.039017550385,50.4607923557594],[-121.039076438264,50.4610450847923],[-121.039163924802,50.4609000262364],[-121.039379893986,50.4608869044588],[-121.039513025674,50.46102980601]]]}},{"type":"Feature","id":"934181339","properties":{"name":"SP_30KPH_TR%_1590_2_SEPT 16_NS_ROUGH_SECTION.","oid":"934181339","speedLimit":8.333333},"geometry":{"type":"Polygon","coordinates":[[[-121.009625877348,50.4401266344401],[-121.008922040401,50.4404385912228],[-121.010384516652,50.44179858259],[-121.011096102005,50.4414569669948],[-121.01056216645,50.4414850080539],[-121.009452594833,50.4404074944072],[-121.009625877348,50.4401266344401]]]}},{"type":"Feature","id":"934773555","properties":{"name":"SP_10KPH_NEW RAMP_SEPT 17_NS","oid":"934773555","speedLimit":2.7777777},"geometry":{"type":"Polygon","coordinates":[[[-121.033903462109,50.4443402529486],[-121.034414997729,50.4442041819117],[-121.035775476792,50.4443192221543],[-121.036277432566,50.4444736277298],[-121.035932417217,50.4447856743877],[-121.034623218507,50.4446108671441],[-121.034345543843,50.4446010707485],[-121.033903462109,50.4443402529486]]]}},{"type":"Feature","id":"936169885","properties":{"name":"SP_10KPH_%TR_24shl_loadplan_Sept_17_NS","oid":"936169885","speedLimit":2.7777777},"geometry":{"type":"Polygon","coordinates":[[[-121.039052911289,50.453593892333],[-121.038507846207,50.4536748698787],[-121.038612379236,50.4545480972197],[-121.039163924802,50.4545295829307],[-121.03914462423,50.4542340733077],[-121.03910038788,50.4539211278979],[-121.039077847065,50.4537567461763],[-121.039052911289,50.453593892333]]]}},{"type":"Feature","id":"936513295","properties":{"name":"SP_30KPH_%TR_1635_FLATS_SEP_17_NS","oid":"936513295","speedLimit":8.333333},"geometry":{"type":"Polygon","coordinates":[[[-121.017435283574,50.4574539418461],[-121.015228396908,50.4585170754625],[-121.014499624185,50.4578797704938],[-121.016653258175,50.4569269137349],[-121.017435283574,50.4574539418461]]]}},{"type":"Feature","id":"937786749","properties":{"name":"SP_30KPH_%TR_24SH_Loaded_LANE_SEP_17_NS","oid":"937786749","speedLimit":8.333333},"geometry":{"type":"Polygon","coordinates":[[[-121.038410357182,50.4510853859193],[-121.038213265931,50.4510392799471],[-121.038253839398,50.4516608567576],[-121.038333154891,50.4527882511344],[-121.038495871399,50.452761018952],[-121.038403876698,50.4516753266631],[-121.038410357182,50.4510853859193]]]}},{"type":"Feature","id":"937793793","properties":{"name":"SP_10KPH_%TR_21SH_LOAD_AREA_SEP_17_NS","oid":"937793793","speedLimit":2.7777777},"geometry":{"type":"Polygon","coordinates":[[[-121.039610937339,50.4523982826873],[-121.039003321496,50.4524050233265],[-121.039058969133,50.4534374196281],[-121.039658695691,50.4534069519388],[-121.039618826624,50.4529280070541],[-121.039610937339,50.4523982826873]]]}},{"type":"Feature","id":"938065675","properties":{"name":"SP_8KPH_CR01_YARD_RUTIING_SEP_17_NS","oid":"938065675","speedLimit":2.2222223},"geometry":{"type":"Polygon","coordinates":[[[-121.034289614446,50.4648013284615],[-121.034099426319,50.4648581295813],[-121.033941217974,50.4649071115595],[-121.03382978182,50.4650050755161],[-121.034044623963,50.4650689767758],[-121.03396460407,50.4650114566545],[-121.034242983135,50.4648882377697],[-121.034319621906,50.4649374893736],[-121.034289614446,50.4648013284615]]]}},{"type":"Feature","id":"938165680","properties":{"name":"SP_22SH_10kph_%TR_Sept17_NS","oid":"938165680","speedLimit":2.7777777},"geometry":{"type":"Polygon","coordinates":[[[-121.034631671313,50.4470558317988],[-121.035055579514,50.4472506812096],[-121.035497379488,50.4474474179994],[-121.035795481766,50.4469123011212],[-121.034871871872,50.446719159339],[-121.034631671313,50.4470558317988]]]}},{"type":"Feature","id":"938217281","properties":{"name":"SP_25KPH_CRUSHER_YARD_WEATHER_SEPT_17_NS","oid":"938217281","speedLimit":6.9444447},"geometry":{"type":"Polygon","coordinates":[[[-121.036883780488,50.4639826553605],[-121.037242461206,50.4642846359972],[-121.034292432048,50.465499299183],[-121.03287982735,50.4644545001053],[-121.036883780488,50.4639826553605]]]}},{"type":"Feature","id":"939481274","properties":{"name":"SP_10KPH_%TR_LRNX_PIT_BOTTOM_SEP_17_NS1","oid":"939481274","speedLimit":2.7777777},"geometry":{"type":"Polygon","coordinates":[[[-121.03405575349,50.4452363984629],[-121.034062797495,50.4449962519566],[-121.033303312911,50.4447664410971],[-121.033469551421,50.4448876827277],[-121.033358397027,50.4469938179181],[-121.033815975571,50.4469741352516],[-121.03366424771,50.4469200303875],[-121.03405575349,50.4452363984629]]]}},{"type":"Feature","id":"939584863","properties":{"name":"SP_40KPH_%TR_HMT EMPTY2_ROUGH_SECTION_SEPT 17_NS","oid":"939584863","speedLimit":11.111111},"geometry":{"type":"Polygon","coordinates":[[[-121.005961726995,50.4301700811988],[-121.005670246082,50.430397375553],[-121.005922844089,50.4302830543119],[-121.006322239155,50.4305570837647],[-121.006715012855,50.4308738039324],[-121.007138216656,50.4312429213356],[-121.007265572261,50.4315321396954],[-121.007412369318,50.4321903855832],[-121.007319529337,50.4325924871809],[-121.00705397036,50.4326145066023],[-121.007548318609,50.4326902713871],[-121.007645525873,50.4323019206933],[-121.007587201515,50.4319287589066],[-121.007418849803,50.4313516703149],[-121.007306568368,50.4311740769405],[-121.007118775203,50.4309839909147],[-121.006684864515,50.4306465994534],[-121.005961726995,50.4301700811988]]]}},{"type":"Feature","id":"939585115","properties":{"name":"SP_40KPH_%TR_HMT EMPTY22_ROUGH_SECTION_SEPT 17_NS","oid":"939585115","speedLimit":11.111111},"geometry":{"type":"Polygon","coordinates":[[[-121.00752028347,50.4327113021814],[-121.007046785476,50.4338271026588],[-121.006950141732,50.4340181773117],[-121.006753754881,50.4342996664051],[-121.005790698562,50.4352900909932],[-121.00529141951,50.4350887705688],[-121.005661793276,50.4351667822333],[-121.006612029507,50.4341291731707],[-121.006756854243,50.433927762871],[-121.0069631027,50.4334119691586],[-121.007227111995,50.432783202333],[-121.007030725145,50.4326537820601],[-121.00752028347,50.4327113021814]]]}},{"type":"Feature","id":"940771585","properties":{"name":"SP_15KPH_%TR_1660_HMT_SEPT17_NS","oid":"940771585","speedLimit":4.1666665},"geometry":{"type":"Polygon","coordinates":[[[-121.002710918837,50.4281185002484],[-121.002605681407,50.4277113656401],[-121.00223403972,50.4276979742368],[-121.002507487981,50.4277963875693],[-121.00253552312,50.428114006489],[-121.002675839693,50.4280826400478],[-121.002710918837,50.4281185002484]]]}},{"type":"Feature","id":"940772885","properties":{"name":"SP_11KPH_%TR_1654_HMT_SEPT17_NS","oid":"940772885","speedLimit":3.0555556},"geometry":{"type":"Polygon","coordinates":[[[-121.004064353895,50.4264900516902],[-121.004415004448,50.4266376267513],[-121.004611250418,50.4261544577327],[-121.004379925305,50.4258055622471],[-121.003973204475,50.4255504964593],[-121.003538307626,50.4259173669828],[-121.003839931906,50.4258323450536],[-121.004183538454,50.4261097897635],[-121.004148459311,50.4264900516902],[-121.004064353895,50.4264900516902]]]}},{"type":"Feature","id":"940778315","properties":{"name":"SP_25KPH_%TR_HMT_SPILLING_ROCK_IN_CORNER_SEPT17_NS","oid":"940778315","speedLimit":6.9444447},"geometry":{"type":"Polygon","coordinates":[[[-121.004786646135,50.4367080518577],[-121.004772558126,50.4370436458152],[-121.00498993611,50.4372762428056],[-121.005123208678,50.4371688419542],[-121.004891883565,50.4369362449638],[-121.00488483956,50.4367573034616],[-121.00520041097,50.4367975675464],[-121.004800593264,50.436699154214],[-121.004786646135,50.4367080518577]]]}},{"type":"Feature","id":"941544052","properties":{"name":"SP_11KPH_%TR_TEMP_LOADED_SPILL_SEPT19_NS","oid":"941544052","speedLimit":3.0555556},"geometry":{"type":"Polygon","coordinates":[[[-121.012794693292,50.4562997646627],[-121.012427559769,50.4565454834308],[-121.0123247173,50.4564644160099],[-121.012556746814,50.4564001552494],[-121.012778492082,50.4563100104343],[-121.012794693292,50.4562997646627]]]}}]}