{"type":"FeatureCollection","features":[{"type":"Feature","id":"702602533","properties":{"name":"iSP_4KPH_%TR_CR01_SLOW BUMP","oid":"702602533","speedLimit":1.1111112},"geometry":{"type":"Polygon","coordinates":[[[-121.033360065262,50.4648075359297],[-121.033654798955,50.4646905188808],[-121.03369819187,50.4647312321858],[-121.033370349946,50.4648693698235],[-121.033360065262,50.4648075359297]]]}},{"type":"Feature","id":"707947583","properties":{"name":"iSP_25KPH_%TR_Permission Gate 1 from west dump_Jun","oid":"707947583","speedLimit":6.9444447},"geometry":{"type":"Polygon","coordinates":[[[-121.038629486685,50.4619776466664],[-121.038856172399,50.461799155223],[-121.038141175508,50.4614079300202],[-121.037993526889,50.4616706341938],[-121.038193021588,50.4615665591226],[-121.038667948587,50.4618457103931],[-121.038629486685,50.4619776466664]]]}},{"type":"Feature","id":"742345972","properties":{"name":"iSP_4KPH_%TR_CR01_PITSIDE_SLOW BUMP","oid":"742345972","speedLimit":1.1111112},"geometry":{"type":"Polygon","coordinates":[[[-121.033399936024,50.4648824915509],[-121.03370720858,50.4647439944139],[-121.033757364027,50.4647760797338],[-121.033475873625,50.464917992115],[-121.033399936024,50.4648824915509]]]}},{"type":"Feature","id":"776427243","properties":{"name":"iSP_7KPH_%TR_CR1_PermissionBlocker_DO_NOT_DELETE","oid":"776427243","speedLimit":1.9444444},"geometry":{"type":"Polygon","coordinates":[[[-121.034101126079,50.465212511984],[-121.034052661265,50.4652328236991],[-121.034031528352,50.4652742560029],[-121.034117187093,50.4652251843372],[-121.034101126079,50.465212511984]]]}},{"type":"Feature","id":"794004438","properties":{"name":"iSP_11KPH_%TR_LOWER_FUEL_BAY","oid":"794004438","speedLimit":3.0555556},"geometry":{"type":"Polygon","coordinates":[[[-121.036777820844,50.4606951326197],[-121.036779934136,50.4607249710685],[-121.036750207171,50.460670506912],[-121.037126373024,50.4605987867852],[-121.037536351537,50.4605557367342],[-121.037544100271,50.4605810814407],[-121.036945616174,50.4606499255724],[-121.036777820844,50.4606951326197]]]}},{"type":"Feature","id":"801543391","properties":{"name":"iSP_4KPH_%TR_CR1_PermissionBlocker_DO_NOT_DELETE_","oid":"801543391","speedLimit":1.1111112},"geometry":{"type":"Polygon","coordinates":[[[-121.033156625752,50.4645229921686],[-121.033155780436,50.4644735610035],[-121.033177336007,50.4644314995757],[-121.033109288027,50.4644590911533],[-121.033156625752,50.4645229921686]]]}},{"type":"Feature","id":"806473874","properties":{"name":"iSP_4KPH_%TR_Permission Blocker - DO NOT DELETE","oid":"806473874","speedLimit":1.1111112},"geometry":{"type":"Polygon","coordinates":[[[-121.022720911521,50.4815448385504],[-121.02268780329,50.4815425018045],[-121.022680195442,50.4815711718802],[-121.022702314557,50.4815722503784],[-121.022706400254,50.4815481639197],[-121.022720911521,50.4815448385504]]]}},{"type":"Feature","id":"824566967","properties":{"name":"iSP_4Cr_3KPH","oid":"824566967","speedLimit":0.8333333},"geometry":{"type":"Polygon","coordinates":[[[-121.023303757262,50.4810679626197],[-121.023283610552,50.4810679626197],[-121.023280933716,50.4811860581668],[-121.02330601144,50.481185339168],[-121.023303757262,50.4810679626197]]]}},{"type":"Feature","id":"826307302","properties":{"name":"iSP_4KPH_TR%_CRUSHER POCKETS","oid":"826307302","speedLimit":1.1111112},"geometry":{"type":"Polygon","coordinates":[[[-121.023298967135,50.4813211400598],[-121.02333841524,50.4814768032923],[-121.023543122724,50.4814373482351],[-121.023462113224,50.4811884847876],[-121.023053825344,50.4811892037864],[-121.023059179015,50.4813598761182],[-121.02328403321,50.4813259034266],[-121.023298967135,50.4813211400598]]]}},{"type":"Feature","id":"883050998","properties":{"name":"iSP_22kph_%TR_4CR_Brake_Temp_CTRL_NOREMOVE","oid":"883050998","speedLimit":6.111111},"geometry":{"type":"Polygon","coordinates":[[[-121.031800315393,50.4745586870525],[-121.032189583651,50.4743120704762],[-121.032491220763,50.4745744151505],[-121.032792857876,50.4748017985098],[-121.032970656117,50.4748842137432],[-121.033179449298,50.4749343639071],[-121.033463334763,50.4749591693645],[-121.033667196931,50.474921601679],[-121.033828370615,50.4748621944061],[-121.033919523913,50.4748101568705],[-121.034008845692,50.474746974854],[-121.034059282911,50.4746578190072],[-121.034053506581,50.4745476324465],[-121.034057310506,50.474483282057],[-121.033995179741,50.4743792968607],[-121.033876835428,50.474259224067],[-121.033509968058,50.47393729237],[-121.033061668529,50.4735596382688],[-121.032948396116,50.473425095625],[-121.032823430156,50.4732205404764],[-121.032606606469,50.4728145757988],[-121.032253123277,50.4722086395898],[-121.03248812127,50.4721557931806],[-121.032431062404,50.4722053142205],[-121.03290359434,50.4730485200219],[-121.033042789794,50.473309246949],[-121.033250596772,50.4735466064162],[-121.03374355719,50.4739612889538],[-121.034098590129,50.474270817922],[-121.034203972922,50.4743941262102],[-121.034256664319,50.4744613525947],[-121.034263708623,50.4745924799944],[-121.034238771786,50.4746784902217],[-121.03418424887,50.4747912831529],[-121.034086755698,50.4748754958832],[-121.033973905942,50.474937329777],[-121.033791317574,50.4750157905172],[-121.033531805402,50.4750640533093],[-121.033263840064,50.4750677381779],[-121.033072234986,50.4750259463747],[-121.032808496231,50.4749162091883],[-121.032657748118,50.4748347825782],[-121.032496151777,50.4747050033011],[-121.032145627192,50.4744127303032],[-121.031800315393,50.4745586870525]]]}},{"type":"Feature","id":"883053336","properties":{"name":"iSP_22kph_%TR_Brake_Temp_CTRL_NOREMOVE","oid":"883053336","speedLimit":6.111111},"geometry":{"type":"Polygon","coordinates":[[[-121.03246684747,50.4721449183243],[-121.032251996188,50.4722251765614],[-121.031489379799,50.4710080015275],[-121.030817494051,50.4699230323914],[-121.030662237583,50.4696598788435],[-121.030597429983,50.4694573908164],[-121.03055107846,50.4692564306616],[-121.030597429983,50.4689726058992],[-121.030723663917,50.4686239813732],[-121.030885401145,50.4683752078006],[-121.031089826857,50.4680974945277],[-121.031689156271,50.4675362261169],[-121.03243303481,50.4668933513463],[-121.032789335723,50.4665558713011],[-121.033148454359,50.4662220761246],[-121.033485312993,50.4658703958538],[-121.033780328459,50.466033788323],[-121.033588300722,50.4659929851431],[-121.032920218898,50.4666517677614],[-121.032555464819,50.4669909554287],[-121.032179439853,50.46730740476],[-121.03177523767,50.4676680725154],[-121.031382869918,50.4680341327615],[-121.031148012811,50.4682860519537],[-121.031009662673,50.4684695763884],[-121.030905970513,50.4686541793213],[-121.030829469368,50.4688527128552],[-121.030768606579,50.469191001774],[-121.030777341516,50.4694003202894],[-121.030874552916,50.4696300403948],[-121.031028541409,50.4699348059962],[-121.031331446496,50.470403503316],[-121.031531504739,50.4707106955382],[-121.031751146149,50.4710825976493],[-121.032146895167,50.4717285281646],[-121.032382174932,50.4721448284494],[-121.03246684747,50.4721449183243]]]}},{"type":"Feature","id":"883059532","properties":{"name":"iSP_22kph_%TR_Brake_CTRL_NOREMOVE","oid":"883059532","speedLimit":6.111111},"geometry":{"type":"Polygon","coordinates":[[[-121.02726321985,50.4773217094307],[-121.027031039578,50.4772095456234],[-121.027335494412,50.4769437857049],[-121.027717436594,50.4766321896152],[-121.028034148517,50.4763224808973],[-121.02819137739,50.4761685252868],[-121.028622207044,50.4756920987303],[-121.028908205801,50.4753254992351],[-121.029264788487,50.4748873593628],[-121.029473581667,50.4746564708845],[-121.02969237776,50.4745401728343],[-121.029802409794,50.474487955549],[-121.029953157907,50.4745923901196],[-121.02978958916,50.4745417905815],[-121.029556986231,50.4747912831529],[-121.029252813169,50.4751728018724],[-121.029073887839,50.4754777472236],[-121.028854105543,50.4757745139637],[-121.028697017556,50.4759744854952],[-121.028409891711,50.4762703534869],[-121.028042601682,50.4765697265976],[-121.027244904658,50.4772191622318],[-121.02726321985,50.4773217094307]]]}},{"type":"Feature","id":"884401102","properties":{"name":"SP_30KPH_MAIN INT_LIMIT_POLICY_SEPT_7_NS","oid":"884401102","speedLimit":8.333333},"geometry":{"type":"Polygon","coordinates":[[[-121.036993376558,50.4611010074224],[-121.037109466693,50.4611074784113],[-121.038295727545,50.460991809485],[-121.038279384759,50.4603976468808],[-121.038120887911,50.4605655330924],[-121.037033810864,50.4607081644723],[-121.036746121475,50.4605374921406],[-121.036993376558,50.4611010074224]]]}},{"type":"Feature","id":"903864124","properties":{"name":"SP_15KPH_%TR_OLD_GARBAGEDUMP_SEP_6_NS","oid":"903864124","speedLimit":4.1666665},"geometry":{"type":"Polygon","coordinates":[[[-121.042485961543,50.4669867313109],[-121.042132760123,50.4673284354739],[-121.042024277836,50.4669788223245],[-121.04168713743,50.4668094981154],[-121.041835631365,50.4667100066613],[-121.042485961543,50.4669867313109]]]}},{"type":"Feature","id":"910445950","properties":{"name":"SP_22KPH_%TR_1635_FLATS_SEP_7_NS","oid":"910445950","speedLimit":6.111111},"geometry":{"type":"Polygon","coordinates":[[[-121.018917973376,50.4576031683066],[-121.015250004103,50.458700180672],[-121.014499363032,50.4578793537072],[-121.017482203264,50.4564154722221],[-121.017774541895,50.4542395123353],[-121.018442341947,50.45400979223],[-121.019221160235,50.4539287251193],[-121.019246519731,50.4568504664748],[-121.019159170357,50.4570728168428],[-121.0191972096,50.4574048145224],[-121.018917973376,50.4576031683066]]]}},{"type":"Feature","id":"917773475","properties":{"name":"SP_15KPH_%TR_1200_CORNER_Sept_7_NS","oid":"917773475","speedLimit":4.1666665},"geometry":{"type":"Polygon","coordinates":[[[-121.037099745553,50.4446822212545],[-121.03692561035,50.444861791196],[-121.036630031339,50.4448202690174],[-121.036415461829,50.4448696103076],[-121.036323885872,50.4449673042648],[-121.036255274348,50.445081804818],[-121.036243017258,50.4451446273351],[-121.036264150172,50.445266947],[-121.036316841568,50.4453511597303],[-121.036184972191,50.4453949287801],[-121.036089874082,50.4451939686253],[-121.036163839278,50.4449313543265],[-121.036260628019,50.4447910596925],[-121.036517463356,50.4447147559486],[-121.036714562991,50.4447114305793],[-121.036923919717,50.4447697593541],[-121.037094532768,50.4446832997527],[-121.037099745553,50.4446822212545]]]}},{"type":"Feature","id":"922262468","properties":{"name":"SP_20kph_HMT_DUMP_SEP_7_NS","oid":"922262468","speedLimit":5.5555553},"geometry":{"type":"Polygon","coordinates":[[[-121.01250300718,50.4364261381883],[-121.012483142242,50.4374168286113],[-121.014763665331,50.4387146213817],[-121.017333427556,50.4379495168211],[-121.016524741417,50.4359054033329],[-121.01477268204,50.4353084546084],[-121.013004561649,50.4354270894046],[-121.01250300718,50.4364261381883]]]}},{"type":"Feature","id":"925542039","properties":{"name":"SP_12KPH_DRAINAGE DITCHSEPT_7_NS","oid":"925542039","speedLimit":3.3333333},"geometry":{"type":"Polygon","coordinates":[[[-121.018172826862,50.4555311037414],[-121.018489538786,50.4557203801662],[-121.018469532961,50.4558353300938],[-121.018125489137,50.4556367965598],[-121.018172826862,50.4555311037414]]]}},{"type":"Feature","id":"929009157","properties":{"name":"iSP_22kph_Long_Single_Lane_Aug30","oid":"929009157","speedLimit":6.111111},"geometry":{"type":"Polygon","coordinates":[[[-121.005870653751,50.4378878626771],[-121.004811331264,50.4381067978009],[-121.005176789773,50.4381972118956],[-121.007937029988,50.4431701668522],[-121.008525792946,50.4445345568832],[-121.008212884947,50.4465093768655],[-121.007834887575,50.4466798694476],[-121.008936335003,50.4466466157547],[-121.008825598539,50.4465926009725],[-121.009405626559,50.4448173031474],[-121.008766708154,50.4430680690276],[-121.008265012799,50.4415398371531],[-121.007261481202,50.4401558544057],[-121.006441805948,50.4389837066694],[-121.005691587535,50.4380211470731],[-121.005870653751,50.4378878626771]]]}},{"type":"Feature","id":"930116666","properties":{"name":"SP_15KPH_9023 Rough_SEP_7_NS","oid":"930116666","speedLimit":4.1666665},"geometry":{"type":"Polygon","coordinates":[[[-121.043598538971,50.4685539688684],[-121.04329831072,50.4689176024937],[-121.04254978294,50.4684622965259],[-121.042345216342,50.4680403341258],[-121.043037107915,50.4679070497298],[-121.043598538971,50.4685539688684]]]}},{"type":"Feature","id":"933252378","properties":{"name":"SP_20KPH_%TR_1615_ROUGH_SECTION_SEP_8_DS","oid":"933252378","speedLimit":5.5555553},"geometry":{"type":"Polygon","coordinates":[[[-121.007363623615,50.4314115711782],[-121.007546071097,50.4321453992925],[-121.007054801312,50.4322074129359],[-121.007400113111,50.4321236495798],[-121.007259086138,50.431484459678],[-121.006911238389,50.4314549807286],[-121.007363623615,50.4314115711782]]]}},{"type":"Feature","id":"933252478","properties":{"name":"SP_30KPH_%TR_1605_PATCH_SEP_8_DS","oid":"933252478","speedLimit":8.333333},"geometry":{"type":"Polygon","coordinates":[[[-121.006594949124,50.4333406448641],[-121.007213016388,50.4334381590715],[-121.006982104091,50.4339624889208],[-121.006679903435,50.434378519581],[-121.006275701251,50.4347750473998],[-121.005742447412,50.4345236674567],[-121.00621455669,50.4346038358189],[-121.006703572297,50.4339776777697],[-121.006897149781,50.4335508621279],[-121.006594949124,50.4333406448641]]]}},{"type":"Feature","id":"933252549","properties":{"name":"SP_35KPH_%TR_1590_ROUGH_SEP_8_DS","oid":"933252549","speedLimit":9.722222},"geometry":{"type":"Polygon","coordinates":[[[-121.00436429971,50.4363926148709],[-121.004780899869,50.4364497752727],[-121.004885155573,50.4362109778079],[-121.005083100525,50.4359567218697],[-121.004585631752,50.4358321553337],[-121.004799637719,50.4359806285786],[-121.004628461123,50.4363678992883],[-121.00436429971,50.4363926148709]]]}},{"type":"Feature","id":"933371104","properties":{"name":"SP_12KPH_1590_HMT_INTERSECT_SEPT_6_NS","oid":"933371104","speedLimit":3.3333333},"geometry":{"type":"Polygon","coordinates":[[[-121.006262739731,50.4373385476208],[-121.006006186167,50.437621293885],[-121.006184829725,50.4377485566664],[-121.00638953721,50.4379881630047],[-121.006555360134,50.4382640787807],[-121.007088895745,50.4381534428458],[-121.006746965212,50.4380707579878],[-121.00630923214,50.4375948706804],[-121.006262739731,50.4373385476208]]]}}]}