{"type":"FeatureCollection","features":[{"type":"Feature","id":"702602533","properties":{"name":"iSP_4KPH_%TR_CR01_SLOW BUMP","oid":"702602533","speedLimit":1.1111112},"geometry":{"type":"Polygon","coordinates":[[[-121.033355853782,50.4648093053385],[-121.033650621023,50.4646922856947],[-121.033694018877,50.4647329999025],[-121.033366139637,50.4648711406034],[-121.033355853782,50.4648093053385]]]}},{"type":"Feature","id":"707947583","properties":{"name":"iSP_22KPH_%TR_Permission Gate 1 from west dump_Jun","oid":"707947583","speedLimit":6.111111},"geometry":{"type":"Polygon","coordinates":[[[-121.03862587499,50.4619793533228],[-121.038852586506,50.4618008579214],[-121.037978288832,50.461352372497],[-121.037741150559,50.4615436304095],[-121.037957294416,50.4614978830986],[-121.038664341269,50.4618474141238],[-121.03862587499,50.4619793533228]]]}},{"type":"Feature","id":"742345972","properties":{"name":"iSP_4KPH_%TR_CR01_PITSIDE_SLOW BUMP","oid":"742345972","speedLimit":1.1111112},"geometry":{"type":"Polygon","coordinates":[[[-121.033395729083,50.4648842626218],[-121.033703036613,50.4647457624136],[-121.033753197769,50.464777848445],[-121.033471675327,50.4649197639731],[-121.033395729083,50.4648842626218]]]}},{"type":"Feature","id":"776427243","properties":{"name":"iSP_7KPH_%TR_CR1_PermissionBlocker_DO_NOT_DELETE","oid":"776427243","speedLimit":1.9444444},"geometry":{"type":"Polygon","coordinates":[[[-121.034096998949,50.465214290373],[-121.034048528619,50.4652346025385],[-121.0340273933,50.4652760357611],[-121.034113061791,50.4652269630072],[-121.034096998949,50.465214290373]]]}},{"type":"Feature","id":"794004438","properties":{"name":"iSP_11KPH_%TR_LOWER_FUEL_BAY","oid":"794004438","speedLimit":3.0555556},"geometry":{"type":"Polygon","coordinates":[[[-121.036773998386,50.4606968108366],[-121.036776111918,50.460726649947],[-121.03674638157,50.4606721845828],[-121.037122590238,50.4606004628656],[-121.037532615417,50.46055741186],[-121.037540365033,50.4605827571284],[-121.036941812814,50.4606516027868],[-121.036773998386,50.4606968108366]]]}},{"type":"Feature","id":"801543391","properties":{"name":"iSP_4KPH_%TR_CR1_PermissionBlocker_DO_NOT_DELETE_","oid":"801543391","speedLimit":1.1111112},"geometry":{"type":"Polygon","coordinates":[[[-121.033152391116,50.4645247552676],[-121.033151545703,50.4644753230064],[-121.033173103728,50.4644332606459],[-121.033105048003,50.4644608528354],[-121.033152391116,50.4645247552676]]]}},{"type":"Feature","id":"806473874","properties":{"name":"iSP_4KPH_%TR_Permission Blocker - DO NOT DELETE","oid":"806473874","speedLimit":1.1111112},"geometry":{"type":"Polygon","coordinates":[[[-121.022715489054,50.4815469791062],[-121.022682377056,50.4815446423084],[-121.022674768341,50.4815733130199],[-121.022696889974,50.481574391542],[-121.022700976136,50.4815503045493],[-121.022715489054,50.4815469791062]]]}},{"type":"Feature","id":"824566967","properties":{"name":"iSP_4Cr_3KPH","oid":"824566967","speedLimit":0.8333333},"geometry":{"type":"Polygon","coordinates":[[[-121.023298401138,50.4810700926008],[-121.023278252134,50.4810700926008],[-121.023275574994,50.4811881907667],[-121.023300655572,50.481187471752],[-121.023298401138,50.4810700926008]]]}},{"type":"Feature","id":"826307302","properties":{"name":"iSP_4KPH_TR%_CRUSHER POCKETS","oid":"826307302","speedLimit":1.1111112},"geometry":{"type":"Polygon","coordinates":[[[-121.023293610465,50.4813232756551],[-121.02333306306,50.4814789423394],[-121.023537793845,50.4814394864073],[-121.023456775124,50.4811906174414],[-121.023048440771,50.4811913364561],[-121.023053795052,50.4813620125725],[-121.02327867484,50.4813280391275],[-121.023293610465,50.4813232756551]]]}},{"type":"Feature","id":"849417440","properties":{"name":"iSP_Permissions_35_KPH_June_19_NS","oid":"849417440","speedLimit":9.722222},"geometry":{"type":"Polygon","coordinates":[[[-121.032692345684,50.4660355849238],[-121.033006980125,50.4660162614035],[-121.033213965344,50.4658153866693],[-121.033802795316,50.4653809220317],[-121.033723608323,50.465252128522],[-121.033959760281,50.4654015937046],[-121.033423486801,50.4658099041821],[-121.033021070337,50.4661894540714],[-121.032692345684,50.4660355849238]]]}},{"type":"Feature","id":"853029148","properties":{"name":"SP_30KPH_%TR_1635 Flats_July_29_DS","oid":"853029148","speedLimit":8.333333},"geometry":{"type":"Polygon","coordinates":[[[-121.018585647827,50.4569721348931],[-121.017404324427,50.4572909280394],[-121.016425759182,50.4584587876797],[-121.018344705196,50.4588943308393],[-121.020688048405,50.4589884318893],[-121.020236316199,50.4572329574786],[-121.019418520276,50.4570977827134],[-121.018964251831,50.4570011651119],[-121.018585647827,50.4569721348931]]]}},{"type":"Feature","id":"883050998","properties":{"name":"iSP_22kph_%TR_4CR_Brake_Temp_CTRL_NOREMOVE","oid":"883050998","speedLimit":6.111111},"geometry":{"type":"Polygon","coordinates":[[[-121.031795926377,50.4745606726915],[-121.032185238943,50.4743140506465],[-121.032486910389,50.4745764011382],[-121.032788581834,50.4748037895398],[-121.032966400314,50.4748862066007],[-121.03317521726,50.4749363578766],[-121.033459135038,50.4749611638841],[-121.03366302041,50.4749235953656],[-121.033824212439,50.4748641867753],[-121.033915376113,50.4748121480858],[-121.034004708059,50.4747489646682],[-121.034055151019,50.4746598068444],[-121.034049374032,50.4745496178403],[-121.034053178389,50.4744852660239],[-121.033991040553,50.4743812785217],[-121.033872682769,50.4742612030654],[-121.033505773641,50.4739392642297],[-121.033057423085,50.4735616017541],[-121.032944137778,50.4734270561267],[-121.032819157595,50.4732224964422],[-121.032602309228,50.4728165227624],[-121.032248785801,50.4722105731169],[-121.032483810542,50.4721577255358],[-121.032426745182,50.4722072476738],[-121.032899330903,50.4730504721732],[-121.033038542201,50.4733112048818],[-121.033246372832,50.4735485696125],[-121.033739389361,50.4739632613456],[-121.034094462711,50.4742727971776],[-121.034199857499,50.4743961082001],[-121.034252554893,50.4744633360753],[-121.034259599999,50.4745944663828],[-121.034234660324,50.4746804785173],[-121.034180131202,50.4747932739497],[-121.034082626933,50.4748774885474],[-121.033969764332,50.4749393238123],[-121.033787155181,50.4750177862924],[-121.03352761347,50.4750660501547],[-121.033259617632,50.4750697351051],[-121.033067990744,50.4750279423751],[-121.03280422197,50.4749182027552],[-121.032653456698,50.4748367743395],[-121.032491841963,50.4747069921846],[-121.032141277481,50.4744147127056],[-121.031795926377,50.4745606726915]]]}},{"type":"Feature","id":"883053336","properties":{"name":"iSP_22kph_%TR_Brake_Temp_CTRL_NOREMOVE","oid":"883053336","speedLimit":6.111111},"geometry":{"type":"Polygon","coordinates":[[[-121.032462534321,50.4721468504383],[-121.032247658584,50.4722271104552],[-121.031484955391,50.4710099084306],[-121.030812993166,50.4699249152355],[-121.030657719027,50.4696617558522],[-121.03059290405,50.4694592633349],[-121.030546547252,50.4692582987239],[-121.03059290405,50.4689744676678],[-121.030719152352,50.468625835411],[-121.03088090799,50.4683770563219],[-121.03108535697,50.4680993368907],[-121.031684754602,50.4675380560339],[-121.032428717812,50.4668951670077],[-121.032785059281,50.4665576794789],[-121.033144218793,50.4662238769005],[-121.033481115769,50.4658721888313],[-121.033776164815,50.4660355849238],[-121.033584115221,50.465994780839],[-121.032915957354,50.4666535780657],[-121.032551161757,50.4669927732544],[-121.03217509399,50.467309229603],[-121.031770845799,50.4676699053561],[-121.031378433386,50.4680359737195],[-121.031143549547,50.468287898498],[-121.031005183662,50.4684714270023],[-121.0309014797,50.4686560340287],[-121.030824969847,50.4688545719651],[-121.03076410013,50.4691928683854],[-121.030772836061,50.4694021915424],[-121.030870058526,50.4696319167418],[-121.031024064547,50.4699366891013],[-121.031327004111,50.4704053968144],[-121.031527085126,50.4707125958486],[-121.031746751536,50.4710845062066],[-121.0321425456,50.4717304510453],[-121.032377852145,50.4721467605615],[-121.032462534321,50.4721468504383]]]}},{"type":"Feature","id":"883059532","properties":{"name":"iSP_22kph_%TR_Brake_CTRL_NOREMOVE","oid":"883059532","speedLimit":6.111111},"geometry":{"type":"Polygon","coordinates":[[[-121.027258314405,50.4773237563392],[-121.027026107706,50.4772115900447],[-121.027330597194,50.4769458242331],[-121.02771258285,50.4766342212338],[-121.028029330823,50.4763245056482],[-121.028186577592,50.4761705466237],[-121.028617456284,50.4756941095025],[-121.028903487594,50.475327501878],[-121.029260110868,50.4748893522901],[-121.029468927814,50.4746584586918],[-121.029687748811,50.4745421580627],[-121.02979779337,50.4744899396195],[-121.029948558641,50.4745943765059],[-121.029784971276,50.4745437758458],[-121.029552341871,50.4747932739497],[-121.029248134187,50.4751748011293],[-121.029069188491,50.4754797532426],[-121.028849381179,50.4757765265635],[-121.028692275312,50.4759765025293],[-121.028405116785,50.4762723770818],[-121.02803778495,50.476571756831],[-121.027239997129,50.4772212068664],[-121.027258314405,50.4773237563392]]]}},{"type":"Feature","id":"886231481","properties":{"name":"SP_15KPH_%TR_1200_SWITCHBACK_July_29_DS","oid":"886231481","speedLimit":4.1666665},"geometry":{"type":"Polygon","coordinates":[[[-121.036906305479,50.4452285575366],[-121.036965343469,50.4446815670971],[-121.036280840955,50.4447468176819],[-121.03603693938,50.4452762821379],[-121.036520797271,50.4453464759488],[-121.036615201693,50.44510308947],[-121.036769207714,50.4451322994425],[-121.036906305479,50.4452285575366]]]}},{"type":"Feature","id":"899288147","properties":{"name":"SP_30KPH_%TR_1185_BENCH_JULY_29_DS","oid":"899288147","speedLimit":8.333333},"geometry":{"type":"Polygon","coordinates":[[[-121.039757319038,50.450057280565],[-121.039540752475,50.449633061887],[-121.03983706964,50.4495904602655],[-121.040148181528,50.4505444130299],[-121.040331776994,50.4509546109211],[-121.040197638173,50.4511943124496],[-121.040015029021,50.4506018443298],[-121.039757319038,50.450057280565]]]}},{"type":"Feature","id":"902935346","properties":{"name":"SP_20KPH_%TRX_NEW LANES_July29_DS","oid":"902935346","speedLimit":5.5555553},"geometry":{"type":"Polygon","coordinates":[[[-121.039149608181,50.448280774974],[-121.039118468812,50.4482918298252],[-121.039073521035,50.4483249045018],[-121.039243448995,50.4487269236006],[-121.039507781378,50.4492687910603],[-121.039625716455,50.4495848879015],[-121.039827488295,50.4495430951716],[-121.03970631247,50.449314628248],[-121.039224145404,50.4482988402186],[-121.039149608181,50.448280774974]]]}},{"type":"Feature","id":"908328496","properties":{"name":"SP_15KPH_%TR_9019_SOFT_GROUND_July 29_DS","oid":"908328496","speedLimit":4.1666665},"geometry":{"type":"Polygon","coordinates":[[[-121.038997152084,50.4644904223153],[-121.039321790576,50.4647040595605],[-121.039500877174,50.4648797687799],[-121.039388859986,50.4652169866782],[-121.03853231598,50.4663463790315],[-121.0381022827,50.4665995620857],[-121.03802591375,50.4662279213583],[-121.037878530129,50.4651414002569],[-121.038517662159,50.4648158663477],[-121.038997152084,50.4644904223153]]]}},{"type":"Feature","id":"908575258","properties":{"name":"iSP_15km_permissions ","oid":"908575258","speedLimit":4.1666665},"geometry":{"type":"Polygon","coordinates":[[[-121.041867187429,50.4595517799134],[-121.041457021349,50.4599143430801],[-121.041081376289,50.4602074314506],[-121.040686004931,50.4604250232768],[-121.040344880891,50.460585812941],[-121.039954441108,50.4607150558348],[-121.03951454468,50.460781205188],[-121.039173561542,50.4607970235116],[-121.039119173323,50.4612131532741],[-121.039252607633,50.4609388491628],[-121.039801280501,50.460847444418],[-121.040270766375,50.4607056187668],[-121.04093807883,50.4603934765064],[-121.041540999014,50.4599868736888],[-121.041941442848,50.4596526217262],[-121.042089671882,50.4595296702111],[-121.041941442848,50.459491832062],[-121.041867187429,50.4595517799134]]]}},{"type":"Feature","id":"910445950","properties":{"name":"SP_30KPH_%TR_1635_FLATS_JULY29_DS","oid":"910445950","speedLimit":8.333333},"geometry":{"type":"Polygon","coordinates":[[[-121.020221098769,50.457165370096],[-121.019039916271,50.4569625180713],[-121.01864623574,50.4569238710308],[-121.017449835812,50.4572329574786],[-121.018085867996,50.4544702333381],[-121.018767270663,50.4539003243048],[-121.018933957875,50.4535139437759],[-121.019554772629,50.4545185870773],[-121.020221098769,50.4571460465757],[-121.020206022242,50.4571460465757],[-121.020221098769,50.457165370096]]]}},{"type":"Feature","id":"913788494","properties":{"name":"SP_11KPH_ROUGH GROUND_21SH_JULY29_DS","oid":"913788494","speedLimit":3.0555556},"geometry":{"type":"Polygon","coordinates":[[[-121.040419699919,50.4520641404931],[-121.041195366106,50.451953412228],[-121.041489006131,50.453614066574],[-121.040512413516,50.4536169426329],[-121.040435903663,50.4524170868381],[-121.040419699919,50.4520641404931]]]}}]}