{"type":"FeatureCollection","features":[{"type":"Feature","id":"702602533","properties":{"name":"iSP_4KPH_%TR_CR01_SLOW BUMP","oid":"702602533","speedLimit":1.1111112},"geometry":{"type":"Polygon","coordinates":[[[-121.033349715331,50.4648094244376],[-121.033644521248,50.4646924115374],[-121.033687924796,50.464733123399],[-121.033360002535,50.464871256139],[-121.033349715331,50.4648094244376]]]}},{"type":"Feature","id":"707947583","properties":{"name":"iSP_22KPH_%TR_Permission Gate 1 from west dump_Jun","oid":"707947583","speedLimit":6.111111},"geometry":{"type":"Polygon","coordinates":[[[-121.038620427998,50.4619796355069],[-121.03884716926,50.4618011503919],[-121.037972756873,50.4613526908129],[-121.037735587486,50.4615439377035],[-121.037951759702,50.461498193029],[-121.038658899325,50.4618477039113],[-121.038620427998,50.4619796355069]]]}},{"type":"Feature","id":"742345972","properties":{"name":"iSP_4KPH_%TR_CR01_PITSIDE_SLOW BUMP","oid":"742345972","speedLimit":1.1111112},"geometry":{"type":"Polygon","coordinates":[[[-121.033389595864,50.4648843774013],[-121.033696943715,50.4647458851746],[-121.033747111452,50.4647779693569],[-121.033465552073,50.4649198767066],[-121.033389595864,50.4648843774013]]]}},{"type":"Feature","id":"776427243","properties":{"name":"iSP_7KPH_%TR_CR1_PermissionBlocker_DO_NOT_DELETE","oid":"776427243","speedLimit":1.9444444},"geometry":{"type":"Polygon","coordinates":[[[-121.034090957741,50.4652143861336],[-121.034042481051,50.4652346971285],[-121.03402134296,50.4652761279634],[-121.034107022691,50.4652270580375],[-121.034090957741,50.4652143861336]]]}},{"type":"Feature","id":"794004438","properties":{"name":"iSP_11KPH_%TR_LOWER_FUEL_BAY","oid":"794004438","speedLimit":3.0555556},"geometry":{"type":"Polygon","coordinates":[[[-121.036768308417,50.4606971669313],[-121.036770422226,50.4607270043221],[-121.036740687977,50.4606725420967],[-121.037116946007,50.4606008245127],[-121.037527024983,50.460557775988],[-121.037534775616,50.4605831197958],[-121.036936144864,50.4606519614867],[-121.036768308417,50.4606971669313]]]}},{"type":"Feature","id":"801543391","properties":{"name":"iSP_4KPH_%TR_CR1_PermissionBlocker_DO_NOT_DELETE_","oid":"801543391","speedLimit":1.1111112},"geometry":{"type":"Polygon","coordinates":[[[-121.03314622597,50.4645248907648],[-121.033145380446,50.4644754613523],[-121.033166941299,50.4644334014158],[-121.033098876645,50.4644609920152],[-121.03314622597,50.4645248907648]]]}},{"type":"Feature","id":"806473874","properties":{"name":"iSP_4KPH_%TR_Permission Blocker - DO NOT DELETE","oid":"806473874","speedLimit":1.1111112},"geometry":{"type":"Polygon","coordinates":[[[-121.022707954522,50.4815461336437],[-121.022674838178,50.4815437969805],[-121.022667228465,50.4815724660398],[-121.022689353001,50.4815735444997],[-121.022693439699,50.481549458895],[-121.022707954522,50.4815461336437]]]}},{"type":"Feature","id":"824566967","properties":{"name":"iSP_4Cr_3KPH","oid":"824566967","speedLimit":0.8333333},"geometry":{"type":"Polygon","coordinates":[[[-121.023290943087,50.4810692746204],[-121.023270791439,50.4810692746204],[-121.023268113948,50.4811873659805],[-121.023293197816,50.4811866470072],[-121.023290943087,50.4810692746204]]]}},{"type":"Feature","id":"826307302","properties":{"name":"iSP_4KPH_TR%_CRUSHER POCKETS","oid":"826307302","speedLimit":1.1111112},"geometry":{"type":"Polygon","coordinates":[[[-121.023286151786,50.4813224430841],[-121.023325609557,50.4814781007977],[-121.023530367204,50.4814386471394],[-121.023449337853,50.4811897925152],[-121.023040949924,50.4811905114885],[-121.023046304907,50.4813611777692],[-121.023271214201,50.481327206282],[-121.023286151786,50.4813224430841]]]}},{"type":"Feature","id":"849417440","properties":{"name":"iSP_Permissions_35_KPH_June_19_NS","oid":"849417440","speedLimit":9.722222},"geometry":{"type":"Polygon","coordinates":[[[-121.032686120177,50.4660356333546],[-121.0330007959,50.4660163109479],[-121.033207808276,50.4658154477898],[-121.033796715507,50.4653810081896],[-121.033717518124,50.465252222102],[-121.033953701067,50.4654016786712],[-121.033417357224,50.4658099656186],[-121.033014887961,50.466189493635],[-121.032686120177,50.4660356333546]]]}},{"type":"Feature","id":"853029148","properties":{"name":"SP_30KPH_%TR_1635 Flats_AUG_5_DS","oid":"853029148","speedLimit":8.333333},"geometry":{"type":"Polygon","coordinates":[[[-121.018577571433,50.456972705634],[-121.017396093036,50.4572914804089],[-121.016417399398,50.4584592727475],[-121.018336597189,50.4588947908076],[-121.02068024786,50.4589888864347],[-121.020228456383,50.4572335131888],[-121.019410553161,50.4570983462135],[-121.018956225113,50.4570017341799],[-121.018577571433,50.456972705634]]]}},{"type":"Feature","id":"883050998","properties":{"name":"iSP_22kph_%TR_4CR_Brake_Temp_CTRL_NOREMOVE","oid":"883050998","speedLimit":6.111111},"geometry":{"type":"Polygon","coordinates":[[[-121.031789583254,50.474560229837],[-121.0321789469,50.4743136220044],[-121.032480657927,50.4745759573774],[-121.032782368954,50.4748033326749],[-121.032960210764,50.4748857449863],[-121.033169055108,50.4749358933721],[-121.033453010138,50.47496069795],[-121.033656922261,50.4749231315965],[-121.03381813544,50.4748637264299],[-121.033909311074,50.4748116907392],[-121.033998654741,50.4747485109629],[-121.03404910432,50.474659358277],[-121.034043326575,50.474549175623],[-121.034047131431,50.474484827515],[-121.033984985442,50.4743808460054],[-121.03386661213,50.4742607774688],[-121.03349965486,50.4739388571859],[-121.033051245478,50.4735612164742],[-121.032937945308,50.4734266786005],[-121.032812948726,50.4732221307044],[-121.032596071907,50.4728161804202],[-121.032242502096,50.4722102656944],[-121.032477557674,50.4721574211588],[-121.032420484826,50.472206940443],[-121.032893132553,50.4730501163488],[-121.033032362116,50.4733108340319],[-121.033240220017,50.4735481850837],[-121.033733301232,50.4739628529188],[-121.03408842117,50.4742723709129],[-121.034193829787,50.4743956748292],[-121.034246534095,50.4744628988302],[-121.034253580126,50.4745940215808],[-121.034228637177,50.4746800287586],[-121.034174100901,50.4747928176908],[-121.034076583839,50.4748770274354],[-121.03396370643,50.4749388591369],[-121.033781073319,50.4750173170953],[-121.033521497555,50.4750655781762],[-121.033253466554,50.4750692629143],[-121.033061814524,50.4750274725928],[-121.032798011141,50.474917739297],[-121.032647226088,50.4748363155738],[-121.032485590148,50.4747065408981],[-121.03213497967,50.4744142782626],[-121.031789583254,50.474560229837]]]}},{"type":"Feature","id":"883053336","properties":{"name":"iSP_22kph_%TR_Brake_Temp_CTRL_NOREMOVE","oid":"883053336","speedLimit":6.111111},"geometry":{"type":"Polygon","coordinates":[[[-121.032456278661,50.472146546688],[-121.032241374731,50.4722268020796],[-121.031478571467,50.4710096702002],[-121.030806521076,50.4699247395313],[-121.030651226564,50.4696615953134],[-121.030586403083,50.4694591144654],[-121.030540040202,50.4692581614356],[-121.030586403083,50.4689743467361],[-121.03071266795,50.4686257345704],[-121.030874444811,50.468376969818],[-121.031078920616,50.4680992663913],[-121.031678396892,50.4675380178801],[-121.032422457715,50.4668951659024],[-121.032778845938,50.4665576978224],[-121.033138052574,50.4662239144804],[-121.033474993753,50.4658722466783],[-121.033770081511,50.4660356333546],[-121.03357800672,50.4659948316214],[-121.032909761185,50.4666535908827],[-121.032544917725,50.4669927665242],[-121.032168800616,50.467309204636],[-121.031764499385,50.467669859604],[-121.031372035486,50.4680359068716],[-121.031137120828,50.4682878171321],[-121.030998736789,50.46847133506],[-121.03089501922,50.4686559314479],[-121.030818499328,50.4688544579429],[-121.030757621625,50.4691927348678],[-121.030766358702,50.4694020459619],[-121.030863593924,50.4696317579226],[-121.031017620151,50.4699365127187],[-121.031320599463,50.470405193421],[-121.03152070673,50.4707123747518],[-121.031740401961,50.4710842636773],[-121.032136247955,50.4717301712914],[-121.032371585375,50.4721464568164],[-121.032456278661,50.472146546688]]]}},{"type":"Feature","id":"883059532","properties":{"name":"iSP_22kph_%TR_Brake_CTRL_NOREMOVE","oid":"883059532","speedLimit":6.111111},"geometry":{"type":"Polygon","coordinates":[[[-121.027251375919,50.4773231542533],[-121.027019138753,50.4772109944227],[-121.027323668192,50.4769452439267],[-121.027705703967,50.4766336588846],[-121.028022493499,50.4763239611472],[-121.0281797609,50.4761700109952],[-121.028610696126,50.4756936013302],[-121.028896764965,50.4753270148326],[-121.02925343503,50.4748888904944],[-121.029462279375,50.4746580102021],[-121.029681129082,50.4745417162752],[-121.029791188079,50.4744895008413],[-121.029941973132,50.4745939317092],[-121.029778364303,50.4745433339651],[-121.029545704376,50.4747928176908],[-121.029241456778,50.4751743228838],[-121.029062487603,50.4754792574232],[-121.028842651451,50.4757760136416],[-121.02868552497,50.4759759780831],[-121.028398328767,50.4762718355849],[-121.028030948735,50.4765711980815],[-121.02723305624,50.4772206106903],[-121.027251375919,50.4773231542533]]]}},{"type":"Feature","id":"884401102","properties":{"name":"SP_25KPH_MAIN INT. DUST_AUG_ 5_DS","oid":"884401102","speedLimit":6.9444447},"geometry":{"type":"Polygon","coordinates":[[[-121.036548613185,50.4607700528468],[-121.036670509513,50.4610420044873],[-121.038286587072,50.460993833278],[-121.038270240282,50.4603996917396],[-121.038111704595,50.4605675719988],[-121.036679246591,50.460739406611],[-121.036546217535,50.4606139457749],[-121.036548613185,50.4607700528468]]]}},{"type":"Feature","id":"908328496","properties":{"name":"SP_12KPH_%TR_9019_SOFT_GROUND_AUG_5_DS","oid":"908328496","speedLimit":3.3333333},"geometry":{"type":"Polygon","coordinates":[[[-121.038991753806,50.464490559791],[-121.039296283245,50.4646785713019],[-121.03919580685,50.4648782661285],[-121.0390272658,50.465264894006],[-121.038605772255,50.4661251455271],[-121.037770676718,50.4664886763882],[-121.036659658626,50.465970656145],[-121.037872985081,50.465141500218],[-121.038512200969,50.4648159850687],[-121.038991753806,50.464490559791]]]}},{"type":"Feature","id":"910445950","properties":{"name":"SP_30KPH_%TR_1635_FLATS_AUG_5_DS","oid":"910445950","speedLimit":8.333333},"geometry":{"type":"Polygon","coordinates":[[[-121.020213236957,50.4571659297012],[-121.019031899481,50.4569630893665],[-121.018638167296,50.4569244445531],[-121.017441610393,50.4572335131888],[-121.018077726028,50.4544709482592],[-121.0187592181,50.4539010720687],[-121.018925927182,50.4535147138061],[-121.019546823391,50.4545192992118],[-121.020213236957,50.4571466072944],[-121.020198158452,50.4571466072944],[-121.020213236957,50.4571659297012]]]}},{"type":"Feature","id":"913788494","properties":{"name":"SP_15KPH_%TR_ROUGH GROUND_21SH_AUG_5_DS","oid":"913788494","speedLimit":4.1666665},"geometry":{"type":"Polygon","coordinates":[[[-121.040482271102,50.4520550183187],[-121.041012555358,50.4519663149912],[-121.041183351138,50.4542755672722],[-121.040538075663,50.4542458197531],[-121.040569782801,50.4525639615243],[-121.040482271102,50.4520550183187]]]}},{"type":"Feature","id":"915576987","properties":{"name":"iSP_15kph_prevent shifting","oid":"915576987","speedLimit":4.1666665},"geometry":{"type":"Polygon","coordinates":[[[-121.036989412854,50.4448655552042],[-121.037503632161,50.4453154527297],[-121.037973038714,50.4457978837959],[-121.038517133191,50.4462211793103],[-121.039450027631,50.4468522581006],[-121.039907455932,50.4471020114413],[-121.040463528661,50.4471973652717],[-121.041216890243,50.4473250728993],[-121.041635424456,50.4475119160786],[-121.042314098115,50.4480973400661],[-121.042696838493,50.4485300721047],[-121.042840295674,50.448797080804],[-121.043001790694,50.4493938286205],[-121.04318104171,50.4502003368895],[-121.043318580226,50.4505034739957],[-121.043680323432,50.4511708609363],[-121.043850837371,50.4514911635294],[-121.044119854816,50.4522557017335],[-121.04437703493,50.452940254161],[-121.044690865129,50.4538001461955],[-121.044729759218,50.4541967498272],[-121.044565304865,50.4550738073485],[-121.044209621245,50.4568412233968],[-121.044045166893,50.4572092478408],[-121.04299869044,50.4584008561691],[-121.041898523236,50.4595391706035],[-121.041336531842,50.4600024590063],[-121.040364884233,50.4605992966945],[-121.039916333931,50.4607327561083],[-121.039127037592,50.4608089672752],[-121.038935808324,50.4608070799704],[-121.03899259933,50.461295172951],[-121.039052349669,50.4609291256834],[-121.039871521177,50.4608814937041],[-121.040699711604,50.4606336276683],[-121.041503945527,50.4600597072531],[-121.042867211511,50.4587021059705],[-121.044236396161,50.457144360503],[-121.044421847684,50.4562921075595],[-121.044807547394,50.4544235858948],[-121.044804447141,50.4537886426231],[-121.044254433999,50.4523034235845],[-121.043826880867,50.4511880264232],[-121.043339577397,50.4503395480894],[-121.043043644115,50.4493118656674],[-121.042921043184,50.4486940878826],[-121.042233350606,50.4478894669185],[-121.041539739362,50.4473937348468],[-121.041085270393,50.4472240571544],[-121.040451550409,50.4471325678054],[-121.039910415265,50.4470219357931],[-121.038813207393,50.4463355859324],[-121.038188365407,50.4458740949628],[-121.037144989208,50.4449093227022],[-121.037369193899,50.4446996521214],[-121.036989412854,50.4448655552042]]]}},{"type":"Feature","id":"916679368","properties":{"name":"sp_15kph_rough ground _AUG 5 _DS","oid":"916679368","speedLimit":4.1666665},"geometry":{"type":"Polygon","coordinates":[[[-121.039120555244,50.4663634851671],[-121.03917734625,50.4665324438862],[-121.038704134841,50.4665855580367],[-121.038666368117,50.4664214523872],[-121.039120555244,50.4663634851671]]]}}]}