{"type":"FeatureCollection","features":[{"type":"Feature","id":"702602533","properties":{"name":"iSP_4KPH_%TR_CR01_Slow Bump","oid":"702602533","speedLimit":1.1111112},"geometry":{"type":"Polygon","coordinates":[[[-121.033359051553,50.4648078879093],[-121.033653788586,50.4646908706113],[-121.033697181992,50.464731584003],[-121.033369336354,50.4648697219346],[-121.033359051553,50.4648078879093]]]}},{"type":"Feature","id":"707947583","properties":{"name":"iSP_25KPH_%TR_Permission Gate 1 From West Dump","oid":"707947583","speedLimit":6.9444447},"geometry":{"type":"Polygon","coordinates":[[[-121.038628532666,50.4619779926238],[-121.038855220948,50.4617995008006],[-121.038140215958,50.4614082747652],[-121.037992565666,50.4616709794979],[-121.038192062625,50.4615669042052],[-121.038666995004,50.4618460560697],[-121.038628532666,50.4619779926238]]]}},{"type":"Feature","id":"742345972","properties":{"name":"iSP_4KPH_%TR_CR01_Pit Side_Slow Bump","oid":"742345972","speedLimit":1.1111112},"geometry":{"type":"Polygon","coordinates":[[[-121.033398922768,50.46488284369],[-121.033706198804,50.4647443462582],[-121.033756354819,50.4647764316464],[-121.033474861229,50.4649183443296],[-121.033398922768,50.46488284369]]]}},{"type":"Feature","id":"776427243","properties":{"name":"iSP_7KPH_%TR_CR1_PermissionBlocker","oid":"776427243","speedLimit":1.9444444},"geometry":{"type":"Polygon","coordinates":[[[-121.034100120765,50.4652128648253],[-121.034051655402,50.4652331765837],[-121.03403052225,50.4652746089756],[-121.034116181961,50.4652255372055],[-121.034100120765,50.4652128648253]]]}},{"type":"Feature","id":"794004438","properties":{"name":"iSP_11KPH_%TR_Lower_Fuel_Bay","oid":"794004438","speedLimit":3.0555556},"geometry":{"type":"Polygon","coordinates":[[[-121.036776845851,50.4606954758478],[-121.036778959166,50.4607253143601],[-121.036749231865,50.4606708500878],[-121.037125401978,50.4605991298083],[-121.037535385135,50.4605560796657],[-121.037543133958,50.4605814244261],[-121.036944643081,50.4606502687043],[-121.036776845851,50.4606954758478]]]}},{"type":"Feature","id":"801543391","properties":{"name":"iSP_4KPH_%TR_CR01_PermissionBlocker_2","oid":"801543391","speedLimit":1.1111112},"geometry":{"type":"Polygon","coordinates":[[[-121.033155609739,50.4645233435426],[-121.033154764413,50.4644739122723],[-121.033176320229,50.4644318507551],[-121.033108271478,50.4644594423914],[-121.033155609739,50.4645233435426]]]}},{"type":"Feature","id":"806473874","properties":{"name":"iSP_4KPH_%TR_CR04_PermissionBlocker","oid":"806473874","speedLimit":1.1111112},"geometry":{"type":"Polygon","coordinates":[[[-121.022719777298,50.4815452261479],[-121.022686668692,50.4815428893969],[-121.022679060757,50.4815715595337],[-121.022701180123,50.4815726380341],[-121.022705265866,50.4815485515242],[-121.022719777298,50.4815452261479]]]}},{"type":"Feature","id":"824566967","properties":{"name":"iSP_3KPH_%TR_CR04","oid":"824566967","speedLimit":0.8333333},"geometry":{"type":"Polygon","coordinates":[[[-121.023302629641,50.4810683492023],[-121.023282482703,50.4810683492023],[-121.023279805837,50.4811864450007],[-121.023304883844,50.4811857260004],[-121.023302629641,50.4810683492023]]]}},{"type":"Feature","id":"826307302","properties":{"name":"iSP_4KPH_%TR_CR04_Pockets","oid":"826307302","speedLimit":1.1111112},"geometry":{"type":"Polygon","coordinates":[[[-121.02329783946,50.4813215271811],[-121.023337288011,50.481477190745],[-121.023541997814,50.4814377356038],[-121.023460987397,50.4811888716267],[-121.023052694892,50.481189590627],[-121.023058048624,50.481360263322],[-121.023282905366,50.4813262905581],[-121.02329783946,50.4813215271811]]]}},{"type":"Feature","id":"883050998","properties":{"name":"iSP_22KPH_%TR_4CR_Brake_Temp_Ctrl","oid":"883050998","speedLimit":6.111111},"geometry":{"type":"Polygon","coordinates":[[[-121.031799284017,50.474559059783],[-121.032188556685,50.4743124426819],[-121.032490197214,50.4745747879144],[-121.032791837742,50.4748021717577],[-121.032969637998,50.4748845871665],[-121.033178433544,50.474934737437],[-121.033462322225,50.4749595429472],[-121.033666186702,50.4749219751818],[-121.033827362211,50.4748625677825],[-121.033918516542,50.4748105301361],[-121.034007839333,50.4747473479852],[-121.034058277123,50.4746581919486],[-121.034052500728,50.4745480051535],[-121.034056304696,50.4744836546271],[-121.033994173228,50.4743796692094],[-121.033875827574,50.4742595961602],[-121.033508956048,50.4739376637782],[-121.033060651441,50.4735600088733],[-121.032947377744,50.4734254659431],[-121.03282241037,50.4732209103592],[-121.032605584226,50.4728149448178],[-121.03225209703,50.4722090073193],[-121.032487097684,50.4721561607976],[-121.032430038173,50.4722056819429],[-121.032902575461,50.4730488895387],[-121.033041772492,50.4733096170206],[-121.033249581824,50.473546976993],[-121.033742547826,50.473961660413],[-121.034097584787,50.47427119004],[-121.034202968774,50.4743944985905],[-121.034255660767,50.4744617251181],[-121.034262705151,50.4745928527968],[-121.034237768031,50.4746788632071],[-121.034183244498,50.4747916563784],[-121.034085750221,50.4748758692879],[-121.033972899188,50.4749377033133],[-121.033790308751,50.4750161642204],[-121.033530793639,50.4750644271152],[-121.033262825266,50.4750681119917],[-121.033071218017,50.4750263200996],[-121.032807476275,50.4749165826796],[-121.032656726455,50.4748351558962],[-121.032495128282,50.474705376343],[-121.032144599728,50.4744131027231],[-121.031799284017,50.474559059783]]]}},{"type":"Feature","id":"883053336","properties":{"name":"iSP_22KPH_%TR_Brake_Temp_Ctrl","oid":"883053336","speedLimit":6.111111},"geometry":{"type":"Polygon","coordinates":[[[-121.032465823644,50.4721452859182],[-121.032250969928,50.4722255443261],[-121.031488344901,50.4710083667019],[-121.030816451542,50.469923395257],[-121.030661193315,50.4696602411491],[-121.030596384981,50.4694577526911],[-121.030550032933,50.4692567921086],[-121.030596384981,50.4689729667423],[-121.030722620345,50.4686243414743],[-121.030884359405,50.4683755673723],[-121.031088787432,50.4680978535084],[-121.031688123635,50.4675365839032],[-121.032432010601,50.4668937077646],[-121.03278831555,50.4665562270012],[-121.033147438254,50.4662224311143],[-121.033484300704,50.4658707500951],[-121.033779319511,50.4660341429121],[-121.0335872896,50.4659933396454],[-121.032919200208,50.4666521236655],[-121.032554441997,50.4669913120546],[-121.032178412771,50.4673077620594],[-121.031774206009,50.4676684305823],[-121.031381833813,50.4680344916074],[-121.031146974046,50.4682864113357],[-121.031008622341,50.468469936161],[-121.030904929006,50.4686545394867],[-121.030828426995,50.4688530734431],[-121.030767563516,50.4691913630818],[-121.030776298552,50.4694006820427],[-121.030873511053,50.4696304026369],[-121.03102750129,50.4699351688868],[-121.031330409809,50.470403867204],[-121.031530470318,50.47071106008],[-121.031750114216,50.4710829629825],[-121.032145867717,50.4717288948724],[-121.032381150147,50.4721451960431],[-121.032465823644,50.4721452859182]]]}},{"type":"Feature","id":"883059532","properties":{"name":"iSP_22KPH_%TR_Brake_Ctrl","oid":"883059532","speedLimit":6.111111},"geometry":{"type":"Polygon","coordinates":[[[-121.027262137079,50.4773220880411],[-121.027029954178,50.4772099239951],[-121.027334412461,50.4769441635111],[-121.027716358969,50.4766325667583],[-121.02803307448,50.4763228573813],[-121.028190305134,50.4761689014432],[-121.028621139668,50.4756924738728],[-121.028907141664,50.4753258735974],[-121.029263728389,50.4748877327928],[-121.029472523935,50.4746568438231],[-121.029691322507,50.4745405455254],[-121.029801355787,50.474488328129],[-121.029952105607,50.4745927629218],[-121.029788535008,50.4745421632761],[-121.029555929443,50.4747916563784],[-121.029251752936,50.4751731759098],[-121.029072825579,50.4754781219099],[-121.028853040794,50.4757748892816],[-121.028695951027,50.4759748612386],[-121.02840882193,50.4762707298599],[-121.028041527741,50.4765701036077],[-121.027243821681,50.477219540624],[-121.027262137079,50.4773220880411]]]}},{"type":"Feature","id":"884401102","properties":{"name":"iSP_30KPH_%TR_Maint_Limit_Policy","oid":"884401102","speedLimit":8.333333},"geometry":{"type":"Polygon","coordinates":[[[-121.036992404006,50.4611013515143],[-121.037108495456,50.4611078225169],[-121.038294769746,50.4609921533445],[-121.038278426775,50.4603979894759],[-121.038119928131,50.4605658760447],[-121.037032838771,50.4607085077282],[-121.036745146122,50.4605378350332],[-121.036992404006,50.4611013515143]]]}},{"type":"Feature","id":"910445950","properties":{"name":"SP_22KPH_%TR_1635_FLATS_SEP_28_DS","oid":"910445950","speedLimit":6.111111},"geometry":{"type":"Polygon","coordinates":[[[-121.01736970843,50.4554938682148],[-121.018002857677,50.454414199397],[-121.018148112878,50.4539985273516],[-121.018532736252,50.4537515507503],[-121.018948777579,50.4536880989743],[-121.01886664006,50.4543416702423],[-121.018261809238,50.4560721242019],[-121.018275898006,50.4557008504247],[-121.01736970843,50.4554938682148]]]}},{"type":"Feature","id":"915576987","properties":{"name":"iSP_15KPH_%TR_Preventing Shifting","oid":"915576987","speedLimit":4.1666665},"geometry":{"type":"Polygon","coordinates":[[[-121.036997898625,50.4448632691054],[-121.03751199778,50.4453131835399],[-121.037981294652,50.4457956327378],[-121.038525261995,50.4462189441613],[-121.039457938455,50.4468500466701],[-121.039915259874,50.4470998093976],[-121.04047120267,50.4471951668117],[-121.041224388222,50.447322879239],[-121.04164282464,50.4475097294407],[-121.042321339721,50.4480951754307],[-121.042703990667,50.4485279237332],[-121.042847414328,50.4487949424677],[-121.043008871613,50.4493917127124],[-121.043188080746,50.4501982512932],[-121.043325587124,50.4505013997925],[-121.043687245806,50.4511688118162],[-121.043857719902,50.4514891264475],[-121.044126674488,50.4522536933861],[-121.04438379451,50.4529382715418],[-121.044697551379,50.4537981958944],[-121.04473643638,50.4541948144321],[-121.044572020454,50.4550719049167],[-121.044216419942,50.4568393873916],[-121.044052004017,50.4572074256675],[-121.043005772084,50.4583990787812],[-121.041905861944,50.459537435998],[-121.041344001865,50.460000741813],[-121.040372581292,50.4605976019327],[-121.039924135798,50.4607310663624],[-121.039135023886,50.4608072803937],[-121.038497648009,50.4608388265316],[-121.038645439188,50.4611435927816],[-121.038758290222,50.4609496424521],[-121.039879333514,50.4608798095484],[-121.040707330426,50.4606319341968],[-121.041511376432,50.4600579922114],[-121.042874323876,50.4587003399047],[-121.044243188602,50.4571425358909],[-121.044428596793,50.4562902509164],[-121.044814206381,50.4544216590251],[-121.044811106852,50.4537866918897],[-121.044261222226,50.4523014170306],[-121.043833768996,50.4511859779482],[-121.043346579389,50.4503374677253],[-121.043050715255,50.4493097466788],[-121.042928142971,50.4486919456755],[-121.042240611079,50.4478872944705],[-121.041547161904,50.4473915437672],[-121.041092799127,50.4472218596976],[-121.040459227217,50.4471303669101],[-121.039918218515,50.4470197307397],[-121.038821267016,50.4463333550833],[-121.038196571031,50.445871846769],[-121.037153438627,50.4449070382484],[-121.037377590931,50.4446973597874],[-121.036997898625,50.4448632691054]]]}},{"type":"Feature","id":"917773475","properties":{"name":"SP_15KPH_%TR_1200_CORNER_Sept_28_DS","oid":"917773475","speedLimit":4.1666665},"geometry":{"type":"Polygon","coordinates":[[[-121.037098774206,50.4446825304063],[-121.03692463703,50.4448621007299],[-121.036629054672,50.4448205784629],[-121.036414482731,50.4448699198581],[-121.036322905737,50.4449676140232],[-121.036254293435,50.4450821148202],[-121.036242036207,50.4451449374709],[-121.036263169359,50.4452672573961],[-121.036315861353,50.4453514703056],[-121.036183990482,50.4453952394486],[-121.036088891296,50.4451942788662],[-121.036162857329,50.4449316640085],[-121.036259647167,50.4447913690759],[-121.036516485413,50.4447150651696],[-121.036713587281,50.4447117397933],[-121.036922946378,50.4447700686922],[-121.037093561362,50.4446836089067],[-121.037098774206,50.4446825304063]]]}},{"type":"Feature","id":"926367691","properties":{"name":"SP_30KPH_%TR_24SH_EMPTY_LANE_SEP_28_DS","oid":"926367691","speedLimit":6.9444447},"geometry":{"type":"Polygon","coordinates":[[[-121.038923410587,50.4549415861133],[-121.039203354412,50.4546235183579],[-121.039438918618,50.4538307306578],[-121.039920895381,50.451426932922],[-121.039502458963,50.4515917637396],[-121.039433142223,50.4530471102114],[-121.039204199738,50.4540991873929],[-121.038923410587,50.4549415861133]]]}},{"type":"Feature","id":"927549571","properties":{"name":"SP_30KPH_TR%_CRUSHER YARD EMPTY_SEPT_28_DS","oid":"927549571","speedLimit":8.333333},"geometry":{"type":"Polygon","coordinates":[[[-121.037754888145,50.4619282917284],[-121.037448457435,50.4612607898297],[-121.036778536503,50.4614646264133],[-121.037246988049,50.4615092943066],[-121.037728401261,50.4623116087606],[-121.037507066711,50.4624617899472],[-121.038037508837,50.4623441435239],[-121.037754888145,50.4619282917284]]]}},{"type":"Feature","id":"929009157","properties":{"name":"iSP_22KPH_%TR_Long_Single_Lane","oid":"929009157","speedLimit":6.111111},"geometry":{"type":"Polygon","coordinates":[[[-121.005680680049,50.4380559540639],[-121.00475096223,50.4382240203828],[-121.005175456819,50.4381975072469],[-121.007935728301,50.4431704727862],[-121.008524497927,50.4445348657207],[-121.008211586384,50.4465096899056],[-121.007833584731,50.4466801828505],[-121.008935044635,50.4466469290868],[-121.008824306916,50.4465929141897],[-121.009404341506,50.4448176125867],[-121.008765415865,50.4430683747444],[-121.008263714826,50.4415401396177],[-121.007260171861,50.4401561539251],[-121.006440487323,50.4389840036944],[-121.005861438946,50.4383129966693],[-121.005680680049,50.4380559540639]]]}},{"type":"Feature","id":"932268643","properties":{"name":"SP_35KPH_%traction_1185_1170_SEP_28_DS","oid":"932268643","speedLimit":9.722222},"geometry":{"type":"Polygon","coordinates":[[[-121.038728985584,50.4481974532227],[-121.03846721627,50.4482556922466],[-121.038947079717,50.4498293142669],[-121.03950626293,50.4497913870013],[-121.039105719248,50.4497306314764],[-121.038621910945,50.4483442191579],[-121.038851980531,50.4481595259571],[-121.038728985584,50.4481974532227]]]}},{"type":"Feature","id":"932654885","properties":{"name":"SP_18KPH_%TR_LOTS OF MUD_SEPT_28_DS","oid":"932654885","speedLimit":5},"geometry":{"type":"Polygon","coordinates":[[[-121.03636531293,50.4453591096837],[-121.036057755118,50.4454651622272],[-121.036262746696,50.4454606684754],[-121.038009472188,50.4473914538922],[-121.038175719654,50.4473147006107],[-121.03636531293,50.4453591096837]]]}},{"type":"Feature","id":"934051091","properties":{"name":"iSP_17KPH_%TR_Ramp_Permission Blocker","oid":"934051091","speedLimit":4.7222223},"geometry":{"type":"Polygon","coordinates":[[[-121.039512884651,50.4610297211099],[-121.039464841952,50.4607716898791],[-121.039017382671,50.4607922712625],[-121.039076273722,50.4610449998662],[-121.039163764973,50.4608999415567],[-121.039379745791,50.4608868198013],[-121.039512884651,50.4610297211099]]]}},{"type":"Feature","id":"934181442","properties":{"name":"SP_30KPH_TR%_1590_3_SEPT 28_DS_Rough_section ","oid":"934181442","speedLimit":8.333333},"geometry":{"type":"Polygon","coordinates":[[[-121.01106216687,50.441509222605],[-121.010401121862,50.4418073381022],[-121.01160697954,50.4432053443005],[-121.012272532953,50.4429313153132],[-121.011824369234,50.4429215189341],[-121.010901273136,50.4417730957132],[-121.01106216687,50.441509222605]]]}},{"type":"Feature","id":"934181877","properties":{"name":"SP_30KPH_TR%_1590_7_SEPT 28_DS","oid":"934181877","speedLimit":8.333333},"geometry":{"type":"Polygon","coordinates":[[[-121.013995448426,50.4497859046241],[-121.013325245719,50.449880812663],[-121.013673801847,50.4515053938292],[-121.014402754717,50.451382894154],[-121.0139843183,50.4512796277366],[-121.01370705134,50.4500006160871],[-121.013995448426,50.4497859046241]]]}},{"type":"Feature","id":"934182273","properties":{"name":"SP_30KPH_TR%_1590_17_SEPT 28_DS","oid":"934182273","speedLimit":8.333333},"geometry":{"type":"Polygon","coordinates":[[[-121.008849525811,50.4413697365478],[-121.009440549641,50.4411108065666],[-121.007219596209,50.4391735501472],[-121.006130534421,50.4382650932746],[-121.005749151463,50.4379789311573],[-121.004975396309,50.4375496879813],[-121.0045156798,50.4371634050729],[-121.00358483488,50.437471047324],[-121.004111895701,50.4376569987753],[-121.005053870748,50.4380647618175],[-121.006107992391,50.4386441861801],[-121.007075749885,50.4394768783966],[-121.008913629707,50.4411153003184],[-121.008849525811,50.4413697365478]]]}},{"type":"Feature","id":"936169885","properties":{"name":"SP_15KPH_%TR_24shl_loadplan_Sept_28_DS","oid":"936169885","speedLimit":4.1666665},"geometry":{"type":"Polygon","coordinates":[[[-121.03916883693,50.4546367299883],[-121.038618952304,50.4545682452102],[-121.038154445614,50.4553923094231],[-121.038669953645,50.4555193927252],[-121.038841977506,50.4552446447376],[-121.039002025914,50.4549474279907],[-121.039087403849,50.4547917644269],[-121.03916883693,50.4546367299883]]]}},{"type":"Feature","id":"936513295","properties":{"name":"SP_30KPH_%TR_1635_FLATS_SEP_28_DS","oid":"936513295","speedLimit":8.333333},"geometry":{"type":"Polygon","coordinates":[[[-121.017285880259,50.455555252865],[-121.01805005505,50.4557852430843],[-121.017433953213,50.4574538630185],[-121.015226947662,50.4585169948295],[-121.014498135679,50.4578796909432],[-121.016177235083,50.4566194631764],[-121.017285880259,50.455555252865]]]}},{"type":"Feature","id":"937786749","properties":{"name":"SP_15KPH_%TR_24SH_Loaded_LANE_SEP_28_DS","oid":"937786749","speedLimit":4.1666665},"geometry":{"type":"Polygon","coordinates":[[[-121.038280117427,50.455428439188],[-121.038456367918,50.4555012379678],[-121.038969621746,50.4539575443348],[-121.03913417856,50.452938900667],[-121.038910730695,50.4529280257876],[-121.038490603625,50.4548541377024],[-121.038280117427,50.455428439188]]]}},{"type":"Feature","id":"938065675","properties":{"name":"iSP_8KPH_CR01_YARD_RUTIING_SEP_28_DS","oid":"938065675","speedLimit":2.2222223},"geometry":{"type":"Polygon","coordinates":[[[-121.034289192035,50.4648012371565],[-121.034098993664,50.4648580381798],[-121.033940776796,50.4649070200749],[-121.033829334639,50.4650049838651],[-121.034044188355,50.4650688850163],[-121.033964164151,50.4650113649927],[-121.034242558212,50.4648881463172],[-121.034319201112,50.4649373978374],[-121.034289192035,50.4648012371565]]]}},{"type":"Feature","id":"938165680","properties":{"name":"SP_10KPH_%TR_22SH_Sept_28_DS","oid":"938165680","speedLimit":2.7777777},"geometry":{"type":"Polygon","coordinates":[[[-121.03408039649,50.4466114284473],[-121.035055198367,50.4472506197094],[-121.03549702214,50.4474473561651],[-121.035795140477,50.4469122401956],[-121.034854856082,50.4461953969017],[-121.03408039649,50.4466114284473]]]}},{"type":"Feature","id":"940771585","properties":{"name":"SP_20KPH_%TR_1660_HMT_SEPT_28_DS","oid":"940771585","speedLimit":5.5555553},"geometry":{"type":"Polygon","coordinates":[[[-121.002708795268,50.4281184712387],[-121.002603552169,50.4277113373218],[-121.002231890462,50.4276979459413],[-121.002505353454,50.4277963591066],[-121.002533390103,50.4281139774869],[-121.002673714235,50.428082611099],[-121.002708795268,50.4281184712387]]]}},{"type":"Feature","id":"940778315","properties":{"name":"SP_20KPH_%TR_HMT_SPILLING_RCK_IN_CORNER_SEPT_28_DS","oid":"940778315","speedLimit":5.5555553},"geometry":{"type":"Polygon","coordinates":[[[-121.004784634387,50.4367080082611],[-121.004770545618,50.4370436016487],[-121.004987935313,50.4372761982441],[-121.005121215061,50.4371687975751],[-121.004889877486,50.4369362009797],[-121.004882833102,50.4367572597813],[-121.005198421511,50.4367975237978],[-121.004798582267,50.4366991106325],[-121.004784634387,50.4367080082611]]]}},{"type":"Feature","id":"944724443","properties":{"name":"SP_12KPH_%TR_21SH_EMPTY_SEPT 28_DS","oid":"944724443","speedLimit":3.3333333},"geometry":{"type":"Polygon","coordinates":[[[-121.039134601223,50.450183152287],[-121.038912703123,50.4501673342805],[-121.038927778105,50.4505369903071],[-121.03926548588,50.4511709688171],[-121.039344805646,50.451555993475],[-121.039732387661,50.4514983835763],[-121.039710831846,50.4511095841669],[-121.039407218889,50.45095868398],[-121.039104451259,50.4503566111081],[-121.039084586096,50.4502970239587],[-121.039134601223,50.450183152287]]]}},{"type":"Feature","id":"944724972","properties":{"name":"SP_20KPH_%TR_21SH_LOADED_SEPT 28_DS","oid":"944724972","speedLimit":5.5555553},"geometry":{"type":"Polygon","coordinates":[[[-121.038746596545,50.4528630461359],[-121.039145590462,50.4529208357846],[-121.039173908887,50.4521843098576],[-121.039258723272,50.4516355328826],[-121.039213357438,50.4512647084805],[-121.038912984898,50.4506402567244],[-121.038818449263,50.4509654246078],[-121.038885934463,50.450978276738],[-121.039058099211,50.451292659617],[-121.039101915281,50.4515746874826],[-121.039046828197,50.4519345471302],[-121.038989909573,50.4528594511345],[-121.038746596545,50.4528630461359]]]}},{"type":"Feature","id":"945606742","properties":{"name":"SP_20KPH_19SH_SEPT 28_DS","oid":"945606742","speedLimit":5.5555553},"geometry":{"type":"Polygon","coordinates":[[[-121.002893780795,50.4271197798292],[-121.002444489975,50.4275246668702],[-121.001789925801,50.427316875785],[-121.002101710243,50.4269692391425],[-121.002893780795,50.4271197798292]]]}},{"type":"Feature","id":"947418386","properties":{"name":"SP_30KPH_TR%_HMT_LOADED_DOWN_RAMP1_SEPT_28_DS","oid":"947418386","speedLimit":8.333333},"geometry":{"type":"Polygon","coordinates":[[[-121.00387421818,50.428267933425],[-121.003307427032,50.428684863721],[-121.003640908177,50.4288635352943],[-121.004201077604,50.4290635072513],[-121.004621204675,50.429267703335],[-121.005288026077,50.4296547951188],[-121.00616829232,50.4301738234566],[-121.006641815822,50.4305056420927],[-121.00700854646,50.4307736494526],[-121.007268625122,50.4309778455363],[-121.007475307353,50.4312628392782],[-121.008188903467,50.4309607692793],[-121.007675367863,50.4310756295764],[-121.006094889837,50.4299015020949],[-121.00469446627,50.4291485290361],[-121.003614139518,50.4286295905733],[-121.00387421818,50.428267933425]]]}},{"type":"Feature","id":"947419674","properties":{"name":"SP_30KPH_TR%_HMT_LOADED_DOWN_RAMP2_SEPT_28_DS","oid":"947419674","speedLimit":8.333333},"geometry":{"type":"Polygon","coordinates":[[[-121.008213981474,50.4310791347028],[-121.007514755904,50.4313131692988],[-121.007638737065,50.4316643110678],[-121.007728059856,50.4320881617416],[-121.007747925019,50.4322969414522],[-121.00768832953,50.4325594664349],[-121.007579282463,50.4328631541844],[-121.007489959672,50.4331067155343],[-121.007281727677,50.433625474247],[-121.00713802224,50.4339291619966],[-121.00704869945,50.4341410873335],[-121.006557846763,50.4346345012858],[-121.005734640032,50.4354853482597],[-121.00528844874,50.4358997620547],[-121.004931439352,50.4363331394824],[-121.004797596053,50.4366494097371],[-121.005293379809,50.4367190628906],[-121.005050489444,50.436658936491],[-121.005516545899,50.4361275053981],[-121.007326389072,50.434179014599],[-121.007658602228,50.4335811658539],[-121.008005749479,50.4322874146983],[-121.007861903155,50.4313670044459],[-121.008213981474,50.4310791347028]]]}},{"type":"Feature","id":"947937278","properties":{"name":"SP_20KM_HDH_RAMP_SEPT_28_DS","oid":"947937278","speedLimit":5.5555553},"geometry":{"type":"Polygon","coordinates":[[[-121.035683839208,50.4530871046028],[-121.034416554501,50.453721532488],[-121.032379459495,50.4509177908382],[-121.032908774519,50.4481652779595],[-121.034191979534,50.4480015256423],[-121.033823135581,50.4492601356585],[-121.034416554501,50.451163419314],[-121.035603533229,50.4530563673402],[-121.035683839208,50.4530871046028]]]}}]}