{"type":"FeatureCollection","features":[{"type":"Feature","id":"702602533","properties":{"name":"iSP_4KPH_%TR_CR01_Slow Bump","oid":"702602533","speedLimit":1.1111112},"geometry":{"type":"Polygon","coordinates":[[[-121.033359221768,50.4648080512771],[-121.033653960045,50.4646910334994],[-121.033697353634,50.464731747058],[-121.033369506612,50.464869885556],[-121.033359221768,50.4648080512771]]]}},{"type":"Feature","id":"707947583","properties":{"name":"iSP_25KPH_%TR_Permission Gate 1 From West Dump","oid":"707947583","speedLimit":6.9444447},"geometry":{"type":"Polygon","coordinates":[[[-121.038628725122,50.4619781443903],[-121.038855414361,50.4617996518353],[-121.038140406353,50.461408424196],[-121.037992755438,50.4616711300058],[-121.038192253239,50.4615670542864],[-121.038667187622,50.4618462072953],[-121.038628725122,50.4619781443903]]]}},{"type":"Feature","id":"742345972","properties":{"name":"iSP_4KPH_%TR_CR01_Pit Side_Slow Bump","oid":"742345972","speedLimit":1.1111112},"geometry":{"type":"Polygon","coordinates":[[[-121.033399093151,50.4648830073652],[-121.033706370484,50.4647445093656],[-121.033756526711,50.4647765948853],[-121.033475031932,50.4649185081503],[-121.033399093151,50.4648830073652]]]}},{"type":"Feature","id":"776427243","properties":{"name":"iSP_7KPH_%TR_CR1_PermissionBlocker","oid":"776427243","speedLimit":1.9444444},"geometry":{"type":"Polygon","coordinates":[[[-121.034100294108,50.4652130298534],[-121.03405182854,50.465233341695],[-121.034030695298,50.4652747742569],[-121.034116355371,50.4652257022856],[-121.034100294108,50.4652130298534]]]}},{"type":"Feature","id":"794004438","properties":{"name":"iSP_11KPH_%TR_Lower_Fuel_Bay","oid":"794004438","speedLimit":3.0555556},"geometry":{"type":"Polygon","coordinates":[[[-121.036777030491,50.4606956223566],[-121.036779143816,50.4607254609911],[-121.036749416389,50.4606709964955],[-121.03712558809,50.4605992759221],[-121.037535572977,50.4605562256029],[-121.037543321833,50.4605815704672],[-121.03694482843,50.4606504150277],[-121.036777030491,50.4606956223566]]]}},{"type":"Feature","id":"801543391","properties":{"name":"iSP_4KPH_%TR_CR01_PermissionBlocker_2","oid":"801543391","speedLimit":1.1111112},"geometry":{"type":"Polygon","coordinates":[[[-121.033155779095,50.4645235057439],[-121.033154933766,50.464474074271],[-121.033176489672,50.4644320125813],[-121.033108440634,50.4644596043308],[-121.033155779095,50.4645235057439]]]}},{"type":"Feature","id":"806473874","properties":{"name":"iSP_4KPH_%TR_CR04_PermissionBlocker","oid":"806473874","speedLimit":1.1111112},"geometry":{"type":"Polygon","coordinates":[[[-121.022719902606,50.4815454581319],[-121.022686793861,50.4815431213713],[-121.022679185894,50.4815717916256],[-121.022701305353,50.4815728701305],[-121.022705391113,50.4815487835219],[-121.022719902606,50.4815454581319]]]}},{"type":"Feature","id":"824566967","properties":{"name":"iSP_3KPH_%TR_CR04","oid":"824566967","speedLimit":0.8333333},"geometry":{"type":"Polygon","coordinates":[[[-121.02330275741,50.4810685792313],[-121.023282610386,50.4810685792313],[-121.023279933509,50.4811866755139],[-121.023305011622,50.4811859565106],[-121.02330275741,50.4810685792313]]]}},{"type":"Feature","id":"826307302","properties":{"name":"iSP_4KPH_%TR_CR04_Pockets","oid":"826307302","speedLimit":1.1111112},"geometry":{"type":"Polygon","coordinates":[[[-121.023297967208,50.4813217582481],[-121.023337415926,50.4814774224501],[-121.023542126593,50.4814379671471],[-121.023461115834,50.4811891021498],[-121.023052821606,50.4811898211531],[-121.02305817536,50.4813604945478],[-121.023283033051,50.4813265216446],[-121.023297967208,50.4813217582481]]]}},{"type":"Feature","id":"883050998","properties":{"name":"iSP_22KPH_%TR_4CR_Brake_Temp_Ctrl","oid":"883050998","speedLimit":6.111111},"geometry":{"type":"Polygon","coordinates":[[[-121.031799447648,50.4745592631266],[-121.032188721959,50.4743126450145],[-121.032490363761,50.4745749913226],[-121.032792005563,50.474802376098],[-121.032969806569,50.4748847918446],[-121.033178602996,50.4749349423208],[-121.033462492875,50.4749597479327],[-121.033666358213,50.4749221800132],[-121.033827534402,50.4748627723703],[-121.033918689118,50.4748107345107],[-121.034008012286,50.4747475521007],[-121.034058450289,50.4746583956987],[-121.03405267387,50.4745482084518],[-121.034056477853,50.4744838576616],[-121.033994346123,50.4743798718176],[-121.03387599997,50.4742597982762],[-121.033509126895,50.4739378645743],[-121.033060820396,50.4735602081212],[-121.032947546221,50.4734256646395],[-121.032822578319,50.473221108217],[-121.03260575126,50.4728151410113],[-121.032252262572,50.4722092010287],[-121.032487264219,50.4721563542904],[-121.032430204466,50.4722058756387],[-121.032902743749,50.4730490866913],[-121.033041941367,50.4733098152421],[-121.033249751576,50.4735471761875],[-121.033742719659,50.4739618613076],[-121.034097758119,50.4742713922034],[-121.03420314255,50.4743947012595],[-121.034255834766,50.4744619280627],[-121.03426287918,50.474593056279],[-121.034237941955,50.4746790670419],[-121.034183418191,50.4747918606756],[-121.034085923503,50.4748760739303],[-121.033973071993,50.4749379082092],[-121.033790480785,50.475016369438],[-121.033530964578,50.4750646325307],[-121.033262995075,50.4750683174223],[-121.033071387017,50.4750265253588],[-121.032807644162,50.4749167874889],[-121.032656893705,50.4748353603717],[-121.032495294851,50.4747055802865],[-121.032144764816,50.4744133054684],[-121.031799447648,50.4745592631266]]]}},{"type":"Feature","id":"883053336","properties":{"name":"iSP_22KPH_%TR_Brake_Temp_Ctrl","oid":"883053336","speedLimit":6.111111},"geometry":{"type":"Polygon","coordinates":[[[-121.032465990089,50.4721454793663],[-121.032251135466,50.4722257381033],[-121.03148850722,50.4710085554892],[-121.030816611024,50.4699235795964],[-121.030661352143,50.4696604244096],[-121.030596543535,50.4694579351215],[-121.030550191292,50.4692569737152],[-121.030596543535,50.4689731471852],[-121.030722779432,50.4686245204881],[-121.030884519174,50.4683757453662],[-121.031088948065,50.4680980303638],[-121.031688286797,50.4675367584576],[-121.032432176902,50.4668938796835],[-121.032788483356,50.4665563975366],[-121.033147607575,50.4662226002813],[-121.033484471447,50.4658709178203],[-121.0337794915,50.4660343113071],[-121.033587460778,50.4659935078731],[-121.032919368566,50.466652294594],[-121.032554608815,50.4669914843736],[-121.032178578003,50.4673079356757],[-121.031774369535,50.4676686056772],[-121.031381995682,50.468034668203],[-121.031147134923,50.4682865889641],[-121.031008782635,50.4684701145417],[-121.030905088863,50.4686547186242],[-121.030828586528,50.4688532533946],[-121.030767722792,50.4691915444201],[-121.030776457865,50.4694008642391],[-121.030873670777,50.469630585775],[-121.031027661664,50.4699353532744],[-121.031330571461,50.4704040535131],[-121.031530632815,50.4707112476484],[-121.031750277639,50.4710831520756],[-121.032146032811,50.4717290866135],[-121.032381316234,50.4721453894909],[-121.032465990089,50.4721454793663]]]}},{"type":"Feature","id":"883059532","properties":{"name":"iSP_22KPH_%TR_Brake_Ctrl","oid":"883059532","speedLimit":6.111111},"geometry":{"type":"Polygon","coordinates":[[[-121.02726228156,50.477322302712],[-121.027030097679,50.4772101382061],[-121.027334557246,50.4769443766326],[-121.027716505367,50.4766327786024],[-121.028033222214,50.4763230679558],[-121.028190453532,50.4761691113865],[-121.028621289885,50.4756926818629],[-121.028907293088,50.4753260800847],[-121.029263881318,50.4748879374838],[-121.029472677746,50.4746570475676],[-121.02969147724,50.4745407487931],[-121.029801510985,50.4744885311826],[-121.029952261442,50.4745929664036],[-121.029788690152,50.4745423665504],[-121.029556083606,50.4747918606756],[-121.029251905815,50.4751733817711],[-121.029072977702,50.4754783290213],[-121.028853191989,50.4757750976096],[-121.02869610156,50.4759750703864],[-121.028408971251,50.4762709402207],[-121.028041675511,50.4765703151958],[-121.027243966084,50.4772197548745],[-121.02726228156,50.477322302712]]]}},{"type":"Feature","id":"884401102","properties":{"name":"iSP_30KPH_%TR_Maint_Limit_Policy","oid":"884401102","speedLimit":8.333333},"geometry":{"type":"Polygon","coordinates":[[[-121.036992589556,50.4611014996869],[-121.037108681497,50.4611079707161],[-121.038294960793,50.4609923010695],[-121.038278617753,50.460398134765],[-121.038120118441,50.4605660220221],[-121.037033024492,50.4607086542903],[-121.036745330629,50.4605379808956],[-121.036992589556,50.4611014996869]]]}},{"type":"Feature","id":"910445950","properties":{"name":"SP_22KPH_%TR_1635_FLATS_SEP_25_NS","oid":"910445950","speedLimit":6.111111},"geometry":{"type":"Polygon","coordinates":[[[-121.017369811157,50.4554939933991],[-121.018002963076,50.4544143201551],[-121.01814821889,50.4539986464056],[-121.018532843888,50.4537516687918],[-121.018948886971,50.4536882167556],[-121.018866749105,50.454341790703],[-121.01826191573,50.4560722517568],[-121.018276004558,50.4557009764575],[-121.017369811157,50.4554939933991]]]}},{"type":"Feature","id":"915576987","properties":{"name":"iSP_15KPH_%TR_Preventing Shifting","oid":"915576987","speedLimit":4.1666665},"geometry":{"type":"Polygon","coordinates":[[[-121.036998084199,50.4448633507086],[-121.037512185523,50.4453132669876],[-121.037981484376,50.4457957181633],[-121.038525454015,50.4462190313223],[-121.039458134412,50.4468501364184],[-121.03991545776,50.4470999001697],[-121.040471402903,50.4471952579747],[-121.041224591635,50.4473229709257],[-121.041643029819,50.4475098218933],[-121.042321547763,50.4480952702835],[-121.042704200325,50.44852802036],[-121.042847624591,50.4487950401892],[-121.043009082557,50.4493918128804],[-121.043188292446,50.4501983547676],[-121.043325799405,50.4505015045097],[-121.043687459613,50.4511689192695],[-121.043857934429,50.451489235214],[-121.044126890151,50.452253805287],[-121.044384011257,50.4529383862492],[-121.044697769451,50.4537983141272],[-121.044736654616,50.4541949342908],[-121.044572237996,50.4550720283712],[-121.044216635984,50.4568395180919],[-121.044052219364,50.4572075578766],[-121.043005983015,50.4583992158756],[-121.041906068233,50.4595375777592],[-121.041344205782,50.4600008854735],[-121.040372781109,50.4605977480402],[-121.039924333722,50.4607312130171],[-121.03913521848,50.4608074273608],[-121.038497839913,50.460838973628],[-121.038645631716,50.4611437411274],[-121.038758483226,50.4609497900028],[-121.03987953125,50.4608799568128],[-121.040707531656,50.460632080445],[-121.041511581056,50.4600581361067],[-121.042874534252,50.4587004782342],[-121.044243404756,50.457142667834],[-121.04442881373,50.4562903793655],[-121.044814424945,50.4544217798138],[-121.044811325403,50.4537868100753],[-121.044261438456,50.4523015291272],[-121.043833983422,50.4511860854719],[-121.043346791758,50.4503375717704],[-121.043050926376,50.4493098465108],[-121.042928353574,50.4486920429747],[-121.04224081878,50.447887388471],[-121.041547366679,50.4473916357353],[-121.041093001984,50.4472219509701],[-121.0404594274,50.4471304578075],[-121.039918416414,50.4470198211836],[-121.038821460286,50.4463334427132],[-121.038196761664,50.445871932507],[-121.037153624857,50.444907120031],[-121.037377778107,50.4446974407105],[-121.036998084199,50.4448633507086]]]}},{"type":"Feature","id":"917773475","properties":{"name":"SP_15KPH_%TR_1200_CORNER_Sept_25_NS","oid":"917773475","speedLimit":4.1666665},"geometry":{"type":"Polygon","coordinates":[[[-121.037098960205,50.4446826112686],[-121.036924822294,50.4448621823284],[-121.036629238688,50.4448206598911],[-121.036414665842,50.4448700014886],[-121.036323088461,50.4449676960542],[-121.03625447587,50.4450821973206],[-121.03624221859,50.4451450202289],[-121.036263351832,50.4452673406555],[-121.036316044047,50.4453515539103],[-121.03618417262,50.4453953232327],[-121.036089073032,50.4451943618264],[-121.036163039378,50.4449317458921],[-121.036259829625,50.4447914503844],[-121.036516668955,50.4447151461653],[-121.036713771655,50.4447118207753],[-121.036923131635,50.4447701499134],[-121.037093747339,50.4446836897734],[-121.037098960205,50.4446826112686]]]}},{"type":"Feature","id":"926367691","properties":{"name":"SP_30KPH_%TR_24SH_EMPTY_LANE_SEP_25_NS","oid":"926367691","speedLimit":8.333333},"geometry":{"type":"Polygon","coordinates":[[[-121.038784265781,50.4508575908655],[-121.038613086523,50.4512056783103],[-121.038639009967,50.4520122201975],[-121.038945019305,50.4544278014659],[-121.039193405338,50.4545000612918],[-121.038782293345,50.4517187769992],[-121.038784265781,50.4508575908655]]]}},{"type":"Feature","id":"929009157","properties":{"name":"iSP_22KPH_%TR_Long_Single_Lane","oid":"929009157","speedLimit":6.111111},"geometry":{"type":"Polygon","coordinates":[[[-121.005680733439,50.43805600776],[-121.004751011696,50.4382240747679],[-121.005175508076,50.4381975615233],[-121.007935791209,50.4431705474497],[-121.00852456332,50.4445349459777],[-121.008211650456,50.4465097782584],[-121.007833647208,50.4466802719023],[-121.008935111761,50.4466470180024],[-121.008824373575,50.4465930028838],[-121.009404410613,50.4448176940028],[-121.008765482275,50.4430684489893],[-121.008263779119,50.4415402075975],[-121.007260231918,50.4401562162312],[-121.00644054392,50.4389840611952],[-121.005861493099,50.4383130514191],[-121.005680733439,50.43805600776]]]}},{"type":"Feature","id":"934051091","properties":{"name":"iSP_17KPH_%TR_Ramp_Permission Blocker","oid":"934051091","speedLimit":4.7222223},"geometry":{"type":"Polygon","coordinates":[[[-121.03951308084,50.4610298689889],[-121.039465037937,50.4607718367003],[-121.039017576768,50.4607924181681],[-121.039076468068,50.4610451478078],[-121.039163959688,50.4609000889036],[-121.039379941418,50.4608869670944],[-121.03951308084,50.4610298689889]]]}},{"type":"Feature","id":"936169885","properties":{"name":"SP_15KPH_%TR_24shl_loadplan_Sept_25_NS","oid":"936169885","speedLimit":4.1666665},"geometry":{"type":"Polygon","coordinates":[[[-121.039169031666,50.4546368516587],[-121.038619144719,50.4545683665998],[-121.038154636069,50.4553924341911],[-121.038670146276,50.4555195180142],[-121.038842170863,50.4552447689002],[-121.039002219946,50.4549475509348],[-121.039087598242,50.4547918867328],[-121.039169031666,50.4546368516587]]]}},{"type":"Feature","id":"936513295","properties":{"name":"SP_30KPH_%TR_1635_FLATS_SEP_25_NS","oid":"936513295","speedLimit":8.333333},"geometry":{"type":"Polygon","coordinates":[[[-121.017285982632,50.4555553783009],[-121.018050160649,50.4557853694631],[-121.017434056212,50.457453996238],[-121.015227041345,50.4585171324073],[-121.014498226285,50.4578798259083],[-121.016177332776,50.4566195929751],[-121.017285982632,50.4555553783009]]]}},{"type":"Feature","id":"937786749","properties":{"name":"SP_32KPH_%TR_24SH_Loaded_LANE_SEP_25_NS","oid":"937786749","speedLimit":8.888889},"geometry":{"type":"Polygon","coordinates":[[[-121.038410348292,50.451085425018],[-121.038213245592,50.4510393189351],[-121.038253821416,50.4516608972382],[-121.038601533685,50.4544464955502],[-121.038809766559,50.4542671042412],[-121.038403867431,50.4516753671784],[-121.038410348292,50.451085425018]]]}},{"type":"Feature","id":"938065675","properties":{"name":"SP_8KPH_CR01_YARD_RUTIING_SEP_25_NS","oid":"938065675","speedLimit":2.2222223},"geometry":{"type":"Polygon","coordinates":[[[-121.034289366176,50.4648014004972],[-121.034099167001,50.4648582017533],[-121.033940949466,50.4649071838492],[-121.033829506838,50.465005148041],[-121.034044361461,50.4650690494542],[-121.03396433692,50.4650115291948],[-121.034242732156,50.4648883100141],[-121.034319375379,50.4649375617362],[-121.034289366176,50.4648014004972]]]}},{"type":"Feature","id":"938165680","properties":{"name":"SP_10KPH_%TR_22SH_Sept_25_NS","oid":"938165680","speedLimit":2.7777777},"geometry":{"type":"Polygon","coordinates":[[[-121.034080569749,50.4466115172173],[-121.035055375741,50.4472507110998],[-121.035497201379,50.447447448362],[-121.035795320974,50.4469123301988],[-121.03485503261,50.4461954839661],[-121.034080569749,50.4466115172173]]]}},{"type":"Feature","id":"940771585","properties":{"name":"SP_20KPH_%TR_1660_HMT_SEPT25_DS","oid":"940771585","speedLimit":5.5555553},"geometry":{"type":"Polygon","coordinates":[[[-121.002708836114,50.4281184841953],[-121.002603592571,50.4277113486092],[-121.002231929295,50.4276979571739],[-121.002505393442,50.4277963707427],[-121.002533430209,50.428113990425],[-121.002673754933,50.4280826239086],[-121.002708836114,50.4281184841953]]]}},{"type":"Feature","id":"940778315","properties":{"name":"SP_20KPH_%TR_HMT_SPILLING_ROCK_IN_CORNER_SEPT25_NS","oid":"940778315","speedLimit":5.5555553},"geometry":{"type":"Polygon","coordinates":[[[-121.004784683995,50.4367080564312],[-121.004770595167,50.4370436511946],[-121.004987985779,50.4372762487435],[-121.00512126609,50.4371688476342],[-121.004889927538,50.4369362500853],[-121.004882883124,50.4367573081533],[-121.005198472866,50.4367975723349],[-121.004798631934,50.4366991587661],[-121.004784683995,50.4367080564312]]]}},{"type":"Feature","id":"944724972","properties":{"name":"SP_20KPH_%TR_21SH_LOADED_SEPT 25_NS","oid":"944724972","speedLimit":5.5555553},"geometry":{"type":"Polygon","coordinates":[[[-121.038848229059,50.4522168664954],[-121.0391818525,50.4521686034027],[-121.039251028644,50.4519693496292],[-121.039327812755,50.4516357321247],[-121.039213552362,50.451264816327],[-121.038913178555,50.4506403620109],[-121.03881864252,50.4509655312273],[-121.038886128005,50.4509783834103],[-121.03905829348,50.451292767578],[-121.039102109735,50.4515747965999],[-121.039047022418,50.4519346577227],[-121.038997288856,50.4521384052666],[-121.038848229059,50.4522168664954]]]}},{"type":"Feature","id":"945133230","properties":{"name":"SP_10KPH_%TR_21SH_SEPT_25_NS","oid":"945133230","speedLimit":2.7777777},"geometry":{"type":"Polygon","coordinates":[[[-121.040087341459,50.4526997670481],[-121.039651714905,50.4531689166638],[-121.039099291969,50.452922388427],[-121.038927549159,50.4522620738243],[-121.039713987524,50.4522161474921],[-121.039764848192,50.4525626171796],[-121.04009297699,50.4526997670481],[-121.040087341459,50.4526997670481]]]}},{"type":"Feature","id":"945606742","properties":{"name":"SP_20KPH_19SH_SEPT 25_NS","oid":"945606742","speedLimit":5.5555553},"geometry":{"type":"Polygon","coordinates":[[[-121.002893822423,50.4271197886915],[-121.002444529706,50.4275246773924],[-121.001789962769,50.4273168854554],[-121.002101748527,50.4269692473876],[-121.002893822423,50.4271197886915]]]}}]}