{"type":"FeatureCollection","features":[{"type":"Feature","id":"702602533","properties":{"name":"iSP_4KPH_%TR_CR01_SLOW BUMP","oid":"702602533","speedLimit":1.1111112},"geometry":{"type":"Polygon","coordinates":[[[-121.033359932057,50.4648088423424],[-121.033654688527,50.4646918221323],[-121.033698084796,50.4647325365372],[-121.033370217536,50.4648706779066],[-121.033359932057,50.4648088423424]]]}},{"type":"Feature","id":"707947583","properties":{"name":"iSP_22KPH_%TR_Permission Gate 1 from west dump_Jun","oid":"707947583","speedLimit":6.111111},"geometry":{"type":"Polygon","coordinates":[[[-121.03862976069,50.4619788766316],[-121.038856463921,50.4618003803664],[-121.037982198196,50.4613518927716],[-121.037745068588,50.4615431516096],[-121.037961204547,50.4614974040774],[-121.038668225564,50.4618469367941],[-121.03862976069,50.4619788766316]]]}},{"type":"Feature","id":"742345972","properties":{"name":"iSP_4KPH_%TR_CR01_PITSIDE_SLOW BUMP","oid":"742345972","speedLimit":1.1111112},"geometry":{"type":"Polygon","coordinates":[[[-121.033399805901,50.4648837999885],[-121.033707102202,50.46474529911],[-121.033757261525,50.4647773852967],[-121.03347574937,50.4649193015116],[-121.033399805901,50.4648837999885]]]}},{"type":"Feature","id":"776427243","properties":{"name":"iSP_7KPH_%TR_CR1_PermissionBlocker_DO_NOT_DELETE","oid":"776427243","speedLimit":1.9444444},"geometry":{"type":"Polygon","coordinates":[[[-121.034101050142,50.4652138293368],[-121.034052581583,50.4652341416006],[-121.034031447037,50.4652755750237],[-121.034117112397,50.4652265020324],[-121.034101050142,50.4652138293368]]]}},{"type":"Feature","id":"794004438","properties":{"name":"iSP_11KPH_%TR_LOWER_FUEL_BAY","oid":"794004438","speedLimit":3.0555556},"geometry":{"type":"Polygon","coordinates":[[[-121.036777951756,50.4606963279386],[-121.036780065211,50.4607261671935],[-121.03675033595,50.4606717015657],[-121.037126530871,50.4605999795014],[-121.037536541066,50.4605569282874],[-121.0375442904,50.4605822736786],[-121.036945760053,50.4606511196701],[-121.036777951756,50.4606963279386]]]}},{"type":"Feature","id":"801543391","properties":{"name":"iSP_4KPH_%TR_CR1_PermissionBlocker_DO_NOT_DELETE_","oid":"801543391","speedLimit":1.1111112},"geometry":{"type":"Polygon","coordinates":[[[-121.033156476826,50.4645242908945],[-121.033155631445,50.4644748583941],[-121.033177188682,50.4644327958301],[-121.033109135443,50.464460388153],[-121.033156476826,50.4645242908945]]]}},{"type":"Feature","id":"806473874","properties":{"name":"iSP_4KPH_%TR_Permission Blocker - DO NOT DELETE","oid":"806473874","speedLimit":1.1111112},"geometry":{"type":"Polygon","coordinates":[[[-121.022719956147,50.4815465971099],[-121.022686845358,50.4815442603008],[-121.022679236921,50.4815729311511],[-121.022701357746,50.4815740096784],[-121.022705443759,50.481549922569],[-121.022719956147,50.4815465971099]]]}},{"type":"Feature","id":"824566967","properties":{"name":"iSP_4Cr_3KPH","oid":"824566967","speedLimit":0.8333333},"geometry":{"type":"Polygon","coordinates":[[[-121.02330284693,50.4810697082967],[-121.023282698662,50.4810697082967],[-121.02328002162,50.4811878070341],[-121.023305101281,50.4811870880159],[-121.02330284693,50.4810697082967]]]}},{"type":"Feature","id":"826307302","properties":{"name":"iSP_4KPH_TR%_CRUSHER POCKETS","oid":"826307302","speedLimit":1.1111112},"geometry":{"type":"Polygon","coordinates":[[[-121.023298056432,50.4813228925762],[-121.023337507585,50.4814785600139],[-121.023542230889,50.4814391038908],[-121.023461215129,50.4811902337205],[-121.023052895697,50.4811909527387],[-121.023058249782,50.4813616296811],[-121.023283121353,50.4813276560717],[-121.023298056432,50.4813228925762]]]}},{"type":"Feature","id":"849417440","properties":{"name":"iSP_Permissions_35_KPH_June_19_NS","oid":"849417440","speedLimit":9.722222},"geometry":{"type":"Polygon","coordinates":[[[-121.032696448205,50.4660351278621],[-121.033011071149,50.4660158042483],[-121.033218048804,50.465814928542],[-121.03380685726,50.4653804618019],[-121.03372767316,50.465251667669],[-121.033963816489,50.4654011335748],[-121.033427562605,50.4658094460283],[-121.033025160846,50.4661889977544],[-121.032696448205,50.4660351278621]]]}},{"type":"Feature","id":"853029148","properties":{"name":"SP_15KPH_%TR_1635 Flats_AUG_20_DS","oid":"853029148","speedLimit":4.1666665},"geometry":{"type":"Polygon","coordinates":[[[-121.018590265831,50.4569716339701],[-121.017426456823,50.4572816206864],[-121.015788811291,50.4579437465603],[-121.014824653296,50.4590972314885],[-121.018349332005,50.4588938392185],[-121.020692589584,50.4589879407239],[-121.020240873884,50.4572324578178],[-121.019423107846,50.4570972823984],[-121.018968856001,50.4570006643294],[-121.018590265831,50.4569716339701]]]}},{"type":"Feature","id":"883050998","properties":{"name":"iSP_22kph_%TR_4CR_Brake_Temp_CTRL_NOREMOVE","oid":"883050998","speedLimit":6.111111},"geometry":{"type":"Polygon","coordinates":[[[-121.031800061655,50.4745602568859],[-121.032189359995,50.4743136336474],[-121.032491020417,50.4745759854087],[-121.032792680839,50.4748033749107],[-121.03297049282,50.4748857923705],[-121.033179302136,50.4749359438891],[-121.033463209539,50.4749607500166],[-121.033667087461,50.4749231813163],[-121.0338282736,50.4748637724385],[-121.033919433942,50.4748117334971],[-121.034008762624,50.4747485497738],[-121.034059203741,50.4746593915185],[-121.034053426965,50.4745492019812],[-121.034057231183,50.4744848498534],[-121.033995095617,50.4743808618479],[-121.033876742159,50.4742607858105],[-121.033509846438,50.4739388454168],[-121.033061512266,50.4735611811136],[-121.032948231098,50.4734266348351],[-121.032823255482,50.4732220741606],[-121.032606415039,50.4728160985162],[-121.03225290453,50.4722101459383],[-121.032487920683,50.4721572981014],[-121.032430857409,50.4722068204791],[-121.032903425861,50.4730500490592],[-121.033042632071,50.4733107830296],[-121.033250455108,50.4735481489089],[-121.033743453621,50.4739628426489],[-121.034098513996,50.4742723799788],[-121.034203904933,50.4743956915981],[-121.034256600402,50.4744629197987],[-121.03426364525,50.4745940507407],[-121.034238706486,50.4746800632914],[-121.034184179357,50.4747928592697],[-121.034086678651,50.474877074275],[-121.033973820174,50.4749389098391],[-121.033791217696,50.4750173726989],[-121.033531685469,50.4750656367948],[-121.033263699424,50.475069321763],[-121.033072079539,50.4750275288308],[-121.032808320403,50.4749177886799],[-121.03265756064,50.4748363598701],[-121.032495951811,50.4747065770871],[-121.032145400139,50.4744142961937],[-121.031800061655,50.4745602568859]]]}},{"type":"Feature","id":"883053336","properties":{"name":"iSP_22kph_%TR_Brake_Temp_CTRL_NOREMOVE","oid":"883053336","speedLimit":6.111111},"geometry":{"type":"Polygon","coordinates":[[[-121.03246664524,50.4721464229513],[-121.032251777354,50.4722266833566],[-121.031489102033,50.4710094754415],[-121.030817164362,50.4699244769958],[-121.030661895897,50.4696613163389],[-121.030597083288,50.4694588228417],[-121.030550728184,50.4692578572582],[-121.030597083288,50.4689740248284],[-121.030723326977,50.4686253908845],[-121.030885076704,50.4683766105915],[-121.031089518214,50.4680988898163],[-121.031688893942,50.4675376062433],[-121.032432829966,50.4668947141059],[-121.032789158414,50.4665572249439],[-121.033148304802,50.4662234207501],[-121.033485189467,50.4658717309789],[-121.033780227732,50.4660351278621],[-121.033588185156,50.4659943235799],[-121.032920051704,50.4666531239947],[-121.032555269437,50.4669923208249],[-121.032179215413,50.4673087787049],[-121.031774981993,50.4676694562035],[-121.03138258392,50.4680355263385],[-121.031147708664,50.4682874523361],[-121.031009347835,50.4684709817286],[-121.030905647662,50.4686555896484],[-121.030829140605,50.4688541285456],[-121.030768273112,50.4691924266031],[-121.030777008725,50.469401750773],[-121.030874227637,50.4696314770841],[-121.03102822803,50.4699362509186],[-121.031331156524,50.4704049608999],[-121.031531230228,50.4707121614208],[-121.031750888611,50.4710840735785],[-121.032146668212,50.4717300215432],[-121.032381966159,50.4721463330741],[-121.03246664524,50.4721464229513]]]}},{"type":"Feature","id":"883059532","properties":{"name":"iSP_22kph_%TR_Brake_CTRL_NOREMOVE","oid":"883059532","speedLimit":6.111111},"geometry":{"type":"Polygon","coordinates":[[[-121.027262615495,50.4773233539052],[-121.027030417281,50.4772111870679],[-121.027334895643,50.4769454199701],[-121.02771686734,50.4766338154629],[-121.028033603738,50.4763240983784],[-121.028190844762,50.4761701386089],[-121.028621707709,50.475693699182],[-121.028907728567,50.4753270897834],[-121.029264338809,50.4748889380751],[-121.029473148125,50.4746580433594],[-121.029691961126,50.4745417421675],[-121.029802001663,50.4744895234716],[-121.029952761425,50.4745939608634],[-121.029789180038,50.4745433599584],[-121.029556559133,50.4747928592697],[-121.029252362566,50.4751743882957],[-121.029073423408,50.4754793418847],[-121.028853624129,50.4757761166418],[-121.028696524002,50.4759760935754],[-121.028409375969,50.4762719695598],[-121.028042057557,50.4765713507578],[-121.027244298888,50.4772208039361],[-121.027262615495,50.4773233539052]]]}},{"type":"Feature","id":"891249991","properties":{"name":"SP_40KPH_TR%_1590 #1_AUG_20_DS","oid":"891249991","speedLimit":11.111111},"geometry":{"type":"Polygon","coordinates":[[[-121.012956641211,50.4498612631086],[-121.013432309396,50.4498233348991],[-121.012542404106,50.4443343500517],[-121.012138452481,50.4430841571772],[-121.011299129205,50.4419106296171],[-121.010529268138,50.4421500626737],[-121.01100831785,50.4427019990103],[-121.011240375167,50.4430302308131],[-121.011455947538,50.4435203315855],[-121.011773952009,50.4445110487714],[-121.012956641211,50.4498612631086]]]}},{"type":"Feature","id":"908328496","properties":{"name":"SP_15KPH_%TR_9019_SOFT_GROUND_AUG_20_DS","oid":"908328496","speedLimit":4.1666665},"geometry":{"type":"Polygon","coordinates":[[[-121.039689869524,50.4639774775625],[-121.039875430839,50.4641979465144],[-121.039739747053,50.4650145714215],[-121.039441186364,50.4657763711917],[-121.039206592902,50.4663544618149],[-121.038929448554,50.466980187393],[-121.037873848422,50.4685922261706],[-121.036178435131,50.4681977548172],[-121.035229494009,50.4668169702643],[-121.037882443138,50.465140938868],[-121.038521551813,50.4648154033834],[-121.039689869524,50.4639774775625]]]}},{"type":"Feature","id":"910445950","properties":{"name":"SP_20KPH_%TR_1635_FLATS_AUG_20_DS","oid":"910445950","speedLimit":5.5555553},"geometry":{"type":"Polygon","coordinates":[[[-121.020225657011,50.4571648701081],[-121.019044517676,50.4569620171018],[-121.01865085153,50.4569233698742],[-121.017842807382,50.4571477035489],[-121.018448805268,50.4564132264698],[-121.018503332397,50.4555087015892],[-121.019218384542,50.4555087015892],[-121.019236560252,50.4564596031429],[-121.019424375918,50.4568926318467],[-121.01975773816,50.4570626796481],[-121.020225657011,50.4571648701081]]]}},{"type":"Feature","id":"913788494","properties":{"name":"SP_15KPH_%TR_ROUGH_21SH_AUG_20_DS","oid":"913788494","speedLimit":4.1666665},"geometry":{"type":"Polygon","coordinates":[[[-121.041138854008,50.4531508611961],[-121.041192253961,50.4542743271149],[-121.040910882703,50.4551336437269],[-121.040262333931,50.4560697155304],[-121.039701000385,50.4564181697198],[-121.039060060049,50.4561277762491],[-121.039632806249,50.4559003867472],[-121.040320806175,50.4550789983446],[-121.040547086716,50.4542445777374],[-121.04054455057,50.4531386378869],[-121.041138854008,50.4531508611961]]]}},{"type":"Feature","id":"917291012","properties":{"name":"SP_15KPH_%TR_CORNER_RUTS_AUG_20_NS","oid":"917291012","speedLimit":4.1666665},"geometry":{"type":"Polygon","coordinates":[[[-121.040611476633,50.4662224321001],[-121.040685729338,50.4661082879627],[-121.040423801863,50.4659272751339],[-121.040530460873,50.4656664512862],[-121.04002717688,50.4656489252179],[-121.040220628426,50.465771877328],[-121.04001787768,50.4663115903554],[-121.039934889362,50.466486940916],[-121.039996038649,50.4668211046189],[-121.040668258114,50.46674030495],[-121.040550327346,50.4666233746172],[-121.040532856121,50.4663783691696],[-121.040611476633,50.4662224321001]]]}},{"type":"Feature","id":"920440343","properties":{"name":"iSP_17KPH_CAL_PAD_ROAD_LIMIT_AUG_20_DS","oid":"920440343","speedLimit":4.7222223},"geometry":{"type":"Polygon","coordinates":[[[-121.005954766074,50.4378310102954],[-121.00596843308,50.437613327539],[-121.005586179589,50.4375785450341],[-121.005285928137,50.4376829824259],[-121.005190399988,50.4378353244045],[-121.005285928137,50.4381618485392],[-121.005988863141,50.4392589804168],[-121.007469831238,50.441370377326],[-121.007674554542,50.4416489968739],[-121.007783749697,50.4421540172737],[-121.007933945871,50.4426633517827],[-121.008118239114,50.443233623083],[-121.008322962417,50.4436515524048],[-121.00868464495,50.4445614699218],[-121.008759743038,50.4449227765613],[-121.008759743038,50.445179645809],[-121.008691548902,50.445619325431],[-121.008493588653,50.4462287832226],[-121.00894403628,50.4462157510179],[-121.009135092577,50.4457325707956],[-121.009319385819,50.4449184624522],[-121.009216953719,50.4444526285436],[-121.008998563409,50.4437995802743],[-121.008773410044,50.4433773368434],[-121.008459491585,50.4427373207788],[-121.008295628404,50.4420756442912],[-121.008241101275,50.4417448060474],[-121.007920278865,50.44119619517],[-121.006814660308,50.4398335658264],[-121.006603173949,50.4394940094871],[-121.00622782441,50.4387800244263],[-121.005988863141,50.4383882493911],[-121.005934336012,50.4380574111474],[-121.005954766074,50.4378310102954]]]}},{"type":"Feature","id":"921284584","properties":{"name":"SP_22kph_rough ground_AUG 20_DS","oid":"921284584","speedLimit":6.111111},"geometry":{"type":"Polygon","coordinates":[[[-121.039986034964,50.4678269211867],[-121.040545536849,50.4679711742107],[-121.040344758661,50.4682553661495],[-121.039117405118,50.4697896610855],[-121.039355098313,50.4704381256138],[-121.039940384344,50.4707946687578],[-121.039581519751,50.4711147217288],[-121.038664139551,50.4705588307922],[-121.038404466428,50.469522995215],[-121.039986034964,50.4678269211867]]]}},{"type":"Feature","id":"921727643","properties":{"name":"SP_35KPH_%TR_ HIGHMONT TRIAL_Aug 20_DS","oid":"921727643","speedLimit":9.722222},"geometry":{"type":"Polygon","coordinates":[[[-121.012709085227,50.4365928609756],[-121.01015617295,50.4366191950167],[-121.007266376007,50.4370213059384],[-121.006147935825,50.4371703224579],[-121.005263102827,50.437078018498],[-121.004923682016,50.4368544038415],[-121.005302131289,50.4361090516123],[-121.00596984205,50.4354594186794],[-121.0067544973,50.4347246719685],[-121.00731653533,50.4339047216023],[-121.007674131851,50.4330514267677],[-121.007911965943,50.4323925364756],[-121.007906330064,50.4319204111579],[-121.007795021455,50.431384472976],[-121.007511254948,50.4310046516182],[-121.00698824538,50.4305645226098],[-121.005752860709,50.4297835789803],[-121.004890289433,50.429268851835],[-121.004116905941,50.4288926255681],[-121.003315906642,50.4284986934783],[-121.003469907035,50.4283232530404],[-121.003114987557,50.428531768315],[-121.004389118895,50.4291670208841],[-121.005350318054,50.429695409375],[-121.006573867378,50.4304920815274],[-121.00713026953,50.4309176504174],[-121.007500264984,50.4313875288033],[-121.007671032117,50.4318534525891],[-121.007636230565,50.4325371490087],[-121.007399100957,50.433202690219],[-121.007172538622,50.4338689504475],[-121.006590070531,50.434564151158],[-121.00615793951,50.4350396019349],[-121.005744547788,50.4354071101062],[-121.005111920373,50.4360624053074],[-121.004792506933,50.4366457088124],[-121.004711068481,50.4369333160876],[-121.004892684681,50.4370851188026],[-121.005450214009,50.4372769169042],[-121.006283196921,50.4372649632269],[-121.007585930345,50.437145066944],[-121.008819765149,50.4369813105517],[-121.00945859203,50.4368813670235],[-121.011036919936,50.43678951245],[-121.012887460796,50.4367965228774],[-121.012878161596,50.4364191282059],[-121.012709085227,50.4365928609756]]]}},{"type":"Feature","id":"922262468","properties":{"name":"SPD_20kph_HMT_DUMP_AUG_20_DS","oid":"922262468","speedLimit":5.5555553},"geometry":{"type":"Polygon","coordinates":[[[-121.01250126219,50.4364266778969],[-121.012481395716,50.4374173950827],[-121.01636395274,50.4384080223913],[-121.017180309809,50.4369600995151],[-121.016523307218,50.4359059289742],[-121.014771112446,50.4353089641236],[-121.012899577936,50.4352074028045],[-121.01250126219,50.4364266778969]]]}},{"type":"Feature","id":"922385545","properties":{"name":"SP_20KPH_RUTS_AUG 20_DS","oid":"922385545","speedLimit":5.5555553},"geometry":{"type":"Polygon","coordinates":[[[-121.007511254948,50.4337193047871],[-121.006869751025,50.4335258888945],[-121.006518353971,50.4340724325947],[-121.007225656782,50.4343190558332],[-121.007511254948,50.4337193047871]]]}},{"type":"Feature","id":"923351007","properties":{"name":"iSP_17KPH_PERMISSIONS_AUG 18_NS","oid":"923351007","speedLimit":4.7222223},"geometry":{"type":"Polygon","coordinates":[[[-121.038854773157,50.460878149663],[-121.03887421694,50.4611357379288],[-121.038784888258,50.4608904628494],[-121.038540150214,50.4608904628494],[-121.038536345996,50.4608310539716],[-121.038881966274,50.4608235941579],[-121.038854773157,50.460878149663]]]}}]}