{"type":"FeatureCollection","features":[{"type":"Feature","id":"702602533","properties":{"name":"iSP_4KPH_%TR_CR01_SLOW BUMP","oid":"702602533","speedLimit":1.1111112},"geometry":{"type":"Polygon","coordinates":[[[-121.03333853255,50.4648102145247],[-121.03363297487,50.4646924765401],[-121.033676648133,50.4647338196492],[-121.033348394254,50.4648713304251],[-121.03333853255,50.4648102145247]]]}},{"type":"Feature","id":"707947583","properties":{"name":"iSP_22KPH_%TR_Permission Gate 1 from west dump_Jun","oid":"707947583","speedLimit":6.111111},"geometry":{"type":"Polygon","coordinates":[[[-121.038607500384,50.4619800090771],[-121.038834319588,50.4618011551921],[-121.037960854332,50.4613526723345],[-121.037722764609,50.461544108905],[-121.037939722108,50.4614982719797],[-121.038645538388,50.4618478908806],[-121.038607500384,50.4619800090771]]]}},{"type":"Feature","id":"742345972","properties":{"name":"iSP_4KPH_%TR_CR01_PITSIDE_SLOW BUMP","oid":"742345972","speedLimit":1.1111112},"geometry":{"type":"Polygon","coordinates":[[[-121.033377979368,50.4648848118738],[-121.033685101022,50.4647464023346],[-121.03373581836,50.4647787578112],[-121.033454055374,50.4649207624034],[-121.033377979368,50.4648848118738]]]}},{"type":"Feature","id":"776427243","properties":{"name":"iSP_7KPH_%TR_CR1_PermissionBlocker_DO_NOT_DELETE","oid":"776427243","speedLimit":1.9444444},"geometry":{"type":"Polygon","coordinates":[[[-121.034079569202,50.4652146579834],[-121.03403026068,50.465235329538],[-121.034009128456,50.4652766726471],[-121.034095066166,50.4652272406688],[-121.034079569202,50.4652146579834]]]}},{"type":"Feature","id":"794004438","properties":{"name":"iSP_11KPH_%TR_LOWER_FUEL_BAY","oid":"794004438","speedLimit":3.0555556},"geometry":{"type":"Polygon","coordinates":[[[-121.036756317568,50.4606974739315],[-121.036757726383,50.4607271331184],[-121.036728141269,50.4606723085607],[-121.037104294855,50.4606013062646],[-121.037514259999,50.460558165629],[-121.037522712889,50.4605833309998],[-121.036923966544,50.4606525357694],[-121.036756317568,50.4606974739315]]]}},{"type":"Feature","id":"801543391","properties":{"name":"iSP_4KPH_%TR_CR1_PermissionBlocker_DO_NOT_DELETE_","oid":"801543391","speedLimit":1.1111112},"geometry":{"type":"Polygon","coordinates":[[[-121.0331356632,50.4645253065771],[-121.033134254385,50.4644758745989],[-121.033155386609,50.4644336327265],[-121.033087763492,50.464461494387],[-121.0331356632,50.4645253065771]]]}},{"type":"Feature","id":"806473874","properties":{"name":"iSP_4KPH_%TR_Permission Blocker - DO NOT DELETE","oid":"806473874","speedLimit":1.1111112},"geometry":{"type":"Polygon","coordinates":[[[-121.022699162205,50.4815478823717],[-121.022666759462,50.481545186082],[-121.022658306572,50.4815739465058],[-121.022680847611,50.481574845269],[-121.022685074056,50.4815505786615],[-121.022699162205,50.4815478823717]]]}},{"type":"Feature","id":"824566967","properties":{"name":"iSP_4Cr_3KPH","oid":"824566967","speedLimit":0.8333333},"geometry":{"type":"Polygon","coordinates":[[[-121.023282411586,50.4810706390905],[-121.023262688177,50.4810706390905],[-121.023259870547,50.4811883770751],[-121.023285229215,50.4811883770751],[-121.023282411586,50.4810706390905]]]}},{"type":"Feature","id":"826307302","properties":{"name":"iSP_4KPH_TR%_CRUSHER POCKETS","oid":"826307302","speedLimit":1.1111112},"geometry":{"type":"Polygon","coordinates":[[[-121.023278185141,50.4813240903246],[-121.023317631959,50.4814795763654],[-121.023521910124,50.4814400307828],[-121.023440198858,50.4811910733649],[-121.023033051343,50.4811919721281],[-121.023037277788,50.481362737144],[-121.023262688177,50.4813285841408],[-121.023278185141,50.4813240903246]]]}},{"type":"Feature","id":"849417440","properties":{"name":"iSP_Permissions_35_KPH_June_19_NS","oid":"849417440","speedLimit":9.722222},"geometry":{"type":"Polygon","coordinates":[[[-121.032674980718,50.4660361275862],[-121.032989146447,50.4660172535581],[-121.033196242242,50.465815930592],[-121.033785126882,50.4653818279463],[-121.033706233246,50.4652524060395],[-121.033941505339,50.4654024995009],[-121.033406155666,50.4658105380125],[-121.033003234596,50.4661898161005],[-121.032674980718,50.4660361275862]]]}},{"type":"Feature","id":"853029148","properties":{"name":"SP_25KPH_%TR_1635 Flats_July_24_NS","oid":"853029148","speedLimit":6.9444447},"geometry":{"type":"Polygon","coordinates":[[[-121.018569925648,50.4569729990586],[-121.017389338737,50.4572911612461],[-121.016410212361,50.45845955346],[-121.018329018295,50.458894554869],[-121.020671877522,50.4589889250093],[-121.020221056745,50.4572336403986],[-121.019402535271,50.4570979271491],[-121.018948896864,50.4570017594823],[-121.018569925648,50.4569729990586]]]}},{"type":"Feature","id":"883050998","properties":{"name":"iSP_22kph_%TR_4CR_Brake_Temp_CTRL_NOREMOVE","oid":"883050998","speedLimit":6.111111},"geometry":{"type":"Polygon","coordinates":[[[-121.031778974423,50.4745608969321],[-121.032167807343,50.4743146358039],[-121.032469293738,50.4745770746704],[-121.032770780133,50.4748044617705],[-121.032948290814,50.4748862492255],[-121.033158204239,50.474936579967],[-121.033441376039,50.4749617453378],[-121.033645654204,50.4749239972817],[-121.033806259106,50.4748646789077],[-121.033897832076,50.4748125506397],[-121.033986587417,50.4747496372128],[-121.034037304754,50.4746606596519],[-121.034031669495,50.4745501117732],[-121.034035895939,50.4744854008198],[-121.033973908083,50.474382043047],[-121.033855567629,50.4742616087726],[-121.033487866932,50.4739398515322],[-121.033039863785,50.4735623709707],[-121.03292715859,50.4734275564845],[-121.032801774062,50.4732226384654],[-121.032584816562,50.4728172962435],[-121.032231204015,50.4722106310555],[-121.032466476108,50.4721585027875],[-121.032410123511,50.4722079347658],[-121.032882076513,50.4730509746863],[-121.033021549191,50.4733116160264],[-121.033228644985,50.4735488895221],[-121.03372173021,50.4739641181397],[-121.034076751572,50.4742732926948],[-121.034182412692,50.4743964232589],[-121.034234538844,50.474463830502],[-121.034241582919,50.4745950499353],[-121.034217633065,50.4746813312064],[-121.034162689283,50.4747936766116],[-121.034065481053,50.4748781603563],[-121.033952775859,50.47494017502],[-121.033769629918,50.475018367422],[-121.033510407971,50.4750669006371],[-121.033242733134,50.47507049569],[-121.033051134304,50.4750282538177],[-121.032786277097,50.4749186047022],[-121.0326355339,50.4748368172472],[-121.032474928998,50.4747073953404],[-121.032124134081,50.474415297287],[-121.031778974423,50.4745608969321]]]}},{"type":"Feature","id":"883053336","properties":{"name":"iSP_22kph_%TR_Brake_Temp_CTRL_NOREMOVE","oid":"883053336","speedLimit":6.111111},"geometry":{"type":"Polygon","coordinates":[[[-121.032445343884,50.4721477176286],[-121.0322297952,50.4722277075571],[-121.031467626324,50.471010782128],[-121.030795621602,50.4699250761323],[-121.03064065196,50.4696626372657],[-121.030575846474,50.4694595167732],[-121.030529355581,50.4692590925703],[-121.030575846474,50.468975083386],[-121.030702639817,50.4686263632482],[-121.030863244719,50.4683774058303],[-121.031067522884,50.4680996879887],[-121.031667678044,50.467538859726],[-121.032411532326,50.4668953452451],[-121.032767962503,50.4665583090295],[-121.03312721031,50.4662248678669],[-121.033463917078,50.4658725526762],[-121.033758359398,50.4660361275862],[-121.033566760568,50.4659956832403],[-121.032898982292,50.4666544766963],[-121.032534099225,50.4669933104384],[-121.032157945639,50.4673096750994],[-121.031753615754,50.4676700791593],[-121.031360556389,50.4680367745618],[-121.031126693111,50.4682884282694],[-121.030988629248,50.4684717759707],[-121.030884376943,50.4686569211985],[-121.030808300937,50.4688555478748],[-121.030747721895,50.4691934828537],[-121.030756174784,50.4694028946889],[-121.030853383015,50.4696320793155],[-121.031006943842,50.4699367600544],[-121.031309839052,50.4704059144665],[-121.031509890772,50.4707132914951],[-121.031729665901,50.4710853794771],[-121.032125542896,50.4717306914845],[-121.032360814989,50.4721477176286],[-121.032445343884,50.4721477176286]]]}},{"type":"Feature","id":"883059532","properties":{"name":"iSP_22kph_%TR_Brake_CTRL_NOREMOVE","oid":"883059532","speedLimit":6.111111},"geometry":{"type":"Polygon","coordinates":[[[-121.027241181536,50.4773245938998],[-121.027010135888,50.4772122484946],[-121.027314439913,50.4769462145751],[-121.027696228758,50.4766343437303],[-121.028013212118,50.4763251691752],[-121.028169590575,50.4761714806609],[-121.028600687943,50.4756942373796],[-121.028886677374,50.4753284407404],[-121.029243107551,50.4748898442785],[-121.02945161216,50.4746588621254],[-121.029671387289,50.4745429216672],[-121.029781274854,50.4744907933992],[-121.029932018051,50.4745950499353],[-121.029768595519,50.4745447191937],[-121.029536141056,50.4747936766116],[-121.029231837031,50.4751756509893],[-121.029052917535,50.4754803317282],[-121.028833142406,50.4757769235979],[-121.028675355134,50.4759773478007],[-121.028387956889,50.4762730409072],[-121.028021665007,50.4765723290666],[-121.027222866942,50.477221236127],[-121.027241181536,50.4773245938998]]]}},{"type":"Feature","id":"886231481","properties":{"name":"SP_15KPH_%TR_1200_SWITCHBACK_July_24_NS","oid":"886231481","speedLimit":4.1666665},"geometry":{"type":"Polygon","coordinates":[[[-121.036888746171,50.4452288597815],[-121.03601950736,50.4452764942333],[-121.03650273088,50.4453474965294],[-121.036597121481,50.4451039316909],[-121.036750682308,50.4451326921146],[-121.036888746171,50.4452288597815]]]}},{"type":"Feature","id":"899288147","properties":{"name":"SP_30KPH_%TR_1185_BENCH_JULY_24_NS","oid":"899288147","speedLimit":8.333333},"geometry":{"type":"Polygon","coordinates":[[[-121.039738778773,50.4500579146782],[-121.039521821273,50.4496336984282],[-121.039819081223,50.4495914565559],[-121.040130429323,50.4505450443551],[-121.040313575264,50.4509548803933],[-121.040179737845,50.4511948501788],[-121.039996591905,50.4506025652026],[-121.039738778773,50.4500579146782]]]}},{"type":"Feature","id":"902669831","properties":{"name":"SP_15KPH_%TR_22 shovel loaded_Jul_26_nS","oid":"902669831","speedLimit":4.1666665},"geometry":{"type":"Polygon","coordinates":[[[-121.035341867379,50.4461869413969],[-121.035488384131,50.4460781910447],[-121.035357364343,50.4463001855654],[-121.035209438775,50.4462543486401],[-121.034175368617,50.4459478703747],[-121.03442754649,50.4457285721438],[-121.034362741003,50.4458903495272],[-121.035341867379,50.4461869413969]]]}},{"type":"Feature","id":"902935346","properties":{"name":"SP_20KPH_%TRX_NEW LANES_July24_NS","oid":"902935346","speedLimit":5.5555553},"geometry":{"type":"Polygon","coordinates":[[[-121.039131579538,50.4482810597497],[-121.03910058561,50.4482927436718],[-121.039055503532,50.4483259979118],[-121.039224561323,50.4487277450808],[-121.03948941853,50.4492696993154],[-121.039607758984,50.4495851652132],[-121.039809219519,50.4495438221041],[-121.039688061435,50.4493155362407],[-121.039206246729,50.4482990350145],[-121.039131579538,50.4482810597497]]]}},{"type":"Feature","id":"903864124","properties":{"name":"SP_15KPH_%TR_OLD_GARBAGEDUMP_July_24_NS","oid":"903864124","speedLimit":4.1666665},"geometry":{"type":"Polygon","coordinates":[[[-121.042563452705,50.4670040955973],[-121.042111223113,50.467330346654],[-121.039912063009,50.4663012627424],[-121.040702408184,50.4661251051471],[-121.042242242902,50.466827938002],[-121.042563452705,50.4670040955973]]]}},{"type":"Feature","id":"908328496","properties":{"name":"SP_15KPH_%TR_9019_SOFT_GROUND_July 24_NS","oid":"908328496","speedLimit":4.1666665},"geometry":{"type":"Polygon","coordinates":[[[-121.038979427526,50.464491153574],[-121.039303454959,50.4647050592254],[-121.039482374455,50.4648803180575],[-121.039371078076,50.4652173542731],[-121.038190491165,50.4655624793579],[-121.037860828472,50.4651418581608],[-121.038499021635,50.4648165058674],[-121.038979427526,50.464491153574]]]}},{"type":"Feature","id":"908575258","properties":{"name":"iSP_15km_permissions ","oid":"908575258","speedLimit":4.1666665},"geometry":{"type":"Polygon","coordinates":[[[-121.041849183536,50.4595524495618],[-121.041437809577,50.4599146511481],[-121.041063064806,50.4602076479648],[-121.040667187811,50.4604251486693],[-121.040326254598,50.4605860272895],[-121.039936012863,50.4607154491963],[-121.039496462605,50.4607819576762],[-121.039155529392,50.4607972366513],[-121.03910058561,50.4612133640321],[-121.039234423028,50.4609392412434],[-121.039782452035,50.4608475673928],[-121.040252996222,50.4607064615639],[-121.040919365683,50.4603936919558],[-121.041522338473,50.4599874509706],[-121.041922441913,50.4596531110448],[-121.04207036748,50.4595299804807],[-121.041922441913,50.4594922324246],[-121.041849183536,50.4595524495618]]]}},{"type":"Feature","id":"910445950","properties":{"name":"SP_25KPH_%TR_1635_FLATS_JULY26_DS","oid":"910445950","speedLimit":6.9444447},"geometry":{"type":"Polygon","coordinates":[[[-121.02020555978,50.4571662331555],[-121.01902497287,50.4569631126629],[-121.01863050469,50.4569244658435],[-121.017434420815,50.4572336403986],[-121.018071205163,50.4544708421941],[-121.018751662774,50.453901026299],[-121.018917902935,50.4535145581052],[-121.019539190319,50.4545193754092],[-121.02020555978,50.4571464603642],[-121.020190062816,50.4571464603642],[-121.02020555978,50.4571662331555]]]}},{"type":"Feature","id":"911981461","properties":{"name":"SP_15KPH_%TR_NEWLANES_21SH_1185_JULY_24_NS","oid":"911981461","speedLimit":4.1666665},"geometry":{"type":"Polygon","coordinates":[[[-121.040558709061,50.45039944471],[-121.040406557049,50.4504228125543],[-121.040431915718,50.4507104167916],[-121.040395286529,50.4509009545988],[-121.040217775848,50.4512388895776],[-121.040437550977,50.4518770114791],[-121.040946133167,50.4517871351549],[-121.040468544906,50.4504767383488],[-121.040579841285,50.45039944471],[-121.040558709061,50.45039944471]]]}},{"type":"Feature","id":"912904239","properties":{"name":"SP_30KPH_%TR_1445_BENCH_JULY_26_NS","oid":"912904239","speedLimit":4.1666665},"geometry":{"type":"Polygon","coordinates":[[[-121.039440110008,50.4653054330708],[-121.039001968565,50.4653018380178],[-121.038545512528,50.4663794551444],[-121.038918848484,50.4664333809389],[-121.039440110008,50.4653054330708]]]}}]}