{"type":"FeatureCollection","features":[{"type":"Feature","id":"702602533","properties":{"name":"iSP_4KPH_%TR_CR01_SLOW BUMP","oid":"702602533","speedLimit":1.1111112},"geometry":{"type":"Polygon","coordinates":[[[-121.033359272981,50.4648081870035],[-121.033654024737,50.4646911696637],[-121.033697420311,50.46473188307],[-121.033369558296,50.464870021051],[-121.033359272981,50.4648081870035]]]}},{"type":"Feature","id":"707947583","properties":{"name":"iSP_22KPH_%TR_Permission Gate 1 from west dump_Jun","oid":"707947583","speedLimit":6.111111},"geometry":{"type":"Polygon","coordinates":[[[-121.038629017321,50.4619782907067],[-121.038855716927,50.4617997988197],[-121.037981465185,50.4613513222255],[-121.037744339371,50.4615425763723],[-121.037960471872,50.4614968299622],[-121.03866748158,50.4618463541054],[-121.038629017321,50.4619782907067]]]}},{"type":"Feature","id":"742345972","properties":{"name":"iSP_4KPH_%TR_CR01_PITSIDE_SLOW BUMP","oid":"742345972","speedLimit":1.1111112},"geometry":{"type":"Polygon","coordinates":[[[-121.033399146187,50.4648831428111],[-121.033706437573,50.4647446453298],[-121.033756596093,50.4647767307294],[-121.033475088441,50.4649186434633],[-121.033399146187,50.4648831428111]]]}},{"type":"Feature","id":"776427243","properties":{"name":"iSP_7KPH_%TR_CR1_PermissionBlocker_DO_NOT_DELETE","oid":"776427243","speedLimit":1.9444444},"geometry":{"type":"Polygon","coordinates":[[[-121.034100379212,50.4652131640643],[-121.034051911428,50.4652334758299],[-121.03403077722,50.4652749082367],[-121.03411644121,50.4652258364491],[-121.034100379212,50.4652131640643]]]}},{"type":"Feature","id":"794004438","properties":{"name":"iSP_11KPH_%TR_LOWER_FUEL_BAY","oid":"794004438","speedLimit":3.0555556},"geometry":{"type":"Polygon","coordinates":[[[-121.036777238008,50.4606957734724],[-121.036779351429,50.4607256119953],[-121.036749622643,50.4606711477035],[-121.037125811547,50.4605994273985],[-121.037535815184,50.4605563772404],[-121.037543564394,50.4605817220099],[-121.036945043621,50.4606505663127],[-121.036777238008,50.4606957734724]]]}},{"type":"Feature","id":"801543391","properties":{"name":"iSP_4KPH_%TR_CR1_PermissionBlocker_DO_NOT_DELETE_","oid":"801543391","speedLimit":1.1111112},"geometry":{"type":"Polygon","coordinates":[[[-121.033155821005,50.4645236425352],[-121.033154975636,50.4644742112472],[-121.033176532528,50.4644321497149],[-121.033108480378,50.4644597413611],[-121.033155821005,50.4645236425352]]]}},{"type":"Feature","id":"806473874","properties":{"name":"iSP_4KPH_%TR_Permission Blocker - DO NOT DELETE","oid":"806473874","speedLimit":1.1111112},"geometry":{"type":"Polygon","coordinates":[[[-121.02271946726,50.4815455312238],[-121.022686357,50.481543194472],[-121.022678748685,50.481571864619],[-121.022700869157,50.4815729431198],[-121.022704955104,50.4815488566014],[-121.02271946726,50.4815455312238]]]}},{"type":"Feature","id":"824566967","properties":{"name":"iSP_4Cr_3KPH","oid":"824566967","speedLimit":0.8333333},"geometry":{"type":"Polygon","coordinates":[[[-121.023302348719,50.4810686541078],[-121.023282200774,50.4810686541078],[-121.023279523774,50.4811867499484],[-121.023304603034,50.4811860309479],[-121.023302348719,50.4810686541078]]]}},{"type":"Feature","id":"826307302","properties":{"name":"iSP_4KPH_TR%_CRUSHER POCKETS","oid":"826307302","speedLimit":1.1111112},"geometry":{"type":"Polygon","coordinates":[[[-121.023297558298,50.4813218321771],[-121.02333700882,50.4814774957966],[-121.023541728849,50.4814380406413],[-121.023460714385,50.4811891765753],[-121.023052401485,50.4811898955759],[-121.023057755484,50.4813605683318],[-121.023282623458,50.4813265955558],[-121.023297558298,50.4813218321771]]]}},{"type":"Feature","id":"849417440","properties":{"name":"iSP_Permissions_35_KPH_June_19_NS","oid":"849417440","speedLimit":9.722222},"geometry":{"type":"Polygon","coordinates":[[[-121.032695799742,50.4660344424446],[-121.033010417653,50.4660151193048],[-121.033217391997,50.4658142485256],[-121.033806191035,50.4653797924422],[-121.033727008202,50.4652510014684],[-121.033963147754,50.4654004637081],[-121.033426902447,50.4658087661464],[-121.033024507125,50.4661883085627],[-121.032695799742,50.4660344424446]]]}},{"type":"Feature","id":"853029148","properties":{"name":"SP_30KPH_%TR_1635 Flats_AUG_11_DS","oid":"853029148","speedLimit":8.333333},"geometry":{"type":"Polygon","coordinates":[[[-121.018589842999,50.4569711708639],[-121.017408581661,50.4572899577336],[-121.016430067827,50.4584577943798],[-121.018348913026,50.4588933289641],[-121.020692133125,50.4589874281613],[-121.020240424651,50.4572319883141],[-121.019422671692,50.4570968162103],[-121.018968427113,50.4570002005112],[-121.018589842999,50.4569711708639]]]}},{"type":"Feature","id":"883050998","properties":{"name":"iSP_22kph_%TR_4CR_Brake_Temp_CTRL_NOREMOVE","oid":"883050998","speedLimit":6.111111},"geometry":{"type":"Polygon","coordinates":[[[-121.031799427529,50.4745593623622],[-121.032188719642,50.4743127451729],[-121.032490375239,50.4745750904992],[-121.032792030836,50.4748024744238],[-121.032969839973,50.474884889862],[-121.033178645949,50.4749350401505],[-121.033462548811,50.4749598456695],[-121.033666423472,50.4749222778907],[-121.033827607032,50.4748628704701],[-121.033918765917,50.4748108328052],[-121.03400809317,50.4747476506317],[-121.03405853348,50.4746584945633],[-121.034052756796,50.4745483077287],[-121.034056560953,50.4744839571793],[-121.033994426382,50.4743799717245],[-121.033876074816,50.4742598986324],[-121.033509184964,50.4739379661353],[-121.033060857963,50.4735603110954],[-121.032947578608,50.4734257681172],[-121.03282260499,50.4732212124602],[-121.032605768015,50.4728152467736],[-121.032252263161,50.4722093090586],[-121.032487275555,50.472156462518],[-121.032430213193,50.472205983681],[-121.032902774086,50.4730491915782],[-121.03304197807,50.4733099191533],[-121.033249797783,50.4735472792104],[-121.033742788411,50.4739619627787],[-121.034097843107,50.4742714925162],[-121.034203232358,50.4743948011109],[-121.034255926983,50.4744620276625],[-121.034262971719,50.4745931553881],[-121.034238033354,50.4746791658291],[-121.034183507097,50.4747919590407],[-121.03408600795,50.4748761719803],[-121.033973151279,50.4749380060278],[-121.033790551721,50.475016466963],[-121.033531023646,50.475064729875],[-121.033263041887,50.4750684147529],[-121.033071425067,50.4750266228458],[-121.03280767015,50.4749168853866],[-121.032656912799,50.4748354585741],[-121.032495306554,50.4747056789745],[-121.032144760489,50.4744134052502],[-121.031799427529,50.4745593623622]]]}},{"type":"Feature","id":"883053336","properties":{"name":"iSP_22kph_%TR_Brake_Temp_CTRL_NOREMOVE","oid":"883053336","speedLimit":6.111111},"geometry":{"type":"Polygon","coordinates":[[[-121.032466000452,50.4721455876347],[-121.032251136004,50.4722258460713],[-121.031488472881,50.4710086680122],[-121.030816545958,50.4699236961795],[-121.030661279976,50.4696605419775],[-121.030596468405,50.4694580534471],[-121.030550114042,50.4692570927929],[-121.030596468405,50.4689732673251],[-121.030722710074,50.4686246419325],[-121.030884457214,50.4683758677416],[-121.031088895453,50.4680981537784],[-121.031688261595,50.4675368839727],[-121.03243218572,50.4668940076043],[-121.032788508468,50.4665565267203],[-121.033147649111,50.4662227307141],[-121.033484528388,50.4658710495692],[-121.033779561933,50.4660344424446],[-121.033587522428,50.4659936391633],[-121.032919399663,50.4666524234189],[-121.032554623232,50.4669916119292],[-121.032178575222,50.4673080620471],[-121.031774348269,50.4676687306989],[-121.031381956472,50.4680347918548],[-121.031147084973,50.4682867116732],[-121.031008726357,50.468470236564],[-121.030905027843,50.4686548399557],[-121.03082852201,50.468853373983],[-121.03076765549,50.4691916637427],[-121.030776390963,50.4694009827783],[-121.03087360832,50.4696307034546],[-121.03102760625,50.4699354698135],[-121.031330529899,50.4704041682982],[-121.031530600402,50.470711361284],[-121.031750255272,50.4710832643194],[-121.032146028542,50.4717291964401],[-121.032381322725,50.4721454977596],[-121.032466000452,50.4721455876347]]]}},{"type":"Feature","id":"883059532","properties":{"name":"iSP_22kph_%TR_Brake_CTRL_NOREMOVE","oid":"883059532","speedLimit":6.111111},"geometry":{"type":"Polygon","coordinates":[[[-121.027262053947,50.4773223916077],[-121.027029859447,50.4772102275216],[-121.027334332939,50.4769444669427],[-121.027716298526,50.4766328700785],[-121.028033029858,50.4763231605908],[-121.028190268366,50.4761692045977],[-121.028621124422,50.475692776857],[-121.028907140705,50.4753261764507],[-121.029263745242,50.4748880354894],[-121.029472551218,50.4746571464372],[-121.02969136072,50.474540848098],[-121.029801399496,50.4744886306829],[-121.029952156847,50.474593065513],[-121.029788578077,50.4745424658492],[-121.029555960893,50.4747919590407],[-121.029251769191,50.4751734787085],[-121.029072832896,50.4754784248175],[-121.028853037132,50.4757751922953],[-121.028695939518,50.4759751643238],[-121.028408796078,50.4762710330508],[-121.028041483541,50.4765704069056],[-121.027243737633,50.477219844154],[-121.027262053947,50.4773223916077]]]}},{"type":"Feature","id":"884401102","properties":{"name":"SP_25KPH_MAIN INT. DUST_AUG_ 7_NS","oid":"884401102","speedLimit":6.9444447},"geometry":{"type":"Polygon","coordinates":[[[-121.03577294044,50.4609094065114],[-121.035954835524,50.4612029384866],[-121.038295237728,50.4609924510751],[-121.038278893941,50.4603982869941],[-121.03812038738,50.4605661736229],[-121.035903690741,50.4608514370919],[-121.035710524079,50.4607572480196],[-121.03577294044,50.4609094065114]]]}},{"type":"Feature","id":"908328496","properties":{"name":"SP_15KPH_%TR_9019_SOFT_GROUND_AUG_13_NS","oid":"908328496","speedLimit":4.1666665},"geometry":{"type":"Polygon","coordinates":[[[-121.039287277456,50.4643962895624],[-121.039589214842,50.4649891055174],[-121.038652969424,50.4651686759052],[-121.038202529002,50.4657217670797],[-121.037624719753,50.4662172483349],[-121.037445078984,50.4665120385612],[-121.037342366733,50.4667331312308],[-121.036963641724,50.467023877079],[-121.035974842574,50.4664712352799],[-121.037881711723,50.4651402753834],[-121.038520810176,50.4648147478836],[-121.039287277456,50.4643962895624]]]}},{"type":"Feature","id":"910445950","properties":{"name":"SP_30KPH_%TR_1635_FLATS_AUG_11_DS","oid":"910445950","speedLimit":8.333333},"geometry":{"type":"Polygon","coordinates":[[[-121.020225208021,50.4571644022622],[-121.019044087578,50.4569615542315],[-121.018650427729,50.4569229079519],[-121.017454090656,50.4572319883141],[-121.018090089425,50.4544693185688],[-121.018771456294,50.4538994207565],[-121.018938134748,50.4535130478349],[-121.019558916887,50.454517671356],[-121.020225208021,50.4571450791224],[-121.020210132286,50.4571450791224],[-121.020225208021,50.4571644022622]]]}},{"type":"Feature","id":"915576987","properties":{"name":"iSP_15kph_prevent shifting","oid":"915576987","speedLimit":4.1666665},"geometry":{"type":"Polygon","coordinates":[[[-121.036998301825,50.4448635610718],[-121.03751242666,50.4453134756671],[-121.037981746975,50.4457959250373],[-121.038525741491,50.4462192366122],[-121.039458464542,50.4468503393466],[-121.039915808805,50.4471001021632],[-121.040471779372,50.4471954596114],[-121.041225002548,50.4473231720844],[-121.041643459869,50.4475100223528],[-121.042322008843,50.4480954685522],[-121.042704678904,50.4485282170093],[-121.04284810973,50.4487952358392],[-121.04300957508,50.4493920062972],[-121.043188793164,50.4501985451662],[-121.043326306412,50.4505016937738],[-121.043687983159,50.4511691060361],[-121.043858465771,50.4514894207819],[-121.044127433793,50.4522539879937],[-121.044384566658,50.452938566394],[-121.044698339201,50.453798491054],[-121.044737226144,50.4541951097334],[-121.044572802005,50.4550722005315],[-121.04421718373,50.456839683638],[-121.044052759591,50.4572077220455],[-121.043006475396,50.458399375585],[-121.041906510312,50.4595377332087],[-121.041344622166,50.4600010391892],[-121.040373153068,50.4605978995223],[-121.039924685172,50.4607313639997],[-121.039135533842,50.4608075780582],[-121.038944339706,50.4608056906818],[-121.039001120278,50.4612938021814],[-121.03906085964,50.4609277410254],[-121.039879880651,50.4608801072389],[-121.040707918924,50.4606322317986],[-121.041512005094,50.4600582896082],[-121.042875020622,50.4587006368162],[-121.044243953727,50.4571428322457],[-121.044429371179,50.4562905469666],[-121.04481500003,50.4544219544075],[-121.044811900346,50.4537869870452],[-121.044261988251,50.4523017116553],[-121.043834513669,50.4511862721742],[-121.043347299725,50.450337761648],[-121.043051420812,50.4493100402343],[-121.042928842405,50.4486922390102],[-121.042241276168,50.4478875875176],[-121.041547792353,50.4473918366371],[-121.041093406879,50.4472221525069],[-121.040459803321,50.4471306596867],[-121.039918767594,50.4470200234768],[-121.038821761299,50.446333647575],[-121.038197034108,50.4458721390958],[-121.037153849597,50.4449073302304],[-121.037378013097,50.4446976516945],[-121.036998301825,50.4448635610718]]]}},{"type":"Feature","id":"919196848","properties":{"name":"SP_15kph_%TR_1445bench_aug11_DS","oid":"919196848","speedLimit":4.1666665},"geometry":{"type":"Polygon","coordinates":[[[-121.037950186557,50.4666027225058],[-121.038171391269,50.4661905554394],[-121.038502493862,50.4655874038515],[-121.038788932829,50.4653575933002],[-121.039388017181,50.4645710066965],[-121.040016830319,50.4646084846003],[-121.039130461632,50.4660047836719],[-121.038954061442,50.4664606300217],[-121.039056069219,50.4670053628148],[-121.039009714856,50.4672540471306],[-121.038786396724,50.4677763111564],[-121.037523980028,50.4673163305534],[-121.037745889213,50.4668802567188],[-121.037950186557,50.4666027225058]]]}},{"type":"Feature","id":"919564513","properties":{"name":"SP_15KPH_BAT_CONST_AUG_12_DS","oid":"919564513","speedLimit":4.1666665},"geometry":{"type":"Polygon","coordinates":[[[-121.041338141009,50.4520311876977],[-121.040125460149,50.4521457784106],[-121.040135463674,50.4530593584868],[-121.041298126908,50.4530370694696],[-121.041338141009,50.4520311876977]]]}}]}