{"type":"FeatureCollection","features":[{"type":"Feature","id":"702602533","properties":{"name":"iSP_4KPH_%TR_CR01_SLOW BUMP","oid":"702602533","speedLimit":1.1111112},"geometry":{"type":"Polygon","coordinates":[[[-121.033355853782,50.4648092953318],[-121.033650621023,50.4646922757301],[-121.033694018877,50.4647329899234],[-121.033366139637,50.4648711305745],[-121.033355853782,50.4648092953318]]]}},{"type":"Feature","id":"707947583","properties":{"name":"iSP_22KPH_%TR_Permission Gate 1 from west dump_Jun","oid":"707947583","speedLimit":6.111111},"geometry":{"type":"Polygon","coordinates":[[[-121.03862587499,50.4619793443351],[-121.038852586506,50.461800848998],[-121.037978288832,50.4613523637351],[-121.037741150559,50.4615436215787],[-121.037957294416,50.4614978742843],[-121.038664341269,50.4618474051836],[-121.03862587499,50.4619793443351]]]}},{"type":"Feature","id":"742345972","properties":{"name":"iSP_4KPH_%TR_CR01_PITSIDE_SLOW BUMP","oid":"742345972","speedLimit":1.1111112},"geometry":{"type":"Polygon","coordinates":[[[-121.033395729083,50.4648842525882],[-121.033703036613,50.4647457524298],[-121.033753197769,50.4647778384496],[-121.033471675327,50.4649197539266],[-121.033395729083,50.4648842525882]]]}},{"type":"Feature","id":"776427243","properties":{"name":"iSP_7KPH_%TR_CR1_PermissionBlocker_DO_NOT_DELETE","oid":"776427243","speedLimit":1.9444444},"geometry":{"type":"Polygon","coordinates":[[[-121.034096998949,50.4652142802205],[-121.034048528619,50.4652345923787],[-121.0340273933,50.4652760255864],[-121.034113061791,50.4652269528502],[-121.034096998949,50.4652142802205]]]}},{"type":"Feature","id":"794004438","properties":{"name":"iSP_11KPH_%TR_LOWER_FUEL_BAY","oid":"794004438","speedLimit":3.0555556},"geometry":{"type":"Polygon","coordinates":[[[-121.036773998386,50.4606968023107],[-121.036776111918,50.4607266414103],[-121.03674638157,50.4606721760658],[-121.037122590238,50.4606004543744],[-121.037532615417,50.4605574033843],[-121.037540365033,50.4605827486436],[-121.036941812814,50.4606515942772],[-121.036773998386,50.4606968023107]]]}},{"type":"Feature","id":"801543391","properties":{"name":"iSP_4KPH_%TR_CR1_PermissionBlocker_DO_NOT_DELETE_","oid":"801543391","speedLimit":1.1111112},"geometry":{"type":"Polygon","coordinates":[[[-121.033152391116,50.4645247453634],[-121.033151545703,50.46447531312],[-121.033173103728,50.4644332507747],[-121.033105048003,50.4644608429542],[-121.033152391116,50.4645247453634]]]}},{"type":"Feature","id":"806473874","properties":{"name":"iSP_4KPH_%TR_Permission Blocker - DO NOT DELETE","oid":"806473874","speedLimit":1.1111112},"geometry":{"type":"Polygon","coordinates":[[[-121.022715489054,50.4815469630729],[-121.022682377056,50.481544626276],[-121.022674768341,50.4815732969772],[-121.022696889974,50.4815743754988],[-121.022700976136,50.4815502885148],[-121.022715489054,50.4815469630729]]]}},{"type":"Feature","id":"824566967","properties":{"name":"iSP_4Cr_3KPH","oid":"824566967","speedLimit":0.8333333},"geometry":{"type":"Polygon","coordinates":[[[-121.023298401138,50.4810700767393],[-121.023278252134,50.4810700767393],[-121.023275574994,50.4811881748626],[-121.023300655572,50.4811874558482],[-121.023298401138,50.4810700767393]]]}},{"type":"Feature","id":"826307302","properties":{"name":"iSP_4KPH_TR%_CRUSHER POCKETS","oid":"826307302","speedLimit":1.1111112},"geometry":{"type":"Polygon","coordinates":[[[-121.023293610465,50.4813232597023],[-121.02333306306,50.4814789263306],[-121.023537793845,50.4814394704127],[-121.023456775124,50.4811906015364],[-121.023048440771,50.4811913205508],[-121.023053795052,50.4813619966058],[-121.02327867484,50.481328023173],[-121.023293610465,50.4813232597023]]]}},{"type":"Feature","id":"849417440","properties":{"name":"iSP_Permissions_35_KPH_June_19_NS","oid":"849417440","speedLimit":9.722222},"geometry":{"type":"Polygon","coordinates":[[[-121.032692345684,50.4660355744756],[-121.033006980125,50.4660162509622],[-121.033213965344,50.4658153763004],[-121.033802795316,50.4653809118192],[-121.033723608323,50.4652521183559],[-121.033959760281,50.4654015834846],[-121.033423486801,50.4658098938152],[-121.033021070337,50.4661894435678],[-121.032692345684,50.4660355744756]]]}},{"type":"Feature","id":"853029148","properties":{"name":"SP_30KPH_%TR_1635 Flats_July_29_NS","oid":"853029148","speedLimit":8.333333},"geometry":{"type":"Polygon","coordinates":[[[-121.018585647827,50.4569721277083],[-121.017404324427,50.4572909207399],[-121.016425759182,50.4584587799596],[-121.018344705196,50.4588943229624],[-121.020688048405,50.4589884239785],[-121.020236316199,50.4572329501999],[-121.019418520276,50.4570977754834],[-121.018964251831,50.4570011579167],[-121.018585647827,50.4569721277083]]]}},{"type":"Feature","id":"883050998","properties":{"name":"iSP_22kph_%TR_4CR_Brake_Temp_CTRL_NOREMOVE","oid":"883050998","speedLimit":6.111111},"geometry":{"type":"Polygon","coordinates":[[[-121.031795926377,50.4745606591737],[-121.032185238943,50.4743140372175],[-121.032486910389,50.4745763876148],[-121.032788581834,50.4748037759345],[-121.032966400314,50.4748861929657],[-121.03317521726,50.4749363442236],[-121.033459135038,50.4749611502221],[-121.03366302041,50.4749235817171],[-121.033824212439,50.4748641731482],[-121.033915376113,50.4748121344774],[-121.034004708059,50.4747489510827],[-121.034055151019,50.4746597932909],[-121.034049374032,50.4745496043265],[-121.034053178389,50.4744852525333],[-121.033991040553,50.4743812650685],[-121.033872682769,50.4742611896554],[-121.033505773641,50.4739392509356],[-121.033057423085,50.473561588596],[-121.032944137778,50.4734270430171],[-121.032819157595,50.4732224834062],[-121.032602309228,50.4728165098726],[-121.032248785801,50.4722105604453],[-121.032483810542,50.4721577128832],[-121.032426745182,50.4722072350034],[-121.032899330903,50.4730504591992],[-121.033038542201,50.473311191814],[-121.033246372832,50.4735485564591],[-121.033739389361,50.4739632480429],[-121.034094462711,50.4742727837634],[-121.034199857499,50.4743960947415],[-121.034252554893,50.4744633225926],[-121.034259599999,50.4745944528528],[-121.034234660324,50.4746804649564],[-121.034180131202,50.4747932603481],[-121.034082626933,50.4748774749155],[-121.033969764332,50.4749393101582],[-121.033787155181,50.47501777261],[-121.03352761347,50.4750660364549],[-121.033259617632,50.475069721404],[-121.033067990744,50.4750279286891],[-121.03280422197,50.4749181891087],[-121.032653456698,50.4748367607223],[-121.032491841963,50.4747069786142],[-121.032141277481,50.4744146992404],[-121.031795926377,50.4745606591737]]]}},{"type":"Feature","id":"883053336","properties":{"name":"iSP_22kph_%TR_Brake_Temp_CTRL_NOREMOVE","oid":"883053336","speedLimit":6.111111},"geometry":{"type":"Polygon","coordinates":[[[-121.032462534321,50.4721468377897],[-121.032247658584,50.4722270977776],[-121.031484955391,50.4710098961913],[-121.030812993166,50.4699249033869],[-121.030657719027,50.4696617440983],[-121.03059290405,50.469459251654],[-121.030546547252,50.4692582871153],[-121.03059290405,50.4689744561614],[-121.030719152352,50.4686258240301],[-121.03088090799,50.4683770450306],[-121.03108535697,50.4680993256994],[-121.031684754602,50.4675380450447],[-121.032428717812,50.46689515625],[-121.032785059281,50.4665576688427],[-121.033144218793,50.4662238663845],[-121.033481115769,50.4658721784419],[-121.033776164815,50.4660355744756],[-121.033584115221,50.4659947704055],[-121.032915957354,50.466653567395],[-121.032551161757,50.4669927624615],[-121.03217509399,50.4673092186962],[-121.031770845799,50.4676698943194],[-121.031378433386,50.4680359625511],[-121.031143549547,50.4682878872388],[-121.031005183662,50.4684714156771],[-121.0309014797,50.468656022637],[-121.030824969847,50.4688545605019],[-121.03076410013,50.4691928568004],[-121.030772836061,50.469402179882],[-121.030870058526,50.4696319049987],[-121.031024064547,50.4699366772485],[-121.031327004111,50.4704053847928],[-121.031527085126,50.4707125837164],[-121.031746751536,50.4710844939404],[-121.0321425456,50.4717304385466],[-121.032377852145,50.4721467479129],[-121.032462534321,50.4721468377897]]]}},{"type":"Feature","id":"883059532","properties":{"name":"iSP_22kph_%TR_Brake_CTRL_NOREMOVE","oid":"883059532","speedLimit":6.111111},"geometry":{"type":"Polygon","coordinates":[[[-121.027258314405,50.4773237418266],[-121.027026107706,50.4772115755725],[-121.027330597194,50.4769458098565],[-121.02771258285,50.4766342069694],[-121.028029330823,50.4763244914953],[-121.028186577592,50.4761705325263],[-121.028617456284,50.4756940955766],[-121.028903487594,50.4753274880842],[-121.029260110868,50.474889338654],[-121.029468927814,50.4746584451388],[-121.029687748811,50.4745421445516],[-121.02979779337,50.4744899261272],[-121.029948558641,50.474594362976],[-121.029784971276,50.4745437623341],[-121.029552341871,50.4747932603481],[-121.029248134187,50.4751747873904],[-121.029069188491,50.4754797393939],[-121.028849381179,50.4757765126079],[-121.028692275312,50.4759764885017],[-121.028405116785,50.4762723629477],[-121.02803778495,50.4765717425891],[-121.027239997129,50.4772211923907],[-121.027258314405,50.4773237418266]]]}},{"type":"Feature","id":"886231481","properties":{"name":"SP_15KPH_%TR_1200_SWITCHBACK_July_29_NS","oid":"886231481","speedLimit":4.1666665},"geometry":{"type":"Polygon","coordinates":[[[-121.036906305479,50.4452285545803],[-121.036965343469,50.4446815643378],[-121.036280840955,50.444746814899],[-121.03603693938,50.4452762791643],[-121.036520797271,50.44534647295],[-121.036615201693,50.4451030865588],[-121.036769207714,50.4451322965208],[-121.036906305479,50.4452285545803]]]}},{"type":"Feature","id":"899288147","properties":{"name":"SP_30KPH_%TR_1185_BENCH_JULY_29_NS","oid":"899288147","speedLimit":8.333333},"geometry":{"type":"Polygon","coordinates":[[[-121.039757319038,50.45005727587],[-121.039540752475,50.4496330573447],[-121.03983706964,50.4495904557386],[-121.040148181528,50.4505444081595],[-121.040331776994,50.450954605903],[-121.040197638173,50.4511943073452],[-121.040015029021,50.4506018394387],[-121.039757319038,50.45005727587]]]}},{"type":"Feature","id":"902935346","properties":{"name":"SP_20KPH_%TRX_NEW LANES_July29_NS","oid":"902935346","speedLimit":5.5555553},"geometry":{"type":"Polygon","coordinates":[[[-121.039149608181,50.4482807709187],[-121.039118468812,50.4482918257658],[-121.039073521035,50.4483249004305],[-121.039243448995,50.4487269193846],[-121.039507781378,50.4492687866492],[-121.039625716455,50.4495848833766],[-121.039827488295,50.4495430906617],[-121.03970631247,50.4493146238204],[-121.039224145404,50.4482988361567],[-121.039149608181,50.4482807709187]]]}},{"type":"Feature","id":"908328496","properties":{"name":"SP_15KPH_%TR_9019_SOFT_GROUND_July 29_NS","oid":"908328496","speedLimit":4.1666665},"geometry":{"type":"Polygon","coordinates":[[[-121.038997152084,50.4644904124234],[-121.039321790576,50.4647040495918],[-121.039500877174,50.4648797587479],[-121.039388859986,50.4652169765247],[-121.039349125588,50.4661498078962],[-121.0381022827,50.4665995514344],[-121.03802591375,50.4662279108408],[-121.037878530129,50.4651413901307],[-121.038517662159,50.4648158563387],[-121.038997152084,50.4644904124234]]]}},{"type":"Feature","id":"908575258","properties":{"name":"iSP_15km_permissions ","oid":"908575258","speedLimit":4.1666665},"geometry":{"type":"Polygon","coordinates":[[[-121.041867187429,50.4595517717997],[-121.041457021349,50.4599143348359],[-121.041081376289,50.4602074231009],[-121.040686004931,50.4604250148487],[-121.040344880891,50.460585804455],[-121.039954441108,50.4607150473023],[-121.03951454468,50.4607811966317],[-121.039173561542,50.4607970149496],[-121.039119173323,50.4612131445623],[-121.039252607633,50.4609388405498],[-121.039801280501,50.4608474358379],[-121.040270766375,50.4607056102377],[-121.04093807883,50.4603934680898],[-121.041540999014,50.4599868654185],[-121.041941442848,50.4596526135763],[-121.042089671882,50.4595296621054],[-121.041941442848,50.45949182397],[-121.041867187429,50.4595517717997]]]}},{"type":"Feature","id":"910445950","properties":{"name":"SP_30KPH_%TR_1635_FLATS_JULY29_NS","oid":"910445950","speedLimit":8.333333},"geometry":{"type":"Polygon","coordinates":[[[-121.020221098769,50.4571653628416],[-121.019039916271,50.45696251089],[-121.01864623574,50.4569238638634],[-121.017449835812,50.4572329501999],[-121.018085867996,50.4544702270542],[-121.018767270663,50.4539003182261],[-121.018933957875,50.4535139378363],[-121.019554772629,50.4545185807759],[-121.020221098769,50.4571460393283],[-121.020206022242,50.4571460393283],[-121.020221098769,50.4571653628416]]]}},{"type":"Feature","id":"913788494","properties":{"name":"SP_11KPH_ROUGH GROUND_21SH_JULY29_NS","oid":"913788494","speedLimit":3.0555556},"geometry":{"type":"Polygon","coordinates":[[[-121.040419699919,50.4520641350755],[-121.041195366106,50.4519534068503],[-121.041489006131,50.4536140605984],[-121.040512413516,50.4536169366562],[-121.040435903663,50.4524170812935],[-121.040419699919,50.4520641350755]]]}},{"type":"Feature","id":"913898324","properties":{"name":"SP_18KPH_%TR_SOFT_24SH_JULY29_NS","oid":"913898324","speedLimit":5},"geometry":{"type":"Polygon","coordinates":[[[-121.038075511297,50.4505175349945],[-121.037881770878,50.4500046979383],[-121.037775248873,50.4494794578829],[-121.037775248873,50.4492632142872],[-121.036893765191,50.4492446996651],[-121.037494290039,50.4493867948957],[-121.037504012286,50.4498996319519],[-121.037813996956,50.4505175349945],[-121.038036763213,50.4504557896286],[-121.038075511297,50.4505175349945]]]}}]}