{"type":"FeatureCollection","features":[{"type":"Feature","id":"702602533","properties":{"name":"iSP_4KPH_%TR_CR01_SLOW BUMP","oid":"702602533","speedLimit":1.1111112},"geometry":{"type":"Polygon","coordinates":[[[-121.033359797777,50.4648078785973],[-121.033654533403,50.4646908608273],[-121.033697926603,50.4647315743833],[-121.033370082529,50.4648697128721],[-121.033359797777,50.4648078785973]]]}},{"type":"Feature","id":"707947583","properties":{"name":"iSP_25KPH_%TR_Permission Gate 1 from west dump_Jun","oid":"707947583","speedLimit":6.9444447},"geometry":{"type":"Polygon","coordinates":[[[-121.038629253754,50.4619779718967],[-121.038855940955,50.4617994793535],[-121.038140939375,50.46140825174],[-121.037993289788,50.4616709575324],[-121.038192785795,50.4615668818199],[-121.038667715908,50.4618460348104],[-121.038629253754,50.4619779718967]]]}},{"type":"Feature","id":"742345972","properties":{"name":"iSP_4KPH_%TR_CR01_PITSIDE_SLOW BUMP","oid":"742345972","speedLimit":1.1111112},"geometry":{"type":"Polygon","coordinates":[[[-121.033399668801,50.4648828346804],[-121.033706943371,50.46474433669],[-121.033757099147,50.4647764222076],[-121.0334756069,50.4649183354632],[-121.033399668801,50.4648828346804]]]}},{"type":"Feature","id":"776427243","properties":{"name":"iSP_7KPH_%TR_CR1_PermissionBlocker_DO_NOT_DELETE","oid":"776427243","speedLimit":1.9444444},"geometry":{"type":"Polygon","coordinates":[[[-121.034100863454,50.465212857147],[-121.034052398322,50.4652331689873],[-121.03403126527,50.4652746015464],[-121.034116924573,50.4652255295783],[-121.034100863454,50.465212857147]]]}},{"type":"Feature","id":"794004438","properties":{"name":"iSP_11KPH_%TR_LOWER_FUEL_BAY","oid":"794004438","speedLimit":3.0555556},"geometry":{"type":"Polygon","coordinates":[[[-121.036777575772,50.4606954499474],[-121.036779689077,50.46072528858],[-121.036749961917,50.460670824088],[-121.037126130236,50.4605991035192],[-121.037536111438,50.4605560532029],[-121.037543860223,50.4605813980656],[-121.036945372201,50.4606502426215],[-121.036777575772,50.4606954499474]]]}},{"type":"Feature","id":"801543391","properties":{"name":"iSP_4KPH_%TR_CR1_PermissionBlocker_DO_NOT_DELETE_","oid":"801543391","speedLimit":1.1111112},"geometry":{"type":"Polygon","coordinates":[[[-121.033156356933,50.4645233330829],[-121.033155511611,50.4644739016132],[-121.033177067324,50.4644318399263],[-121.033109018898,50.4644594316739],[-121.033156356933,50.4645233330829]]]}},{"type":"Feature","id":"806473874","properties":{"name":"iSP_4KPH_%TR_Permission Blocker - DO NOT DELETE","oid":"806473874","speedLimit":1.1111112},"geometry":{"type":"Polygon","coordinates":[[[-121.02272057427,50.4815452843506],[-121.022687465822,50.4815429475902],[-121.022679857924,50.4815716178426],[-121.022701977185,50.4815726963474],[-121.022706062908,50.4815486097404],[-121.02272057427,50.4815452843506]]]}},{"type":"Feature","id":"824566967","properties":{"name":"iSP_4Cr_3KPH","oid":"824566967","speedLimit":0.8333333},"geometry":{"type":"Polygon","coordinates":[[[-121.023303423834,50.4810684054815],[-121.023283276991,50.4810684054815],[-121.023280600138,50.4811865017563],[-121.023305678026,50.4811857827531],[-121.023303423834,50.4810684054815]]]}},{"type":"Feature","id":"826307302","properties":{"name":"iSP_4KPH_TR%_CRUSHER POCKETS","oid":"826307302","speedLimit":1.1111112},"geometry":{"type":"Polygon","coordinates":[[[-121.023298633675,50.4813215844815],[-121.023338082038,50.4814772486733],[-121.023542790865,50.481437793373],[-121.023461780834,50.481188928392],[-121.023053490276,50.4811896473952],[-121.023058843983,50.4813603207787],[-121.023283699652,50.4813263478777],[-121.023298633675,50.4813215844815]]]}},{"type":"Feature","id":"835348611","properties":{"name":"SP_35KPH_%TR_switchback to 1 gate_SEP_7_NS","oid":"835348611","speedLimit":9.722222},"geometry":{"type":"Polygon","coordinates":[[[-121.039921046756,50.463403395731],[-121.039548823274,50.4634578602231],[-121.039801997232,50.4633741862262],[-121.03954572376,50.4629227420951],[-121.039365811047,50.4625822940822],[-121.039179699306,50.4622611692802],[-121.038987529423,50.4620179664494],[-121.038746612634,50.4618369573951],[-121.038563600407,50.4617300056698],[-121.038077399333,50.4614747595355],[-121.038040064275,50.4615169110978],[-121.037959476905,50.4615573550276],[-121.038034287908,50.461373829462],[-121.038145729533,50.4613856031393],[-121.03848428102,50.4615703869605],[-121.038868057238,50.4617907614398],[-121.039055577849,50.4619262036666],[-121.039240139833,50.4621304904495],[-121.03945428809,50.4625355588745],[-121.039582354382,50.462753506718],[-121.039759308468,50.4630609704594],[-121.039863001308,50.4632594153412],[-121.039944997548,50.4633238560026],[-121.039921046756,50.463403395731]]]}},{"type":"Feature","id":"859384545","properties":{"name":"SP_30KPH_MAINT_CREW_L1590_ROUGH_SEP_7_NS","oid":"859384545","speedLimit":8.333333},"geometry":{"type":"Polygon","coordinates":[[[-121.013973745092,50.4518292417974],[-121.013917812949,50.451152929417],[-121.013838352675,50.449761568359],[-121.012656733315,50.4498956624549],[-121.013142511728,50.4500386542153],[-121.013401884715,50.4517967069028],[-121.013225353291,50.4523054016634],[-121.012545573464,50.4524638519925],[-121.013761428367,50.4524430008999],[-121.013973745092,50.4518292417974]]]}},{"type":"Feature","id":"875953603","properties":{"name":"SP_35_KPH_%TR_CR01_YARD_LOADED_Sept_07_NS","oid":"875953603","speedLimit":9.722222},"geometry":{"type":"Polygon","coordinates":[[[-121.038111634877,50.4622576641396],[-121.03836551327,50.4628959592261],[-121.03831648459,50.4633432690889],[-121.038102336334,50.4637140051114],[-121.037626279125,50.4639750032712],[-121.037929045311,50.4642049944182],[-121.037829719968,50.4640212891019],[-121.038275768244,50.4637269471689],[-121.038557119605,50.4631644170441],[-121.038356637388,50.4621660811076],[-121.038111634877,50.4622576641396]]]}},{"type":"Feature","id":"878230085","properties":{"name":"SP_35KPH_TR%_PUNCH_OUT_L1590_DMP_Sep 7_NS","oid":"878230085","speedLimit":9.722222},"geometry":{"type":"Polygon","coordinates":[[[-121.013763400785,50.4533974776414],[-121.013625895062,50.4529076567147],[-121.013786224481,50.4525128340852],[-121.013098836755,50.4524616949829],[-121.013066432743,50.4528628987658],[-121.013205910883,50.4533673693826],[-121.013611242813,50.45458194553],[-121.013329891453,50.4549545689359],[-121.013045158804,50.4549499852905],[-121.013784252063,50.4551888741021],[-121.014084341396,50.4546989633],[-121.013992623952,50.4541359837982],[-121.013763400785,50.4533974776414]]]}},{"type":"Feature","id":"883050998","properties":{"name":"iSP_22kph_%TR_4CR_Brake_Temp_CTRL_NOREMOVE","oid":"883050998","speedLimit":6.111111},"geometry":{"type":"Polygon","coordinates":[[[-121.03180003768,50.4745590898051],[-121.032189308491,50.4743124717092],[-121.032490947581,50.474574818],[-121.032792586671,50.4748022027605],[-121.032970386079,50.4748846185017],[-121.033179180629,50.4749347689746],[-121.033463067956,50.4749595745848],[-121.03366693146,50.4749220066679],[-121.033828106201,50.4748625990289],[-121.033919260097,50.4748105611726],[-121.034008582461,50.4747473787668],[-121.034059020011,50.4746582223707],[-121.034053243644,50.474548035131],[-121.034057047593,50.474483684345],[-121.033994916421,50.4743796985079],[-121.033876571332,50.4742596249744],[-121.033509701556,50.4739376912937],[-121.033061399088,50.4735600348655],[-121.032948125931,50.4734254913926],[-121.032823159153,50.4732209349836],[-121.032606334043,50.4728149678045],[-121.032252848533,50.4722090278618],[-121.032487848067,50.472156181127],[-121.032430788828,50.4722057024721],[-121.032903323862,50.4730489134692],[-121.033042520228,50.4733096420028],[-121.033250328569,50.4735470029326],[-121.03374329222,50.4739616880254],[-121.034098327487,50.4742712189009],[-121.034203710971,50.4743945279488],[-121.034256402713,50.4744617547476],[-121.034263447064,50.4745928829553],[-121.034238510063,50.4746788937125],[-121.03418398679,50.4747916873388],[-121.034086492978,50.474875900588],[-121.033973642483,50.4749377348628],[-121.033791052917,50.4750161960864],[-121.033531539043,50.4750644591759],[-121.033263571948,50.4750681440673],[-121.033071965614,50.4750263520066],[-121.03280822513,50.4749166141439],[-121.032657476028,50.4748351870321],[-121.032495878627,50.4747054069553],[-121.032145351744,50.4744131321565],[-121.03180003768,50.4745590898051]]]}},{"type":"Feature","id":"883053336","properties":{"name":"iSP_22kph_%TR_Brake_Temp_CTRL_NOREMOVE","oid":"883053336","speedLimit":6.111111},"geometry":{"type":"Polygon","coordinates":[[[-121.032466574128,50.4721453062037],[-121.032251721437,50.4722255649353],[-121.031489100048,50.4710083824014],[-121.030817209893,50.4699234065799],[-121.030661952407,50.4696602514105],[-121.030597144382,50.4694577621357],[-121.030550792556,50.4692568007426],[-121.030597144382,50.4689729742313],[-121.030723379144,50.4686243475571],[-121.030885117432,50.4683755724516],[-121.031089544485,50.4680978574675],[-121.031688877829,50.4675365855983],[-121.032432761246,50.4668937068664],[-121.032789064496,50.4665562247417],[-121.033148185487,50.4662224275084],[-121.033485046329,50.4658707450705],[-121.03378006373,50.4660341385466],[-121.033588034734,50.4659933351153],[-121.032919948529,50.4666521217929],[-121.032555192058,50.4669913115502],[-121.032179164626,50.4673077628314],[-121.031774959792,50.4676684328092],[-121.031382589467,50.4680344953109],[-121.03114773082,50.4682864160554],[-121.031009379776,50.468469941621],[-121.030905686936,50.4686545456913],[-121.030829185289,50.4688530804486],[-121.0307683221,50.4691913714519],[-121.030777057095,50.469400691257],[-121.030874269132,50.4696304127779],[-121.031028258635,50.4699351802572],[-121.031331165708,50.4704038804651],[-121.031531225264,50.4707110745802],[-121.031750868114,50.4710829789829],[-121.032146619727,50.4717289134783],[-121.032381901035,50.4721452163283],[-121.032466574128,50.4721453062037]]]}},{"type":"Feature","id":"883059532","properties":{"name":"iSP_22kph_%TR_Brake_CTRL_NOREMOVE","oid":"883059532","speedLimit":6.111111},"geometry":{"type":"Polygon","coordinates":[[[-121.027262912385,50.4773221292086],[-121.027030730591,50.4772099647102],[-121.027335187421,50.4769442031542],[-121.027717132108,50.4766326051445],[-121.028033846108,50.4763228945182],[-121.028191076012,50.476168937959],[-121.028621908491,50.4756925084668],[-121.028907909123,50.4753259067127],[-121.029264494147,50.4748877641407],[-121.029473288697,50.4746568742397],[-121.029692086225,50.4745405754728],[-121.02980211898,50.4744883578658],[-121.029952868082,50.4745927930799],[-121.029789298262,50.47454219323],[-121.029556693808,50.4747916873388],[-121.029252518751,50.4751732084092],[-121.029073592248,50.4754781556393],[-121.028853808511,50.4757749242081],[-121.028696719494,50.4759748969717],[-121.028409591766,50.4762707667865],[-121.028042299329,50.4765701417419],[-121.027244597073,50.4772195813779],[-121.027262912385,50.4773221292086]]]}},{"type":"Feature","id":"884401102","properties":{"name":"SP_30KPH_MAIN INT_LIMIT_POLICY_SEPT_6_NS","oid":"884401102","speedLimit":8.333333},"geometry":{"type":"Polygon","coordinates":[[[-121.036993132898,50.461101327251],[-121.037109223795,50.4611077982798],[-121.038295492426,50.4609921286408],[-121.038279149533,50.4603979623754],[-121.038120651645,50.4605658496215],[-121.03703356747,50.4607084818803],[-121.036745876194,50.4605378084968],[-121.036993132898,50.461101327251]]]}},{"type":"Feature","id":"891249991","properties":{"name":"SP_25KPH_TR%_1590_rough section_ #1_SEPT 6_NS","oid":"891249991","speedLimit":6.9444447},"geometry":{"type":"Polygon","coordinates":[[[-121.012957949744,50.4498606110491],[-121.013848496539,50.4497487161769],[-121.013379906342,50.4450040140922],[-121.011853536467,50.4421437295066],[-121.007783874273,50.438889880547],[-121.006732716285,50.4393239787261],[-121.010931149207,50.4427668356506],[-121.011093873704,50.4430956897369],[-121.011457362192,50.4435198117467],[-121.011775344176,50.4445105082742],[-121.012957949744,50.4498606110491]]]}},{"type":"Feature","id":"901482363","properties":{"name":"SP_25KPH_1200-1185_%TRAC_RAMP_SEPT_6_NS","oid":"901482363","speedLimit":6.9444447},"geometry":{"type":"Polygon","coordinates":[[[-121.036667261242,50.4451089885587],[-121.036262070199,50.445119414105],[-121.039069243889,50.4482664910901],[-121.039088122749,50.4482637948282],[-121.038804517196,50.4476151640707],[-121.0382165957,50.4469312122814],[-121.036577375329,50.4451795407472],[-121.036695015983,50.4451089885587],[-121.036667261242,50.4451089885587]]]}},{"type":"Feature","id":"903864124","properties":{"name":"SP_15KPH_%TR_OLD_GARBAGEDUMP_SEP_6_NS","oid":"903864124","speedLimit":4.1666665},"geometry":{"type":"Polygon","coordinates":[[[-121.042485753901,50.4669870874064],[-121.042132550165,50.4673287936749],[-121.042024067166,50.4669791783712],[-121.04168692455,50.4668098531188],[-121.041835419459,50.4667103610517],[-121.042485753901,50.4669870874064]]]}},{"type":"Feature","id":"908328496","properties":{"name":"SP_15KPH_%TR_1445_SOFT_GROUND_SEPT_6_NS","oid":"908328496","speedLimit":4.1666665},"geometry":{"type":"Polygon","coordinates":[[[-121.039332279938,50.46449681984],[-121.039941334486,50.4647091055334],[-121.039189561396,50.4666747703935],[-121.038827340892,50.467427836365],[-121.038452581443,50.4678942896878],[-121.037915661045,50.4682379732151],[-121.037180653509,50.4680258672726],[-121.03831366685,50.4667052381539],[-121.038794373331,50.4655659775912],[-121.039332279938,50.46449681984]]]}},{"type":"Feature","id":"910445950","properties":{"name":"SP_22KPH_%TR_1635_FLATS_SEP_6_NS","oid":"910445950","speedLimit":6.111111},"geometry":{"type":"Polygon","coordinates":[[[-121.018917611188,50.4576034665821],[-121.015249617862,50.4587004857071],[-121.014498971868,50.4578796536844],[-121.017481831661,50.4564157631792],[-121.017774172208,50.4542397898845],[-121.018441976639,50.4540100683636],[-121.019220800035,50.4539290007534],[-121.019246159697,50.4568507601122],[-121.01915880975,50.4570731118503],[-121.019196849243,50.4574051115757],[-121.018917611188,50.4576034665821]]]}},{"type":"Feature","id":"917773475","properties":{"name":"SP_15KPH_%TR_1200_CORNER_Sept_6_NS","oid":"917773475","speedLimit":4.1666665},"geometry":{"type":"Polygon","coordinates":[[[-121.037099502591,50.4446824399132],[-121.036925366246,50.4448620109612],[-121.036629785297,50.4448204885267],[-121.03641521438,50.4448698301209],[-121.036323637823,50.4449675246801],[-121.036255025849,50.4450820259389],[-121.036242768679,50.4451448488431],[-121.03626390173,50.4452671692616],[-121.036316593472,50.4453513825109],[-121.03618472323,50.4453951518304],[-121.036089624498,50.4451941904373],[-121.036163590179,50.4449315745203],[-121.036260379555,50.4447912790219],[-121.036517216576,50.4447149748078],[-121.036714317504,50.444711649418],[-121.036923675602,50.4447699785522],[-121.037094289772,50.444683518418],[-121.037099502591,50.4446824399132]]]}},{"type":"Feature","id":"921770139","properties":{"name":"SP_30KPH_%TR_HIGHMONT_SEPT 6_NS","oid":"921770139","speedLimit":8.333333},"geometry":{"type":"Polygon","coordinates":[[[-121.002514277408,50.4281367383868],[-121.002137122881,50.4281568704763],[-121.001469459336,50.4282384773389],[-121.001504962863,50.4285897103998],[-121.002055690188,50.428607325978],[-121.002474265497,50.428580093732],[-121.002750967587,50.4285620287767],[-121.002514277408,50.4281367383868]]]}},{"type":"Feature","id":"922262468","properties":{"name":"SP_20kph_HMT_DUMP_SEP_6_NS","oid":"922262468","speedLimit":5.5555553},"geometry":{"type":"Polygon","coordinates":[[[-121.012502602925,50.4364263059743],[-121.012482737857,50.4374170025018],[-121.014763275901,50.438714803269],[-121.017333054977,50.437949693994],[-121.016524363535,50.4359055679102],[-121.014772292669,50.4353086155075],[-121.013004160684,50.4354272510347],[-121.012502602925,50.4364263059743]]]}},{"type":"Feature","id":"925542039","properties":{"name":"SP_12KPH_DRAINAGE DITCHSEPT_6_NS","oid":"925542039","speedLimit":3.3333333},"geometry":{"type":"Polygon","coordinates":[[[-121.018172459788,50.4555313892491],[-121.018489173788,50.4557206668403],[-121.018469167832,50.4558356174761],[-121.018125121752,50.4556370827188],[-121.018172459788,50.4555313892491]]]}},{"type":"Feature","id":"926367691","properties":{"name":"SP_20KPH_%TR_24SH_SEP_6_NS","oid":"926367691","speedLimit":5.5555553},"geometry":{"type":"Polygon","coordinates":[[[-121.038554865413,50.4504035483369],[-121.03807472248,50.4496787032408],[-121.037543296675,50.4498595325443],[-121.038245900198,50.452011419232],[-121.038397494622,50.453130278079],[-121.038777889551,50.4530968444304],[-121.038843402011,50.450830905861],[-121.038554865413,50.4504035483369]]]}},{"type":"Feature","id":"927549571","properties":{"name":"SP_40_KPH_TR%_CRUSHER YARD EMPTY_SEPT_7_NS","oid":"927549571","speedLimit":11.111111},"geometry":{"type":"Polygon","coordinates":[[[-121.0377556134,50.4619282708008],[-121.037449184152,50.4612607662096],[-121.036779266416,50.4614646036154],[-121.037247715727,50.4615092716889],[-121.037920732977,50.4626184239928],[-121.037947783283,50.4632583368364],[-121.037501875894,50.4637414171082],[-121.037078228653,50.4639813844245],[-121.036452549438,50.4642045450412],[-121.036236992311,50.4641030757153],[-121.036399575922,50.4643263262074],[-121.036721220967,50.4642315975364],[-121.037431573276,50.4639642182233],[-121.037847612618,50.4637352157056],[-121.037980609957,50.4635589700474],[-121.038210960219,50.4632687623828],[-121.038184614348,50.4627772338235],[-121.03802710267,50.462310870376],[-121.0377556134,50.4619282708008]]]}},{"type":"Feature","id":"929009157","properties":{"name":"iSP_22kph_Long_Single_Lane_Aug30","oid":"929009157","speedLimit":6.111111},"geometry":{"type":"Polygon","coordinates":[[[-121.005870206005,50.43788803947],[-121.004810876571,50.4381069759429],[-121.005176337477,50.4381973905947],[-121.007936595793,50.4431703761938],[-121.008525362611,50.444534774632],[-121.00821245256,50.4465096067828],[-121.00783445271,50.4466801004155],[-121.00893590736,50.4466468465177],[-121.00882517017,50.4465928314027],[-121.009405201993,50.4448175226385],[-121.008766279399,50.4430682777401],[-121.008264580754,50.4415400364489],[-121.007261042576,50.4401560451736],[-121.006441361947,50.4389838902148],[-121.005691138615,50.4380213246873],[-121.005870206005,50.43788803947]]]}},{"type":"Feature","id":"930116666","properties":{"name":"SP_15KPH_9023 Rough_SEP_6_NS","oid":"930116666","speedLimit":4.1666665},"geometry":{"type":"Polygon","coordinates":[[[-121.043598338625,50.468554334621],[-121.043298108405,50.4689179704869],[-121.042549575717,50.4684626617136],[-121.042345007777,50.4680406967135],[-121.043036903887,50.4679074114962],[-121.043598338625,50.468554334621]]]}},{"type":"Feature","id":"930976872","properties":{"name":"SP_13KPH_%TR_21SH_SEP_6_NS","oid":"930976872","speedLimit":3.6111112},"geometry":{"type":"Polygon","coordinates":[[[-121.036323215162,50.4472475736872],[-121.036212900632,50.4473473353806],[-121.036121464962,50.4473524582783],[-121.036018899218,50.4473181258758],[-121.03531136465,50.4469667130641],[-121.03551593259,50.446773840457],[-121.036323215162,50.4472475736872]]]}},{"type":"Feature","id":"932114358","properties":{"name":"SP_35KPH_%TR_23SH_LOADED_LANES_SEP_7_NS","oid":"932114358","speedLimit":9.722222},"geometry":{"type":"Polygon","coordinates":[[[-121.042099159943,50.46713978571],[-121.041266376822,50.4667317513967],[-121.040735232792,50.4664969069781],[-121.040512067767,50.4663967857832],[-121.040355119637,50.466312123157],[-121.040361177778,50.4660657746872],[-121.040451627239,50.465777005029],[-121.040517985021,50.4655114232238],[-121.040445569097,50.465130261655],[-121.040234379468,50.464414224348],[-121.039984164137,50.4634788011911],[-121.039865114613,50.4631627992869],[-121.039698304392,50.4628770853922],[-121.038921735189,50.4631293656383],[-121.039550654805,50.4630533310504],[-121.039764943948,50.4635152906033],[-121.039914565954,50.4642255758847],[-121.04008348948,50.4647222273417],[-121.040276645572,50.465384339409],[-121.040246495751,50.4657154403804],[-121.040101663904,50.465957924208],[-121.039980923736,50.4662197312464],[-121.040161963545,50.466485402927],[-121.041767230146,50.4671898463074],[-121.041839646069,50.4675478200232],[-121.042099159943,50.46713978571]]]}},{"type":"Feature","id":"932118723","properties":{"name":"SP_35KPH_%TR_1635_TO_1620_SEP_7_NS","oid":"932118723","speedLimit":9.722222},"geometry":{"type":"Polygon","coordinates":[[[-121.018237972248,50.4539384376703],[-121.018530594569,50.4537443068076],[-121.018241917084,50.4536422982293],[-121.017621591575,50.4534681197053],[-121.017126232845,50.4534432242197],[-121.016412217475,50.4534407077085],[-121.016061127044,50.4534805225104],[-121.015776394395,50.4535128776542],[-121.015503355368,50.4536049999386],[-121.01589727545,50.453831485945],[-121.015823168883,50.453667193715],[-121.016252310718,50.4536049999386],[-121.01661509477,50.4536075164498],[-121.017325165305,50.4535950237693],[-121.017742613518,50.4536547909098],[-121.018121036029,50.453714468175],[-121.018265304328,50.4537692022933],[-121.018237972248,50.4539384376703]]]}},{"type":"Feature","id":"932281958","properties":{"name":"SP_15KPH_%TR_1185-1170_22shl_SEPT_6_NS","oid":"932281958","speedLimit":4.1666665},"geometry":{"type":"Polygon","coordinates":[[[-121.037375641132,50.4481141522882],[-121.037409172241,50.447961993237],[-121.036982566372,50.4479086971252],[-121.035924645808,50.4473799601505],[-121.035454083192,50.446991878176],[-121.035098484377,50.447425976355],[-121.035349122369,50.4473476050068],[-121.036815192603,50.4479513879399],[-121.037216720584,50.4480554636524],[-121.037335065673,50.44819108563],[-121.037375641132,50.4481141522882]]]}},{"type":"Feature","id":"932364856","properties":{"name":"SP_35km_%_1170rOUGH_SEPT_6_NS","oid":"932364856","speedLimit":9.722222},"geometry":{"type":"Polygon","coordinates":[[[-121.038074440706,50.4473201031345],[-121.037832396821,50.4473890375659],[-121.037706866495,50.4473850830483],[-121.037727999546,50.4480409937131],[-121.038325501359,50.4498588135412],[-121.038777044229,50.450206900963],[-121.038722661843,50.4496639636753],[-121.038331700388,50.4483822506045],[-121.038104731413,50.4473255855339],[-121.038074440706,50.4473201031345]]]}},{"type":"Feature","id":"933252285","properties":{"name":"SP_17KPH_%TR1645_PATCH_SEP_6_NS","oid":"933252285","speedLimit":4.7222223},"geometry":{"type":"Polygon","coordinates":[[[-121.004300583818,50.4287924693008],[-121.004057412838,50.4290156299175],[-121.005062218999,50.4295095851125],[-121.005320324002,50.4293122187355],[-121.005134634922,50.4293870849432],[-121.004309177926,50.4289748264861],[-121.004300583818,50.4287924693008]]]}},{"type":"Feature","id":"933252378","properties":{"name":"SP_20KPH_%TR_1615_ROUGH_SECTION_SEP_6_NS","oid":"933252378","speedLimit":5.5555553},"geometry":{"type":"Polygon","coordinates":[[[-121.007363185659,50.4314117080652],[-121.007545634338,50.4321455407013],[-121.007054361331,50.4322075547268],[-121.007399675395,50.4321237908546],[-121.007258647497,50.4314845970142],[-121.006910797467,50.4314551178831],[-121.007363185659,50.4314117080652]]]}},{"type":"Feature","id":"933252478","properties":{"name":"SP_20KPH_%TR_1605_PATCH_SEP_6_NS","oid":"933252478","speedLimit":5.5555553},"geometry":{"type":"Polygon","coordinates":[[[-121.006594506128,50.4333407936378],[-121.007212577444,50.4334383084461],[-121.006981663634,50.4339626415262],[-121.006679460995,50.43437867475],[-121.006275256161,50.4347752050121],[-121.005741998826,50.43452382352],[-121.006214111199,50.4346039923762],[-121.006703130013,50.4339778304687],[-121.006896708766,50.433551012197],[-121.006594506128,50.4333407936378]]]}},{"type":"Feature","id":"933252549","properties":{"name":"SP_35KPH_%TR_1590_ROUGH_SEP_7_NS","oid":"933252549","speedLimit":9.722222},"geometry":{"type":"Polygon","coordinates":[[[-121.004363842086,50.4363927824503],[-121.004780444977,50.4364499432043],[-121.004884701365,50.4362111442682],[-121.005082647615,50.4359568867633],[-121.00458517558,50.4358323194597],[-121.004799182949,50.4359807936195],[-121.004628005231,50.4363680667155],[-121.004363842086,50.4363927824503]]]}},{"type":"Feature","id":"933371104","properties":{"name":"SP_12KPH_1590_HMT_INTERSECT_SEPT_6_NS","oid":"933371104","speedLimit":3.3333333},"geometry":{"type":"Polygon","coordinates":[[[-121.006262294556,50.4373387210289],[-121.00600573931,50.4376214690354],[-121.006184384039,50.4377487326009],[-121.006389092866,50.4379883404157],[-121.006554916878,50.4382642578918],[-121.007088455988,50.4381536212752],[-121.006746523213,50.4380709359078],[-121.00630878727,50.437595045668],[-121.006262294556,50.4373387210289]]]}},{"type":"Feature","id":"934006205","properties":{"name":"SP_15KPH_SINGLE_6132AMT","oid":"934006205","speedLimit":4.1666665},"geometry":{"type":"Polygon","coordinates":[[[-121.041814990842,50.4567296979492],[-121.04151532417,50.4567857801984],[-121.041639163853,50.457155617467],[-121.042622836962,50.4569520496873],[-121.04185091703,50.4570226917512],[-121.041792167147,50.4567358993518],[-121.041814990842,50.4567296979492]]]}},{"type":"Feature","id":"934074856","properties":{"name":"zfhbm xfhm","oid":"934074856","speedLimit":3.0555556},"geometry":{"type":"Polygon","coordinates":[[[-121.042568313689,50.4593708663112],[-121.04175004193,50.4590878486785],[-121.04122312451,50.4595301255189],[-121.04210592252,50.4597984934615],[-121.042568313689,50.4593708663112]]]}},{"type":"Feature","id":"934114552","properties":{"name":"dtyksk","oid":"934114552","speedLimit":2.7777777},"geometry":{"type":"Polygon","coordinates":[[[-121.011425662615,50.459636358241],[-121.011052734697,50.4599973877203],[-121.011482580967,50.4602282776214],[-121.011827049709,50.4598561035925],[-121.011425662615,50.459636358241]]]}}]}